projectName,oldVersionTag,newVersionTag,oldPath,newPath,DC,LC,MM,RPB,SG,MCH,DCLP,DIVC,FE,LM,LPL,SS,SC,fromChangeDistiller,adding_attribute_modifiability,adding_class_derivability,adding_method_overridability,additional_class,additional_functionality,additional_object_state,alternative_part_delete,alternative_part_insert,attribute_renaming,attribute_type_change,class_renaming,comment_delete,comment_insert,comment_move,comment_update,condition_expression_change,decreasing_accessibility_change,doc_delete,doc_insert,doc_update,increasing_accessibility_change,method_renaming,parameter_delete,parameter_insert,parameter_ordering_change,parameter_renaming,parameter_type_change,parent_class_change,parent_class_delete,parent_class_insert,parent_interface_change,parent_interface_delete,parent_interface_insert,removed_class,removed_functionality,removed_object_state,removing_attribute_modifiability,removing_class_derivability,removing_method_overridability,return_type_change,return_type_delete,return_type_insert,statement_delete,statement_insert,statement_ordering_change,statement_parent_change,statement_update,unclassified_change,codeChurn,LOC
camel,camel-1.0.0,camel-1.1.0,F:/corpus/camel/camel#2009-01-20-05-04-24#camel-1.0.0#e1ba889/camel-core/src/main/java/org/apache/camel/CamelContext.java,F:/corpus/camel/camel#2009-01-20-05-04-24#camel-1.1.0#52049de/camel-core/src/main/java/org/apache/camel/CamelContext.java,0,0,0,0,1,0,0,0,0,0,0,0,0,YES,0,0,0,0,3,0,0,0,0,0,0,0,0,0,0,0,0,0,0,0,0,0,0,0,0,0,0,0,0,0,0,0,0,0,0,0,0,0,0,0,0,0,0,0,0,0,0,0,28,168
camel,camel-1.0.0,camel-1.1.0,F:/corpus/camel/camel#2009-01-20-05-04-24#camel-1.0.0#e1ba889/camel-core/src/main/java/org/apache/camel/CamelException.java,F:/corpus/camel/camel#2009-01-20-05-04-24#camel-1.1.0#52049de/camel-core/src/main/java/org/apache/camel/CamelException.java,0,0,0,0,0,0,0,0,0,0,0,0,0,YES,0,0,0,0,0,0,0,0,0,0,0,0,0,0,0,0,0,0,0,0,0,0,0,0,0,0,0,0,0,0,0,0,0,0,0,0,0,0,0,0,0,0,0,0,0,0,0,0,1,41
camel,camel-1.0.0,camel-1.1.0,F:/corpus/camel/camel#2009-01-20-05-04-24#camel-1.0.0#e1ba889/camel-core/src/main/java/org/apache/camel/CamelTemplate.java,F:/corpus/camel/camel#2009-01-20-05-04-24#camel-1.1.0#52049de/camel-core/src/main/java/org/apache/camel/CamelTemplate.java,0,0,0,0,0,1,0,0,0,0,0,4,0,YES,0,0,0,0,4,0,0,0,0,0,0,0,0,0,0,0,0,0,0,0,0,2,0,0,0,0,0,0,0,0,0,0,1,0,0,0,0,0,0,0,0,0,5,8,0,0,0,0,57,279
camel,camel-1.0.0,camel-1.1.0,F:/corpus/camel/camel#2009-01-20-05-04-24#camel-1.0.0#e1ba889/camel-core/src/main/java/org/apache/camel/Component.java,F:/corpus/camel/camel#2009-01-20-05-04-24#camel-1.1.0#52049de/camel-core/src/main/java/org/apache/camel/Component.java,0,0,0,0,1,0,0,0,0,0,0,0,0,YES,0,0,0,0,0,0,0,0,0,0,0,0,0,0,0,0,0,0,0,0,0,0,0,0,0,0,0,0,0,0,0,0,0,0,0,0,0,0,0,0,0,0,0,0,0,0,0,0,12,47
camel,camel-1.0.0,camel-1.1.0,F:/corpus/camel/camel#2009-01-20-05-04-24#camel-1.0.0#e1ba889/camel-core/src/main/java/org/apache/camel/Consumer.java,F:/corpus/camel/camel#2009-01-20-05-04-24#camel-1.1.0#52049de/camel-core/src/main/java/org/apache/camel/Consumer.java,0,0,0,0,1,0,0,0,0,0,0,0,0,YES,0,0,0,0,0,0,0,0,0,0,0,0,0,0,0,0,0,0,0,0,0,0,0,0,0,0,0,0,0,0,0,0,0,0,0,0,0,0,0,0,0,0,0,0,0,0,0,0,2,26
camel,camel-1.0.0,camel-1.1.0,F:/corpus/camel/camel#2009-01-20-05-04-24#camel-1.0.0#e1ba889/camel-core/src/main/java/org/apache/camel/Converter.java,F:/corpus/camel/camel#2009-01-20-05-04-24#camel-1.1.0#52049de/camel-core/src/main/java/org/apache/camel/Converter.java,0,0,0,0,0,0,0,0,0,0,0,0,0,YES,0,0,0,0,0,0,0,0,0,0,0,0,0,0,0,0,0,0,0,0,0,0,0,0,0,0,0,0,0,0,0,0,0,0,0,0,0,0,0,0,0,0,0,0,0,0,0,0,7,33
camel,camel-1.0.0,camel-1.1.0,F:/corpus/camel/camel#2009-01-20-05-04-24#camel-1.0.0#e1ba889/camel-core/src/main/java/org/apache/camel/Endpoint.java,F:/corpus/camel/camel#2009-01-20-05-04-24#camel-1.1.0#52049de/camel-core/src/main/java/org/apache/camel/Endpoint.java,0,0,0,0,1,0,0,0,0,0,0,0,0,YES,0,0,0,0,0,0,0,0,0,0,0,0,0,0,0,0,0,0,0,0,0,0,0,0,0,0,0,0,0,0,0,0,0,0,0,0,0,0,0,0,0,0,0,0,0,0,0,0,24,92
camel,camel-1.0.0,camel-1.1.0,F:/corpus/camel/camel#2009-01-20-05-04-24#camel-1.0.0#e1ba889/camel-core/src/main/java/org/apache/camel/EndpointInject.java,F:/corpus/camel/camel#2009-01-20-05-04-24#camel-1.1.0#52049de/camel-core/src/main/java/org/apache/camel/EndpointInject.java,0,0,0,0,0,0,0,0,0,0,0,0,0,YES,0,0,0,0,0,0,0,0,0,0,0,0,0,0,0,0,0,0,0,0,0,0,0,0,0,0,0,0,0,0,0,0,0,0,0,0,0,0,0,0,0,0,0,0,0,0,0,0,5,38
camel,camel-1.0.0,camel-1.1.0,F:/corpus/camel/camel#2009-01-20-05-04-24#camel-1.0.0#e1ba889/camel-core/src/main/java/org/apache/camel/Exchange.java,F:/corpus/camel/camel#2009-01-20-05-04-24#camel-1.1.0#52049de/camel-core/src/main/java/org/apache/camel/Exchange.java,0,0,0,0,1,0,0,0,0,0,0,0,0,YES,0,0,0,0,0,0,0,0,0,0,0,0,0,0,0,0,0,0,0,0,0,0,0,0,0,0,0,0,0,0,0,0,0,0,0,0,0,0,0,0,0,0,0,0,0,0,0,0,34,136
camel,camel-1.0.0,camel-1.1.0,F:/corpus/camel/camel#2009-01-20-05-04-24#camel-1.0.0#e1ba889/camel-core/src/main/java/org/apache/camel/ExpectedBodyTypeException.java,F:/corpus/camel/camel#2009-01-20-05-04-24#camel-1.1.0#52049de/camel-core/src/main/java/org/apache/camel/ExpectedBodyTypeException.java,0,0,0,0,0,1,0,0,0,0,0,0,0,YES,0,0,0,0,0,0,0,0,0,0,0,0,0,0,0,0,0,0,0,0,0,0,0,0,0,0,0,0,0,0,0,0,0,0,0,0,0,0,0,0,0,0,0,0,0,0,0,0,4,42
camel,camel-1.0.0,camel-1.1.0,F:/corpus/camel/camel#2009-01-20-05-04-24#camel-1.0.0#e1ba889/camel-core/src/main/java/org/apache/camel/Expression.java,F:/corpus/camel/camel#2009-01-20-05-04-24#camel-1.1.0#52049de/camel-core/src/main/java/org/apache/camel/Expression.java,0,0,0,0,1,0,0,0,0,0,0,0,0,YES,0,0,0,0,0,0,0,0,0,0,0,0,0,0,0,0,0,0,0,0,0,0,0,0,0,0,0,0,0,0,0,0,0,0,0,0,0,0,0,0,0,0,0,0,0,0,0,0,1,39
camel,camel-1.0.0,camel-1.1.0,F:/corpus/camel/camel#2009-01-20-05-04-24#camel-1.0.0#e1ba889/camel-core/src/main/java/org/apache/camel/FailedToCreateProducerException.java,F:/corpus/camel/camel#2009-01-20-05-04-24#camel-1.1.0#52049de/camel-core/src/main/java/org/apache/camel/FailedToCreateProducerException.java,0,0,0,0,0,0,0,0,0,0,0,0,0,YES,0,0,0,0,0,0,0,0,0,0,0,0,0,0,0,0,0,0,0,0,0,0,0,0,0,0,0,0,0,0,0,0,0,0,0,0,0,0,0,0,0,0,0,0,0,0,0,0,3,34
camel,camel-1.0.0,camel-1.1.0,F:/corpus/camel/camel#2009-01-20-05-04-24#camel-1.0.0#e1ba889/camel-core/src/main/java/org/apache/camel/Header.java,F:/corpus/camel/camel#2009-01-20-05-04-24#camel-1.1.0#52049de/camel-core/src/main/java/org/apache/camel/Header.java,0,0,0,0,0,0,0,0,0,0,0,0,0,YES,0,0,0,0,0,0,0,0,0,0,0,0,0,0,0,0,0,0,0,0,0,0,0,0,0,0,0,0,0,0,0,0,0,0,0,0,0,0,0,0,0,0,0,0,0,0,0,0,5,34
camel,camel-1.0.0,camel-1.1.0,F:/corpus/camel/camel#2009-01-20-05-04-24#camel-1.0.0#e1ba889/camel-core/src/main/java/org/apache/camel/InvalidHeaderTypeException.java,F:/corpus/camel/camel#2009-01-20-05-04-24#camel-1.1.0#52049de/camel-core/src/main/java/org/apache/camel/InvalidHeaderTypeException.java,0,0,0,0,0,1,0,0,0,0,0,0,0,YES,0,0,0,0,0,0,0,0,0,0,0,0,0,0,0,0,0,0,0,0,0,0,0,0,0,0,0,0,0,0,0,0,0,0,0,0,1,0,0,0,0,0,0,0,0,0,0,0,6,49
camel,camel-1.0.0,camel-1.1.0,F:/corpus/camel/camel#2009-01-20-05-04-24#camel-1.0.0#e1ba889/camel-core/src/main/java/org/apache/camel/Message.java,F:/corpus/camel/camel#2009-01-20-05-04-24#camel-1.1.0#52049de/camel-core/src/main/java/org/apache/camel/Message.java,0,0,0,0,1,0,0,0,0,0,0,0,0,YES,0,0,0,0,1,0,0,0,0,0,0,0,0,0,0,0,4,0,0,0,0,0,0,0,0,0,0,0,0,0,0,0,0,0,0,0,0,0,0,0,0,0,0,0,0,0,0,0,32,119
camel,camel-1.0.0,camel-1.1.0,F:/corpus/camel/camel#2009-01-20-05-04-24#camel-1.0.0#e1ba889/camel-core/src/main/java/org/apache/camel/MessageDriven.java,F:/corpus/camel/camel#2009-01-20-05-04-24#camel-1.1.0#52049de/camel-core/src/main/java/org/apache/camel/MessageDriven.java,0,0,0,0,0,0,0,0,0,0,0,0,0,YES,0,0,0,0,0,0,0,0,0,0,0,0,0,0,0,0,0,0,0,0,0,0,0,0,0,0,0,0,0,0,0,0,0,0,0,0,0,0,0,0,0,0,0,0,0,0,0,0,13,40
camel,camel-1.0.0,camel-1.1.0,F:/corpus/camel/camel#2009-01-20-05-04-24#camel-1.0.0#e1ba889/camel-core/src/main/java/org/apache/camel/NoSuchEndpointException.java,F:/corpus/camel/camel#2009-01-20-05-04-24#camel-1.1.0#52049de/camel-core/src/main/java/org/apache/camel/NoSuchEndpointException.java,0,0,0,0,0,0,0,0,0,0,0,0,0,YES,0,0,0,0,0,0,0,0,0,0,0,0,0,0,0,0,0,0,0,0,0,0,0,0,0,0,0,0,0,0,0,0,0,0,0,0,0,0,0,0,0,0,0,0,0,0,0,0,8,40
camel,camel-1.0.0,camel-1.1.0,F:/corpus/camel/camel#2009-01-20-05-04-24#camel-1.0.0#e1ba889/camel-core/src/main/java/org/apache/camel/NoTypeConversionAvailableException.java,F:/corpus/camel/camel#2009-01-20-05-04-24#camel-1.1.0#52049de/camel-core/src/main/java/org/apache/camel/NoTypeConversionAvailableException.java,0,0,0,0,0,0,0,0,0,0,0,0,0,YES,0,0,0,0,0,0,0,0,0,0,0,0,0,0,0,0,0,0,0,0,0,0,0,0,0,0,0,0,0,0,0,0,0,0,0,0,0,0,0,0,0,0,0,0,0,0,0,0,6,52
camel,camel-1.0.0,camel-1.1.0,F:/corpus/camel/camel#2009-01-20-05-04-24#camel-1.0.0#e1ba889/camel-core/src/main/java/org/apache/camel/PollingConsumer.java,F:/corpus/camel/camel#2009-01-20-05-04-24#camel-1.1.0#52049de/camel-core/src/main/java/org/apache/camel/PollingConsumer.java,0,0,0,0,1,0,0,0,0,0,0,0,0,YES,0,0,0,0,0,0,0,0,0,0,0,0,0,0,0,0,0,0,0,0,0,0,0,0,0,0,0,0,0,0,0,0,0,0,0,0,0,0,0,0,0,0,0,0,0,0,0,0,19,55
camel,camel-1.0.0,camel-1.1.0,F:/corpus/camel/camel#2009-01-20-05-04-24#camel-1.0.0#e1ba889/camel-core/src/main/java/org/apache/camel/Predicate.java,F:/corpus/camel/camel#2009-01-20-05-04-24#camel-1.1.0#52049de/camel-core/src/main/java/org/apache/camel/Predicate.java,0,0,0,0,1,0,0,0,0,0,0,0,0,YES,0,0,0,0,0,0,0,0,0,0,0,0,0,0,0,0,0,0,0,0,0,0,0,0,0,0,0,0,0,0,0,0,0,0,0,0,0,0,0,0,0,0,0,0,0,0,0,0,15,51
camel,camel-1.0.0,camel-1.1.0,F:/corpus/camel/camel#2009-01-20-05-04-24#camel-1.0.0#e1ba889/camel-core/src/main/java/org/apache/camel/Processor.java,F:/corpus/camel/camel#2009-01-20-05-04-24#camel-1.1.0#52049de/camel-core/src/main/java/org/apache/camel/Processor.java,0,0,0,0,0,0,0,0,0,0,0,0,0,YES,0,0,0,0,0,0,0,0,0,0,0,0,0,0,0,0,0,0,0,0,0,0,0,0,0,0,0,0,0,0,0,0,0,0,0,0,0,0,0,0,0,0,0,0,0,0,0,0,8,36
camel,camel-1.0.0,camel-1.1.0,F:/corpus/camel/camel#2009-01-20-05-04-24#camel-1.0.0#e1ba889/camel-core/src/main/java/org/apache/camel/Producer.java,F:/corpus/camel/camel#2009-01-20-05-04-24#camel-1.1.0#52049de/camel-core/src/main/java/org/apache/camel/Producer.java,0,0,0,0,1,0,0,0,0,0,0,0,0,YES,0,0,0,0,0,0,0,0,0,0,0,0,0,0,0,0,0,0,0,0,0,0,0,0,0,0,0,0,0,0,0,0,0,0,0,0,0,0,0,0,0,0,0,0,0,0,0,0,7,41
camel,camel-1.0.0,camel-1.1.0,F:/corpus/camel/camel#2009-01-20-05-04-24#camel-1.0.0#e1ba889/camel-core/src/main/java/org/apache/camel/Property.java,F:/corpus/camel/camel#2009-01-20-05-04-24#camel-1.1.0#52049de/camel-core/src/main/java/org/apache/camel/Property.java,0,0,0,0,0,0,0,0,0,0,0,0,0,YES,0,0,0,0,0,0,0,0,0,0,0,0,0,0,0,0,0,0,0,0,0,0,0,0,0,0,0,0,0,0,0,0,0,0,0,0,0,0,0,0,0,0,0,0,0,0,0,0,6,34
camel,camel-1.0.0,camel-1.1.0,F:/corpus/camel/camel#2009-01-20-05-04-24#camel-1.0.0#e1ba889/camel-core/src/main/java/org/apache/camel/ResolveEndpointFailedException.java,F:/corpus/camel/camel#2009-01-20-05-04-24#camel-1.1.0#52049de/camel-core/src/main/java/org/apache/camel/ResolveEndpointFailedException.java,0,0,0,0,0,0,0,0,0,0,0,0,0,YES,0,0,0,0,0,0,0,0,0,0,0,0,0,0,0,0,0,0,0,0,0,0,0,0,0,0,0,0,0,0,0,0,0,0,0,0,0,0,0,0,0,0,0,0,0,0,0,0,2,36
camel,camel-1.0.0,camel-1.1.0,F:/corpus/camel/camel#2009-01-20-05-04-24#camel-1.0.0#e1ba889/camel-core/src/main/java/org/apache/camel/Route.java,F:/corpus/camel/camel#2009-01-20-05-04-24#camel-1.1.0#52049de/camel-core/src/main/java/org/apache/camel/Route.java,1,0,0,0,1,0,0,0,0,0,0,1,0,YES,0,0,0,0,3,0,0,0,0,0,0,0,0,0,0,0,0,0,0,0,0,0,0,0,0,0,0,0,0,0,0,0,0,0,0,0,0,0,0,0,0,0,0,0,0,0,0,2,21,80
camel,camel-1.0.0,camel-1.1.0,F:/corpus/camel/camel#2009-01-20-05-04-24#camel-1.0.0#e1ba889/camel-core/src/main/java/org/apache/camel/RuntimeCamelException.java,F:/corpus/camel/camel#2009-01-20-05-04-24#camel-1.1.0#52049de/camel-core/src/main/java/org/apache/camel/RuntimeCamelException.java,0,0,0,0,0,0,0,0,0,0,0,0,0,YES,0,0,0,0,0,0,0,0,0,0,0,0,0,0,0,0,0,0,0,0,0,0,0,0,0,0,0,0,0,0,0,0,0,0,0,0,0,0,0,0,0,0,0,0,0,0,0,0,3,39
camel,camel-1.0.0,camel-1.1.0,F:/corpus/camel/camel#2009-01-20-05-04-24#camel-1.0.0#e1ba889/camel-core/src/main/java/org/apache/camel/RuntimeExpressionException.java,F:/corpus/camel/camel#2009-01-20-05-04-24#camel-1.1.0#52049de/camel-core/src/main/java/org/apache/camel/RuntimeExpressionException.java,0,0,0,0,0,0,0,0,0,0,0,0,0,YES,0,0,0,0,0,0,0,0,0,0,0,0,0,0,0,0,0,0,0,0,0,0,0,0,0,0,0,0,0,0,0,0,0,0,0,0,0,0,0,0,0,0,0,0,0,0,0,0,3,40
camel,camel-1.0.0,camel-1.1.0,F:/corpus/camel/camel#2009-01-20-05-04-24#camel-1.0.0#e1ba889/camel-core/src/main/java/org/apache/camel/RuntimeTransformException.java,F:/corpus/camel/camel#2009-01-20-05-04-24#camel-1.1.0#52049de/camel-core/src/main/java/org/apache/camel/RuntimeTransformException.java,0,0,0,0,0,0,0,0,0,0,0,0,0,YES,0,0,0,0,0,0,0,0,0,0,0,0,0,0,0,0,0,0,0,0,0,0,0,0,0,0,0,0,0,0,0,0,0,0,0,0,0,0,0,0,0,0,0,0,0,0,0,0,3,40
camel,camel-1.0.0,camel-1.1.0,F:/corpus/camel/camel#2009-01-20-05-04-24#camel-1.0.0#e1ba889/camel-core/src/main/java/org/apache/camel/Service.java,F:/corpus/camel/camel#2009-01-20-05-04-24#camel-1.1.0#52049de/camel-core/src/main/java/org/apache/camel/Service.java,0,0,0,0,0,0,0,0,0,0,0,0,0,YES,0,0,0,0,0,0,0,0,0,0,0,0,0,0,0,0,0,0,0,0,0,0,0,0,0,0,0,0,0,0,0,0,0,0,0,0,0,0,0,0,0,0,0,0,0,0,0,0,5,40
camel,camel-1.0.0,camel-1.1.0,F:/corpus/camel/camel#2009-01-20-05-04-24#camel-1.0.0#e1ba889/camel-core/src/main/java/org/apache/camel/TypeConverter.java,F:/corpus/camel/camel#2009-01-20-05-04-24#camel-1.1.0#52049de/camel-core/src/main/java/org/apache/camel/TypeConverter.java,0,0,0,0,0,0,0,0,0,0,0,0,0,YES,0,0,0,0,0,0,0,0,0,0,0,0,0,0,0,0,0,0,0,0,0,0,0,0,0,0,0,0,0,0,0,0,0,0,0,0,0,0,0,0,0,0,0,0,0,0,0,0,7,35
camel,camel-1.0.0,camel-1.1.0,F:/corpus/camel/camel#2009-01-20-05-04-24#camel-1.0.0#e1ba889/camel-core/src/main/java/org/apache/camel/builder/Builder.java,F:/corpus/camel/camel#2009-01-20-05-04-24#camel-1.1.0#52049de/camel-core/src/main/java/org/apache/camel/builder/Builder.java,0,0,0,0,0,0,0,0,0,0,0,0,0,YES,0,0,0,0,0,0,0,0,0,0,0,0,0,0,0,0,1,0,1,0,0,0,0,0,0,0,0,0,0,0,0,0,0,0,0,0,0,0,0,0,0,0,0,0,0,0,0,0,23,95
camel,camel-1.0.0,camel-1.1.0,F:/corpus/camel/camel#2009-01-20-05-04-24#camel-1.0.0#e1ba889/camel-core/src/main/java/org/apache/camel/builder/BuilderSupport.java,F:/corpus/camel/camel#2009-01-20-05-04-24#camel-1.1.0#52049de/camel-core/src/main/java/org/apache/camel/builder/BuilderSupport.java,0,0,0,0,0,0,0,0,0,0,0,2,0,YES,0,0,0,0,0,0,0,0,0,0,0,0,0,0,0,0,0,0,0,2,0,0,0,0,0,0,0,0,0,0,0,0,0,0,0,0,0,0,0,0,0,0,1,6,0,0,0,0,50,240
camel,camel-1.0.0,camel-1.1.0,F:/corpus/camel/camel#2009-01-20-05-04-24#camel-1.0.0#e1ba889/camel-core/src/main/java/org/apache/camel/builder/ConstantProcessorBuilder.java,F:/corpus/camel/camel#2009-01-20-05-04-24#camel-1.1.0#52049de/camel-core/src/main/java/org/apache/camel/builder/ConstantProcessorBuilder.java,0,0,0,0,0,0,0,0,0,0,0,0,0,YES,0,0,0,0,0,0,0,0,0,0,0,0,0,0,0,0,0,0,0,0,0,0,0,0,0,0,0,0,0,0,0,0,0,0,0,0,0,0,0,0,0,0,0,0,0,0,0,0,3,36
camel,camel-1.0.0,camel-1.1.0,F:/corpus/camel/camel#2009-01-20-05-04-24#camel-1.0.0#e1ba889/camel-core/src/main/java/org/apache/camel/builder/DeadLetterChannelBuilder.java,F:/corpus/camel/camel#2009-01-20-05-04-24#camel-1.1.0#52049de/camel-core/src/main/java/org/apache/camel/builder/DeadLetterChannelBuilder.java,0,0,0,0,0,0,0,0,0,0,0,0,0,YES,0,0,0,0,0,0,0,0,0,0,0,0,0,0,0,0,0,0,0,0,0,0,0,0,0,0,0,1,0,0,0,0,0,0,0,0,0,0,0,0,0,0,1,3,0,0,0,0,20,217
camel,camel-1.0.0,camel-1.1.0,F:/corpus/camel/camel#2009-01-20-05-04-24#camel-1.0.0#e1ba889/camel-core/src/main/java/org/apache/camel/builder/ErrorHandlerBuilder.java,F:/corpus/camel/camel#2009-01-20-05-04-24#camel-1.1.0#52049de/camel-core/src/main/java/org/apache/camel/builder/ErrorHandlerBuilder.java,0,0,0,0,0,0,0,0,0,0,0,0,0,YES,0,0,0,0,1,0,0,0,0,0,0,0,0,0,0,0,0,0,0,0,0,0,0,0,0,0,0,0,0,0,0,0,0,0,0,0,0,0,0,0,0,0,0,0,0,0,0,1,9,36
camel,camel-1.0.0,camel-1.1.0,F:/corpus/camel/camel#2009-01-20-05-04-24#camel-1.0.0#e1ba889/camel-core/src/main/java/org/apache/camel/builder/ExpressionBuilder.java,F:/corpus/camel/camel#2009-01-20-05-04-24#camel-1.1.0#52049de/camel-core/src/main/java/org/apache/camel/builder/ExpressionBuilder.java,0,0,0,0,0,6,0,0,0,0,0,1,0,YES,0,0,0,0,3,0,0,0,0,0,0,0,0,0,0,0,1,0,1,0,0,0,0,0,0,0,0,0,0,0,0,0,0,0,0,0,0,0,0,0,0,0,0,0,0,0,2,0,94,330
camel,camel-1.0.0,camel-1.1.0,F:/corpus/camel/camel#2009-01-20-05-04-24#camel-1.0.0#e1ba889/camel-core/src/main/java/org/apache/camel/builder/LoggingErrorHandlerBuilder.java,F:/corpus/camel/camel#2009-01-20-05-04-24#camel-1.1.0#52049de/camel-core/src/main/java/org/apache/camel/builder/LoggingErrorHandlerBuilder.java,0,0,0,0,0,0,0,0,0,0,0,0,0,YES,0,0,0,0,0,0,0,0,0,0,0,0,0,0,0,0,0,0,0,0,0,0,0,0,0,0,0,1,0,0,0,0,0,0,0,0,0,0,0,0,0,0,1,3,0,0,0,0,7,75
camel,camel-1.0.0,camel-1.1.0,F:/corpus/camel/camel#2009-01-20-05-04-24#camel-1.0.0#e1ba889/camel-core/src/main/java/org/apache/camel/builder/NoErrorHandlerBuilder.java,F:/corpus/camel/camel#2009-01-20-05-04-24#camel-1.1.0#52049de/camel-core/src/main/java/org/apache/camel/builder/NoErrorHandlerBuilder.java,0,0,0,0,0,0,0,0,0,0,0,0,0,YES,0,0,0,0,0,0,0,0,0,0,0,0,0,0,0,0,0,0,0,0,0,0,0,0,0,0,0,0,0,1,0,1,0,0,0,0,0,0,0,0,0,0,0,0,0,0,0,1,4,40
camel,camel-1.0.0,camel-1.1.0,F:/corpus/camel/camel#2009-01-20-05-04-24#camel-1.0.0#e1ba889/camel-core/src/main/java/org/apache/camel/builder/PredicateBuilder.java,F:/corpus/camel/camel#2009-01-20-05-04-24#camel-1.1.0#52049de/camel-core/src/main/java/org/apache/camel/builder/PredicateBuilder.java,0,0,0,0,0,0,0,0,0,0,0,0,0,YES,0,0,0,0,3,0,0,0,0,0,0,0,0,0,0,0,1,0,1,0,0,0,0,0,0,0,0,0,0,0,0,0,0,0,0,0,0,0,0,0,0,0,0,0,0,0,0,0,93,240
camel,camel-1.0.0,camel-1.1.0,F:/corpus/camel/camel#2009-01-20-05-04-24#camel-1.0.0#e1ba889/camel-core/src/main/java/org/apache/camel/builder/PredicateFactory.java,F:/corpus/camel/camel#2009-01-20-05-04-24#camel-1.1.0#52049de/camel-core/src/main/java/org/apache/camel/builder/PredicateFactory.java,0,0,0,0,1,0,0,0,0,0,0,0,0,YES,0,0,0,0,0,0,0,0,0,0,0,0,0,0,0,0,1,0,0,0,0,0,0,0,0,0,0,0,0,0,0,0,0,0,0,0,0,0,0,0,0,0,0,0,0,0,0,0,4,36
camel,camel-1.0.0,camel-1.1.0,F:/corpus/camel/camel#2009-01-20-05-04-24#camel-1.0.0#e1ba889/camel-core/src/main/java/org/apache/camel/builder/ProcessorBuilder.java,F:/corpus/camel/camel#2009-01-20-05-04-24#camel-1.1.0#52049de/camel-core/src/main/java/org/apache/camel/builder/ProcessorBuilder.java,0,0,0,0,0,0,0,0,0,0,0,0,0,YES,0,0,0,0,0,0,0,0,0,0,0,0,0,0,0,0,1,0,1,0,0,0,0,0,0,0,0,0,0,0,0,0,0,0,0,0,0,0,0,0,0,0,0,0,0,0,0,0,8,115
camel,camel-1.0.0,camel-1.1.0,F:/corpus/camel/camel#2009-01-20-05-04-24#camel-1.0.0#e1ba889/camel-core/src/main/java/org/apache/camel/builder/ProcessorFactory.java,F:/corpus/camel/camel#2009-01-20-05-04-24#camel-1.1.0#52049de/camel-core/src/main/java/org/apache/camel/builder/ProcessorFactory.java,0,0,0,0,0,0,0,0,0,0,0,0,0,YES,0,0,0,0,0,0,0,0,0,0,0,0,0,0,0,0,1,0,0,0,0,0,0,0,0,0,0,0,0,0,0,0,0,0,0,0,0,0,0,0,0,0,0,0,0,0,0,0,4,31
camel,camel-1.0.0,camel-1.1.0,F:/corpus/camel/camel#2009-01-20-05-04-24#camel-1.0.0#e1ba889/camel-core/src/main/java/org/apache/camel/builder/RouteBuilder.java,F:/corpus/camel/camel#2009-01-20-05-04-24#camel-1.1.0#52049de/camel-core/src/main/java/org/apache/camel/builder/RouteBuilder.java,0,0,0,0,0,0,0,0,0,0,0,1,0,YES,0,0,0,0,4,1,0,0,0,0,0,0,0,0,0,0,0,0,2,0,0,0,0,0,0,0,0,0,0,0,0,0,0,0,2,1,0,0,0,2,0,0,12,7,0,0,1,0,99,148
camel,camel-1.0.0,camel-1.1.0,F:/corpus/camel/camel#2009-01-20-05-04-24#camel-1.0.0#e1ba889/camel-core/src/main/java/org/apache/camel/builder/ValueBuilder.java,F:/corpus/camel/camel#2009-01-20-05-04-24#camel-1.1.0#52049de/camel-core/src/main/java/org/apache/camel/builder/ValueBuilder.java,0,0,0,0,0,0,0,0,0,0,0,1,0,YES,0,0,0,0,0,0,0,0,0,0,0,0,0,0,0,0,0,0,0,0,0,0,0,0,0,0,0,0,0,0,0,0,0,0,0,0,0,0,0,0,0,0,0,0,0,0,0,0,64,227
camel,camel-1.0.0,camel-1.1.0,F:/corpus/camel/camel#2009-01-20-05-04-24#camel-1.0.0#e1ba889/camel-core/src/main/java/org/apache/camel/builder/xml/DefaultNamespaceContext.java,F:/corpus/camel/camel#2009-01-20-05-04-24#camel-1.1.0#52049de/camel-core/src/main/java/org/apache/camel/builder/xml/DefaultNamespaceContext.java,0,0,0,0,0,0,0,0,0,0,0,0,0,YES,0,0,0,0,0,0,0,0,0,0,0,0,0,0,0,0,0,0,0,0,0,0,0,0,0,0,0,0,0,0,0,0,0,0,0,0,0,0,0,0,0,0,0,0,0,1,0,0,18,121
camel,camel-1.0.0,camel-1.1.0,F:/corpus/camel/camel#2009-01-20-05-04-24#camel-1.0.0#e1ba889/camel-core/src/main/java/org/apache/camel/builder/xml/DomResultHandler.java,F:/corpus/camel/camel#2009-01-20-05-04-24#camel-1.1.0#52049de/camel-core/src/main/java/org/apache/camel/builder/xml/DomResultHandler.java,0,0,0,0,0,0,0,0,0,0,0,0,0,YES,0,0,0,0,0,0,0,0,0,0,0,0,0,0,0,0,0,0,0,0,0,0,0,0,0,0,0,0,0,0,0,0,0,0,0,0,0,0,0,0,0,0,0,0,0,0,0,0,7,40
camel,camel-1.0.0,camel-1.1.0,F:/corpus/camel/camel#2009-01-20-05-04-24#camel-1.0.0#e1ba889/camel-core/src/main/java/org/apache/camel/builder/xml/InvalidXPathExpression.java,F:/corpus/camel/camel#2009-01-20-05-04-24#camel-1.1.0#52049de/camel-core/src/main/java/org/apache/camel/builder/xml/InvalidXPathExpression.java,0,0,0,0,0,0,0,0,0,0,0,0,0,YES,0,0,0,0,0,0,0,0,0,0,0,0,0,0,0,0,0,0,0,0,0,0,0,0,0,0,0,0,0,0,0,0,0,0,0,0,0,0,0,0,0,0,0,0,0,0,0,0,6,40
camel,camel-1.0.0,camel-1.1.0,F:/corpus/camel/camel#2009-01-20-05-04-24#camel-1.0.0#e1ba889/camel-core/src/main/java/org/apache/camel/builder/xml/MessageVariableResolver.java,F:/corpus/camel/camel#2009-01-20-05-04-24#camel-1.1.0#52049de/camel-core/src/main/java/org/apache/camel/builder/xml/MessageVariableResolver.java,1,0,0,0,0,3,0,0,0,0,0,0,0,YES,0,0,0,0,0,0,1,1,1,0,0,0,0,0,0,2,0,0,0,0,0,0,0,0,0,0,0,0,0,0,0,0,0,0,0,5,0,0,0,0,0,0,1,7,1,3,4,0,42,101
camel,camel-1.0.0,camel-1.1.0,F:/corpus/camel/camel#2009-01-20-05-04-24#camel-1.0.0#e1ba889/camel-core/src/main/java/org/apache/camel/builder/xml/NamespaceBuilder.java,F:/corpus/camel/camel#2009-01-20-05-04-24#camel-1.1.0#52049de/camel-core/src/main/java/org/apache/camel/builder/xml/NamespaceBuilder.java,0,0,0,0,0,0,0,0,0,0,0,0,0,YES,0,0,0,0,0,0,0,0,0,0,0,0,0,0,0,0,0,0,0,0,0,0,0,0,0,0,0,0,0,0,0,0,0,0,0,0,0,0,0,0,0,0,0,0,0,0,0,0,7,59
camel,camel-1.0.0,camel-1.1.0,F:/corpus/camel/camel#2009-01-20-05-04-24#camel-1.0.0#e1ba889/camel-core/src/main/java/org/apache/camel/builder/xml/ResultHandler.java,F:/corpus/camel/camel#2009-01-20-05-04-24#camel-1.1.0#52049de/camel-core/src/main/java/org/apache/camel/builder/xml/ResultHandler.java,0,0,0,0,0,0,0,0,0,0,0,0,0,YES,0,0,0,0,0,0,0,0,0,0,0,0,0,0,0,0,0,0,0,0,0,0,0,0,0,0,0,0,0,0,0,0,0,0,0,0,0,0,0,0,0,0,0,0,0,0,0,0,6,33
camel,camel-1.0.0,camel-1.1.0,F:/corpus/camel/camel#2009-01-20-05-04-24#camel-1.0.0#e1ba889/camel-core/src/main/java/org/apache/camel/builder/xml/StreamResultHandler.java,F:/corpus/camel/camel#2009-01-20-05-04-24#camel-1.1.0#52049de/camel-core/src/main/java/org/apache/camel/builder/xml/StreamResultHandler.java,0,0,0,0,0,0,0,0,0,0,0,0,0,YES,0,0,0,0,0,0,0,0,0,0,0,0,0,0,0,0,0,0,0,0,0,0,0,0,0,0,0,0,0,0,0,0,0,0,0,0,0,0,0,0,0,0,0,0,0,0,0,0,4,42
camel,camel-1.0.0,camel-1.1.0,F:/corpus/camel/camel#2009-01-20-05-04-24#camel-1.0.0#e1ba889/camel-core/src/main/java/org/apache/camel/builder/xml/StringResultHandler.java,F:/corpus/camel/camel#2009-01-20-05-04-24#camel-1.1.0#52049de/camel-core/src/main/java/org/apache/camel/builder/xml/StringResultHandler.java,0,0,0,0,0,0,0,0,0,0,0,0,0,YES,0,0,0,0,0,0,0,0,0,0,0,0,0,0,0,0,0,0,0,0,0,0,0,0,0,0,0,0,0,0,0,0,0,0,0,0,0,0,0,0,0,0,0,0,0,0,0,0,11,42
camel,camel-1.0.0,camel-1.1.0,F:/corpus/camel/camel#2009-01-20-05-04-24#camel-1.0.0#e1ba889/camel-core/src/main/java/org/apache/camel/builder/xml/XPathBuilder.java,F:/corpus/camel/camel#2009-01-20-05-04-24#camel-1.1.0#52049de/camel-core/src/main/java/org/apache/camel/builder/xml/XPathBuilder.java,0,0,0,0,1,0,0,0,0,0,0,1,0,YES,0,0,0,0,11,5,0,0,0,0,0,0,0,0,0,0,0,0,0,0,0,0,0,0,0,0,0,0,0,0,0,0,0,0,0,0,0,0,0,0,0,0,1,6,1,1,2,0,128,321
camel,camel-1.0.0,camel-1.1.0,F:/corpus/camel/camel#2009-01-20-05-04-24#camel-1.0.0#e1ba889/camel-core/src/main/java/org/apache/camel/builder/xml/XsltBuilder.java,F:/corpus/camel/camel#2009-01-20-05-04-24#camel-1.1.0#52049de/camel-core/src/main/java/org/apache/camel/builder/xml/XsltBuilder.java,0,0,0,0,0,0,0,0,0,0,0,0,0,YES,0,0,0,0,0,0,0,0,0,0,0,0,0,0,0,0,0,0,0,0,0,0,0,0,0,0,0,0,0,0,0,0,0,0,0,0,0,0,0,0,0,0,0,0,0,0,0,0,39,237
camel,camel-1.0.0,camel-1.1.0,F:/corpus/camel/camel#2009-01-20-05-04-24#camel-1.0.0#e1ba889/camel-core/src/main/java/org/apache/camel/component/direct/DirectComponent.java,F:/corpus/camel/camel#2009-01-20-05-04-24#camel-1.1.0#52049de/camel-core/src/main/java/org/apache/camel/component/direct/DirectComponent.java,0,0,0,0,0,0,0,0,0,0,0,0,0,YES,0,0,0,0,0,0,0,0,0,0,0,0,0,0,0,0,0,0,0,0,0,0,0,0,0,0,0,0,0,0,0,0,0,0,0,0,0,0,0,0,0,0,0,0,0,0,0,0,17,67
camel,camel-1.0.0,camel-1.1.0,F:/corpus/camel/camel#2009-01-20-05-04-24#camel-1.0.0#e1ba889/camel-core/src/main/java/org/apache/camel/component/direct/DirectEndpoint.java,F:/corpus/camel/camel#2009-01-20-05-04-24#camel-1.1.0#52049de/camel-core/src/main/java/org/apache/camel/component/direct/DirectEndpoint.java,0,0,0,0,0,0,0,0,0,0,0,0,0,YES,0,0,0,0,0,0,0,0,1,0,0,0,0,0,0,0,0,0,0,0,0,0,0,0,0,0,0,0,0,0,0,0,0,0,0,0,0,0,0,0,0,0,0,0,0,0,2,0,49,106
camel,camel-1.0.0,camel-1.1.0,F:/corpus/camel/camel#2009-01-20-05-04-24#camel-1.0.0#e1ba889/camel-core/src/main/java/org/apache/camel/component/file/FileComponent.java,F:/corpus/camel/camel#2009-01-20-05-04-24#camel-1.1.0#52049de/camel-core/src/main/java/org/apache/camel/component/file/FileComponent.java,0,0,0,0,1,0,0,0,0,0,0,0,0,YES,0,0,0,0,0,1,0,0,0,0,0,0,0,0,0,0,0,0,0,0,0,0,0,0,0,0,0,0,0,0,0,0,0,0,0,0,0,0,0,0,0,0,0,0,0,0,1,0,13,47
camel,camel-1.0.0,camel-1.1.0,F:/corpus/camel/camel#2009-01-20-05-04-24#camel-1.0.0#e1ba889/camel-core/src/main/java/org/apache/camel/component/file/FileConsumer.java,F:/corpus/camel/camel#2009-01-20-05-04-24#camel-1.1.0#52049de/camel-core/src/main/java/org/apache/camel/component/file/FileConsumer.java,1,0,0,0,0,0,0,0,0,0,0,0,0,YES,0,0,0,0,0,0,1,1,1,0,0,0,1,0,0,2,0,0,0,0,0,0,0,0,0,0,0,0,0,0,0,0,0,0,3,1,0,0,0,0,0,0,18,36,0,4,2,0,65,164
camel,camel-1.0.0,camel-1.1.0,F:/corpus/camel/camel#2009-01-20-05-04-24#camel-1.0.0#e1ba889/camel-core/src/main/java/org/apache/camel/component/file/FileEndpoint.java,F:/corpus/camel/camel#2009-01-20-05-04-24#camel-1.1.0#52049de/camel-core/src/main/java/org/apache/camel/component/file/FileEndpoint.java,0,0,0,0,0,0,0,0,0,0,0,0,0,YES,0,0,0,0,21,11,0,0,0,0,0,0,0,0,0,0,0,0,0,0,0,0,0,0,0,0,0,0,0,0,0,0,0,0,0,0,0,0,0,0,0,0,0,0,0,0,0,0,19,106
camel,camel-1.0.0,camel-1.1.0,F:/corpus/camel/camel#2009-01-20-05-04-24#camel-1.0.0#e1ba889/camel-core/src/main/java/org/apache/camel/component/file/FileExchange.java,F:/corpus/camel/camel#2009-01-20-05-04-24#camel-1.1.0#52049de/camel-core/src/main/java/org/apache/camel/component/file/FileExchange.java,0,0,0,0,0,0,0,0,0,0,0,0,0,YES,0,0,0,0,1,0,0,0,0,0,0,0,0,0,0,0,0,1,0,0,0,0,0,0,0,0,0,0,0,0,0,0,0,0,0,0,0,0,0,0,0,0,0,0,0,0,0,0,17,57
camel,camel-1.0.0,camel-1.1.0,F:/corpus/camel/camel#2009-01-20-05-04-24#camel-1.0.0#e1ba889/camel-core/src/main/java/org/apache/camel/component/file/FileMessage.java,F:/corpus/camel/camel#2009-01-20-05-04-24#camel-1.1.0#52049de/camel-core/src/main/java/org/apache/camel/component/file/FileMessage.java,0,0,0,0,0,0,0,0,0,0,0,0,0,YES,0,0,0,0,1,0,0,0,0,0,0,0,0,0,0,0,0,0,0,0,0,0,0,0,0,0,0,0,0,0,0,0,0,0,0,0,0,0,0,0,0,0,0,0,0,0,0,0,14,66
camel,camel-1.0.0,camel-1.1.0,F:/corpus/camel/camel#2009-01-20-05-04-24#camel-1.0.0#e1ba889/camel-core/src/main/java/org/apache/camel/component/file/FileProducer.java,F:/corpus/camel/camel#2009-01-20-05-04-24#camel-1.1.0#52049de/camel-core/src/main/java/org/apache/camel/component/file/FileProducer.java,0,0,0,0,0,2,0,0,0,0,0,0,0,YES,0,0,0,0,2,0,1,3,1,0,0,0,0,0,0,0,0,0,0,0,0,0,0,0,0,0,0,0,0,0,0,0,0,0,0,0,0,0,0,0,0,0,10,28,2,2,1,0,45,81
camel,camel-1.0.0,camel-1.1.0,F:/corpus/camel/camel#2009-01-20-05-04-24#camel-1.0.0#e1ba889/camel-core/src/main/java/org/apache/camel/component/jmx/JMXComponent.java,F:/corpus/camel/camel#2009-01-20-05-04-24#camel-1.1.0#52049de/camel-core/src/main/java/org/apache/camel/component/jmx/JMXComponent.java,0,0,0,0,1,0,0,0,0,0,0,0,0,YES,0,0,0,0,0,0,0,0,0,0,0,0,0,0,0,0,0,0,0,0,0,0,0,0,0,0,0,0,0,0,0,0,0,0,0,0,0,0,0,0,0,0,0,0,0,0,0,0,15,59
camel,camel-1.0.0,camel-1.1.0,F:/corpus/camel/camel#2009-01-20-05-04-24#camel-1.0.0#e1ba889/camel-core/src/main/java/org/apache/camel/component/jmx/JMXConsumer.java,F:/corpus/camel/camel#2009-01-20-05-04-24#camel-1.1.0#52049de/camel-core/src/main/java/org/apache/camel/component/jmx/JMXConsumer.java,0,0,0,0,1,0,0,0,0,0,0,0,0,YES,0,0,0,0,0,0,0,0,0,0,0,0,0,0,0,0,0,0,0,0,0,0,0,0,0,0,0,0,0,0,0,0,0,0,0,0,0,0,0,0,0,0,0,0,0,0,0,0,17,46
camel,camel-1.0.0,camel-1.1.0,F:/corpus/camel/camel#2009-01-20-05-04-24#camel-1.0.0#e1ba889/camel-core/src/main/java/org/apache/camel/component/jmx/JMXEndpoint.java,F:/corpus/camel/camel#2009-01-20-05-04-24#camel-1.1.0#52049de/camel-core/src/main/java/org/apache/camel/component/jmx/JMXEndpoint.java,1,0,0,0,0,0,0,0,0,0,0,0,0,YES,0,0,0,0,0,0,0,0,1,0,0,0,0,0,0,0,0,0,0,0,0,0,0,0,0,0,0,0,0,0,0,0,0,0,0,0,0,0,0,0,0,0,0,0,0,0,0,0,103,162
camel,camel-1.0.0,camel-1.1.0,F:/corpus/camel/camel#2009-01-20-05-04-24#camel-1.0.0#e1ba889/camel-core/src/main/java/org/apache/camel/component/jmx/JMXExchange.java,F:/corpus/camel/camel#2009-01-20-05-04-24#camel-1.1.0#52049de/camel-core/src/main/java/org/apache/camel/component/jmx/JMXExchange.java,0,0,0,0,0,0,0,0,0,0,0,0,0,YES,0,0,0,0,0,0,0,0,0,0,0,0,0,0,0,0,0,0,0,0,0,0,0,0,0,0,0,0,0,0,0,0,0,0,0,0,0,0,0,0,0,0,0,0,0,0,0,0,12,41
camel,camel-1.0.0,camel-1.1.0,F:/corpus/camel/camel#2009-01-20-05-04-24#camel-1.0.0#e1ba889/camel-core/src/main/java/org/apache/camel/component/jmx/JMXMessage.java,F:/corpus/camel/camel#2009-01-20-05-04-24#camel-1.1.0#52049de/camel-core/src/main/java/org/apache/camel/component/jmx/JMXMessage.java,0,0,0,0,0,0,0,0,0,0,0,0,0,YES,0,0,0,0,0,0,0,0,0,0,0,0,0,0,0,0,0,0,0,0,0,0,0,0,0,0,0,0,0,0,0,0,0,0,0,0,0,0,0,0,0,0,0,0,0,0,0,0,20,57
camel,camel-1.0.0,camel-1.1.0,F:/corpus/camel/camel#2009-01-20-05-04-24#camel-1.0.0#e1ba889/camel-core/src/main/java/org/apache/camel/component/mock/AssertionClause.java,F:/corpus/camel/camel#2009-01-20-05-04-24#camel-1.1.0#52049de/camel-core/src/main/java/org/apache/camel/component/mock/AssertionClause.java,0,0,0,0,2,0,0,0,0,0,0,0,0,YES,0,0,0,0,0,0,0,0,0,0,0,0,0,0,0,0,0,0,0,0,0,0,0,0,0,0,0,0,0,0,0,0,0,0,0,0,0,0,0,0,0,0,0,0,0,0,0,0,32,121
camel,camel-1.0.0,camel-1.1.0,F:/corpus/camel/camel#2009-01-20-05-04-24#camel-1.0.0#e1ba889/camel-core/src/main/java/org/apache/camel/component/mock/MockComponent.java,F:/corpus/camel/camel#2009-01-20-05-04-24#camel-1.1.0#52049de/camel-core/src/main/java/org/apache/camel/component/mock/MockComponent.java,0,0,0,0,1,0,0,0,0,0,0,0,0,YES,0,0,0,0,0,0,0,0,0,0,0,0,0,0,0,0,0,0,0,0,0,0,0,0,0,0,0,0,0,0,0,0,0,0,0,0,0,0,0,0,0,0,0,0,0,0,0,0,10,37
camel,camel-1.0.0,camel-1.1.0,F:/corpus/camel/camel#2009-01-20-05-04-24#camel-1.0.0#e1ba889/camel-core/src/main/java/org/apache/camel/component/mock/MockEndpoint.java,F:/corpus/camel/camel#2009-01-20-05-04-24#camel-1.1.0#52049de/camel-core/src/main/java/org/apache/camel/component/mock/MockEndpoint.java,0,0,0,0,1,0,0,0,0,0,0,5,0,YES,0,0,0,0,11,4,1,2,1,0,0,1,0,0,0,2,0,0,0,1,0,0,0,0,0,0,0,0,0,0,0,0,0,0,0,0,0,0,0,0,0,0,3,21,1,4,4,0,155,367
camel,camel-1.0.0,camel-1.1.0,F:/corpus/camel/camel#2009-01-20-05-04-24#camel-1.0.0#e1ba889/camel-core/src/main/java/org/apache/camel/converter/CollectionConverter.java,F:/corpus/camel/camel#2009-01-20-05-04-24#camel-1.1.0#52049de/camel-core/src/main/java/org/apache/camel/converter/CollectionConverter.java,0,0,0,0,0,0,0,0,0,0,0,0,0,YES,0,0,0,0,0,0,0,0,0,0,0,0,0,0,0,0,1,0,1,0,0,0,0,0,0,0,0,0,0,0,0,0,0,0,0,0,0,0,0,0,0,0,0,0,0,0,0,0,11,74
camel,camel-1.0.0,camel-1.1.0,F:/corpus/camel/camel#2009-01-20-05-04-24#camel-1.0.0#e1ba889/camel-core/src/main/java/org/apache/camel/converter/HasAnnotation.java,F:/corpus/camel/camel#2009-01-20-05-04-24#camel-1.1.0#52049de/camel-core/src/main/java/org/apache/camel/converter/HasAnnotation.java,0,0,0,0,0,0,0,0,0,0,0,0,0,YES,0,0,0,0,0,0,0,0,0,0,0,0,0,0,0,0,0,0,0,0,0,0,0,0,0,0,0,0,0,0,0,0,0,0,0,0,0,0,0,0,0,0,0,0,0,0,0,0,4,36
camel,camel-1.0.0,camel-1.1.0,F:/corpus/camel/camel#2009-01-20-05-04-24#camel-1.0.0#e1ba889/camel-core/src/main/java/org/apache/camel/converter/IOConverter.java,F:/corpus/camel/camel#2009-01-20-05-04-24#camel-1.1.0#52049de/camel-core/src/main/java/org/apache/camel/converter/IOConverter.java,0,0,0,0,0,0,0,0,0,0,0,0,0,YES,0,0,0,0,4,0,0,0,1,0,0,0,0,0,0,0,1,0,1,0,0,0,0,0,0,0,0,0,0,0,0,0,0,0,0,0,0,0,0,0,0,0,0,0,0,0,1,0,35,141
camel,camel-1.0.0,camel-1.1.0,F:/corpus/camel/camel#2009-01-20-05-04-24#camel-1.0.0#e1ba889/camel-core/src/main/java/org/apache/camel/converter/NIOConverter.java,F:/corpus/camel/camel#2009-01-20-05-04-24#camel-1.1.0#52049de/camel-core/src/main/java/org/apache/camel/converter/NIOConverter.java,0,0,0,0,0,0,0,0,0,0,0,0,0,YES,0,0,0,0,3,0,0,0,0,0,0,0,0,0,0,0,1,0,1,0,0,0,0,0,0,0,0,0,0,0,0,0,0,0,0,0,0,0,0,0,0,0,0,0,0,0,0,0,27,81
camel,camel-1.0.0,camel-1.1.0,F:/corpus/camel/camel#2009-01-20-05-04-24#camel-1.0.0#e1ba889/camel-core/src/main/java/org/apache/camel/converter/ObjectConverter.java,F:/corpus/camel/camel#2009-01-20-05-04-24#camel-1.1.0#52049de/camel-core/src/main/java/org/apache/camel/converter/ObjectConverter.java,0,0,0,0,0,0,0,0,0,0,0,1,0,YES,0,0,0,0,1,0,0,0,0,0,0,0,0,0,0,0,1,0,1,0,0,0,0,0,0,0,0,0,0,0,0,0,0,0,0,0,0,0,0,0,0,0,0,0,0,0,0,0,42,89
camel,camel-1.0.0,camel-1.1.0,F:/corpus/camel/camel#2009-01-20-05-04-24#camel-1.0.0#e1ba889/camel-core/src/main/java/org/apache/camel/converter/jaxp/BytesSource.java,F:/corpus/camel/camel#2009-01-20-05-04-24#camel-1.1.0#52049de/camel-core/src/main/java/org/apache/camel/converter/jaxp/BytesSource.java,0,0,0,0,0,0,0,0,0,0,0,0,0,YES,0,0,0,0,0,0,0,0,0,0,0,0,0,0,0,0,0,0,0,0,0,0,0,0,0,0,0,0,0,0,0,0,0,0,0,0,0,0,0,0,0,0,0,0,0,0,0,0,6,61
camel,camel-1.0.0,camel-1.1.0,F:/corpus/camel/camel#2009-01-20-05-04-24#camel-1.0.0#e1ba889/camel-core/src/main/java/org/apache/camel/converter/jaxp/StringSource.java,F:/corpus/camel/camel#2009-01-20-05-04-24#camel-1.1.0#52049de/camel-core/src/main/java/org/apache/camel/converter/jaxp/StringSource.java,0,0,0,0,0,0,0,0,0,0,0,0,0,YES,0,0,0,0,0,0,0,0,0,0,0,0,0,0,0,0,0,0,0,0,0,0,0,0,0,0,0,0,0,0,0,0,0,0,0,0,0,0,0,0,0,0,0,0,0,0,0,0,6,78
camel,camel-1.0.0,camel-1.1.0,F:/corpus/camel/camel#2009-01-20-05-04-24#camel-1.0.0#e1ba889/camel-core/src/main/java/org/apache/camel/converter/jaxp/XmlConverter.java,F:/corpus/camel/camel#2009-01-20-05-04-24#camel-1.1.0#52049de/camel-core/src/main/java/org/apache/camel/converter/jaxp/XmlConverter.java,0,0,0,0,0,1,0,0,0,0,0,0,0,YES,0,0,0,0,8,0,0,0,0,0,0,0,0,0,0,0,0,0,0,0,0,0,0,0,0,0,0,0,0,0,0,0,0,0,0,0,0,0,0,0,0,0,0,0,0,0,0,0,94,528
camel,camel-1.0.0,camel-1.1.0,F:/corpus/camel/camel#2009-01-20-05-04-24#camel-1.0.0#e1ba889/camel-core/src/main/java/org/apache/camel/impl/BinaryPredicateSupport.java,F:/corpus/camel/camel#2009-01-20-05-04-24#camel-1.1.0#52049de/camel-core/src/main/java/org/apache/camel/impl/BinaryPredicateSupport.java,0,0,0,0,2,0,0,0,0,0,0,0,0,YES,0,0,0,0,0,0,0,0,0,0,0,0,0,0,0,0,0,0,0,0,0,0,0,0,0,0,0,0,0,0,0,0,0,0,0,0,0,0,0,0,0,0,0,0,0,0,1,0,7,70
camel,camel-1.0.0,camel-1.1.0,F:/corpus/camel/camel#2009-01-20-05-04-24#camel-1.0.0#e1ba889/camel-core/src/main/java/org/apache/camel/impl/CachingInjector.java,F:/corpus/camel/camel#2009-01-20-05-04-24#camel-1.1.0#52049de/camel-core/src/main/java/org/apache/camel/impl/CachingInjector.java,0,0,0,0,0,0,0,0,0,0,0,0,0,YES,0,0,0,0,0,0,0,0,0,0,0,0,0,0,0,0,0,0,0,0,0,0,0,0,0,1,0,0,0,0,0,0,0,0,0,0,0,0,0,0,0,0,0,0,0,0,1,0,4,46
camel,camel-1.0.0,camel-1.1.0,F:/corpus/camel/camel#2009-01-20-05-04-24#camel-1.0.0#e1ba889/camel-core/src/main/java/org/apache/camel/impl/DefaultCamelContext.java,F:/corpus/camel/camel#2009-01-20-05-04-24#camel-1.1.0#52049de/camel-core/src/main/java/org/apache/camel/impl/DefaultCamelContext.java,0,0,0,0,0,0,0,0,0,0,0,1,0,YES,0,0,0,0,13,3,0,0,0,0,0,0,0,2,0,2,0,0,0,0,0,0,0,0,0,0,0,0,0,0,0,0,0,0,0,0,0,0,0,0,0,0,1,4,0,9,1,0,183,395
camel,camel-1.0.0,camel-1.1.0,F:/corpus/camel/camel#2009-01-20-05-04-24#camel-1.0.0#e1ba889/camel-core/src/main/java/org/apache/camel/impl/DefaultComponent.java,F:/corpus/camel/camel#2009-01-20-05-04-24#camel-1.1.0#52049de/camel-core/src/main/java/org/apache/camel/impl/DefaultComponent.java,0,0,0,0,0,0,0,0,0,0,0,0,0,YES,0,0,0,0,0,0,0,0,0,0,0,0,1,0,0,0,0,0,0,0,0,0,0,0,0,0,0,0,0,0,0,0,0,0,0,0,0,0,0,0,0,0,2,5,0,0,2,0,35,128
camel,camel-1.0.0,camel-1.1.0,F:/corpus/camel/camel#2009-01-20-05-04-24#camel-1.0.0#e1ba889/camel-core/src/main/java/org/apache/camel/impl/DefaultComponentResolver.java,F:/corpus/camel/camel#2009-01-20-05-04-24#camel-1.1.0#52049de/camel-core/src/main/java/org/apache/camel/impl/DefaultComponentResolver.java,0,0,0,0,0,0,0,0,0,0,0,0,0,YES,0,0,0,0,0,0,0,0,1,0,0,0,0,0,0,0,0,0,0,0,0,0,0,0,0,0,0,0,0,0,0,0,0,0,0,0,0,0,0,0,0,0,1,1,0,0,1,0,15,59
camel,camel-1.0.0,camel-1.1.0,F:/corpus/camel/camel#2009-01-20-05-04-24#camel-1.0.0#e1ba889/camel-core/src/main/java/org/apache/camel/impl/DefaultConsumer.java,F:/corpus/camel/camel#2009-01-20-05-04-24#camel-1.1.0#52049de/camel-core/src/main/java/org/apache/camel/impl/DefaultConsumer.java,0,0,0,0,0,0,0,0,0,0,0,1,0,YES,0,0,0,0,0,0,0,0,0,0,0,0,0,0,0,0,0,0,0,0,0,0,0,0,0,0,0,0,0,0,0,0,0,0,0,0,0,0,0,0,0,0,0,0,0,0,0,0,10,81
camel,camel-1.0.0,camel-1.1.0,F:/corpus/camel/camel#2009-01-20-05-04-24#camel-1.0.0#e1ba889/camel-core/src/main/java/org/apache/camel/impl/DefaultEndpoint.java,F:/corpus/camel/camel#2009-01-20-05-04-24#camel-1.1.0#52049de/camel-core/src/main/java/org/apache/camel/impl/DefaultEndpoint.java,0,0,0,0,1,1,0,0,0,0,0,3,0,YES,1,0,0,0,1,0,0,0,0,0,0,0,0,0,0,0,0,0,0,0,0,0,0,0,0,0,0,0,0,0,0,0,0,0,0,0,0,0,0,0,0,0,3,1,0,0,0,0,15,155
camel,camel-1.0.0,camel-1.1.0,F:/corpus/camel/camel#2009-01-20-05-04-24#camel-1.0.0#e1ba889/camel-core/src/main/java/org/apache/camel/impl/DefaultExchange.java,F:/corpus/camel/camel#2009-01-20-05-04-24#camel-1.1.0#52049de/camel-core/src/main/java/org/apache/camel/impl/DefaultExchange.java,0,0,0,0,0,0,0,0,0,0,0,3,0,YES,0,0,0,0,1,0,0,0,2,0,0,0,1,0,0,2,0,0,0,0,0,1,0,2,1,1,0,0,0,0,0,0,0,0,0,0,0,0,0,0,1,0,5,8,0,2,6,0,34,193
camel,camel-1.0.0,camel-1.1.0,F:/corpus/camel/camel#2009-01-20-05-04-24#camel-1.0.0#e1ba889/camel-core/src/main/java/org/apache/camel/impl/DefaultExchangeConverter.java,F:/corpus/camel/camel#2009-01-20-05-04-24#camel-1.1.0#52049de/camel-core/src/main/java/org/apache/camel/impl/DefaultExchangeConverter.java,0,0,0,0,1,0,0,0,0,0,0,0,0,YES,0,0,0,0,0,0,0,0,0,0,0,0,0,0,0,0,0,0,0,0,0,0,0,0,0,0,0,0,0,0,0,0,0,0,0,0,0,0,0,0,0,0,0,0,0,0,0,0,2,31
camel,camel-1.0.0,camel-1.1.0,F:/corpus/camel/camel#2009-01-20-05-04-24#camel-1.0.0#e1ba889/camel-core/src/main/java/org/apache/camel/impl/DefaultMessage.java,F:/corpus/camel/camel#2009-01-20-05-04-24#camel-1.1.0#52049de/camel-core/src/main/java/org/apache/camel/impl/DefaultMessage.java,0,0,0,0,0,1,0,0,0,0,0,0,0,YES,0,0,0,0,0,0,0,0,0,0,0,0,0,0,0,0,0,0,0,0,0,0,0,0,0,0,0,0,0,0,0,0,0,0,0,0,0,0,0,0,0,0,0,0,0,0,0,0,11,88
camel,camel-1.0.0,camel-1.1.0,F:/corpus/camel/camel#2009-01-20-05-04-24#camel-1.0.0#e1ba889/camel-core/src/main/java/org/apache/camel/impl/DefaultPollingConsumer.java,F:/corpus/camel/camel#2009-01-20-05-04-24#camel-1.1.0#52049de/camel-core/src/main/java/org/apache/camel/impl/DefaultPollingConsumer.java,0,0,0,0,0,0,0,0,0,0,0,0,0,YES,0,0,0,0,0,0,0,0,1,0,0,0,0,0,0,0,0,0,0,0,0,0,0,0,0,0,0,0,0,0,0,0,0,0,0,0,0,0,0,0,0,0,0,0,0,0,0,0,23,113
camel,camel-1.0.0,camel-1.1.0,F:/corpus/camel/camel#2009-01-20-05-04-24#camel-1.0.0#e1ba889/camel-core/src/main/java/org/apache/camel/impl/DefaultProducer.java,F:/corpus/camel/camel#2009-01-20-05-04-24#camel-1.1.0#52049de/camel-core/src/main/java/org/apache/camel/impl/DefaultProducer.java,0,0,0,0,0,0,0,0,0,0,0,0,0,YES,0,0,0,0,0,0,0,0,0,0,0,0,0,0,0,0,0,0,0,0,0,0,0,0,0,0,0,0,0,0,0,0,0,0,0,0,0,0,0,0,0,0,0,0,0,0,0,0,4,53
camel,camel-1.0.0,camel-1.1.0,F:/corpus/camel/camel#2009-01-20-05-04-24#camel-1.0.0#e1ba889/camel-core/src/main/java/org/apache/camel/impl/EventDrivenConsumerRoute.java,F:/corpus/camel/camel#2009-01-20-05-04-24#camel-1.1.0#52049de/camel-core/src/main/java/org/apache/camel/impl/EventDrivenConsumerRoute.java,0,0,0,0,0,0,0,0,0,0,0,0,0,YES,0,0,0,0,0,0,0,0,0,0,0,0,0,0,0,0,0,0,0,0,0,0,0,0,0,0,0,0,0,0,0,0,0,0,0,0,0,0,0,0,0,0,0,0,0,0,0,0,17,72
camel,camel-1.0.0,camel-1.1.0,F:/corpus/camel/camel#2009-01-20-05-04-24#camel-1.0.0#e1ba889/camel-core/src/main/java/org/apache/camel/impl/LoggingExceptionHandler.java,F:/corpus/camel/camel#2009-01-20-05-04-24#camel-1.1.0#52049de/camel-core/src/main/java/org/apache/camel/impl/LoggingExceptionHandler.java,0,0,0,0,0,0,0,0,0,0,0,0,0,YES,0,0,0,0,0,0,0,0,0,0,0,0,0,0,0,0,0,0,0,0,0,0,0,0,0,0,0,0,0,0,0,0,0,0,0,0,0,0,0,0,0,0,0,0,0,0,0,0,4,46
camel,camel-1.0.0,camel-1.1.0,F:/corpus/camel/camel#2009-01-20-05-04-24#camel-1.0.0#e1ba889/camel-core/src/main/java/org/apache/camel/impl/MessageSupport.java,F:/corpus/camel/camel#2009-01-20-05-04-24#camel-1.1.0#52049de/camel-core/src/main/java/org/apache/camel/impl/MessageSupport.java,0,0,0,0,1,2,0,0,0,0,0,1,0,YES,0,0,0,0,1,0,0,0,1,0,0,0,0,0,0,1,0,0,0,0,0,0,0,0,0,1,0,0,0,0,0,0,0,0,0,0,0,0,0,0,0,0,3,1,0,0,3,0,37,119
camel,camel-1.0.0,camel-1.1.0,F:/corpus/camel/camel#2009-01-20-05-04-24#camel-1.0.0#e1ba889/camel-core/src/main/java/org/apache/camel/impl/NoPolicy.java,F:/corpus/camel/camel#2009-01-20-05-04-24#camel-1.1.0#52049de/camel-core/src/main/java/org/apache/camel/impl/NoPolicy.java,0,0,0,0,0,0,0,0,0,0,0,0,0,YES,0,0,0,0,0,0,0,0,0,0,0,0,0,0,0,0,0,0,0,0,0,0,0,0,0,0,0,0,0,0,0,0,0,0,0,0,0,0,0,0,0,0,0,0,0,0,0,0,4,33
camel,camel-1.0.0,camel-1.1.0,F:/corpus/camel/camel#2009-01-20-05-04-24#camel-1.0.0#e1ba889/camel-core/src/main/java/org/apache/camel/impl/NoRouteBuilder.java,F:/corpus/camel/camel#2009-01-20-05-04-24#camel-1.1.0#52049de/camel-core/src/main/java/org/apache/camel/impl/NoRouteBuilder.java,0,0,0,0,0,0,0,0,0,0,0,0,0,YES,0,0,0,0,0,0,0,0,1,0,0,0,0,0,0,0,0,0,0,0,0,0,0,0,0,0,0,0,0,0,0,0,0,0,0,0,0,0,0,0,0,0,1,1,0,0,0,0,4,36
camel,camel-1.0.0,camel-1.1.0,F:/corpus/camel/camel#2009-01-20-05-04-24#camel-1.0.0#e1ba889/camel-core/src/main/java/org/apache/camel/impl/PollingConsumerSupport.java,F:/corpus/camel/camel#2009-01-20-05-04-24#camel-1.1.0#52049de/camel-core/src/main/java/org/apache/camel/impl/PollingConsumerSupport.java,0,0,0,0,1,0,0,0,0,0,0,0,0,YES,0,0,0,0,0,0,0,0,0,0,0,0,0,0,0,0,0,0,0,0,0,0,0,0,0,0,0,0,0,0,0,0,0,0,0,0,0,0,0,0,0,0,0,0,0,0,0,0,5,66
camel,camel-1.0.0,camel-1.1.0,F:/corpus/camel/camel#2009-01-20-05-04-24#camel-1.0.0#e1ba889/camel-core/src/main/java/org/apache/camel/impl/PredicateSupport.java,F:/corpus/camel/camel#2009-01-20-05-04-24#camel-1.1.0#52049de/camel-core/src/main/java/org/apache/camel/impl/PredicateSupport.java,0,0,0,0,2,0,0,0,0,0,0,0,0,YES,0,0,0,0,0,0,0,0,0,0,0,0,0,0,0,0,0,0,0,0,0,0,0,0,0,0,0,0,0,0,0,0,0,0,0,0,0,0,0,0,0,0,1,1,0,0,1,0,7,39
camel,camel-1.0.0,camel-1.1.0,F:/corpus/camel/camel#2009-01-20-05-04-24#camel-1.0.0#e1ba889/camel-core/src/main/java/org/apache/camel/impl/ReflectionInjector.java,F:/corpus/camel/camel#2009-01-20-05-04-24#camel-1.1.0#52049de/camel-core/src/main/java/org/apache/camel/impl/ReflectionInjector.java,0,0,0,0,0,0,0,0,0,0,0,0,0,YES,0,0,0,0,0,0,0,0,0,0,0,0,0,0,0,0,0,0,0,0,0,0,0,0,0,0,0,0,0,0,0,1,1,0,0,0,0,0,0,0,0,0,0,0,0,0,0,1,12,42
camel,camel-1.0.0,camel-1.1.0,F:/corpus/camel/camel#2009-01-20-05-04-24#camel-1.0.0#e1ba889/camel-core/src/main/java/org/apache/camel/impl/ScheduledPollConsumer.java,F:/corpus/camel/camel#2009-01-20-05-04-24#camel-1.1.0#52049de/camel-core/src/main/java/org/apache/camel/impl/ScheduledPollConsumer.java,1,0,0,1,1,0,0,0,0,0,0,0,0,YES,0,0,0,0,0,0,0,0,1,0,0,0,0,0,0,0,0,0,0,0,0,0,0,0,0,0,0,0,0,0,0,0,0,0,0,0,0,0,0,0,0,0,0,0,0,0,2,0,23,132
camel,camel-1.0.0,camel-1.1.0,F:/corpus/camel/camel#2009-01-20-05-04-24#camel-1.0.0#e1ba889/camel-core/src/main/java/org/apache/camel/impl/ScheduledPollEndpoint.java,F:/corpus/camel/camel#2009-01-20-05-04-24#camel-1.1.0#52049de/camel-core/src/main/java/org/apache/camel/impl/ScheduledPollEndpoint.java,0,0,0,0,1,0,0,0,0,0,0,1,0,YES,0,0,0,0,0,0,0,0,0,0,0,0,0,0,0,0,0,0,0,0,0,0,0,0,0,0,0,0,0,0,0,0,0,0,0,0,0,0,0,0,0,0,0,0,0,0,0,0,7,61
camel,camel-1.0.0,camel-1.1.0,F:/corpus/camel/camel#2009-01-20-05-04-24#camel-1.0.0#e1ba889/camel-core/src/main/java/org/apache/camel/impl/ServiceSupport.java,F:/corpus/camel/camel#2009-01-20-05-04-24#camel-1.1.0#52049de/camel-core/src/main/java/org/apache/camel/impl/ServiceSupport.java,0,0,0,0,0,0,0,0,0,0,0,2,0,YES,0,0,0,0,4,2,0,0,0,0,0,0,0,0,0,1,0,0,0,0,0,0,0,0,0,0,0,0,0,0,0,0,0,0,0,0,0,0,0,0,0,0,1,4,0,0,0,0,49,81
camel,camel-1.0.0,camel-1.1.0,F:/corpus/camel/camel#2009-01-20-05-04-24#camel-1.0.0#e1ba889/camel-core/src/main/java/org/apache/camel/impl/converter/AnnotationTypeConverterLoader.java,F:/corpus/camel/camel#2009-01-20-05-04-24#camel-1.1.0#52049de/camel-core/src/main/java/org/apache/camel/impl/converter/AnnotationTypeConverterLoader.java,0,0,0,0,0,0,0,0,0,0,0,0,0,YES,0,0,0,0,0,0,0,0,1,0,0,0,0,0,0,1,0,0,0,0,0,0,0,0,0,0,0,0,0,0,0,0,0,0,0,0,0,0,0,0,0,0,0,0,0,0,5,0,51,172
camel,camel-1.0.0,camel-1.1.0,F:/corpus/camel/camel#2009-01-20-05-04-24#camel-1.0.0#e1ba889/camel-core/src/main/java/org/apache/camel/impl/converter/ArrayTypeConverter.java,F:/corpus/camel/camel#2009-01-20-05-04-24#camel-1.1.0#52049de/camel-core/src/main/java/org/apache/camel/impl/converter/ArrayTypeConverter.java,0,0,0,0,0,0,0,0,0,0,0,0,0,YES,0,0,0,0,0,0,0,0,0,0,0,0,0,0,0,0,0,0,0,0,0,0,0,0,0,0,0,0,0,0,0,0,0,0,0,0,0,0,0,0,0,0,0,0,0,0,0,0,22,76
camel,camel-1.0.0,camel-1.1.0,F:/corpus/camel/camel#2009-01-20-05-04-24#camel-1.0.0#e1ba889/camel-core/src/main/java/org/apache/camel/impl/converter/DefaultTypeConverter.java,F:/corpus/camel/camel#2009-01-20-05-04-24#camel-1.1.0#52049de/camel-core/src/main/java/org/apache/camel/impl/converter/DefaultTypeConverter.java,0,0,0,0,0,0,0,0,0,0,0,0,0,YES,0,0,0,0,2,0,0,1,1,0,0,0,2,0,0,0,0,0,0,0,0,0,0,0,0,0,0,0,0,0,0,0,0,0,1,0,0,0,0,0,0,0,4,13,0,3,1,0,80,248
camel,camel-1.0.0,camel-1.1.0,F:/corpus/camel/camel#2009-01-20-05-04-24#camel-1.0.0#e1ba889/camel-core/src/main/java/org/apache/camel/impl/converter/InstanceMethodTypeConverter.java,F:/corpus/camel/camel#2009-01-20-05-04-24#camel-1.1.0#52049de/camel-core/src/main/java/org/apache/camel/impl/converter/InstanceMethodTypeConverter.java,0,0,0,0,0,0,0,0,0,0,0,0,0,YES,0,0,0,0,0,0,0,0,0,0,0,0,0,0,0,0,0,0,0,0,0,0,0,0,0,0,0,0,0,0,0,0,0,0,0,0,0,0,0,0,0,0,0,0,0,0,0,0,8,55
camel,camel-1.0.0,camel-1.1.0,F:/corpus/camel/camel#2009-01-20-05-04-24#camel-1.0.0#e1ba889/camel-core/src/main/java/org/apache/camel/impl/converter/PropertyEditorTypeConverter.java,F:/corpus/camel/camel#2009-01-20-05-04-24#camel-1.1.0#52049de/camel-core/src/main/java/org/apache/camel/impl/converter/PropertyEditorTypeConverter.java,0,0,0,0,0,0,0,0,0,0,0,0,0,YES,0,0,0,0,0,0,0,0,0,0,0,0,0,0,0,0,0,0,0,0,0,0,0,0,0,0,0,0,0,0,0,0,0,0,0,0,0,0,0,0,0,0,0,0,0,0,0,0,34,64
camel,camel-1.0.0,camel-1.1.0,F:/corpus/camel/camel#2009-01-20-05-04-24#camel-1.0.0#e1ba889/camel-core/src/main/java/org/apache/camel/impl/converter/StaticMethodTypeConverter.java,F:/corpus/camel/camel#2009-01-20-05-04-24#camel-1.1.0#52049de/camel-core/src/main/java/org/apache/camel/impl/converter/StaticMethodTypeConverter.java,0,0,0,0,1,0,0,0,0,0,0,0,0,YES,0,0,0,0,0,0,0,0,0,0,0,0,0,0,0,0,0,0,0,0,0,0,0,0,0,0,0,0,0,0,0,0,0,0,0,0,0,0,0,0,0,0,0,0,0,0,0,0,9,49
camel,camel-1.0.0,camel-1.1.0,F:/corpus/camel/camel#2009-01-20-05-04-24#camel-1.0.0#e1ba889/camel-core/src/main/java/org/apache/camel/impl/converter/ToStringTypeConverter.java,F:/corpus/camel/camel#2009-01-20-05-04-24#camel-1.1.0#52049de/camel-core/src/main/java/org/apache/camel/impl/converter/ToStringTypeConverter.java,0,0,0,0,0,0,0,0,0,0,0,0,0,YES,0,0,0,0,0,0,0,0,0,0,0,0,0,0,0,0,0,0,0,0,0,0,0,0,0,0,0,0,0,0,0,0,0,0,0,0,0,0,0,0,0,0,0,0,0,0,0,0,7,39
camel,camel-1.0.0,camel-1.1.0,F:/corpus/camel/camel#2009-01-20-05-04-24#camel-1.0.0#e1ba889/camel-core/src/main/java/org/apache/camel/impl/converter/TypeConverterLoader.java,F:/corpus/camel/camel#2009-01-20-05-04-24#camel-1.1.0#52049de/camel-core/src/main/java/org/apache/camel/impl/converter/TypeConverterLoader.java,0,0,0,0,1,0,0,0,0,0,0,0,0,YES,0,0,0,0,0,0,0,0,0,0,0,0,0,0,0,0,0,0,0,0,0,0,0,0,0,0,0,0,0,0,0,0,0,0,0,0,0,0,0,0,0,0,0,0,0,0,0,0,2,31
camel,camel-1.0.0,camel-1.1.0,F:/corpus/camel/camel#2009-01-20-05-04-24#camel-1.0.0#e1ba889/camel-core/src/main/java/org/apache/camel/impl/converter/TypeConverterRegistry.java,F:/corpus/camel/camel#2009-01-20-05-04-24#camel-1.1.0#52049de/camel-core/src/main/java/org/apache/camel/impl/converter/TypeConverterRegistry.java,0,0,0,0,1,0,0,0,0,0,0,0,0,YES,0,0,0,0,0,0,0,0,0,0,0,0,0,0,0,0,0,0,0,0,0,0,0,0,0,0,0,0,0,0,0,0,0,0,0,0,0,0,0,0,0,0,0,0,0,0,0,0,2,37
camel,camel-1.0.0,camel-1.1.0,F:/corpus/camel/camel#2009-01-20-05-04-24#camel-1.0.0#e1ba889/camel-core/src/main/java/org/apache/camel/processor/ChoiceProcessor.java,F:/corpus/camel/camel#2009-01-20-05-04-24#camel-1.1.0#52049de/camel-core/src/main/java/org/apache/camel/processor/ChoiceProcessor.java,0,0,0,0,0,0,0,0,0,0,0,0,0,YES,0,0,0,0,0,0,0,0,0,0,0,0,0,0,0,0,0,0,0,0,0,0,0,0,0,0,0,0,0,0,0,0,0,0,0,0,0,0,0,0,0,0,0,0,0,0,0,0,20,99
camel,camel-1.0.0,camel-1.1.0,F:/corpus/camel/camel#2009-01-20-05-04-24#camel-1.0.0#e1ba889/camel-core/src/main/java/org/apache/camel/processor/CompositeProcessor.java,F:/corpus/camel/camel#2009-01-20-05-04-24#camel-1.1.0#52049de/camel-core/src/main/java/org/apache/camel/processor/CompositeProcessor.java,0,0,0,0,0,0,0,0,0,0,0,0,0,YES,0,0,0,0,0,0,0,0,0,0,0,0,0,0,0,0,0,0,0,0,0,0,0,0,0,0,0,0,0,0,0,0,0,0,0,0,0,0,0,0,0,0,0,0,0,0,0,0,10,73
camel,camel-1.0.0,camel-1.1.0,F:/corpus/camel/camel#2009-01-20-05-04-24#camel-1.0.0#e1ba889/camel-core/src/main/java/org/apache/camel/processor/DeadLetterChannel.java,F:/corpus/camel/camel#2009-01-20-05-04-24#camel-1.1.0#52049de/camel-core/src/main/java/org/apache/camel/processor/DeadLetterChannel.java,1,0,0,0,0,0,0,0,0,0,0,0,0,YES,0,0,0,0,0,0,0,0,1,0,0,0,1,0,0,3,0,0,0,0,0,0,0,1,0,0,0,1,1,0,0,0,0,0,0,0,0,0,0,0,0,0,1,10,0,2,6,0,55,171
camel,camel-1.0.0,camel-1.1.0,F:/corpus/camel/camel#2009-01-20-05-04-24#camel-1.0.0#e1ba889/camel-core/src/main/java/org/apache/camel/processor/DelegateProcessor.java,F:/corpus/camel/camel#2009-01-20-05-04-24#camel-1.1.0#52049de/camel-core/src/main/java/org/apache/camel/processor/DelegateProcessor.java,0,0,0,0,0,0,0,0,0,0,0,0,0,YES,0,0,0,0,2,1,0,0,0,0,0,0,0,0,0,1,0,0,0,1,0,1,0,0,0,2,0,0,0,0,0,0,0,0,1,1,0,0,0,0,0,0,2,2,0,0,4,0,20,72
camel,camel-1.0.0,camel-1.1.0,F:/corpus/camel/camel#2009-01-20-05-04-24#camel-1.0.0#e1ba889/camel-core/src/main/java/org/apache/camel/processor/ErrorHandler.java,F:/corpus/camel/camel#2009-01-20-05-04-24#camel-1.1.0#52049de/camel-core/src/main/java/org/apache/camel/processor/ErrorHandler.java,0,0,0,0,0,0,0,0,0,0,0,0,0,YES,0,0,0,0,0,0,0,0,0,0,0,0,0,0,0,0,0,0,0,0,0,0,0,0,0,0,0,0,0,0,0,0,0,0,0,0,0,0,0,0,0,0,0,0,0,0,0,0,3,29
camel,camel-1.0.0,camel-1.1.0,F:/corpus/camel/camel#2009-01-20-05-04-24#camel-1.0.0#e1ba889/camel-core/src/main/java/org/apache/camel/processor/FilterProcessor.java,F:/corpus/camel/camel#2009-01-20-05-04-24#camel-1.1.0#52049de/camel-core/src/main/java/org/apache/camel/processor/FilterProcessor.java,0,0,0,0,0,0,0,0,0,0,0,0,0,YES,0,0,0,0,0,0,0,0,0,0,0,0,0,0,0,0,0,0,0,0,0,0,0,0,0,0,0,1,1,0,0,0,0,0,3,1,0,0,0,0,0,0,2,1,0,0,2,0,24,64
camel,camel-1.0.0,camel-1.1.0,F:/corpus/camel/camel#2009-01-20-05-04-24#camel-1.0.0#e1ba889/camel-core/src/main/java/org/apache/camel/processor/Logger.java,F:/corpus/camel/camel#2009-01-20-05-04-24#camel-1.1.0#52049de/camel-core/src/main/java/org/apache/camel/processor/Logger.java,0,0,0,0,0,0,0,0,0,0,0,0,0,YES,0,0,0,0,2,0,0,0,0,0,0,0,0,0,0,0,0,0,0,0,0,0,0,0,0,0,0,0,0,0,0,0,0,0,0,0,0,0,0,0,0,0,0,0,0,0,1,0,109,183
camel,camel-1.0.0,camel-1.1.0,F:/corpus/camel/camel#2009-01-20-05-04-24#camel-1.0.0#e1ba889/camel-core/src/main/java/org/apache/camel/processor/LoggingErrorHandler.java,F:/corpus/camel/camel#2009-01-20-05-04-24#camel-1.1.0#52049de/camel-core/src/main/java/org/apache/camel/processor/LoggingErrorHandler.java,1,0,0,0,0,0,0,0,0,0,0,0,0,YES,0,0,0,0,1,0,0,0,0,0,0,0,0,0,0,0,0,0,0,0,0,0,0,0,0,0,1,1,1,0,0,0,0,0,1,0,0,0,0,0,0,0,0,1,0,1,1,0,43,137
camel,camel-1.0.0,camel-1.1.0,F:/corpus/camel/camel#2009-01-20-05-04-24#camel-1.0.0#e1ba889/camel-core/src/main/java/org/apache/camel/processor/LoggingLevel.java,F:/corpus/camel/camel#2009-01-20-05-04-24#camel-1.1.0#52049de/camel-core/src/main/java/org/apache/camel/processor/LoggingLevel.java,0,0,0,0,0,0,0,0,0,0,0,0,0,YES,0,0,0,0,0,0,0,0,0,0,0,0,0,0,0,0,0,0,0,0,0,0,0,0,0,0,0,0,0,0,0,0,0,0,0,0,0,0,0,0,0,0,0,0,0,0,0,0,2,27
camel,camel-1.0.0,camel-1.1.0,F:/corpus/camel/camel#2009-01-20-05-04-24#camel-1.0.0#e1ba889/camel-core/src/main/java/org/apache/camel/processor/MulticastProcessor.java,F:/corpus/camel/camel#2009-01-20-05-04-24#camel-1.1.0#52049de/camel-core/src/main/java/org/apache/camel/processor/MulticastProcessor.java,0,0,0,0,0,0,0,0,0,0,0,0,0,YES,0,0,0,0,0,0,0,0,1,1,0,0,0,0,0,1,0,0,0,2,0,1,1,1,0,1,1,0,0,0,0,0,0,0,1,0,0,0,0,2,0,0,7,5,0,0,2,0,52,105
camel,camel-1.0.0,camel-1.1.0,F:/corpus/camel/camel#2009-01-20-05-04-24#camel-1.0.0#e1ba889/camel-core/src/main/java/org/apache/camel/processor/Pipeline.java,F:/corpus/camel/camel#2009-01-20-05-04-24#camel-1.1.0#52049de/camel-core/src/main/java/org/apache/camel/processor/Pipeline.java,0,0,0,0,0,1,0,0,0,0,0,0,0,YES,0,0,0,0,1,1,0,1,0,0,0,0,0,0,0,1,0,0,0,1,0,0,1,1,0,0,1,0,0,0,0,0,0,0,0,0,0,0,0,0,0,0,1,6,0,0,3,0,26,85
camel,camel-1.0.0,camel-1.1.0,F:/corpus/camel/camel#2009-01-20-05-04-24#camel-1.0.0#e1ba889/camel-core/src/main/java/org/apache/camel/processor/RecipientList.java,F:/corpus/camel/camel#2009-01-20-05-04-24#camel-1.1.0#52049de/camel-core/src/main/java/org/apache/camel/processor/RecipientList.java,0,0,0,0,0,0,0,0,0,0,0,0,0,YES,0,0,0,0,0,0,0,0,0,0,0,0,0,0,0,0,0,0,0,0,0,0,0,0,0,0,0,0,0,0,0,0,0,0,0,0,0,0,0,0,0,0,0,0,0,0,0,0,9,72
camel,camel-1.0.0,camel-1.1.0,F:/corpus/camel/camel#2009-01-20-05-04-24#camel-1.0.0#e1ba889/camel-core/src/main/java/org/apache/camel/processor/RedeliveryPolicy.java,F:/corpus/camel/camel#2009-01-20-05-04-24#camel-1.1.0#52049de/camel-core/src/main/java/org/apache/camel/processor/RedeliveryPolicy.java,0,0,0,0,0,0,0,0,0,0,0,0,0,YES,0,0,0,0,0,0,0,0,0,0,0,0,0,0,0,0,0,0,0,0,0,0,0,0,0,1,2,0,0,0,0,0,0,0,0,0,0,0,0,0,0,0,0,0,0,0,1,0,31,230
camel,camel-1.0.0,camel-1.1.0,F:/corpus/camel/camel#2009-01-20-05-04-24#camel-1.0.0#e1ba889/camel-core/src/main/java/org/apache/camel/processor/Resequencer.java,F:/corpus/camel/camel#2009-01-20-05-04-24#camel-1.1.0#52049de/camel-core/src/main/java/org/apache/camel/processor/Resequencer.java,1,0,0,0,0,0,0,0,0,0,0,0,0,YES,0,0,0,0,0,0,0,0,0,0,0,0,0,0,0,0,0,0,0,1,0,0,0,0,0,1,2,1,0,0,0,1,0,0,10,8,0,0,0,0,0,0,4,1,0,0,2,0,129,177
camel,camel-1.0.0,camel-1.1.0,F:/corpus/camel/camel#2009-01-20-05-04-24#camel-1.0.0#e1ba889/camel-core/src/main/java/org/apache/camel/processor/SendProcessor.java,F:/corpus/camel/camel#2009-01-20-05-04-24#camel-1.1.0#52049de/camel-core/src/main/java/org/apache/camel/processor/SendProcessor.java,0,0,0,0,0,0,0,0,0,0,0,0,0,YES,0,0,0,0,0,1,0,2,0,0,0,0,0,0,0,0,0,0,0,0,0,0,0,0,0,0,0,0,0,0,0,0,0,0,0,0,0,0,0,0,0,0,1,5,0,2,0,0,12,68
camel,camel-1.0.0,camel-1.1.0,F:/corpus/camel/camel#2009-01-20-05-04-24#camel-1.0.0#e1ba889/camel-core/src/main/java/org/apache/camel/processor/Splitter.java,F:/corpus/camel/camel#2009-01-20-05-04-24#camel-1.1.0#52049de/camel-core/src/main/java/org/apache/camel/processor/Splitter.java,0,0,0,0,0,0,0,0,0,0,0,0,0,YES,0,0,0,0,0,0,0,0,0,0,0,0,0,0,0,0,0,0,0,0,0,0,0,0,1,0,0,0,0,0,0,0,0,0,0,0,0,0,0,0,0,0,0,0,0,0,0,0,10,70
camel,camel-1.0.0,camel-1.1.0,F:/corpus/camel/camel#2009-01-20-05-04-24#camel-1.0.0#e1ba889/camel-core/src/main/java/org/apache/camel/processor/idempotent/IdempotentConsumer.java,F:/corpus/camel/camel#2009-01-20-05-04-24#camel-1.1.0#52049de/camel-core/src/main/java/org/apache/camel/processor/idempotent/IdempotentConsumer.java,0,0,0,0,0,0,0,0,0,0,0,0,0,YES,0,0,0,0,0,0,0,0,1,0,0,0,0,0,0,1,0,0,0,0,0,0,0,0,0,0,0,0,0,0,0,0,0,0,0,0,0,0,0,0,0,0,0,0,0,0,1,0,17,102
camel,camel-1.0.0,camel-1.1.0,F:/corpus/camel/camel#2009-01-20-05-04-24#camel-1.0.0#e1ba889/camel-core/src/main/java/org/apache/camel/processor/idempotent/MemoryMessageIdRepository.java,F:/corpus/camel/camel#2009-01-20-05-04-24#camel-1.1.0#52049de/camel-core/src/main/java/org/apache/camel/processor/idempotent/MemoryMessageIdRepository.java,0,0,0,0,0,0,0,0,0,0,0,0,0,YES,0,0,0,0,0,0,0,0,0,0,0,0,0,0,0,0,0,0,0,0,0,0,0,0,0,0,0,0,0,0,0,0,0,0,0,0,0,0,0,0,0,0,0,0,0,0,0,0,31,77
camel,camel-1.0.0,camel-1.1.0,F:/corpus/camel/camel#2009-01-20-05-04-24#camel-1.0.0#e1ba889/camel-core/src/main/java/org/apache/camel/processor/idempotent/MessageIdRepository.java,F:/corpus/camel/camel#2009-01-20-05-04-24#camel-1.1.0#52049de/camel-core/src/main/java/org/apache/camel/processor/idempotent/MessageIdRepository.java,0,0,0,0,0,0,0,0,0,0,0,0,0,YES,0,0,0,0,0,0,0,0,0,0,0,0,0,0,0,0,0,0,0,0,0,0,0,0,0,0,0,0,0,0,0,0,0,0,0,0,0,0,0,0,0,0,0,0,0,0,0,0,2,36
camel,camel-1.0.0,camel-1.1.0,F:/corpus/camel/camel#2009-01-20-05-04-24#camel-1.0.0#e1ba889/camel-core/src/main/java/org/apache/camel/processor/idempotent/NoMessageIdException.java,F:/corpus/camel/camel#2009-01-20-05-04-24#camel-1.1.0#52049de/camel-core/src/main/java/org/apache/camel/processor/idempotent/NoMessageIdException.java,0,0,0,0,0,0,0,0,0,0,0,0,0,YES,0,0,0,0,0,0,0,0,0,0,0,0,0,0,0,0,0,0,0,0,0,0,0,0,0,0,0,0,0,0,0,0,0,0,0,0,0,0,0,0,0,0,0,0,0,0,0,0,4,53
camel,camel-1.0.0,camel-1.1.0,F:/corpus/camel/camel#2009-01-20-05-04-24#camel-1.0.0#e1ba889/camel-core/src/main/java/org/apache/camel/processor/loadbalancer/LoadBalancer.java,F:/corpus/camel/camel#2009-01-20-05-04-24#camel-1.1.0#52049de/camel-core/src/main/java/org/apache/camel/processor/loadbalancer/LoadBalancer.java,0,0,0,0,1,0,0,0,0,0,0,0,0,YES,0,0,0,0,0,0,0,0,0,0,0,0,0,0,0,0,0,0,0,0,0,0,0,0,0,0,0,0,0,0,0,0,0,0,0,0,0,0,0,0,0,0,0,0,0,0,0,0,8,52
camel,camel-1.0.0,camel-1.1.0,F:/corpus/camel/camel#2009-01-20-05-04-24#camel-1.0.0#e1ba889/camel-core/src/main/java/org/apache/camel/processor/loadbalancer/LoadBalancerSupport.java,F:/corpus/camel/camel#2009-01-20-05-04-24#camel-1.1.0#52049de/camel-core/src/main/java/org/apache/camel/processor/loadbalancer/LoadBalancerSupport.java,0,0,1,0,0,0,0,0,0,0,0,0,0,YES,0,0,0,0,0,0,0,0,0,0,0,0,0,0,0,0,0,0,0,0,0,0,0,0,0,0,0,0,0,0,0,0,0,0,0,0,0,0,0,0,0,0,0,0,0,0,0,0,7,45
camel,camel-1.0.0,camel-1.1.0,F:/corpus/camel/camel#2009-01-20-05-04-24#camel-1.0.0#e1ba889/camel-core/src/main/java/org/apache/camel/processor/loadbalancer/QueueLoadBalancer.java,F:/corpus/camel/camel#2009-01-20-05-04-24#camel-1.1.0#52049de/camel-core/src/main/java/org/apache/camel/processor/loadbalancer/QueueLoadBalancer.java,0,0,0,0,0,0,0,0,0,0,0,0,0,YES,0,0,0,0,0,0,0,0,0,0,0,0,0,0,0,0,0,0,0,0,0,0,0,0,0,0,0,0,0,0,0,0,0,0,0,0,0,0,0,0,0,0,0,0,0,0,0,0,11,48
camel,camel-1.0.0,camel-1.1.0,F:/corpus/camel/camel#2009-01-20-05-04-24#camel-1.0.0#e1ba889/camel-core/src/main/java/org/apache/camel/processor/loadbalancer/RandomLoadBalancer.java,F:/corpus/camel/camel#2009-01-20-05-04-24#camel-1.1.0#52049de/camel-core/src/main/java/org/apache/camel/processor/loadbalancer/RandomLoadBalancer.java,0,0,0,0,1,0,0,0,0,0,0,0,0,YES,0,0,0,0,0,0,0,0,0,0,0,0,0,0,0,0,0,0,0,0,0,0,0,0,0,0,0,0,0,0,0,0,0,0,0,0,0,0,0,0,0,0,0,0,0,0,0,0,6,41
camel,camel-1.0.0,camel-1.1.0,F:/corpus/camel/camel#2009-01-20-05-04-24#camel-1.0.0#e1ba889/camel-core/src/main/java/org/apache/camel/processor/loadbalancer/RoundRobinLoadBalancer.java,F:/corpus/camel/camel#2009-01-20-05-04-24#camel-1.1.0#52049de/camel-core/src/main/java/org/apache/camel/processor/loadbalancer/RoundRobinLoadBalancer.java,0,0,0,0,1,0,0,0,0,0,0,0,0,YES,0,0,0,0,0,0,0,0,0,0,0,0,0,0,0,0,0,0,0,0,0,0,0,0,0,0,0,0,0,0,0,0,0,0,0,0,0,0,0,0,0,0,0,0,0,0,0,0,6,40
camel,camel-1.0.0,camel-1.1.0,F:/corpus/camel/camel#2009-01-20-05-04-24#camel-1.0.0#e1ba889/camel-core/src/main/java/org/apache/camel/processor/loadbalancer/StickyLoadBalancer.java,F:/corpus/camel/camel#2009-01-20-05-04-24#camel-1.1.0#52049de/camel-core/src/main/java/org/apache/camel/processor/loadbalancer/StickyLoadBalancer.java,0,0,0,0,0,0,0,0,0,0,0,0,0,YES,0,0,0,0,0,0,0,0,0,0,0,0,0,0,0,0,0,0,0,0,0,0,0,0,0,0,0,0,0,0,0,0,0,0,0,0,0,0,0,0,0,0,0,0,0,0,0,0,14,113
camel,camel-1.0.0,camel-1.1.0,F:/corpus/camel/camel#2009-01-20-05-04-24#camel-1.0.0#e1ba889/camel-core/src/main/java/org/apache/camel/processor/loadbalancer/TopicLoadBalancer.java,F:/corpus/camel/camel#2009-01-20-05-04-24#camel-1.1.0#52049de/camel-core/src/main/java/org/apache/camel/processor/loadbalancer/TopicLoadBalancer.java,0,0,0,0,1,0,0,0,0,0,0,0,0,YES,0,0,0,0,0,0,0,0,0,0,0,0,0,0,0,0,0,0,0,0,0,0,0,0,0,0,0,0,0,0,0,0,0,0,0,0,0,0,0,0,0,0,0,0,0,0,0,0,15,50
camel,camel-1.0.0,camel-1.1.0,F:/corpus/camel/camel#2009-01-20-05-04-24#camel-1.0.0#e1ba889/camel-core/src/main/java/org/apache/camel/spi/ComponentResolver.java,F:/corpus/camel/camel#2009-01-20-05-04-24#camel-1.1.0#52049de/camel-core/src/main/java/org/apache/camel/spi/ComponentResolver.java,0,0,0,0,1,0,0,0,0,0,0,0,0,YES,0,0,0,0,0,0,0,0,0,0,0,0,0,0,0,0,0,0,0,0,0,0,0,0,0,0,0,0,0,0,0,0,0,0,0,0,0,0,0,0,0,0,0,0,0,0,0,0,5,41
camel,camel-1.0.0,camel-1.1.0,F:/corpus/camel/camel#2009-01-20-05-04-24#camel-1.0.0#e1ba889/camel-core/src/main/java/org/apache/camel/spi/ExceptionHandler.java,F:/corpus/camel/camel#2009-01-20-05-04-24#camel-1.1.0#52049de/camel-core/src/main/java/org/apache/camel/spi/ExceptionHandler.java,0,0,0,0,1,0,0,0,0,0,0,0,0,YES,0,0,0,0,0,0,0,0,0,0,0,0,0,0,0,0,0,0,0,0,0,0,0,0,0,0,0,0,0,0,0,0,0,0,0,0,0,0,0,0,0,0,0,0,0,0,0,0,2,33
camel,camel-1.0.0,camel-1.1.0,F:/corpus/camel/camel#2009-01-20-05-04-24#camel-1.0.0#e1ba889/camel-core/src/main/java/org/apache/camel/spi/ExchangeConverter.java,F:/corpus/camel/camel#2009-01-20-05-04-24#camel-1.1.0#52049de/camel-core/src/main/java/org/apache/camel/spi/ExchangeConverter.java,0,0,0,0,1,0,0,0,0,0,0,0,0,YES,0,0,0,0,0,0,0,0,0,0,0,0,0,0,0,0,0,0,0,0,0,0,0,0,0,0,0,0,0,0,0,0,0,0,0,0,0,0,0,0,0,0,0,0,0,0,0,0,1,29
camel,camel-1.0.0,camel-1.1.0,F:/corpus/camel/camel#2009-01-20-05-04-24#camel-1.0.0#e1ba889/camel-core/src/main/java/org/apache/camel/spi/Injector.java,F:/corpus/camel/camel#2009-01-20-05-04-24#camel-1.1.0#52049de/camel-core/src/main/java/org/apache/camel/spi/Injector.java,0,0,0,0,1,0,0,0,0,0,0,0,0,YES,0,0,0,0,0,0,0,0,0,0,0,0,0,0,0,0,0,0,0,0,0,0,0,0,0,0,0,0,0,0,0,0,0,0,0,0,0,0,0,0,0,0,0,0,0,0,0,1,8,34
camel,camel-1.0.0,camel-1.1.0,F:/corpus/camel/camel#2009-01-20-05-04-24#camel-1.0.0#e1ba889/camel-core/src/main/java/org/apache/camel/spi/Marshaller.java,F:/corpus/camel/camel#2009-01-20-05-04-24#camel-1.1.0#52049de/camel-core/src/main/java/org/apache/camel/spi/Marshaller.java,0,0,0,0,1,0,0,0,0,0,0,0,0,YES,0,0,0,0,0,0,0,0,0,0,0,0,0,0,0,0,0,0,0,0,0,0,0,0,0,0,0,0,0,0,0,0,0,0,0,0,0,0,0,0,0,0,0,0,0,0,0,0,4,31
camel,camel-1.0.0,camel-1.1.0,F:/corpus/camel/camel#2009-01-20-05-04-24#camel-1.0.0#e1ba889/camel-core/src/main/java/org/apache/camel/spi/Policy.java,F:/corpus/camel/camel#2009-01-20-05-04-24#camel-1.1.0#52049de/camel-core/src/main/java/org/apache/camel/spi/Policy.java,0,0,0,0,1,0,0,0,0,0,0,0,0,YES,0,0,0,0,0,0,0,0,0,0,0,0,0,0,0,0,0,0,0,0,0,0,0,0,0,0,0,0,0,0,0,0,0,0,0,0,0,0,0,0,0,0,0,0,0,0,0,0,2,36
camel,camel-1.0.0,camel-1.1.0,F:/corpus/camel/camel#2009-01-20-05-04-24#camel-1.0.0#e1ba889/camel-core/src/main/java/org/apache/camel/spi/Provider.java,F:/corpus/camel/camel#2009-01-20-05-04-24#camel-1.1.0#52049de/camel-core/src/main/java/org/apache/camel/spi/Provider.java,0,0,0,0,1,0,0,0,0,0,0,0,0,YES,0,0,0,0,0,0,0,0,0,0,0,0,0,0,0,0,0,0,0,0,0,0,0,0,0,0,0,0,0,0,0,0,0,0,0,0,0,0,0,0,0,0,0,0,0,0,0,0,2,31
camel,camel-1.0.0,camel-1.1.0,F:/corpus/camel/camel#2009-01-20-05-04-24#camel-1.0.0#e1ba889/camel-core/src/main/java/org/apache/camel/spi/Unmarshaller.java,F:/corpus/camel/camel#2009-01-20-05-04-24#camel-1.1.0#52049de/camel-core/src/main/java/org/apache/camel/spi/Unmarshaller.java,0,0,0,0,1,0,0,0,0,0,0,0,0,YES,0,0,0,0,0,0,0,0,0,0,0,0,0,0,0,0,0,0,0,0,0,0,0,0,0,0,0,0,0,0,0,0,0,0,0,0,0,0,0,0,0,0,0,0,0,0,0,0,3,32
camel,camel-1.0.0,camel-1.1.0,F:/corpus/camel/camel#2009-01-20-05-04-24#camel-1.0.0#e1ba889/camel-core/src/main/java/org/apache/camel/spi/XmlMarshaller.java,F:/corpus/camel/camel#2009-01-20-05-04-24#camel-1.1.0#52049de/camel-core/src/main/java/org/apache/camel/spi/XmlMarshaller.java,0,0,0,0,1,0,0,0,0,0,0,0,0,YES,0,0,0,0,0,0,0,0,0,0,0,0,0,0,0,0,0,0,0,0,0,0,0,0,0,0,0,0,0,0,0,0,0,0,0,0,0,0,0,0,0,0,0,0,0,0,0,0,9,40
camel,camel-1.0.0,camel-1.1.0,F:/corpus/camel/camel#2009-01-20-05-04-24#camel-1.0.0#e1ba889/camel-core/src/main/java/org/apache/camel/spi/XmlUnmarshaller.java,F:/corpus/camel/camel#2009-01-20-05-04-24#camel-1.1.0#52049de/camel-core/src/main/java/org/apache/camel/spi/XmlUnmarshaller.java,0,0,0,0,1,0,0,0,0,0,0,0,0,YES,0,0,0,0,0,0,0,0,0,0,0,0,0,0,0,0,0,0,0,0,0,0,0,0,0,0,0,0,0,0,0,0,0,0,0,0,0,0,0,0,0,0,0,0,0,0,0,0,7,44
camel,camel-1.0.0,camel-1.1.0,F:/corpus/camel/camel#2009-01-20-05-04-24#camel-1.0.0#e1ba889/camel-core/src/main/java/org/apache/camel/util/CollectionHelper.java,F:/corpus/camel/camel#2009-01-20-05-04-24#camel-1.1.0#52049de/camel-core/src/main/java/org/apache/camel/util/CollectionHelper.java,0,0,0,0,0,0,0,0,0,0,0,0,0,YES,0,0,0,0,0,0,0,0,0,0,0,0,0,0,0,0,1,0,1,0,0,0,0,0,0,0,0,0,0,0,0,0,0,0,0,0,0,0,0,0,0,0,0,0,0,0,0,0,14,56
camel,camel-1.0.0,camel-1.1.0,F:/corpus/camel/camel#2009-01-20-05-04-24#camel-1.0.0#e1ba889/camel-core/src/main/java/org/apache/camel/util/ExchangeHelper.java,F:/corpus/camel/camel#2009-01-20-05-04-24#camel-1.1.0#52049de/camel-core/src/main/java/org/apache/camel/util/ExchangeHelper.java,0,0,0,0,0,1,0,0,0,0,0,0,0,YES,0,0,0,0,4,0,0,0,0,0,0,0,0,0,0,0,1,0,1,0,0,0,0,0,0,0,0,0,0,0,0,0,0,0,0,0,0,0,0,0,0,0,2,0,0,0,1,0,66,56
camel,camel-1.0.0,camel-1.1.0,F:/corpus/camel/camel#2009-01-20-05-04-24#camel-1.0.0#e1ba889/camel-core/src/main/java/org/apache/camel/util/ExpressionComparator.java,F:/corpus/camel/camel#2009-01-20-05-04-24#camel-1.1.0#52049de/camel-core/src/main/java/org/apache/camel/util/ExpressionComparator.java,0,0,0,0,0,0,0,0,0,0,0,0,0,YES,0,0,0,0,0,0,0,0,0,0,0,0,0,0,0,0,0,0,0,0,0,0,0,0,0,0,0,0,0,0,0,0,0,0,0,0,0,0,0,0,0,0,0,0,0,0,0,0,6,43
camel,camel-1.0.0,camel-1.1.0,F:/corpus/camel/camel#2009-01-20-05-04-24#camel-1.0.0#e1ba889/camel-core/src/main/java/org/apache/camel/util/ExpressionHelper.java,F:/corpus/camel/camel#2009-01-20-05-04-24#camel-1.1.0#52049de/camel-core/src/main/java/org/apache/camel/util/ExpressionHelper.java,0,0,0,0,0,1,0,0,0,0,0,0,0,YES,0,0,0,0,0,0,0,0,0,0,0,0,0,0,0,0,1,0,1,0,0,0,0,0,0,0,0,0,0,0,0,0,0,0,0,0,0,0,0,0,0,0,0,0,0,0,0,0,13,53
camel,camel-1.0.0,camel-1.1.0,F:/corpus/camel/camel#2009-01-20-05-04-24#camel-1.0.0#e1ba889/camel-core/src/main/java/org/apache/camel/util/ExpressionListComparator.java,F:/corpus/camel/camel#2009-01-20-05-04-24#camel-1.1.0#52049de/camel-core/src/main/java/org/apache/camel/util/ExpressionListComparator.java,0,0,0,0,0,0,0,0,0,0,0,0,0,YES,0,0,0,0,0,0,0,0,0,1,0,0,0,0,0,1,0,0,0,0,0,0,0,0,0,0,3,0,0,0,1,0,0,0,0,0,0,0,0,0,0,0,0,0,0,0,0,1,13,51
camel,camel-1.0.0,camel-1.1.0,F:/corpus/camel/camel#2009-01-20-05-04-24#camel-1.0.0#e1ba889/camel-core/src/main/java/org/apache/camel/util/FactoryFinder.java,F:/corpus/camel/camel#2009-01-20-05-04-24#camel-1.1.0#52049de/camel-core/src/main/java/org/apache/camel/util/FactoryFinder.java,0,0,0,0,0,2,0,0,0,0,0,0,0,YES,0,0,0,0,5,0,0,0,0,0,0,0,0,0,0,0,0,0,0,0,0,0,0,0,0,0,0,0,0,0,0,0,0,0,0,0,0,0,0,0,0,0,0,0,0,0,1,0,51,138
camel,camel-1.0.0,camel-1.1.0,F:/corpus/camel/camel#2009-01-20-05-04-24#camel-1.0.0#e1ba889/camel-core/src/main/java/org/apache/camel/util/IntrospectionSupport.java,F:/corpus/camel/camel#2009-01-20-05-04-24#camel-1.1.0#52049de/camel-core/src/main/java/org/apache/camel/util/IntrospectionSupport.java,0,0,0,0,0,0,0,0,0,0,0,1,0,YES,0,0,0,0,0,0,0,0,0,0,0,0,0,0,0,0,1,0,1,0,0,0,0,0,0,0,0,0,0,0,0,0,0,0,0,0,0,0,0,0,0,0,0,0,0,0,0,0,105,292
camel,camel-1.0.0,camel-1.1.0,F:/corpus/camel/camel#2009-01-20-05-04-24#camel-1.0.0#e1ba889/camel-core/src/main/java/org/apache/camel/util/LRUCache.java,F:/corpus/camel/camel#2009-01-20-05-04-24#camel-1.1.0#52049de/camel-core/src/main/java/org/apache/camel/util/LRUCache.java,0,0,0,0,1,0,0,0,0,0,0,0,0,YES,0,0,0,0,0,0,0,0,0,0,0,0,0,0,0,0,0,0,0,0,0,0,0,0,0,0,0,0,0,0,0,0,0,0,0,0,0,0,0,0,0,0,0,0,0,0,0,0,2,63
camel,camel-1.0.0,camel-1.1.0,F:/corpus/camel/camel#2009-01-20-05-04-24#camel-1.0.0#e1ba889/camel-core/src/main/java/org/apache/camel/util/NoFactoryAvailableException.java,F:/corpus/camel/camel#2009-01-20-05-04-24#camel-1.1.0#52049de/camel-core/src/main/java/org/apache/camel/util/NoFactoryAvailableException.java,0,0,0,0,0,0,0,0,0,0,0,0,0,YES,0,0,0,0,0,0,0,0,0,0,0,0,0,0,0,0,0,0,0,0,0,0,0,0,0,0,0,0,0,0,0,0,0,0,0,0,0,0,0,0,0,0,0,0,0,0,0,0,2,38
camel,camel-1.0.0,camel-1.1.0,F:/corpus/camel/camel#2009-01-20-05-04-24#camel-1.0.0#e1ba889/camel-core/src/main/java/org/apache/camel/util/ObjectHelper.java,F:/corpus/camel/camel#2009-01-20-05-04-24#camel-1.1.0#52049de/camel-core/src/main/java/org/apache/camel/util/ObjectHelper.java,0,0,0,0,0,1,0,0,0,0,0,2,0,YES,0,0,0,0,5,0,0,0,1,0,0,0,0,0,0,1,1,0,1,1,0,1,0,0,0,0,0,0,0,0,0,0,0,0,0,0,0,0,0,0,0,0,0,0,0,0,3,0,132,296
camel,camel-1.0.0,camel-1.1.0,F:/corpus/camel/camel#2009-01-20-05-04-24#camel-1.0.0#e1ba889/camel-core/src/main/java/org/apache/camel/util/ProducerCache.java,F:/corpus/camel/camel#2009-01-20-05-04-24#camel-1.1.0#52049de/camel-core/src/main/java/org/apache/camel/util/ProducerCache.java,0,0,0,0,0,0,0,0,0,0,0,0,0,YES,0,0,0,0,0,0,0,0,1,0,0,0,0,0,0,1,0,0,0,0,0,0,0,0,0,0,0,0,0,0,0,0,0,0,0,0,0,0,0,0,0,0,0,0,0,0,1,0,21,105
camel,camel-1.0.0,camel-1.1.0,F:/corpus/camel/camel#2009-01-20-05-04-24#camel-1.0.0#e1ba889/camel-core/src/main/java/org/apache/camel/util/ResolverUtil.java,F:/corpus/camel/camel#2009-01-20-05-04-24#camel-1.1.0#52049de/camel-core/src/main/java/org/apache/camel/util/ResolverUtil.java,0,0,0,0,0,0,0,0,0,0,0,0,0,YES,0,0,0,0,0,0,0,0,1,0,0,0,0,0,0,0,0,0,0,1,0,0,0,0,0,0,0,0,0,0,0,0,0,0,0,0,0,0,0,0,0,0,0,0,0,0,6,0,149,328
camel,camel-1.0.0,camel-1.1.0,F:/corpus/camel/camel#2009-01-20-05-04-24#camel-1.0.0#e1ba889/camel-core/src/main/java/org/apache/camel/util/ServiceHelper.java,F:/corpus/camel/camel#2009-01-20-05-04-24#camel-1.1.0#52049de/camel-core/src/main/java/org/apache/camel/util/ServiceHelper.java,0,0,0,0,0,0,0,0,0,0,0,4,0,YES,0,0,0,0,1,0,0,0,1,0,0,0,0,0,0,0,1,0,1,0,0,0,0,0,0,0,0,0,0,0,0,0,0,0,0,0,0,0,0,0,0,0,0,0,0,0,2,0,38,112
camel,camel-1.0.0,camel-1.1.0,F:/corpus/camel/camel#2009-01-20-05-04-24#camel-1.0.0#e1ba889/camel-core/src/main/java/org/apache/camel/util/Time.java,F:/corpus/camel/camel#2009-01-20-05-04-24#camel-1.1.0#52049de/camel-core/src/main/java/org/apache/camel/util/Time.java,0,0,0,0,0,0,0,0,0,0,0,0,0,YES,0,0,0,0,0,0,0,0,0,0,0,0,0,0,0,0,0,0,0,0,0,0,0,0,0,0,0,0,0,0,0,0,0,0,0,0,0,0,0,0,0,0,0,0,0,0,0,0,14,91
camel,camel-1.0.0,camel-1.1.0,F:/corpus/camel/camel#2009-01-20-05-04-24#camel-1.0.0#e1ba889/camel-core/src/main/java/org/apache/camel/util/URISupport.java,F:/corpus/camel/camel#2009-01-20-05-04-24#camel-1.1.0#52049de/camel-core/src/main/java/org/apache/camel/util/URISupport.java,1,0,0,0,1,0,0,0,0,0,0,0,0,YES,0,0,0,0,0,0,0,0,0,0,0,0,0,0,0,0,0,0,0,0,0,0,0,0,0,0,0,0,0,0,0,0,0,0,0,0,0,0,0,0,0,0,0,2,0,0,0,0,45,346
camel,camel-1.0.0,camel-1.1.0,F:/corpus/camel/camel#2009-01-20-05-04-24#camel-1.0.0#e1ba889/camel-core/src/main/java/org/apache/camel/util/UuidGenerator.java,F:/corpus/camel/camel#2009-01-20-05-04-24#camel-1.1.0#52049de/camel-core/src/main/java/org/apache/camel/util/UuidGenerator.java,0,0,0,0,0,0,0,0,0,0,0,0,0,YES,0,0,0,0,0,0,0,0,1,0,0,0,0,0,0,0,0,0,0,0,0,0,0,0,0,0,0,0,0,0,0,0,0,0,0,0,0,0,0,0,0,0,0,0,0,0,0,0,41,112
camel,camel-1.0.0,camel-1.1.0,F:/corpus/camel/camel#2009-01-20-05-04-24#camel-1.0.0#e1ba889/camel-core/src/main/java/org/apache/camel/view/RouteDotGenerator.java,F:/corpus/camel/camel#2009-01-20-05-04-24#camel-1.1.0#52049de/camel-core/src/main/java/org/apache/camel/view/RouteDotGenerator.java,0,0,0,0,0,0,0,0,0,0,0,0,0,YES,0,0,0,0,0,0,0,0,1,0,0,0,0,0,0,0,0,0,0,0,0,0,0,0,0,0,0,0,0,0,0,0,0,0,0,0,0,0,0,0,0,0,0,0,0,0,1,0,16,83
camel,camel-1.0.0,camel-1.1.0,F:/corpus/camel/camel#2009-01-20-05-04-24#camel-1.0.0#e1ba889/components/camel-activemq/src/main/java/org/apache/camel/component/activemq/ActiveMQComponent.java,F:/corpus/camel/camel#2009-01-20-05-04-24#camel-1.1.0#52049de/components/camel-activemq/src/main/java/org/apache/camel/component/activemq/ActiveMQComponent.java,0,0,0,0,0,0,0,0,0,0,0,0,0,YES,0,0,0,0,0,0,0,0,0,0,0,0,0,0,0,0,0,0,0,0,0,0,0,0,0,0,0,0,0,0,0,0,0,0,0,0,0,0,0,0,0,0,0,0,0,0,0,0,2,77
camel,camel-1.0.0,camel-1.1.0,F:/corpus/camel/camel#2009-01-20-05-04-24#camel-1.0.0#e1ba889/components/camel-activemq/src/main/java/org/apache/camel/component/activemq/ActiveMQConfiguration.java,F:/corpus/camel/camel#2009-01-20-05-04-24#camel-1.1.0#52049de/components/camel-activemq/src/main/java/org/apache/camel/component/activemq/ActiveMQConfiguration.java,0,0,0,0,0,0,0,0,0,0,0,0,0,YES,0,0,0,0,0,0,0,0,0,0,0,0,0,0,0,0,0,0,0,0,0,0,0,0,0,0,0,0,0,0,0,0,0,0,0,0,0,0,0,0,0,0,0,0,0,0,0,0,2,76
camel,camel-1.0.0,camel-1.1.0,F:/corpus/camel/camel#2009-01-20-05-04-24#camel-1.0.0#e1ba889/components/camel-bam/src/main/java/org/apache/camel/bam/ActivityBuilder.java,F:/corpus/camel/camel#2009-01-20-05-04-24#camel-1.1.0#52049de/components/camel-bam/src/main/java/org/apache/camel/bam/ActivityBuilder.java,0,0,0,0,0,0,0,0,0,0,0,0,0,YES,0,0,0,0,0,0,0,0,0,0,0,0,0,0,0,0,0,0,0,0,0,0,0,0,0,0,0,0,0,0,0,0,0,0,0,0,0,0,0,0,0,0,0,0,0,0,0,0,5,110
camel,camel-1.0.0,camel-1.1.0,F:/corpus/camel/camel#2009-01-20-05-04-24#camel-1.0.0#e1ba889/components/camel-bam/src/main/java/org/apache/camel/bam/ActivityLifecycle.java,F:/corpus/camel/camel#2009-01-20-05-04-24#camel-1.1.0#52049de/components/camel-bam/src/main/java/org/apache/camel/bam/ActivityLifecycle.java,0,0,0,0,0,0,0,0,0,0,0,0,0,YES,0,0,0,0,0,0,0,0,0,0,0,0,0,0,0,0,0,0,0,0,0,0,0,0,0,0,0,0,0,0,0,0,0,0,0,0,0,0,0,0,0,0,0,0,0,0,0,0,1,24
camel,camel-1.0.0,camel-1.1.0,F:/corpus/camel/camel#2009-01-20-05-04-24#camel-1.0.0#e1ba889/components/camel-bam/src/main/java/org/apache/camel/bam/ProcessBuilder.java,F:/corpus/camel/camel#2009-01-20-05-04-24#camel-1.1.0#52049de/components/camel-bam/src/main/java/org/apache/camel/bam/ProcessBuilder.java,0,0,0,0,1,0,0,0,0,0,0,0,0,YES,0,0,0,0,0,0,0,0,0,0,0,0,0,0,0,0,0,0,0,0,0,0,0,0,0,0,0,0,0,0,0,0,0,0,0,0,0,0,0,0,0,0,0,0,0,0,0,0,23,179
camel,camel-1.0.0,camel-1.1.0,F:/corpus/camel/camel#2009-01-20-05-04-24#camel-1.0.0#e1ba889/components/camel-bam/src/main/java/org/apache/camel/bam/TimeExpression.java,F:/corpus/camel/camel#2009-01-20-05-04-24#camel-1.1.0#52049de/components/camel-bam/src/main/java/org/apache/camel/bam/TimeExpression.java,0,0,0,0,1,0,0,0,0,0,0,0,0,YES,0,0,0,0,0,0,0,0,0,0,0,0,0,0,0,0,0,0,0,0,0,0,0,0,0,0,0,0,0,0,0,0,0,0,0,0,0,0,0,0,0,0,0,0,0,0,0,0,5,86
camel,camel-1.0.0,camel-1.1.0,F:/corpus/camel/camel#2009-01-20-05-04-24#camel-1.0.0#e1ba889/components/camel-bam/src/main/java/org/apache/camel/bam/model/ActivityDefinition.java,F:/corpus/camel/camel#2009-01-20-05-04-24#camel-1.1.0#52049de/components/camel-bam/src/main/java/org/apache/camel/bam/model/ActivityDefinition.java,0,0,0,0,0,0,0,0,0,0,0,0,0,YES,0,0,0,0,0,0,0,0,0,0,0,0,0,0,0,0,0,0,0,0,0,0,0,0,0,0,0,0,0,0,0,0,0,0,0,0,0,0,0,0,0,0,0,0,0,0,0,0,5,64
camel,camel-1.0.0,camel-1.1.0,F:/corpus/camel/camel#2009-01-20-05-04-24#camel-1.0.0#e1ba889/components/camel-bam/src/main/java/org/apache/camel/bam/model/ActivityState.java,F:/corpus/camel/camel#2009-01-20-05-04-24#camel-1.1.0#52049de/components/camel-bam/src/main/java/org/apache/camel/bam/model/ActivityState.java,0,0,0,0,0,0,0,0,0,0,0,0,0,YES,0,0,0,0,1,0,0,0,0,0,0,0,0,0,0,0,0,0,0,0,0,0,0,0,0,0,0,0,0,0,0,0,0,0,0,0,0,0,0,0,0,0,0,0,0,0,1,0,27,179
camel,camel-1.0.0,camel-1.1.0,F:/corpus/camel/camel#2009-01-20-05-04-24#camel-1.0.0#e1ba889/components/camel-bam/src/main/java/org/apache/camel/bam/model/EntitySupport.java,F:/corpus/camel/camel#2009-01-20-05-04-24#camel-1.1.0#52049de/components/camel-bam/src/main/java/org/apache/camel/bam/model/EntitySupport.java,0,0,0,0,0,1,0,0,0,0,0,0,0,YES,0,0,0,0,0,0,0,0,0,0,0,0,0,0,0,0,0,0,0,0,0,0,0,0,0,0,0,0,0,0,0,0,0,0,0,0,0,0,0,0,0,0,0,0,0,0,0,0,1,43
camel,camel-1.0.0,camel-1.1.0,F:/corpus/camel/camel#2009-01-20-05-04-24#camel-1.0.0#e1ba889/components/camel-bam/src/main/java/org/apache/camel/bam/model/ProcessDefinition.java,F:/corpus/camel/camel#2009-01-20-05-04-24#camel-1.1.0#52049de/components/camel-bam/src/main/java/org/apache/camel/bam/model/ProcessDefinition.java,0,0,0,0,0,0,0,0,0,0,0,0,0,YES,0,0,0,0,0,0,0,0,1,0,0,0,0,0,0,0,0,1,0,0,0,0,0,0,0,0,0,0,0,0,0,0,0,0,0,0,0,0,0,0,0,0,0,0,0,0,1,0,13,80
camel,camel-1.0.0,camel-1.1.0,F:/corpus/camel/camel#2009-01-20-05-04-24#camel-1.0.0#e1ba889/components/camel-bam/src/main/java/org/apache/camel/bam/model/ProcessInstance.java,F:/corpus/camel/camel#2009-01-20-05-04-24#camel-1.1.0#52049de/components/camel-bam/src/main/java/org/apache/camel/bam/model/ProcessInstance.java,0,0,0,0,0,1,0,0,0,0,0,0,0,YES,0,0,0,0,6,2,0,0,1,0,0,0,0,0,0,0,0,0,0,0,0,0,0,0,0,0,0,0,1,0,0,0,0,0,1,0,0,0,0,0,0,0,1,1,0,0,0,0,48,123
camel,camel-1.0.0,camel-1.1.0,F:/corpus/camel/camel#2009-01-20-05-04-24#camel-1.0.0#e1ba889/components/camel-bam/src/main/java/org/apache/camel/bam/model/TemporalEntity.java,F:/corpus/camel/camel#2009-01-20-05-04-24#camel-1.1.0#52049de/components/camel-bam/src/main/java/org/apache/camel/bam/model/TemporalEntity.java,0,0,0,0,0,0,0,0,0,0,0,0,0,YES,0,0,0,0,0,0,0,0,0,0,0,0,0,0,0,0,0,0,0,0,0,0,0,0,0,0,0,0,0,0,0,0,0,0,0,0,0,0,0,0,0,0,0,0,0,0,0,0,8,54
camel,camel-1.0.0,camel-1.1.0,F:/corpus/camel/camel#2009-01-20-05-04-24#camel-1.0.0#e1ba889/components/camel-bam/src/main/java/org/apache/camel/bam/processor/ActivityMonitorEngine.java,F:/corpus/camel/camel#2009-01-20-05-04-24#camel-1.1.0#52049de/components/camel-bam/src/main/java/org/apache/camel/bam/processor/ActivityMonitorEngine.java,0,0,1,0,0,0,0,0,0,0,0,0,0,YES,0,0,0,0,0,0,0,0,1,0,0,0,0,0,0,2,0,0,0,0,0,0,0,0,0,0,0,0,0,0,0,0,0,0,0,0,0,0,0,0,0,0,0,0,0,0,6,0,37,141
camel,camel-1.0.0,camel-1.1.0,F:/corpus/camel/camel#2009-01-20-05-04-24#camel-1.0.0#e1ba889/components/camel-bam/src/main/java/org/apache/camel/bam/processor/BamProcessorSupport.java,F:/corpus/camel/camel#2009-01-20-05-04-24#camel-1.1.0#52049de/components/camel-bam/src/main/java/org/apache/camel/bam/processor/BamProcessorSupport.java,0,0,0,0,1,1,0,0,0,0,0,0,0,YES,0,0,0,0,4,1,0,0,1,0,0,0,0,0,0,0,0,0,0,0,0,0,0,0,0,0,0,0,0,0,0,0,0,0,0,0,0,0,0,0,0,0,1,7,0,0,0,0,48,116
camel,camel-1.0.0,camel-1.1.0,F:/corpus/camel/camel#2009-01-20-05-04-24#camel-1.0.0#e1ba889/components/camel-bam/src/main/java/org/apache/camel/bam/processor/JpaBamProcessor.java,F:/corpus/camel/camel#2009-01-20-05-04-24#camel-1.1.0#52049de/components/camel-bam/src/main/java/org/apache/camel/bam/processor/JpaBamProcessor.java,0,0,0,0,0,0,0,0,0,0,0,0,0,YES,0,0,0,0,0,0,0,0,1,0,0,0,0,0,0,1,0,0,0,0,0,0,0,0,0,0,0,0,0,0,0,0,0,0,0,0,0,0,0,0,0,0,0,0,0,0,1,0,9,61
camel,camel-1.0.0,camel-1.1.0,F:/corpus/camel/camel#2009-01-20-05-04-24#camel-1.0.0#e1ba889/components/camel-bam/src/main/java/org/apache/camel/bam/processor/JpaBamProcessorSupport.java,F:/corpus/camel/camel#2009-01-20-05-04-24#camel-1.1.0#52049de/components/camel-bam/src/main/java/org/apache/camel/bam/processor/JpaBamProcessorSupport.java,1,0,0,0,1,2,0,0,0,0,0,0,0,YES,0,0,0,0,3,2,0,0,0,0,0,0,1,0,0,0,0,0,0,0,0,0,0,0,0,0,0,0,0,0,0,0,0,0,0,0,0,0,0,0,0,0,4,3,0,0,0,0,42,139
camel,camel-1.0.0,camel-1.1.0,F:/corpus/camel/camel#2009-01-20-05-04-24#camel-1.0.0#e1ba889/components/camel-bam/src/main/java/org/apache/camel/bam/processor/NoCorrelationKeyException.java,F:/corpus/camel/camel#2009-01-20-05-04-24#camel-1.1.0#52049de/components/camel-bam/src/main/java/org/apache/camel/bam/processor/NoCorrelationKeyException.java,0,0,0,0,0,0,0,0,0,0,0,0,0,YES,0,0,0,0,0,0,0,0,0,0,0,0,0,0,0,0,0,0,0,0,0,0,0,0,0,0,0,1,0,0,0,0,0,0,1,1,1,0,0,0,0,0,1,0,0,0,1,0,13,48
camel,camel-1.0.0,camel-1.1.0,F:/corpus/camel/camel#2009-01-20-05-04-24#camel-1.0.0#e1ba889/components/camel-bam/src/main/java/org/apache/camel/bam/processor/ProcessContext.java,F:/corpus/camel/camel#2009-01-20-05-04-24#camel-1.1.0#52049de/components/camel-bam/src/main/java/org/apache/camel/bam/processor/ProcessContext.java,1,0,0,0,0,0,0,0,0,0,0,0,0,YES,0,0,0,0,0,0,0,0,0,0,0,0,0,0,0,0,0,0,0,0,0,0,0,0,0,0,0,0,0,0,0,0,0,0,0,0,0,0,0,0,0,0,0,0,0,0,0,0,2,103
camel,camel-1.0.0,camel-1.1.0,F:/corpus/camel/camel#2009-01-20-05-04-24#camel-1.0.0#e1ba889/components/camel-bam/src/main/java/org/apache/camel/bam/rules/ActivityRules.java,F:/corpus/camel/camel#2009-01-20-05-04-24#camel-1.1.0#52049de/components/camel-bam/src/main/java/org/apache/camel/bam/rules/ActivityRules.java,0,0,0,0,0,0,0,0,0,0,0,0,0,YES,0,0,0,0,0,0,0,0,1,0,0,0,1,0,0,0,0,0,0,0,0,0,0,0,0,0,0,0,0,0,0,0,0,0,0,0,0,0,0,0,0,0,3,1,0,0,0,0,12,110
camel,camel-1.0.0,camel-1.1.0,F:/corpus/camel/camel#2009-01-20-05-04-24#camel-1.0.0#e1ba889/components/camel-bam/src/main/java/org/apache/camel/bam/rules/ProcessRules.java,F:/corpus/camel/camel#2009-01-20-05-04-24#camel-1.1.0#52049de/components/camel-bam/src/main/java/org/apache/camel/bam/rules/ProcessRules.java,0,0,0,0,0,0,0,0,0,0,0,0,0,YES,0,0,0,0,0,0,0,0,0,0,0,0,0,0,0,0,0,0,0,0,0,0,0,0,0,0,0,0,0,0,0,0,0,0,0,0,0,0,0,0,0,0,0,0,0,0,0,0,7,74
camel,camel-1.0.0,camel-1.1.0,F:/corpus/camel/camel#2009-01-20-05-04-24#camel-1.0.0#e1ba889/components/camel-bam/src/main/java/org/apache/camel/bam/rules/TemporalRule.java,F:/corpus/camel/camel#2009-01-20-05-04-24#camel-1.1.0#52049de/components/camel-bam/src/main/java/org/apache/camel/bam/rules/TemporalRule.java,0,0,0,0,1,2,0,0,0,0,0,0,0,YES,0,0,0,0,0,1,0,0,1,0,0,0,1,0,0,1,0,0,0,0,0,0,0,0,0,0,0,0,0,0,0,0,0,0,0,1,0,0,0,2,0,0,3,7,0,0,2,0,25,167
camel,camel-1.0.0,camel-1.1.0,F:/corpus/camel/camel#2009-01-20-05-04-24#camel-1.0.0#e1ba889/components/camel-cxf/src/main/java/org/apache/camel/component/cxf/CxfBinding.java,F:/corpus/camel/camel#2009-01-20-05-04-24#camel-1.1.0#52049de/components/camel-cxf/src/main/java/org/apache/camel/component/cxf/CxfBinding.java,0,0,0,0,1,0,0,0,0,0,0,0,0,YES,0,0,0,0,0,0,0,0,0,0,0,0,0,0,0,0,0,0,0,0,0,0,0,0,0,0,0,0,0,0,0,0,0,0,0,0,0,0,0,0,0,0,0,0,0,0,0,0,4,86
camel,camel-1.0.0,camel-1.1.0,F:/corpus/camel/camel#2009-01-20-05-04-24#camel-1.0.0#e1ba889/components/camel-cxf/src/main/java/org/apache/camel/component/cxf/CxfComponent.java,F:/corpus/camel/camel#2009-01-20-05-04-24#camel-1.1.0#52049de/components/camel-cxf/src/main/java/org/apache/camel/component/cxf/CxfComponent.java,0,0,0,0,1,0,0,0,0,0,0,0,0,YES,0,0,0,0,0,0,0,0,0,0,0,0,0,0,0,0,0,0,0,0,0,0,0,0,0,0,0,0,0,0,0,0,0,0,0,0,0,0,0,0,0,0,0,0,0,0,0,0,2,81
camel,camel-1.0.0,camel-1.1.0,F:/corpus/camel/camel#2009-01-20-05-04-24#camel-1.0.0#e1ba889/components/camel-cxf/src/main/java/org/apache/camel/component/cxf/CxfConstants.java,F:/corpus/camel/camel#2009-01-20-05-04-24#camel-1.1.0#52049de/components/camel-cxf/src/main/java/org/apache/camel/component/cxf/CxfConstants.java,0,0,0,0,1,0,0,0,0,0,0,0,0,YES,0,0,0,0,0,0,0,0,0,0,0,0,0,0,0,0,0,0,0,0,0,0,0,0,0,0,0,0,0,0,0,0,0,0,0,0,0,0,0,0,0,0,0,0,0,0,0,0,3,31
camel,camel-1.0.0,camel-1.1.0,F:/corpus/camel/camel#2009-01-20-05-04-24#camel-1.0.0#e1ba889/components/camel-cxf/src/main/java/org/apache/camel/component/cxf/CxfConsumer.java,F:/corpus/camel/camel#2009-01-20-05-04-24#camel-1.1.0#52049de/components/camel-cxf/src/main/java/org/apache/camel/component/cxf/CxfConsumer.java,0,0,0,0,0,0,0,0,0,0,0,0,0,YES,0,0,0,0,0,0,0,0,0,0,0,0,0,0,0,0,0,0,0,0,0,0,0,0,0,0,0,0,0,0,0,0,0,0,0,0,0,0,0,0,0,0,0,0,0,0,0,0,8,72
camel,camel-1.0.0,camel-1.1.0,F:/corpus/camel/camel#2009-01-20-05-04-24#camel-1.0.0#e1ba889/components/camel-cxf/src/main/java/org/apache/camel/component/cxf/CxfEndpoint.java,F:/corpus/camel/camel#2009-01-20-05-04-24#camel-1.1.0#52049de/components/camel-cxf/src/main/java/org/apache/camel/component/cxf/CxfEndpoint.java,0,0,0,0,0,0,0,0,0,0,0,0,0,YES,0,0,0,0,0,0,0,0,0,0,0,0,0,0,0,0,0,0,0,0,0,0,0,0,0,0,0,0,0,0,0,0,0,0,0,0,0,0,0,0,0,0,0,0,0,0,0,0,7,97
camel,camel-1.0.0,camel-1.1.0,F:/corpus/camel/camel#2009-01-20-05-04-24#camel-1.0.0#e1ba889/components/camel-cxf/src/main/java/org/apache/camel/component/cxf/CxfExchange.java,F:/corpus/camel/camel#2009-01-20-05-04-24#camel-1.1.0#52049de/components/camel-cxf/src/main/java/org/apache/camel/component/cxf/CxfExchange.java,0,0,0,1,0,0,0,0,0,0,0,0,0,YES,0,0,0,0,0,0,0,0,0,0,0,0,0,0,0,0,0,0,0,0,0,0,0,0,0,0,0,0,0,0,0,0,0,0,0,0,0,0,0,0,0,0,0,0,0,0,0,0,2,138
camel,camel-1.0.0,camel-1.1.0,F:/corpus/camel/camel#2009-01-20-05-04-24#camel-1.0.0#e1ba889/components/camel-cxf/src/main/java/org/apache/camel/component/cxf/CxfInvokeComponent.java,F:/corpus/camel/camel#2009-01-20-05-04-24#camel-1.1.0#52049de/components/camel-cxf/src/main/java/org/apache/camel/component/cxf/CxfInvokeComponent.java,0,0,0,0,1,0,0,0,0,0,0,0,0,YES,0,0,0,0,1,0,0,0,0,0,0,0,0,0,0,0,0,0,0,0,0,0,0,0,0,0,0,0,0,0,0,0,0,0,2,0,0,0,0,0,0,0,0,0,0,0,1,0,40,85
camel,camel-1.0.0,camel-1.1.0,F:/corpus/camel/camel#2009-01-20-05-04-24#camel-1.0.0#e1ba889/components/camel-cxf/src/main/java/org/apache/camel/component/cxf/CxfInvokeConsumer.java,F:/corpus/camel/camel#2009-01-20-05-04-24#camel-1.1.0#52049de/components/camel-cxf/src/main/java/org/apache/camel/component/cxf/CxfInvokeConsumer.java,0,0,0,0,0,0,0,0,0,0,0,0,0,YES,0,0,0,0,0,0,0,0,0,0,0,0,0,0,0,0,0,0,0,0,0,0,0,0,0,0,0,0,0,0,0,0,0,0,0,0,0,0,0,0,0,0,0,0,0,0,0,0,13,78
camel,camel-1.0.0,camel-1.1.0,F:/corpus/camel/camel#2009-01-20-05-04-24#camel-1.0.0#e1ba889/components/camel-cxf/src/main/java/org/apache/camel/component/cxf/CxfInvokeEndpoint.java,F:/corpus/camel/camel#2009-01-20-05-04-24#camel-1.1.0#52049de/components/camel-cxf/src/main/java/org/apache/camel/component/cxf/CxfInvokeEndpoint.java,0,0,0,0,0,0,0,0,0,0,0,0,0,YES,0,0,0,0,0,0,0,0,0,0,0,0,0,0,0,0,0,0,0,0,0,0,0,0,0,0,0,0,0,0,0,0,0,0,0,0,0,0,0,0,0,0,0,0,0,0,0,0,8,97
camel,camel-1.0.0,camel-1.1.0,F:/corpus/camel/camel#2009-01-20-05-04-24#camel-1.0.0#e1ba889/components/camel-cxf/src/main/java/org/apache/camel/component/cxf/CxfInvokeProducer.java,F:/corpus/camel/camel#2009-01-20-05-04-24#camel-1.1.0#52049de/components/camel-cxf/src/main/java/org/apache/camel/component/cxf/CxfInvokeProducer.java,0,0,0,0,0,1,0,0,0,0,0,0,0,YES,0,0,0,0,0,0,0,0,0,0,0,0,0,0,0,0,0,0,0,0,0,0,0,0,0,0,0,0,0,0,0,0,0,0,0,0,0,0,0,0,0,0,1,3,0,0,0,0,14,88
camel,camel-1.0.0,camel-1.1.0,F:/corpus/camel/camel#2009-01-20-05-04-24#camel-1.0.0#e1ba889/components/camel-cxf/src/main/java/org/apache/camel/component/cxf/CxfMessage.java,F:/corpus/camel/camel#2009-01-20-05-04-24#camel-1.1.0#52049de/components/camel-cxf/src/main/java/org/apache/camel/component/cxf/CxfMessage.java,0,0,0,0,0,0,0,0,0,0,0,0,0,YES,0,0,0,0,0,0,0,0,0,0,0,0,0,0,0,0,0,0,0,0,0,0,0,0,0,0,0,0,0,0,0,0,0,0,0,0,0,0,0,0,0,0,0,0,0,0,0,0,12,93
camel,camel-1.0.0,camel-1.1.0,F:/corpus/camel/camel#2009-01-20-05-04-24#camel-1.0.0#e1ba889/components/camel-cxf/src/main/java/org/apache/camel/component/cxf/CxfProducer.java,F:/corpus/camel/camel#2009-01-20-05-04-24#camel-1.1.0#52049de/components/camel-cxf/src/main/java/org/apache/camel/component/cxf/CxfProducer.java,0,0,0,0,0,0,0,0,0,0,0,0,0,YES,0,0,0,0,0,0,0,0,0,0,0,0,0,0,0,0,0,0,0,0,0,0,0,0,0,0,0,0,0,0,0,0,0,0,0,0,0,0,0,0,0,0,0,0,0,0,0,0,15,131
camel,camel-1.0.0,camel-1.1.0,F:/corpus/camel/camel#2009-01-20-05-04-24#camel-1.0.0#e1ba889/components/camel-cxf/src/main/java/org/apache/camel/component/cxf/transport/CamelConduit.java,F:/corpus/camel/camel#2009-01-20-05-04-24#camel-1.1.0#52049de/components/camel-cxf/src/main/java/org/apache/camel/component/cxf/transport/CamelConduit.java,0,0,0,0,1,0,0,0,0,0,0,0,0,YES,0,0,0,0,0,0,0,0,0,0,0,0,0,0,0,0,0,0,0,0,0,0,0,0,0,0,0,0,0,0,0,0,0,0,0,0,0,0,0,0,0,0,0,0,0,0,0,0,96,294
camel,camel-1.0.0,camel-1.1.0,F:/corpus/camel/camel#2009-01-20-05-04-24#camel-1.0.0#e1ba889/components/camel-cxf/src/main/java/org/apache/camel/component/cxf/transport/CamelConstants.java,F:/corpus/camel/camel#2009-01-20-05-04-24#camel-1.1.0#52049de/components/camel-cxf/src/main/java/org/apache/camel/component/cxf/transport/CamelConstants.java,1,0,0,0,0,0,0,0,0,0,0,0,0,YES,0,0,0,0,0,0,0,0,0,0,0,0,0,0,0,0,0,0,0,0,0,0,0,0,0,0,0,0,0,0,0,0,0,0,0,0,0,0,0,0,0,0,0,0,0,0,0,0,2,48
camel,camel-1.0.0,camel-1.1.0,F:/corpus/camel/camel#2009-01-20-05-04-24#camel-1.0.0#e1ba889/components/camel-cxf/src/main/java/org/apache/camel/component/cxf/transport/CamelDestination.java,F:/corpus/camel/camel#2009-01-20-05-04-24#camel-1.1.0#52049de/components/camel-cxf/src/main/java/org/apache/camel/component/cxf/transport/CamelDestination.java,0,0,0,0,0,0,0,0,0,0,0,0,0,YES,0,0,0,0,0,0,0,0,0,0,0,0,0,0,0,0,0,0,0,0,0,0,0,0,0,0,0,0,0,0,0,0,0,0,0,0,0,0,0,0,0,0,0,0,0,0,0,0,46,248
camel,camel-1.0.0,camel-1.1.0,F:/corpus/camel/camel#2009-01-20-05-04-24#camel-1.0.0#e1ba889/components/camel-cxf/src/main/java/org/apache/camel/component/cxf/transport/CamelTransportBase.java,F:/corpus/camel/camel#2009-01-20-05-04-24#camel-1.1.0#52049de/components/camel-cxf/src/main/java/org/apache/camel/component/cxf/transport/CamelTransportBase.java,0,0,0,0,1,1,0,0,0,0,0,0,0,YES,0,0,0,0,0,0,0,0,0,0,0,0,0,0,0,0,0,0,0,0,0,0,0,0,0,0,0,0,0,0,0,0,0,0,0,0,0,0,0,0,0,0,0,0,0,0,0,0,104,183
camel,camel-1.0.0,camel-1.1.0,F:/corpus/camel/camel#2009-01-20-05-04-24#camel-1.0.0#e1ba889/components/camel-cxf/src/main/java/org/apache/camel/component/cxf/transport/CamelTransportFactory.java,F:/corpus/camel/camel#2009-01-20-05-04-24#camel-1.1.0#52049de/components/camel-cxf/src/main/java/org/apache/camel/component/cxf/transport/CamelTransportFactory.java,0,0,0,0,0,0,0,0,0,0,0,0,0,YES,0,0,0,0,0,0,0,0,0,0,0,0,0,0,0,0,0,0,0,0,0,0,0,0,0,0,0,0,0,0,0,0,0,0,0,0,0,0,0,0,0,0,0,0,0,0,0,0,13,88
camel,camel-1.0.0,camel-1.1.0,F:/corpus/camel/camel#2009-01-20-05-04-24#camel-1.0.0#e1ba889/components/camel-ftp/src/main/java/org/apache/camel/component/file/remote/FtpConsumer.java,F:/corpus/camel/camel#2009-01-20-05-04-24#camel-1.1.0#52049de/components/camel-ftp/src/main/java/org/apache/camel/component/file/remote/FtpConsumer.java,1,0,0,0,0,2,0,0,0,0,0,0,0,YES,0,0,0,0,0,0,0,0,0,0,0,0,0,0,0,0,0,0,0,0,0,0,0,0,0,0,0,0,0,0,0,0,0,0,0,0,0,0,0,0,0,0,0,0,0,0,0,0,18,122
camel,camel-1.0.0,camel-1.1.0,F:/corpus/camel/camel#2009-01-20-05-04-24#camel-1.0.0#e1ba889/components/camel-ftp/src/main/java/org/apache/camel/component/file/remote/FtpEndpoint.java,F:/corpus/camel/camel#2009-01-20-05-04-24#camel-1.1.0#52049de/components/camel-ftp/src/main/java/org/apache/camel/component/file/remote/FtpEndpoint.java,0,0,0,0,0,2,0,0,1,0,0,0,0,YES,0,0,0,0,0,0,0,0,1,0,0,0,0,0,0,0,0,0,0,0,0,0,0,0,0,0,0,0,0,0,0,0,0,0,0,0,0,0,0,0,0,0,0,1,0,0,5,0,12,55
camel,camel-1.0.0,camel-1.1.0,F:/corpus/camel/camel#2009-01-20-05-04-24#camel-1.0.0#e1ba889/components/camel-ftp/src/main/java/org/apache/camel/component/file/remote/FtpOperationFailedException.java,F:/corpus/camel/camel#2009-01-20-05-04-24#camel-1.1.0#52049de/components/camel-ftp/src/main/java/org/apache/camel/component/file/remote/FtpOperationFailedException.java,0,0,0,0,0,0,0,0,0,0,0,0,0,YES,0,0,0,0,0,0,0,0,0,0,0,0,0,0,0,0,0,0,0,0,0,0,0,0,0,0,0,0,0,0,0,0,0,0,0,0,0,0,0,0,0,0,0,0,0,0,0,0,2,48
camel,camel-1.0.0,camel-1.1.0,F:/corpus/camel/camel#2009-01-20-05-04-24#camel-1.0.0#e1ba889/components/camel-ftp/src/main/java/org/apache/camel/component/file/remote/FtpProducer.java,F:/corpus/camel/camel#2009-01-20-05-04-24#camel-1.1.0#52049de/components/camel-ftp/src/main/java/org/apache/camel/component/file/remote/FtpProducer.java,0,0,0,0,0,3,0,0,0,0,0,0,0,YES,0,0,0,0,0,0,1,0,0,0,0,0,0,0,0,1,0,0,0,0,0,0,0,0,0,0,0,0,0,0,0,0,0,0,0,0,0,0,0,0,0,0,0,0,0,1,0,0,20,95
camel,camel-1.0.0,camel-1.1.0,F:/corpus/camel/camel#2009-01-20-05-04-24#camel-1.0.0#e1ba889/components/camel-ftp/src/main/java/org/apache/camel/component/file/remote/RemoteFileBinding.java,F:/corpus/camel/camel#2009-01-20-05-04-24#camel-1.1.0#52049de/components/camel-ftp/src/main/java/org/apache/camel/component/file/remote/RemoteFileBinding.java,0,0,0,0,1,0,0,0,0,0,0,0,0,YES,0,0,0,0,0,0,0,0,0,0,0,0,0,0,0,0,0,0,0,0,0,0,0,0,0,0,0,0,0,0,0,0,0,0,0,0,0,0,0,0,0,0,0,0,0,0,0,0,2,26
camel,camel-1.0.0,camel-1.1.0,F:/corpus/camel/camel#2009-01-20-05-04-24#camel-1.0.0#e1ba889/components/camel-ftp/src/main/java/org/apache/camel/component/file/remote/RemoteFileComponent.java,F:/corpus/camel/camel#2009-01-20-05-04-24#camel-1.1.0#52049de/components/camel-ftp/src/main/java/org/apache/camel/component/file/remote/RemoteFileComponent.java,0,0,0,0,1,0,0,0,0,0,0,0,0,YES,0,0,0,0,1,0,0,0,0,0,0,0,0,0,0,0,0,0,0,0,0,0,0,0,0,0,0,0,0,0,0,0,0,0,0,0,0,0,0,0,0,0,0,0,0,0,0,0,17,75
camel,camel-1.0.0,camel-1.1.0,F:/corpus/camel/camel#2009-01-20-05-04-24#camel-1.0.0#e1ba889/components/camel-ftp/src/main/java/org/apache/camel/component/file/remote/RemoteFileConfiguration.java,F:/corpus/camel/camel#2009-01-20-05-04-24#camel-1.1.0#52049de/components/camel-ftp/src/main/java/org/apache/camel/component/file/remote/RemoteFileConfiguration.java,1,0,0,0,0,0,0,0,0,0,0,2,0,YES,0,0,0,0,1,0,0,0,0,0,0,0,0,0,0,0,0,0,0,0,0,0,0,0,0,0,0,0,0,0,0,0,0,0,0,0,0,0,0,0,0,0,1,1,0,0,0,0,27,146
camel,camel-1.0.0,camel-1.1.0,F:/corpus/camel/camel#2009-01-20-05-04-24#camel-1.0.0#e1ba889/components/camel-ftp/src/main/java/org/apache/camel/component/file/remote/RemoteFileConsumer.java,F:/corpus/camel/camel#2009-01-20-05-04-24#camel-1.1.0#52049de/components/camel-ftp/src/main/java/org/apache/camel/component/file/remote/RemoteFileConsumer.java,0,0,0,0,1,0,0,0,0,0,0,0,0,YES,0,0,0,0,0,0,0,0,0,0,0,0,0,0,0,0,0,0,0,0,0,0,0,0,0,0,0,0,0,0,0,0,0,0,0,0,0,0,0,0,0,0,0,0,0,0,0,0,6,36
camel,camel-1.0.0,camel-1.1.0,F:/corpus/camel/camel#2009-01-20-05-04-24#camel-1.0.0#e1ba889/components/camel-ftp/src/main/java/org/apache/camel/component/file/remote/RemoteFileEndpoint.java,F:/corpus/camel/camel#2009-01-20-05-04-24#camel-1.1.0#52049de/components/camel-ftp/src/main/java/org/apache/camel/component/file/remote/RemoteFileEndpoint.java,0,0,0,0,1,0,0,0,0,0,0,1,0,YES,0,0,0,0,0,0,0,0,0,0,0,0,0,0,0,0,0,0,0,0,0,0,0,0,0,0,0,0,0,0,0,0,0,0,0,0,0,0,0,0,0,0,0,0,0,0,0,0,6,63
camel,camel-1.0.0,camel-1.1.0,F:/corpus/camel/camel#2009-01-20-05-04-24#camel-1.0.0#e1ba889/components/camel-ftp/src/main/java/org/apache/camel/component/file/remote/RemoteFileExchange.java,F:/corpus/camel/camel#2009-01-20-05-04-24#camel-1.1.0#52049de/components/camel-ftp/src/main/java/org/apache/camel/component/file/remote/RemoteFileExchange.java,0,0,0,0,0,0,0,0,0,0,0,0,0,YES,0,0,0,0,0,0,0,0,0,0,0,0,0,0,0,0,0,0,0,0,0,0,0,0,0,0,0,0,0,0,0,0,0,0,0,0,0,0,0,0,0,0,0,0,0,0,0,0,6,45
camel,camel-1.0.0,camel-1.1.0,F:/corpus/camel/camel#2009-01-20-05-04-24#camel-1.0.0#e1ba889/components/camel-ftp/src/main/java/org/apache/camel/component/file/remote/RemoteFileMessage.java,F:/corpus/camel/camel#2009-01-20-05-04-24#camel-1.1.0#52049de/components/camel-ftp/src/main/java/org/apache/camel/component/file/remote/RemoteFileMessage.java,1,0,0,0,0,0,0,0,0,0,0,0,0,YES,0,0,0,0,0,0,0,0,0,0,0,0,0,0,0,0,0,0,0,0,0,0,0,0,0,0,0,0,0,0,0,0,0,0,0,0,0,0,0,0,0,0,0,0,0,0,0,0,6,88
camel,camel-1.0.0,camel-1.1.0,F:/corpus/camel/camel#2009-01-20-05-04-24#camel-1.0.0#e1ba889/components/camel-ftp/src/main/java/org/apache/camel/component/file/remote/RemoteFileProducer.java,F:/corpus/camel/camel#2009-01-20-05-04-24#camel-1.1.0#52049de/components/camel-ftp/src/main/java/org/apache/camel/component/file/remote/RemoteFileProducer.java,0,0,0,0,1,0,0,0,0,0,0,0,0,YES,0,0,0,0,0,0,0,0,0,0,0,0,0,0,0,0,0,0,0,0,0,0,0,0,0,0,0,0,0,0,0,0,0,0,0,0,0,0,0,0,0,0,0,0,0,0,0,0,2,26
camel,camel-1.0.0,camel-1.1.0,F:/corpus/camel/camel#2009-01-20-05-04-24#camel-1.0.0#e1ba889/components/camel-ftp/src/main/java/org/apache/camel/component/file/remote/SftpConsumer.java,F:/corpus/camel/camel#2009-01-20-05-04-24#camel-1.1.0#52049de/components/camel-ftp/src/main/java/org/apache/camel/component/file/remote/SftpConsumer.java,1,0,0,0,0,2,0,0,0,0,0,0,0,YES,0,0,0,0,0,0,0,0,0,0,0,0,0,0,0,0,0,0,0,0,0,0,0,0,0,0,0,0,0,0,0,0,0,0,0,0,0,0,0,0,0,0,0,0,0,0,0,0,20,122
camel,camel-1.0.0,camel-1.1.0,F:/corpus/camel/camel#2009-01-20-05-04-24#camel-1.0.0#e1ba889/components/camel-ftp/src/main/java/org/apache/camel/component/file/remote/SftpEndpoint.java,F:/corpus/camel/camel#2009-01-20-05-04-24#camel-1.1.0#52049de/components/camel-ftp/src/main/java/org/apache/camel/component/file/remote/SftpEndpoint.java,0,0,0,0,0,0,0,0,0,0,0,0,0,YES,0,0,0,0,0,0,0,0,0,0,0,0,0,0,0,0,0,0,0,0,0,0,0,0,0,0,0,0,0,0,0,0,0,0,0,0,0,0,0,0,0,0,0,0,0,0,0,0,2,75
camel,camel-1.0.0,camel-1.1.0,F:/corpus/camel/camel#2009-01-20-05-04-24#camel-1.0.0#e1ba889/components/camel-ftp/src/main/java/org/apache/camel/component/file/remote/SftpProducer.java,F:/corpus/camel/camel#2009-01-20-05-04-24#camel-1.1.0#52049de/components/camel-ftp/src/main/java/org/apache/camel/component/file/remote/SftpProducer.java,0,0,0,0,0,3,0,0,0,0,0,0,0,YES,0,0,0,0,0,0,0,0,0,0,0,0,0,0,0,0,0,0,0,0,0,0,0,0,0,0,0,0,0,0,0,0,0,0,0,0,0,0,0,0,0,0,0,0,0,0,0,0,25,99
camel,camel-1.0.0,camel-1.1.0,F:/corpus/camel/camel#2009-01-20-05-04-24#camel-1.0.0#e1ba889/components/camel-http/src/main/java/org/apache/camel/component/http/CamelServlet.java,F:/corpus/camel/camel#2009-01-20-05-04-24#camel-1.1.0#52049de/components/camel-http/src/main/java/org/apache/camel/component/http/CamelServlet.java,0,0,0,0,0,0,0,0,0,0,0,0,0,YES,0,0,0,0,0,0,0,0,0,0,0,0,0,0,0,0,0,0,0,0,0,0,0,0,0,0,0,0,0,0,0,0,0,0,0,0,0,0,0,0,0,0,0,0,0,0,0,0,33,77
camel,camel-1.0.0,camel-1.1.0,F:/corpus/camel/camel#2009-01-20-05-04-24#camel-1.0.0#e1ba889/components/camel-http/src/main/java/org/apache/camel/component/http/HttpBinding.java,F:/corpus/camel/camel#2009-01-20-05-04-24#camel-1.1.0#52049de/components/camel-http/src/main/java/org/apache/camel/component/http/HttpBinding.java,0,0,0,0,0,0,0,0,0,0,0,0,0,YES,0,0,0,0,0,0,0,0,0,0,0,0,0,0,0,0,0,0,0,0,0,0,0,0,0,0,0,0,0,0,0,0,0,0,0,0,0,0,0,0,0,0,0,0,0,0,0,0,5,43
camel,camel-1.0.0,camel-1.1.0,F:/corpus/camel/camel#2009-01-20-05-04-24#camel-1.0.0#e1ba889/components/camel-http/src/main/java/org/apache/camel/component/http/HttpComponent.java,F:/corpus/camel/camel#2009-01-20-05-04-24#camel-1.1.0#52049de/components/camel-http/src/main/java/org/apache/camel/component/http/HttpComponent.java,0,0,0,0,1,0,0,0,0,0,0,0,0,YES,0,0,0,0,0,0,0,0,0,0,0,0,0,0,0,0,0,0,0,0,0,0,0,0,0,0,0,0,0,0,0,0,0,0,0,0,0,0,0,0,0,0,0,0,0,0,0,0,33,65
camel,camel-1.0.0,camel-1.1.0,F:/corpus/camel/camel#2009-01-20-05-04-24#camel-1.0.0#e1ba889/components/camel-http/src/main/java/org/apache/camel/component/http/HttpConsumer.java,F:/corpus/camel/camel#2009-01-20-05-04-24#camel-1.1.0#52049de/components/camel-http/src/main/java/org/apache/camel/component/http/HttpConsumer.java,0,0,0,0,0,0,0,0,0,0,0,0,0,YES,0,0,0,0,0,0,0,0,0,0,0,0,0,0,0,0,0,0,0,0,0,0,0,0,0,0,0,0,0,0,0,0,0,0,0,0,0,0,0,0,0,0,0,0,0,0,0,0,19,61
camel,camel-1.0.0,camel-1.1.0,F:/corpus/camel/camel#2009-01-20-05-04-24#camel-1.0.0#e1ba889/components/camel-http/src/main/java/org/apache/camel/component/http/HttpEndpoint.java,F:/corpus/camel/camel#2009-01-20-05-04-24#camel-1.1.0#52049de/components/camel-http/src/main/java/org/apache/camel/component/http/HttpEndpoint.java,0,0,0,0,0,0,0,0,0,0,0,0,0,YES,0,0,0,0,0,0,0,0,0,0,0,0,0,0,0,0,0,0,0,0,0,0,0,0,0,0,0,0,0,0,0,0,0,0,0,0,0,0,0,0,0,0,0,0,0,0,0,0,38,106
camel,camel-1.0.0,camel-1.1.0,F:/corpus/camel/camel#2009-01-20-05-04-24#camel-1.0.0#e1ba889/components/camel-http/src/main/java/org/apache/camel/component/http/HttpExchange.java,F:/corpus/camel/camel#2009-01-20-05-04-24#camel-1.1.0#52049de/components/camel-http/src/main/java/org/apache/camel/component/http/HttpExchange.java,0,0,0,0,0,0,0,0,0,0,0,0,0,YES,0,0,0,0,0,0,0,0,0,0,0,0,0,0,0,0,0,0,0,0,0,0,0,0,0,0,0,0,0,0,0,0,0,0,0,0,0,0,0,0,0,0,0,0,0,0,0,0,8,72
camel,camel-1.0.0,camel-1.1.0,F:/corpus/camel/camel#2009-01-20-05-04-24#camel-1.0.0#e1ba889/components/camel-http/src/main/java/org/apache/camel/component/http/HttpMessage.java,F:/corpus/camel/camel#2009-01-20-05-04-24#camel-1.1.0#52049de/components/camel-http/src/main/java/org/apache/camel/component/http/HttpMessage.java,0,0,0,0,0,1,0,0,0,0,0,0,0,YES,0,0,0,0,0,0,0,0,0,0,0,0,0,0,0,0,0,0,0,0,0,0,0,0,0,0,0,0,0,0,0,0,0,0,0,0,0,0,0,0,0,0,0,0,0,0,0,0,13,73
camel,camel-1.0.0,camel-1.1.0,F:/corpus/camel/camel#2009-01-20-05-04-24#camel-1.0.0#e1ba889/components/camel-http/src/main/java/org/apache/camel/component/http/HttpProducer.java,F:/corpus/camel/camel#2009-01-20-05-04-24#camel-1.1.0#52049de/components/camel-http/src/main/java/org/apache/camel/component/http/HttpProducer.java,0,0,0,0,0,1,0,0,0,0,0,0,0,YES,0,0,0,0,0,0,0,0,0,0,0,0,0,0,0,0,0,0,0,0,0,0,0,0,0,0,0,0,0,0,0,0,0,0,0,0,0,0,0,0,0,0,0,0,0,0,0,0,9,91
camel,camel-1.0.0,camel-1.1.0,F:/corpus/camel/camel#2009-01-20-05-04-24#camel-1.0.0#e1ba889/components/camel-http/src/main/java/org/apache/camel/component/http/JettyHttpComponent.java,F:/corpus/camel/camel#2009-01-20-05-04-24#camel-1.1.0#52049de/components/camel-http/src/main/java/org/apache/camel/component/http/JettyHttpComponent.java,0,0,0,0,0,0,0,0,0,0,0,0,0,YES,0,0,0,0,0,0,0,0,0,0,0,0,0,0,0,0,0,0,0,0,0,0,0,0,0,0,0,0,0,0,0,0,0,0,0,0,0,0,0,0,0,0,0,0,0,0,0,0,103,140
camel,camel-1.0.0,camel-1.1.0,F:/corpus/camel/camel#2009-01-20-05-04-24#camel-1.0.0#e1ba889/components/camel-irc/src/main/java/org/apache/camel/component/irc/IrcBinding.java,F:/corpus/camel/camel#2009-01-20-05-04-24#camel-1.1.0#52049de/components/camel-irc/src/main/java/org/apache/camel/component/irc/IrcBinding.java,0,0,0,0,1,0,0,0,0,0,0,0,0,YES,0,0,0,0,0,0,0,0,0,0,0,0,0,0,0,0,0,0,0,0,0,0,0,0,0,0,0,0,0,0,0,0,0,0,0,0,0,0,0,0,0,0,0,0,0,0,0,0,4,31
camel,camel-1.0.0,camel-1.1.0,F:/corpus/camel/camel#2009-01-20-05-04-24#camel-1.0.0#e1ba889/components/camel-irc/src/main/java/org/apache/camel/component/irc/IrcComponent.java,F:/corpus/camel/camel#2009-01-20-05-04-24#camel-1.1.0#52049de/components/camel-irc/src/main/java/org/apache/camel/component/irc/IrcComponent.java,0,0,0,0,2,0,0,0,1,0,0,0,0,YES,0,0,0,0,0,0,0,0,1,0,0,0,0,0,0,1,0,0,0,0,0,0,0,0,0,0,0,0,0,0,0,0,0,0,0,0,0,0,0,0,0,0,0,0,0,0,3,0,35,135
camel,camel-1.0.0,camel-1.1.0,F:/corpus/camel/camel#2009-01-20-05-04-24#camel-1.0.0#e1ba889/components/camel-irc/src/main/java/org/apache/camel/component/irc/IrcConfiguration.java,F:/corpus/camel/camel#2009-01-20-05-04-24#camel-1.1.0#52049de/components/camel-irc/src/main/java/org/apache/camel/component/irc/IrcConfiguration.java,1,0,0,0,0,0,0,0,0,0,0,0,0,YES,0,0,0,0,0,0,0,0,0,0,0,0,0,0,0,0,0,0,0,0,0,0,0,0,0,0,0,0,0,0,0,0,0,0,0,0,0,0,0,0,0,0,0,0,0,0,0,0,28,241
camel,camel-1.0.0,camel-1.1.0,F:/corpus/camel/camel#2009-01-20-05-04-24#camel-1.0.0#e1ba889/components/camel-irc/src/main/java/org/apache/camel/component/irc/IrcConsumer.java,F:/corpus/camel/camel#2009-01-20-05-04-24#camel-1.1.0#52049de/components/camel-irc/src/main/java/org/apache/camel/component/irc/IrcConsumer.java,0,0,0,1,0,2,0,0,0,0,0,0,0,YES,0,0,0,0,0,0,0,0,1,0,0,0,0,0,0,0,1,0,0,0,0,0,0,0,0,0,0,0,0,0,0,0,0,0,0,0,0,0,0,0,0,0,0,0,0,0,1,0,32,198
camel,camel-1.0.0,camel-1.1.0,F:/corpus/camel/camel#2009-01-20-05-04-24#camel-1.0.0#e1ba889/components/camel-irc/src/main/java/org/apache/camel/component/irc/IrcEndpoint.java,F:/corpus/camel/camel#2009-01-20-05-04-24#camel-1.1.0#52049de/components/camel-irc/src/main/java/org/apache/camel/component/irc/IrcEndpoint.java,0,0,0,0,0,0,0,0,0,0,0,0,0,YES,0,0,0,0,0,0,0,0,0,0,0,0,0,0,0,0,0,0,0,0,0,0,0,0,0,0,0,0,0,0,0,0,0,0,0,0,0,0,0,0,0,0,0,0,0,0,0,0,2,116
camel,camel-1.0.0,camel-1.1.0,F:/corpus/camel/camel#2009-01-20-05-04-24#camel-1.0.0#e1ba889/components/camel-irc/src/main/java/org/apache/camel/component/irc/IrcErrorLogger.java,F:/corpus/camel/camel#2009-01-20-05-04-24#camel-1.1.0#52049de/components/camel-irc/src/main/java/org/apache/camel/component/irc/IrcErrorLogger.java,0,0,1,0,0,0,0,0,0,0,0,0,0,YES,0,0,0,0,0,0,0,0,0,0,0,0,0,0,0,0,0,0,0,0,0,0,0,0,0,0,0,0,0,0,0,0,0,0,0,0,0,0,0,0,0,0,0,0,0,0,0,0,2,91
camel,camel-1.0.0,camel-1.1.0,F:/corpus/camel/camel#2009-01-20-05-04-24#camel-1.0.0#e1ba889/components/camel-irc/src/main/java/org/apache/camel/component/irc/IrcExchange.java,F:/corpus/camel/camel#2009-01-20-05-04-24#camel-1.1.0#52049de/components/camel-irc/src/main/java/org/apache/camel/component/irc/IrcExchange.java,0,0,0,0,0,0,0,0,0,0,0,0,0,YES,0,0,0,0,0,0,0,0,0,0,0,0,0,0,0,0,0,0,0,0,0,0,0,0,0,0,0,0,0,0,0,0,0,0,0,0,0,0,0,0,0,0,0,0,0,0,0,0,2,78
camel,camel-1.0.0,camel-1.1.0,F:/corpus/camel/camel#2009-01-20-05-04-24#camel-1.0.0#e1ba889/components/camel-irc/src/main/java/org/apache/camel/component/irc/IrcMessage.java,F:/corpus/camel/camel#2009-01-20-05-04-24#camel-1.1.0#52049de/components/camel-irc/src/main/java/org/apache/camel/component/irc/IrcMessage.java,1,0,0,0,0,0,0,0,0,0,0,0,0,YES,0,0,0,0,0,0,0,0,0,0,0,0,0,0,0,0,0,0,0,0,0,0,0,0,0,0,0,0,0,0,0,0,0,0,0,0,0,0,0,0,0,0,0,0,0,0,0,0,12,145
camel,camel-1.0.0,camel-1.1.0,F:/corpus/camel/camel#2009-01-20-05-04-24#camel-1.0.0#e1ba889/components/camel-irc/src/main/java/org/apache/camel/component/irc/IrcProducer.java,F:/corpus/camel/camel#2009-01-20-05-04-24#camel-1.1.0#52049de/components/camel-irc/src/main/java/org/apache/camel/component/irc/IrcProducer.java,0,0,0,0,0,3,0,0,0,0,0,0,0,YES,0,0,0,0,0,0,0,0,2,0,0,0,0,0,0,2,0,0,0,0,0,0,0,0,0,0,0,0,0,0,0,0,0,0,0,0,0,0,0,0,0,0,0,0,0,0,3,0,19,102
camel,camel-1.0.0,camel-1.1.0,F:/corpus/camel/camel#2009-01-20-05-04-24#camel-1.0.0#e1ba889/components/camel-jaxb/src/main/java/org/apache/camel/converter/jaxb/JaxbConverter.java,F:/corpus/camel/camel#2009-01-20-05-04-24#camel-1.1.0#52049de/components/camel-jaxb/src/main/java/org/apache/camel/converter/jaxb/JaxbConverter.java,0,0,0,0,0,0,0,0,0,0,0,0,0,YES,0,0,0,0,0,0,0,0,0,0,0,0,0,0,0,0,0,0,0,0,0,0,0,0,0,0,0,0,0,0,0,0,0,0,0,0,0,0,0,0,0,0,0,0,0,0,0,0,19,78
camel,camel-1.0.0,camel-1.1.0,F:/corpus/camel/camel#2009-01-20-05-04-24#camel-1.0.0#e1ba889/components/camel-jms/src/main/java/org/apache/camel/component/jms/ConsumerType.java,F:/corpus/camel/camel#2009-01-20-05-04-24#camel-1.1.0#52049de/components/camel-jms/src/main/java/org/apache/camel/component/jms/ConsumerType.java,0,0,0,0,0,0,0,0,0,0,0,0,0,YES,0,0,0,0,0,0,0,0,0,0,0,0,0,0,0,0,0,0,0,0,0,0,0,0,0,0,0,0,0,0,0,0,0,0,0,0,0,0,0,0,0,0,0,0,0,0,0,0,1,24
camel,camel-1.0.0,camel-1.1.0,F:/corpus/camel/camel#2009-01-20-05-04-24#camel-1.0.0#e1ba889/components/camel-jms/src/main/java/org/apache/camel/component/jms/EndpointMessageListener.java,F:/corpus/camel/camel#2009-01-20-05-04-24#camel-1.1.0#52049de/components/camel-jms/src/main/java/org/apache/camel/component/jms/EndpointMessageListener.java,0,0,0,0,0,0,0,0,0,0,0,0,0,YES,0,0,0,0,0,0,0,0,1,0,0,0,0,0,0,1,0,0,0,0,0,0,0,0,0,0,0,0,0,0,0,0,0,0,0,0,0,0,0,0,0,0,0,0,0,0,1,0,18,81
camel,camel-1.0.0,camel-1.1.0,F:/corpus/camel/camel#2009-01-20-05-04-24#camel-1.0.0#e1ba889/components/camel-jms/src/main/java/org/apache/camel/component/jms/JmsBinding.java,F:/corpus/camel/camel#2009-01-20-05-04-24#camel-1.1.0#52049de/components/camel-jms/src/main/java/org/apache/camel/component/jms/JmsBinding.java,0,0,0,0,3,0,0,0,0,0,0,0,0,YES,0,0,0,0,0,1,0,5,0,0,0,0,1,0,0,0,0,0,0,0,0,0,0,0,0,0,0,0,0,0,0,0,0,0,0,0,0,0,0,0,0,0,0,11,0,1,0,0,33,135
camel,camel-1.0.0,camel-1.1.0,F:/corpus/camel/camel#2009-01-20-05-04-24#camel-1.0.0#e1ba889/components/camel-jms/src/main/java/org/apache/camel/component/jms/JmsComponent.java,F:/corpus/camel/camel#2009-01-20-05-04-24#camel-1.1.0#52049de/components/camel-jms/src/main/java/org/apache/camel/component/jms/JmsComponent.java,0,0,1,0,0,0,0,0,0,0,0,0,0,YES,0,0,0,0,0,0,0,0,0,0,0,0,0,0,0,0,0,0,0,0,0,0,0,0,0,0,0,0,0,0,0,0,0,0,0,0,0,0,0,0,0,0,0,0,0,0,0,0,48,305
camel,camel-1.0.0,camel-1.1.0,F:/corpus/camel/camel#2009-01-20-05-04-24#camel-1.0.0#e1ba889/components/camel-jms/src/main/java/org/apache/camel/component/jms/JmsConfiguration.java,F:/corpus/camel/camel#2009-01-20-05-04-24#camel-1.1.0#52049de/components/camel-jms/src/main/java/org/apache/camel/component/jms/JmsConfiguration.java,0,0,0,0,0,0,0,0,0,1,0,0,0,YES,0,0,0,0,0,0,0,0,0,0,0,0,0,0,0,0,0,0,0,0,0,0,0,0,0,0,0,0,0,0,0,0,0,0,0,0,0,0,0,0,0,0,0,0,0,0,0,0,58,612
camel,camel-1.0.0,camel-1.1.0,F:/corpus/camel/camel#2009-01-20-05-04-24#camel-1.0.0#e1ba889/components/camel-jms/src/main/java/org/apache/camel/component/jms/JmsConsumer.java,F:/corpus/camel/camel#2009-01-20-05-04-24#camel-1.1.0#52049de/components/camel-jms/src/main/java/org/apache/camel/component/jms/JmsConsumer.java,0,0,1,0,0,0,0,0,0,0,0,0,0,YES,0,0,0,0,0,0,0,0,0,0,0,0,0,0,0,0,0,0,0,0,0,0,0,0,0,0,0,0,0,0,0,0,0,0,0,0,0,0,0,0,0,0,0,0,0,0,0,0,5,66
camel,camel-1.0.0,camel-1.1.0,F:/corpus/camel/camel#2009-01-20-05-04-24#camel-1.0.0#e1ba889/components/camel-jms/src/main/java/org/apache/camel/component/jms/JmsEndpoint.java,F:/corpus/camel/camel#2009-01-20-05-04-24#camel-1.1.0#52049de/components/camel-jms/src/main/java/org/apache/camel/component/jms/JmsEndpoint.java,0,0,0,0,0,0,0,0,0,0,0,1,0,YES,0,0,0,0,0,0,0,0,0,0,0,0,0,0,0,0,0,0,0,0,0,0,0,0,0,0,0,0,0,0,0,0,0,0,0,0,0,0,0,0,0,0,0,0,0,0,0,0,15,146
camel,camel-1.0.0,camel-1.1.0,F:/corpus/camel/camel#2009-01-20-05-04-24#camel-1.0.0#e1ba889/components/camel-jms/src/main/java/org/apache/camel/component/jms/JmsExchange.java,F:/corpus/camel/camel#2009-01-20-05-04-24#camel-1.1.0#52049de/components/camel-jms/src/main/java/org/apache/camel/component/jms/JmsExchange.java,0,0,0,0,0,0,0,0,0,0,0,0,0,YES,0,0,0,0,0,0,0,0,0,0,0,0,0,0,0,0,0,0,0,0,0,0,0,0,0,0,0,0,0,0,0,0,0,0,0,0,0,0,0,0,0,0,0,0,0,0,0,0,5,115
camel,camel-1.0.0,camel-1.1.0,F:/corpus/camel/camel#2009-01-20-05-04-24#camel-1.0.0#e1ba889/components/camel-jms/src/main/java/org/apache/camel/component/jms/JmsIOConverter.java,F:/corpus/camel/camel#2009-01-20-05-04-24#camel-1.1.0#52049de/components/camel-jms/src/main/java/org/apache/camel/component/jms/JmsIOConverter.java,0,0,0,0,0,0,0,0,0,0,0,0,0,YES,0,0,0,0,0,0,0,0,0,0,0,0,0,0,0,0,1,0,0,0,0,0,0,0,0,0,0,0,0,0,0,0,0,0,0,0,0,1,0,0,0,0,0,0,0,0,0,0,33,130
camel,camel-1.0.0,camel-1.1.0,F:/corpus/camel/camel#2009-01-20-05-04-24#camel-1.0.0#e1ba889/components/camel-jms/src/main/java/org/apache/camel/component/jms/JmsMessage.java,F:/corpus/camel/camel#2009-01-20-05-04-24#camel-1.1.0#52049de/components/camel-jms/src/main/java/org/apache/camel/component/jms/JmsMessage.java,0,0,0,0,0,0,0,0,0,0,0,0,0,YES,0,0,0,0,0,0,0,1,1,0,0,0,2,0,0,1,0,0,0,0,0,0,0,0,0,0,0,0,0,0,0,0,0,0,0,0,0,0,0,0,0,0,0,15,2,1,1,0,49,148
camel,camel-1.0.0,camel-1.1.0,F:/corpus/camel/camel#2009-01-20-05-04-24#camel-1.0.0#e1ba889/components/camel-jms/src/main/java/org/apache/camel/component/jms/JmsPollingConsumer.java,F:/corpus/camel/camel#2009-01-20-05-04-24#camel-1.1.0#52049de/components/camel-jms/src/main/java/org/apache/camel/component/jms/JmsPollingConsumer.java,0,0,0,0,0,0,0,0,0,0,0,0,0,YES,0,0,0,0,0,0,0,0,0,0,0,0,0,0,0,0,0,0,0,0,0,0,0,0,0,0,0,0,0,0,0,0,0,0,0,0,0,0,0,0,0,0,0,0,0,0,0,0,14,79
camel,camel-1.0.0,camel-1.1.0,F:/corpus/camel/camel#2009-01-20-05-04-24#camel-1.0.0#e1ba889/components/camel-jms/src/main/java/org/apache/camel/component/jms/JmsProducer.java,F:/corpus/camel/camel#2009-01-20-05-04-24#camel-1.1.0#52049de/components/camel-jms/src/main/java/org/apache/camel/component/jms/JmsProducer.java,0,0,0,0,0,0,0,0,0,0,0,0,0,YES,0,0,0,0,0,0,0,0,1,0,0,0,0,0,0,0,0,0,0,0,0,0,0,0,0,0,0,0,0,0,0,0,0,0,0,0,0,0,0,0,0,0,0,0,0,0,1,0,14,60
camel,camel-1.0.0,camel-1.1.0,F:/corpus/camel/camel#2009-01-20-05-04-24#camel-1.0.0#e1ba889/components/camel-jms/src/main/java/org/apache/camel/component/jms/MessageListenerProcessor.java,F:/corpus/camel/camel#2009-01-20-05-04-24#camel-1.1.0#52049de/components/camel-jms/src/main/java/org/apache/camel/component/jms/MessageListenerProcessor.java,0,0,0,0,0,0,0,0,0,0,0,0,0,YES,0,0,0,0,0,0,0,0,0,0,0,0,0,0,0,0,0,0,0,0,0,0,0,0,0,0,0,0,0,0,0,0,0,0,0,0,0,0,0,0,0,0,0,0,0,0,0,0,16,50
camel,camel-1.0.0,camel-1.1.0,F:/corpus/camel/camel#2009-01-20-05-04-24#camel-1.0.0#e1ba889/components/camel-jms/src/main/java/org/apache/camel/component/jms/MessagePropertyAccessException.java,F:/corpus/camel/camel#2009-01-20-05-04-24#camel-1.1.0#52049de/components/camel-jms/src/main/java/org/apache/camel/component/jms/MessagePropertyAccessException.java,0,0,0,0,0,0,0,0,0,0,0,0,0,YES,0,0,0,0,0,0,0,0,0,0,0,0,0,0,0,0,0,0,0,0,0,0,0,0,0,0,0,0,0,0,0,0,0,0,0,0,1,0,0,0,0,0,0,0,0,0,0,0,2,36
camel,camel-1.0.0,camel-1.1.0,F:/corpus/camel/camel#2009-01-20-05-04-24#camel-1.0.0#e1ba889/components/camel-jms/src/main/java/org/apache/camel/component/jms/MessagePropertyNamesAccessException.java,F:/corpus/camel/camel#2009-01-20-05-04-24#camel-1.1.0#52049de/components/camel-jms/src/main/java/org/apache/camel/component/jms/MessagePropertyNamesAccessException.java,0,0,0,0,0,0,0,0,0,0,0,0,0,YES,0,0,0,0,0,0,0,0,0,0,0,0,0,0,0,0,0,0,0,0,0,0,0,0,0,0,0,0,0,0,0,0,0,0,0,0,0,0,0,0,0,0,0,0,0,0,1,0,2,30
camel,camel-1.0.0,camel-1.1.0,F:/corpus/camel/camel#2009-01-20-05-04-24#camel-1.0.0#e1ba889/components/camel-jms/src/main/java/org/apache/camel/component/jms/RuntimeJmsException.java,F:/corpus/camel/camel#2009-01-20-05-04-24#camel-1.1.0#52049de/components/camel-jms/src/main/java/org/apache/camel/component/jms/RuntimeJmsException.java,0,0,0,0,0,0,0,0,0,0,0,0,0,YES,0,0,0,0,0,0,0,0,0,0,0,0,0,0,0,0,0,0,0,0,0,0,0,0,0,0,0,0,0,0,0,0,0,0,0,0,0,0,0,0,0,0,0,0,0,0,0,0,1,30
camel,camel-1.0.0,camel-1.1.0,F:/corpus/camel/camel#2009-01-20-05-04-24#camel-1.0.0#e1ba889/components/camel-josql/src/main/java/org/apache/camel/builder/sql/SqlBuilder.java,F:/corpus/camel/camel#2009-01-20-05-04-24#camel-1.1.0#52049de/components/camel-josql/src/main/java/org/apache/camel/builder/sql/SqlBuilder.java,0,0,0,0,2,0,0,0,0,0,0,0,0,YES,0,0,0,0,0,0,0,0,0,0,0,0,0,0,0,0,0,0,0,0,0,0,0,0,0,0,0,0,0,0,0,0,0,0,0,0,0,0,0,0,0,0,0,0,0,0,0,0,26,139
camel,camel-1.0.0,camel-1.1.0,F:/corpus/camel/camel#2009-01-20-05-04-24#camel-1.0.0#e1ba889/components/camel-jpa/src/main/java/org/apache/camel/component/jpa/Callback.java,F:/corpus/camel/camel#2009-01-20-05-04-24#camel-1.1.0#52049de/components/camel-jpa/src/main/java/org/apache/camel/component/jpa/Callback.java,0,0,0,0,1,0,0,0,0,0,0,0,0,YES,0,0,0,0,0,0,0,0,0,0,0,0,0,0,0,0,0,0,0,0,0,0,0,0,0,0,0,0,0,0,0,0,0,0,0,0,0,0,0,0,0,0,0,0,0,0,0,0,2,25
camel,camel-1.0.0,camel-1.1.0,F:/corpus/camel/camel#2009-01-20-05-04-24#camel-1.0.0#e1ba889/components/camel-jpa/src/main/java/org/apache/camel/component/jpa/Consumed.java,F:/corpus/camel/camel#2009-01-20-05-04-24#camel-1.1.0#52049de/components/camel-jpa/src/main/java/org/apache/camel/component/jpa/Consumed.java,0,0,0,0,0,0,0,0,0,0,0,0,0,YES,0,0,0,0,0,0,0,0,0,0,0,0,0,0,0,0,0,0,0,0,0,0,0,0,0,0,0,0,0,0,0,0,0,0,0,0,0,0,0,0,0,0,0,0,0,0,0,0,2,35
camel,camel-1.0.0,camel-1.1.0,F:/corpus/camel/camel#2009-01-20-05-04-24#camel-1.0.0#e1ba889/components/camel-jpa/src/main/java/org/apache/camel/component/jpa/DefaultTransactionStrategy.java,F:/corpus/camel/camel#2009-01-20-05-04-24#camel-1.1.0#52049de/components/camel-jpa/src/main/java/org/apache/camel/component/jpa/DefaultTransactionStrategy.java,0,0,0,0,0,0,0,0,0,0,0,0,0,YES,0,0,0,0,0,0,0,0,0,0,0,0,0,0,0,0,0,0,0,0,0,0,0,0,0,0,0,0,0,0,0,0,0,0,0,0,0,0,0,0,0,0,0,0,0,0,0,0,14,80
camel,camel-1.0.0,camel-1.1.0,F:/corpus/camel/camel#2009-01-20-05-04-24#camel-1.0.0#e1ba889/components/camel-jpa/src/main/java/org/apache/camel/component/jpa/DeleteHandler.java,F:/corpus/camel/camel#2009-01-20-05-04-24#camel-1.1.0#52049de/components/camel-jpa/src/main/java/org/apache/camel/component/jpa/DeleteHandler.java,0,0,0,0,1,0,0,0,0,0,0,0,0,YES,0,0,0,0,0,0,0,0,0,0,0,0,0,0,0,0,0,0,0,0,0,0,0,0,0,0,0,0,0,0,0,0,0,0,0,0,0,0,0,0,0,0,0,0,0,0,0,0,2,37
camel,camel-1.0.0,camel-1.1.0,F:/corpus/camel/camel#2009-01-20-05-04-24#camel-1.0.0#e1ba889/components/camel-jpa/src/main/java/org/apache/camel/component/jpa/JpaComponent.java,F:/corpus/camel/camel#2009-01-20-05-04-24#camel-1.1.0#52049de/components/camel-jpa/src/main/java/org/apache/camel/component/jpa/JpaComponent.java,0,0,0,0,2,0,0,0,0,0,0,0,0,YES,0,0,0,0,0,0,0,0,0,0,0,0,0,0,0,0,0,0,0,0,0,0,0,0,0,0,0,0,0,0,0,0,0,0,0,0,0,0,0,0,0,0,0,0,0,0,0,0,10,69
camel,camel-1.0.0,camel-1.1.0,F:/corpus/camel/camel#2009-01-20-05-04-24#camel-1.0.0#e1ba889/components/camel-jpa/src/main/java/org/apache/camel/component/jpa/JpaConsumer.java,F:/corpus/camel/camel#2009-01-20-05-04-24#camel-1.1.0#52049de/components/camel-jpa/src/main/java/org/apache/camel/component/jpa/JpaConsumer.java,0,0,0,0,0,0,0,0,0,0,0,0,0,YES,0,0,0,0,0,0,0,1,1,0,0,0,0,0,0,2,0,0,0,0,0,0,0,0,0,0,0,0,0,0,0,0,0,0,0,0,0,0,0,0,0,0,0,4,0,2,3,0,42,221
camel,camel-1.0.0,camel-1.1.0,F:/corpus/camel/camel#2009-01-20-05-04-24#camel-1.0.0#e1ba889/components/camel-jpa/src/main/java/org/apache/camel/component/jpa/JpaEndpoint.java,F:/corpus/camel/camel#2009-01-20-05-04-24#camel-1.1.0#52049de/components/camel-jpa/src/main/java/org/apache/camel/component/jpa/JpaEndpoint.java,0,0,0,0,0,3,0,0,0,0,0,0,0,YES,0,0,0,0,4,2,0,0,0,0,0,0,0,0,0,0,0,0,0,0,0,0,0,0,0,0,0,0,0,0,0,0,0,0,0,0,0,0,0,0,0,0,0,0,0,0,0,0,38,195
camel,camel-1.0.0,camel-1.1.0,F:/corpus/camel/camel#2009-01-20-05-04-24#camel-1.0.0#e1ba889/components/camel-jpa/src/main/java/org/apache/camel/component/jpa/JpaProducer.java,F:/corpus/camel/camel#2009-01-20-05-04-24#camel-1.1.0#52049de/components/camel-jpa/src/main/java/org/apache/camel/component/jpa/JpaProducer.java,0,0,0,0,0,0,0,0,0,0,0,0,0,YES,0,0,0,0,0,0,0,0,0,0,0,0,0,0,0,0,0,0,0,0,0,0,0,0,0,0,0,0,0,0,0,0,0,0,0,0,0,0,0,0,0,0,0,0,0,0,0,0,11,58
camel,camel-1.0.0,camel-1.1.0,F:/corpus/camel/camel#2009-01-20-05-04-24#camel-1.0.0#e1ba889/components/camel-jpa/src/main/java/org/apache/camel/component/jpa/JpaTemplateTransactionStrategy.java,F:/corpus/camel/camel#2009-01-20-05-04-24#camel-1.1.0#52049de/components/camel-jpa/src/main/java/org/apache/camel/component/jpa/JpaTemplateTransactionStrategy.java,0,0,0,0,0,0,0,0,0,0,0,0,0,YES,0,0,0,0,0,0,0,0,0,0,0,0,0,0,0,0,0,0,0,0,0,0,0,0,0,0,0,0,0,0,0,0,0,0,0,0,0,0,0,0,0,0,0,0,0,0,0,0,21,81
camel,camel-1.0.0,camel-1.1.0,F:/corpus/camel/camel#2009-01-20-05-04-24#camel-1.0.0#e1ba889/components/camel-jpa/src/main/java/org/apache/camel/component/jpa/QueryBuilder.java,F:/corpus/camel/camel#2009-01-20-05-04-24#camel-1.1.0#52049de/components/camel-jpa/src/main/java/org/apache/camel/component/jpa/QueryBuilder.java,0,0,0,0,2,0,0,0,0,0,0,0,0,YES,0,0,0,0,0,0,0,0,0,0,0,0,0,0,0,0,0,0,0,0,0,0,0,0,0,0,0,0,0,0,0,0,0,0,0,0,0,0,0,0,0,0,0,0,0,0,0,0,15,179
camel,camel-1.0.0,camel-1.1.0,F:/corpus/camel/camel#2009-01-20-05-04-24#camel-1.0.0#e1ba889/components/camel-jpa/src/main/java/org/apache/camel/component/jpa/QueryFactory.java,F:/corpus/camel/camel#2009-01-20-05-04-24#camel-1.1.0#52049de/components/camel-jpa/src/main/java/org/apache/camel/component/jpa/QueryFactory.java,0,0,0,0,1,0,0,0,0,0,0,0,0,YES,0,0,0,0,0,0,0,0,0,0,0,0,0,0,0,0,0,0,0,0,0,0,0,0,0,0,0,0,0,0,0,0,0,0,0,0,0,0,0,0,0,0,0,0,0,0,0,0,2,36
camel,camel-1.0.0,camel-1.1.0,F:/corpus/camel/camel#2009-01-20-05-04-24#camel-1.0.0#e1ba889/components/camel-jpa/src/main/java/org/apache/camel/component/jpa/TransactionStrategy.java,F:/corpus/camel/camel#2009-01-20-05-04-24#camel-1.1.0#52049de/components/camel-jpa/src/main/java/org/apache/camel/component/jpa/TransactionStrategy.java,0,0,0,0,0,0,0,0,0,0,0,0,0,YES,0,0,0,0,0,0,0,0,0,0,0,0,0,0,0,0,1,0,0,0,0,0,0,0,0,0,0,0,0,0,0,0,0,0,0,0,0,0,0,0,0,0,0,0,0,0,0,0,3,28
camel,camel-1.0.0,camel-1.1.0,F:/corpus/camel/camel#2009-01-20-05-04-24#camel-1.0.0#e1ba889/components/camel-jpa/src/main/java/org/apache/camel/processor/idempotent/jpa/JpaMessageIdRepository.java,F:/corpus/camel/camel#2009-01-20-05-04-24#camel-1.1.0#52049de/components/camel-jpa/src/main/java/org/apache/camel/processor/idempotent/jpa/JpaMessageIdRepository.java,0,0,0,0,0,0,0,0,0,0,0,0,0,YES,0,0,0,0,0,0,0,0,0,0,0,0,0,0,0,0,0,0,0,0,0,0,0,0,0,0,0,0,0,0,0,0,0,0,0,0,0,0,0,0,0,0,0,0,0,0,0,0,47,92
camel,camel-1.0.0,camel-1.1.0,F:/corpus/camel/camel#2009-01-20-05-04-24#camel-1.0.0#e1ba889/components/camel-jpa/src/main/java/org/apache/camel/processor/idempotent/jpa/MessageProcessed.java,F:/corpus/camel/camel#2009-01-20-05-04-24#camel-1.1.0#52049de/components/camel-jpa/src/main/java/org/apache/camel/processor/idempotent/jpa/MessageProcessed.java,1,0,0,0,0,0,0,0,0,0,0,0,0,YES,0,0,0,0,0,0,0,0,0,0,0,0,0,0,0,0,0,0,0,0,0,0,0,0,0,0,0,0,0,0,0,0,0,0,0,0,0,0,0,0,0,0,0,0,0,0,0,0,3,66
camel,camel-1.0.0,camel-1.1.0,F:/corpus/camel/camel#2009-01-20-05-04-24#camel-1.0.0#e1ba889/components/camel-mail/src/main/java/org/apache/camel/component/mail/JavaMailConnection.java,F:/corpus/camel/camel#2009-01-20-05-04-24#camel-1.1.0#52049de/components/camel-mail/src/main/java/org/apache/camel/component/mail/JavaMailConnection.java,0,0,0,0,0,1,0,0,0,0,0,0,0,YES,0,0,0,0,0,0,0,0,0,0,0,0,0,0,0,0,0,0,0,0,0,0,0,0,0,0,0,0,0,0,0,0,0,0,0,0,0,0,0,0,0,0,0,0,0,0,0,0,14,48
camel,camel-1.0.0,camel-1.1.0,F:/corpus/camel/camel#2009-01-20-05-04-24#camel-1.0.0#e1ba889/components/camel-mail/src/main/java/org/apache/camel/component/mail/MailBinding.java,F:/corpus/camel/camel#2009-01-20-05-04-24#camel-1.1.0#52049de/components/camel-mail/src/main/java/org/apache/camel/component/mail/MailBinding.java,0,0,0,0,2,3,0,0,0,0,0,0,0,YES,0,0,0,0,0,0,0,0,0,0,0,0,0,0,0,0,0,0,0,0,0,0,0,0,0,0,0,0,0,0,0,0,0,0,0,0,0,0,0,0,0,0,0,0,0,0,0,0,17,119
camel,camel-1.0.0,camel-1.1.0,F:/corpus/camel/camel#2009-01-20-05-04-24#camel-1.0.0#e1ba889/components/camel-mail/src/main/java/org/apache/camel/component/mail/MailComponent.java,F:/corpus/camel/camel#2009-01-20-05-04-24#camel-1.1.0#52049de/components/camel-mail/src/main/java/org/apache/camel/component/mail/MailComponent.java,0,0,0,0,1,0,0,0,0,0,0,0,0,YES,0,0,0,0,0,0,0,0,0,0,0,0,0,0,0,0,0,0,0,0,0,0,0,0,0,0,0,0,0,0,0,0,0,0,0,2,0,0,0,0,0,0,0,0,0,0,0,0,37,97
camel,camel-1.0.0,camel-1.1.0,F:/corpus/camel/camel#2009-01-20-05-04-24#camel-1.0.0#e1ba889/components/camel-mail/src/main/java/org/apache/camel/component/mail/MailConfiguration.java,F:/corpus/camel/camel#2009-01-20-05-04-24#camel-1.1.0#52049de/components/camel-mail/src/main/java/org/apache/camel/component/mail/MailConfiguration.java,1,0,0,0,1,0,0,0,0,0,0,0,0,YES,0,0,0,0,0,0,0,0,0,0,0,0,0,0,0,0,0,0,0,0,0,0,0,0,0,0,0,0,0,0,0,0,0,0,0,0,0,0,0,0,0,0,0,0,0,0,0,0,17,222
camel,camel-1.0.0,camel-1.1.0,F:/corpus/camel/camel#2009-01-20-05-04-24#camel-1.0.0#e1ba889/components/camel-mail/src/main/java/org/apache/camel/component/mail/MailConsumer.java,F:/corpus/camel/camel#2009-01-20-05-04-24#camel-1.1.0#52049de/components/camel-mail/src/main/java/org/apache/camel/component/mail/MailConsumer.java,0,0,0,0,0,0,0,0,0,0,0,0,0,YES,0,0,0,0,0,0,0,0,1,0,0,0,0,0,0,1,0,0,0,0,0,0,0,0,0,0,0,0,0,0,0,0,0,0,0,0,0,0,0,0,0,0,0,0,0,0,2,0,28,135
camel,camel-1.0.0,camel-1.1.0,F:/corpus/camel/camel#2009-01-20-05-04-24#camel-1.0.0#e1ba889/components/camel-mail/src/main/java/org/apache/camel/component/mail/MailConverters.java,F:/corpus/camel/camel#2009-01-20-05-04-24#camel-1.1.0#52049de/components/camel-mail/src/main/java/org/apache/camel/component/mail/MailConverters.java,0,0,0,0,0,0,0,0,0,0,0,0,0,YES,0,0,0,0,0,0,0,0,0,0,0,0,0,0,0,0,0,0,0,0,0,0,0,0,0,0,0,0,0,0,0,0,0,0,0,0,0,0,0,0,0,0,0,0,0,1,0,0,5,68
camel,camel-1.0.0,camel-1.1.0,F:/corpus/camel/camel#2009-01-20-05-04-24#camel-1.0.0#e1ba889/components/camel-mail/src/main/java/org/apache/camel/component/mail/MailEndpoint.java,F:/corpus/camel/camel#2009-01-20-05-04-24#camel-1.1.0#52049de/components/camel-mail/src/main/java/org/apache/camel/component/mail/MailEndpoint.java,0,0,0,0,0,0,0,0,0,0,0,0,0,YES,0,0,0,0,0,0,0,0,0,0,0,0,0,0,0,0,0,0,0,0,0,0,0,0,0,0,0,0,0,0,0,0,0,0,0,0,0,0,0,0,0,0,0,0,0,0,0,0,16,114
camel,camel-1.0.0,camel-1.1.0,F:/corpus/camel/camel#2009-01-20-05-04-24#camel-1.0.0#e1ba889/components/camel-mail/src/main/java/org/apache/camel/component/mail/MailExchange.java,F:/corpus/camel/camel#2009-01-20-05-04-24#camel-1.1.0#52049de/components/camel-mail/src/main/java/org/apache/camel/component/mail/MailExchange.java,0,0,0,0,0,0,0,0,0,0,0,0,0,YES,0,0,0,0,0,0,0,0,0,0,0,0,0,0,0,0,0,0,0,0,0,0,0,0,0,0,0,0,0,0,0,0,0,0,0,0,0,0,0,0,0,0,0,0,0,0,0,0,6,88
camel,camel-1.0.0,camel-1.1.0,F:/corpus/camel/camel#2009-01-20-05-04-24#camel-1.0.0#e1ba889/components/camel-mail/src/main/java/org/apache/camel/component/mail/MailMessage.java,F:/corpus/camel/camel#2009-01-20-05-04-24#camel-1.1.0#52049de/components/camel-mail/src/main/java/org/apache/camel/component/mail/MailMessage.java,0,0,0,0,0,0,0,0,0,0,0,0,0,YES,0,0,0,0,2,0,0,0,0,0,0,0,0,0,0,0,0,0,0,0,0,0,0,0,0,0,0,0,0,0,0,0,0,0,0,0,0,0,0,0,0,0,0,0,0,0,0,0,26,127
camel,camel-1.0.0,camel-1.1.0,F:/corpus/camel/camel#2009-01-20-05-04-24#camel-1.0.0#e1ba889/components/camel-mail/src/main/java/org/apache/camel/component/mail/MailProducer.java,F:/corpus/camel/camel#2009-01-20-05-04-24#camel-1.1.0#52049de/components/camel-mail/src/main/java/org/apache/camel/component/mail/MailProducer.java,0,0,0,0,0,0,0,0,0,0,0,0,0,YES,0,0,0,0,0,0,0,0,1,0,0,0,0,0,0,0,0,0,0,0,0,0,0,0,0,0,0,0,0,0,0,0,0,0,0,0,0,0,0,0,0,0,0,0,0,0,0,0,8,50
camel,camel-1.0.0,camel-1.1.0,F:/corpus/camel/camel#2009-01-20-05-04-24#camel-1.0.0#e1ba889/components/camel-mail/src/main/java/org/apache/camel/component/mail/MessageHeaderAccessException.java,F:/corpus/camel/camel#2009-01-20-05-04-24#camel-1.1.0#52049de/components/camel-mail/src/main/java/org/apache/camel/component/mail/MessageHeaderAccessException.java,0,0,0,0,0,0,0,0,0,0,0,0,0,YES,0,0,0,0,0,0,0,0,0,0,0,0,0,0,0,0,0,0,0,0,0,0,0,0,0,0,0,0,0,0,0,0,0,0,0,0,1,0,0,0,0,0,0,0,0,0,0,0,3,37
camel,camel-1.0.0,camel-1.1.0,F:/corpus/camel/camel#2009-01-20-05-04-24#camel-1.0.0#e1ba889/components/camel-mail/src/main/java/org/apache/camel/component/mail/MessageHeaderNamesAccessException.java,F:/corpus/camel/camel#2009-01-20-05-04-24#camel-1.1.0#52049de/components/camel-mail/src/main/java/org/apache/camel/component/mail/MessageHeaderNamesAccessException.java,0,0,0,0,0,0,0,0,0,0,0,0,0,YES,0,0,0,0,0,0,0,0,0,0,0,0,0,0,0,0,0,0,0,0,0,0,0,0,0,0,0,0,0,0,0,0,0,0,0,0,0,0,0,0,0,0,0,0,0,0,0,0,2,30
camel,camel-1.0.0,camel-1.1.0,F:/corpus/camel/camel#2009-01-20-05-04-24#camel-1.0.0#e1ba889/components/camel-mail/src/main/java/org/apache/camel/component/mail/RuntimeMailException.java,F:/corpus/camel/camel#2009-01-20-05-04-24#camel-1.1.0#52049de/components/camel-mail/src/main/java/org/apache/camel/component/mail/RuntimeMailException.java,0,0,0,0,0,0,0,0,0,0,0,0,0,YES,0,0,0,0,0,0,0,0,0,0,0,0,0,0,0,0,0,0,0,0,0,0,0,0,0,0,0,0,0,0,0,0,0,0,0,0,0,0,0,0,0,0,0,0,0,0,0,0,2,29
camel,camel-1.0.0,camel-1.1.0,F:/corpus/camel/camel#2009-01-20-05-04-24#camel-1.0.0#e1ba889/components/camel-mina/src/main/java/org/apache/camel/component/mina/MinaComponent.java,F:/corpus/camel/camel#2009-01-20-05-04-24#camel-1.1.0#52049de/components/camel-mina/src/main/java/org/apache/camel/component/mina/MinaComponent.java,0,0,0,0,1,0,0,0,0,0,0,0,0,YES,0,0,0,0,0,0,0,0,0,0,0,0,0,0,0,0,0,0,0,0,0,0,0,0,0,0,0,0,0,0,0,0,0,0,0,0,0,0,0,0,0,0,0,0,0,0,0,0,21,104
camel,camel-1.0.0,camel-1.1.0,F:/corpus/camel/camel#2009-01-20-05-04-24#camel-1.0.0#e1ba889/components/camel-mina/src/main/java/org/apache/camel/component/mina/MinaConsumer.java,F:/corpus/camel/camel#2009-01-20-05-04-24#camel-1.1.0#52049de/components/camel-mina/src/main/java/org/apache/camel/component/mina/MinaConsumer.java,0,0,1,0,0,0,0,0,0,0,0,0,0,YES,0,0,0,0,0,0,0,0,1,0,0,0,0,0,0,1,0,0,0,0,0,0,0,0,0,0,0,0,0,0,0,0,0,0,0,0,0,0,0,0,0,0,0,0,0,0,1,0,13,72
camel,camel-1.0.0,camel-1.1.0,F:/corpus/camel/camel#2009-01-20-05-04-24#camel-1.0.0#e1ba889/components/camel-mina/src/main/java/org/apache/camel/component/mina/MinaEndpoint.java,F:/corpus/camel/camel#2009-01-20-05-04-24#camel-1.1.0#52049de/components/camel-mina/src/main/java/org/apache/camel/component/mina/MinaEndpoint.java,0,0,0,0,1,0,0,0,0,0,0,0,0,YES,0,0,0,0,0,0,0,0,0,0,0,0,0,0,0,0,0,0,0,0,0,0,0,0,0,0,0,0,0,0,0,0,0,0,0,0,0,0,0,0,0,0,0,0,0,0,0,0,14,93
camel,camel-1.0.0,camel-1.1.0,F:/corpus/camel/camel#2009-01-20-05-04-24#camel-1.0.0#e1ba889/components/camel-mina/src/main/java/org/apache/camel/component/mina/MinaExchange.java,F:/corpus/camel/camel#2009-01-20-05-04-24#camel-1.1.0#52049de/components/camel-mina/src/main/java/org/apache/camel/component/mina/MinaExchange.java,0,0,0,0,0,0,0,0,0,0,0,0,0,YES,0,0,0,0,0,0,0,0,0,0,0,0,0,0,0,0,0,0,0,0,0,0,0,0,0,0,0,0,0,0,0,0,0,0,0,0,0,0,0,0,0,0,0,0,0,0,0,0,4,34
camel,camel-1.0.0,camel-1.1.0,F:/corpus/camel/camel#2009-01-20-05-04-24#camel-1.0.0#e1ba889/components/camel-mina/src/main/java/org/apache/camel/component/mina/MinaProducer.java,F:/corpus/camel/camel#2009-01-20-05-04-24#camel-1.1.0#52049de/components/camel-mina/src/main/java/org/apache/camel/component/mina/MinaProducer.java,0,0,0,0,0,1,0,0,0,0,0,0,0,YES,0,0,0,0,0,0,0,0,1,0,0,0,0,0,0,1,0,0,0,0,0,0,0,0,0,0,0,0,0,0,0,0,0,0,0,0,0,0,0,0,0,0,0,0,0,0,2,0,13,85
camel,camel-1.0.0,camel-1.1.0,F:/corpus/camel/camel#2009-01-20-05-04-24#camel-1.0.0#e1ba889/components/camel-quartz/src/main/java/org/apache/camel/component/quartz/CamelJob.java,F:/corpus/camel/camel#2009-01-20-05-04-24#camel-1.1.0#52049de/components/camel-quartz/src/main/java/org/apache/camel/component/quartz/CamelJob.java,0,0,1,0,0,1,0,0,0,0,0,0,0,YES,0,0,0,0,0,0,0,0,0,0,0,0,0,0,0,0,0,0,0,0,0,0,0,0,0,0,0,0,0,0,0,0,0,0,0,0,0,0,0,0,0,0,0,0,0,0,0,0,2,35
camel,camel-1.0.0,camel-1.1.0,F:/corpus/camel/camel#2009-01-20-05-04-24#camel-1.0.0#e1ba889/components/camel-quartz/src/main/java/org/apache/camel/component/quartz/QuartzComponent.java,F:/corpus/camel/camel#2009-01-20-05-04-24#camel-1.1.0#52049de/components/camel-quartz/src/main/java/org/apache/camel/component/quartz/QuartzComponent.java,0,0,0,0,1,0,0,0,0,0,0,0,0,YES,0,0,0,0,0,0,0,0,1,0,0,0,0,0,0,0,0,0,0,0,0,0,0,0,0,0,0,0,0,0,0,0,0,0,0,0,0,0,0,0,0,0,0,0,0,0,1,0,34,172
camel,camel-1.0.0,camel-1.1.0,F:/corpus/camel/camel#2009-01-20-05-04-24#camel-1.0.0#e1ba889/components/camel-quartz/src/main/java/org/apache/camel/component/quartz/QuartzConsumer.java,F:/corpus/camel/camel#2009-01-20-05-04-24#camel-1.1.0#52049de/components/camel-quartz/src/main/java/org/apache/camel/component/quartz/QuartzConsumer.java,0,0,0,0,0,0,0,0,0,0,0,0,0,YES,0,0,0,0,0,0,0,0,0,0,0,0,0,0,0,0,0,0,0,0,0,0,0,0,0,0,0,0,0,0,0,0,0,0,0,0,0,0,0,0,0,0,0,0,0,0,0,0,2,47
camel,camel-1.0.0,camel-1.1.0,F:/corpus/camel/camel#2009-01-20-05-04-24#camel-1.0.0#e1ba889/components/camel-quartz/src/main/java/org/apache/camel/component/quartz/QuartzEndpoint.java,F:/corpus/camel/camel#2009-01-20-05-04-24#camel-1.1.0#52049de/components/camel-quartz/src/main/java/org/apache/camel/component/quartz/QuartzEndpoint.java,0,0,0,0,1,0,0,0,0,0,0,0,0,YES,0,0,0,0,0,0,0,0,1,0,0,0,0,0,0,1,0,0,0,0,0,0,0,0,0,0,0,0,0,0,0,0,0,0,0,0,0,0,0,0,0,0,0,0,0,0,1,0,24,217
camel,camel-1.0.0,camel-1.1.0,F:/corpus/camel/camel#2009-01-20-05-04-24#camel-1.0.0#e1ba889/components/camel-quartz/src/main/java/org/apache/camel/component/quartz/QuartzExchange.java,F:/corpus/camel/camel#2009-01-20-05-04-24#camel-1.1.0#52049de/components/camel-quartz/src/main/java/org/apache/camel/component/quartz/QuartzExchange.java,0,0,0,0,0,0,0,0,0,0,0,0,0,YES,0,0,0,0,0,0,0,0,0,0,0,0,0,0,0,0,0,0,0,0,0,0,0,0,0,0,0,0,0,0,0,0,0,0,0,0,0,0,0,0,0,0,0,0,0,0,0,0,2,41
camel,camel-1.0.0,camel-1.1.0,F:/corpus/camel/camel#2009-01-20-05-04-24#camel-1.0.0#e1ba889/components/camel-quartz/src/main/java/org/apache/camel/component/quartz/QuartzMessage.java,F:/corpus/camel/camel#2009-01-20-05-04-24#camel-1.1.0#52049de/components/camel-quartz/src/main/java/org/apache/camel/component/quartz/QuartzMessage.java,0,0,0,0,0,0,0,0,0,0,0,0,0,YES,0,0,0,0,0,0,0,0,0,0,0,0,0,0,0,0,0,0,0,0,0,0,0,0,0,0,0,0,0,0,0,0,0,0,0,0,0,0,0,0,0,0,0,0,0,0,0,0,7,64
camel,camel-1.0.0,camel-1.1.0,F:/corpus/camel/camel#2009-01-20-05-04-24#camel-1.0.0#e1ba889/components/camel-rmi/src/main/java/org/apache/camel/component/rmi/RmiComponent.java,F:/corpus/camel/camel#2009-01-20-05-04-24#camel-1.1.0#52049de/components/camel-rmi/src/main/java/org/apache/camel/component/rmi/RmiComponent.java,0,0,0,0,1,0,0,0,0,0,0,0,0,YES,0,0,0,0,0,0,0,0,0,0,0,0,0,0,0,0,0,0,0,0,0,0,0,0,0,0,0,1,0,0,0,0,0,0,0,0,0,0,0,1,0,0,0,0,0,0,0,0,14,45
camel,camel-1.0.0,camel-1.1.0,F:/corpus/camel/camel#2009-01-20-05-04-24#camel-1.0.0#e1ba889/components/camel-rmi/src/main/java/org/apache/camel/component/rmi/RmiConsumer.java,F:/corpus/camel/camel#2009-01-20-05-04-24#camel-1.1.0#52049de/components/camel-rmi/src/main/java/org/apache/camel/component/rmi/RmiConsumer.java,0,0,0,0,0,2,0,0,0,0,0,0,0,YES,0,0,0,0,0,0,0,0,0,0,0,0,0,0,0,0,0,0,0,0,0,0,0,0,0,0,0,1,0,0,0,0,0,0,0,0,0,0,0,0,0,0,0,0,0,0,2,0,59,107
camel,camel-1.0.0,camel-1.1.0,F:/corpus/camel/camel#2009-01-20-05-04-24#camel-1.0.0#e1ba889/components/camel-rmi/src/main/java/org/apache/camel/component/rmi/RmiEndpoint.java,F:/corpus/camel/camel#2009-01-20-05-04-24#camel-1.1.0#52049de/components/camel-rmi/src/main/java/org/apache/camel/component/rmi/RmiEndpoint.java,0,0,0,0,0,0,0,0,0,0,0,0,0,YES,0,0,0,0,0,0,0,0,0,0,0,0,0,0,0,0,0,0,0,0,0,0,0,0,0,0,0,1,0,0,0,0,0,0,0,0,0,0,0,3,0,0,0,0,0,0,1,0,73,116
camel,camel-1.0.0,camel-1.1.0,F:/corpus/camel/camel#2009-01-20-05-04-24#camel-1.0.0#e1ba889/components/camel-rmi/src/main/java/org/apache/camel/component/rmi/RmiProducer.java,F:/corpus/camel/camel#2009-01-20-05-04-24#camel-1.1.0#52049de/components/camel-rmi/src/main/java/org/apache/camel/component/rmi/RmiProducer.java,0,0,0,0,0,0,0,0,0,0,0,0,0,YES,0,0,0,0,0,1,0,0,0,0,0,0,0,0,0,0,0,0,0,0,0,0,0,0,0,0,0,0,0,0,0,0,0,0,0,0,0,0,0,1,0,0,3,3,0,0,0,0,27,58
camel,camel-1.0.0,camel-1.1.0,F:/corpus/camel/camel#2009-01-20-05-04-24#camel-1.0.0#e1ba889/components/camel-saxon/src/main/java/org/apache/camel/builder/saxon/ResultFormat.java,F:/corpus/camel/camel#2009-01-20-05-04-24#camel-1.1.0#52049de/components/camel-saxon/src/main/java/org/apache/camel/builder/saxon/ResultFormat.java,0,0,0,0,0,0,0,0,0,0,0,0,0,YES,0,0,0,0,0,0,0,0,0,0,0,0,0,0,0,0,0,0,0,0,0,0,0,0,0,0,0,0,0,0,0,0,0,0,0,0,0,0,0,0,0,0,0,0,0,0,0,0,1,24
camel,camel-1.0.0,camel-1.1.0,F:/corpus/camel/camel#2009-01-20-05-04-24#camel-1.0.0#e1ba889/components/camel-saxon/src/main/java/org/apache/camel/builder/saxon/XQueryBuilder.java,F:/corpus/camel/camel#2009-01-20-05-04-24#camel-1.1.0#52049de/components/camel-saxon/src/main/java/org/apache/camel/builder/saxon/XQueryBuilder.java,0,0,0,0,3,1,0,0,0,0,0,0,0,YES,0,0,0,0,4,0,0,0,0,0,0,0,0,0,0,0,0,0,0,0,0,0,0,0,0,0,0,0,0,0,0,0,0,0,0,0,0,0,0,0,0,0,0,0,0,0,0,0,53,337
camel,camel-1.0.0,camel-1.1.0,F:/corpus/camel/camel#2009-01-20-05-04-24#camel-1.0.0#e1ba889/components/camel-script/src/main/java/org/apache/camel/builder/script/ScriptBuilder.java,F:/corpus/camel/camel#2009-01-20-05-04-24#camel-1.1.0#52049de/components/camel-script/src/main/java/org/apache/camel/builder/script/ScriptBuilder.java,0,0,0,0,2,0,0,0,0,0,0,0,0,YES,0,0,0,0,0,0,0,0,1,0,0,0,0,0,0,2,0,0,0,0,0,0,0,0,0,0,0,0,0,0,0,0,0,0,0,0,0,0,0,0,0,0,0,0,0,0,2,0,113,548
camel,camel-1.0.0,camel-1.1.0,F:/corpus/camel/camel#2009-01-20-05-04-24#camel-1.0.0#e1ba889/components/camel-script/src/main/java/org/apache/camel/builder/script/ScriptEvaluationException.java,F:/corpus/camel/camel#2009-01-20-05-04-24#camel-1.1.0#52049de/components/camel-script/src/main/java/org/apache/camel/builder/script/ScriptEvaluationException.java,0,0,0,0,0,0,0,0,0,0,0,0,0,YES,0,0,0,0,0,0,0,0,0,0,0,0,0,0,0,0,0,0,0,0,0,0,0,0,0,0,0,0,0,0,0,0,0,0,0,0,0,0,0,0,0,0,0,0,0,0,0,0,2,40
camel,camel-1.0.0,camel-1.1.0,F:/corpus/camel/camel#2009-01-20-05-04-24#camel-1.0.0#e1ba889/components/camel-spring/src/main/java/org/apache/camel/spring/CamelBeanPostProcessor.java,F:/corpus/camel/camel#2009-01-20-05-04-24#camel-1.1.0#52049de/components/camel-spring/src/main/java/org/apache/camel/spring/CamelBeanPostProcessor.java,0,0,0,0,2,0,0,0,0,0,0,0,0,YES,0,0,0,0,0,1,0,1,1,0,0,0,0,0,0,2,0,0,0,0,0,0,0,0,0,0,1,0,0,0,0,0,0,0,2,2,0,0,0,1,0,0,2,8,0,0,6,0,126,282
camel,camel-1.0.0,camel-1.1.0,F:/corpus/camel/camel#2009-01-20-05-04-24#camel-1.0.0#e1ba889/components/camel-spring/src/main/java/org/apache/camel/spring/CamelContextFactoryBean.java,F:/corpus/camel/camel#2009-01-20-05-04-24#camel-1.1.0#52049de/components/camel-spring/src/main/java/org/apache/camel/spring/CamelContextFactoryBean.java,0,0,0,0,0,0,0,0,0,0,0,0,0,YES,0,0,0,0,3,5,0,0,0,0,0,1,0,0,0,0,0,0,0,0,0,0,0,0,0,0,1,0,0,1,0,0,2,0,0,1,0,0,0,1,0,0,1,6,0,0,1,0,87,152
camel,camel-1.0.0,camel-1.1.0,F:/corpus/camel/camel#2009-01-20-05-04-24#camel-1.0.0#e1ba889/components/camel-spring/src/main/java/org/apache/camel/spring/EndpointFactoryBean.java,F:/corpus/camel/camel#2009-01-20-05-04-24#camel-1.1.0#52049de/components/camel-spring/src/main/java/org/apache/camel/spring/EndpointFactoryBean.java,1,0,0,0,0,0,0,0,0,0,0,0,0,YES,0,0,0,0,0,0,0,0,0,0,0,0,0,0,0,0,0,0,0,0,0,0,0,0,0,0,0,0,0,1,0,0,0,0,0,0,0,0,0,0,0,0,0,0,0,0,0,0,18,95
camel,camel-1.0.0,camel-1.1.0,F:/corpus/camel/camel#2009-01-20-05-04-24#camel-1.0.0#e1ba889/components/camel-spring/src/main/java/org/apache/camel/spring/Main.java,F:/corpus/camel/camel#2009-01-20-05-04-24#camel-1.1.0#52049de/components/camel-spring/src/main/java/org/apache/camel/spring/Main.java,0,0,0,0,2,0,1,0,0,0,0,0,0,YES,0,0,0,0,1,0,0,0,1,0,0,0,0,0,0,0,0,0,0,0,0,0,0,0,0,0,0,0,0,0,0,0,0,0,0,0,0,0,0,0,0,0,1,0,0,0,4,0,52,262
camel,camel-1.0.0,camel-1.1.0,F:/corpus/camel/camel#2009-01-20-05-04-24#camel-1.0.0#e1ba889/components/camel-spring/src/main/java/org/apache/camel/spring/RouteBuilderFinder.java,F:/corpus/camel/camel#2009-01-20-05-04-24#camel-1.1.0#52049de/components/camel-spring/src/main/java/org/apache/camel/spring/RouteBuilderFinder.java,0,0,0,0,0,0,0,0,0,0,0,0,0,YES,0,0,0,0,0,1,0,0,0,0,0,1,0,0,0,1,0,0,0,0,0,0,1,1,0,0,0,0,0,0,0,1,0,0,3,0,1,0,0,0,0,0,7,5,1,1,2,0,40,120
camel,camel-1.0.0,camel-1.1.0,F:/corpus/camel/camel#2009-01-20-05-04-24#camel-1.0.0#e1ba889/components/camel-spring/src/main/java/org/apache/camel/spring/SpringCamelContext.java,F:/corpus/camel/camel#2009-01-20-05-04-24#camel-1.1.0#52049de/components/camel-spring/src/main/java/org/apache/camel/spring/SpringCamelContext.java,0,0,0,0,0,0,0,0,0,0,0,1,0,YES,0,0,0,0,7,2,0,0,0,0,0,1,0,0,0,0,0,0,0,0,0,0,0,0,0,0,0,0,0,0,0,0,1,0,0,0,0,0,0,0,0,0,1,1,0,1,1,0,73,99
camel,camel-1.0.0,camel-1.1.0,F:/corpus/camel/camel#2009-01-20-05-04-24#camel-1.0.0#e1ba889/components/camel-spring/src/main/java/org/apache/camel/spring/SpringRouteBuilder.java,F:/corpus/camel/camel#2009-01-20-05-04-24#camel-1.1.0#52049de/components/camel-spring/src/main/java/org/apache/camel/spring/SpringRouteBuilder.java,0,0,0,0,1,0,0,0,0,0,0,0,0,YES,0,0,0,0,1,0,0,0,0,0,0,0,0,0,0,0,0,0,0,0,0,0,0,0,0,0,0,0,0,0,0,0,0,0,0,0,0,0,0,0,0,0,0,0,0,0,0,0,28,95
camel,camel-1.0.0,camel-1.1.0,F:/corpus/camel/camel#2009-01-20-05-04-24#camel-1.0.0#e1ba889/components/camel-spring/src/main/java/org/apache/camel/spring/remoting/CamelProxyFactoryBean.java,F:/corpus/camel/camel#2009-01-20-05-04-24#camel-1.1.0#52049de/components/camel-spring/src/main/java/org/apache/camel/spring/remoting/CamelProxyFactoryBean.java,0,0,0,0,0,0,0,0,0,0,0,0,0,YES,0,0,0,0,2,0,0,0,0,0,0,0,0,0,0,0,0,0,0,1,0,0,0,0,0,0,0,0,0,0,0,0,1,0,0,0,0,0,0,0,0,0,0,0,0,0,1,0,54,86
camel,camel-1.0.0,camel-1.1.0,F:/corpus/camel/camel#2009-01-20-05-04-24#camel-1.0.0#e1ba889/components/camel-spring/src/main/java/org/apache/camel/spring/remoting/CamelServiceExporter.java,F:/corpus/camel/camel#2009-01-20-05-04-24#camel-1.1.0#52049de/components/camel-spring/src/main/java/org/apache/camel/spring/remoting/CamelServiceExporter.java,1,0,0,0,0,0,0,0,0,0,0,0,0,YES,0,0,0,0,4,4,0,0,0,0,0,0,1,0,0,0,1,0,0,1,0,2,0,0,0,1,0,0,0,0,0,0,2,0,2,2,0,0,0,0,0,0,12,11,0,0,1,0,53,81
camel,camel-1.0.0,camel-1.1.0,F:/corpus/camel/camel#2009-01-20-05-04-24#camel-1.0.0#e1ba889/components/camel-spring/src/main/java/org/apache/camel/spring/spi/BeanInjector.java,F:/corpus/camel/camel#2009-01-20-05-04-24#camel-1.1.0#52049de/components/camel-spring/src/main/java/org/apache/camel/spring/spi/BeanInjector.java,0,0,0,0,0,0,0,0,0,0,0,0,0,YES,0,0,0,0,0,0,0,0,0,0,0,0,0,0,0,0,0,0,0,0,0,0,0,0,0,0,0,0,0,0,0,0,0,0,0,0,0,0,0,0,0,0,0,0,0,0,0,0,4,35
camel,camel-1.0.0,camel-1.1.0,F:/corpus/camel/camel#2009-01-20-05-04-24#camel-1.0.0#e1ba889/components/camel-spring/src/main/java/org/apache/camel/spring/spi/SpringComponentResolver.java,F:/corpus/camel/camel#2009-01-20-05-04-24#camel-1.1.0#52049de/components/camel-spring/src/main/java/org/apache/camel/spring/spi/SpringComponentResolver.java,0,0,0,0,0,0,0,0,0,0,0,0,0,YES,0,0,0,0,0,0,0,0,0,0,0,0,0,0,0,0,0,0,0,0,0,0,0,0,0,0,0,0,0,0,0,0,0,0,0,0,0,0,0,0,0,0,0,0,0,0,0,0,15,65
camel,camel-1.0.0,camel-1.1.0,F:/corpus/camel/camel#2009-01-20-05-04-24#camel-1.0.0#e1ba889/components/camel-spring/src/main/java/org/apache/camel/spring/spi/SpringInjector.java,F:/corpus/camel/camel#2009-01-20-05-04-24#camel-1.1.0#52049de/components/camel-spring/src/main/java/org/apache/camel/spring/spi/SpringInjector.java,0,0,0,0,0,0,0,0,0,0,0,0,0,YES,0,0,0,0,0,0,0,0,1,0,0,0,0,0,0,0,0,0,0,0,0,0,0,0,0,0,1,0,0,0,1,0,0,0,0,0,0,0,0,1,0,0,1,2,0,0,0,0,11,63
camel,camel-1.0.0,camel-1.1.0,F:/corpus/camel/camel#2009-01-20-05-04-24#camel-1.0.0#e1ba889/components/camel-spring/src/main/java/org/apache/camel/spring/spi/SpringTransactionPolicy.java,F:/corpus/camel/camel#2009-01-20-05-04-24#camel-1.1.0#52049de/components/camel-spring/src/main/java/org/apache/camel/spring/spi/SpringTransactionPolicy.java,0,0,0,0,0,0,0,0,0,0,0,0,0,YES,0,0,0,0,0,0,0,0,1,0,0,0,0,0,0,0,0,0,0,0,0,0,0,0,0,0,0,0,0,0,0,0,0,0,1,0,0,0,0,0,0,0,1,3,0,0,1,0,53,104
camel,camel-1.0.0,camel-1.1.0,F:/corpus/camel/camel#2009-01-20-05-04-24#camel-1.0.0#e1ba889/components/camel-spring/src/main/java/org/apache/camel/spring/util/ReflectionUtils.java,F:/corpus/camel/camel#2009-01-20-05-04-24#camel-1.1.0#52049de/components/camel-spring/src/main/java/org/apache/camel/spring/util/ReflectionUtils.java,0,0,0,0,0,0,0,0,0,0,0,0,0,YES,0,0,0,0,0,0,0,0,0,0,0,0,0,0,0,0,0,0,0,0,0,0,0,0,0,0,0,0,0,0,0,0,0,0,0,0,0,0,0,0,0,0,0,0,0,0,0,0,18,69
camel,camel-1.0.0,camel-1.1.0,F:/corpus/camel/camel#2009-01-20-05-04-24#camel-1.0.0#e1ba889/components/camel-xmpp/src/main/java/org/apache/camel/component/xmpp/RuntimeXmppException.java,F:/corpus/camel/camel#2009-01-20-05-04-24#camel-1.1.0#52049de/components/camel-xmpp/src/main/java/org/apache/camel/component/xmpp/RuntimeXmppException.java,0,0,0,0,0,0,0,0,0,0,0,0,0,YES,0,0,0,0,0,0,0,0,0,0,0,0,0,0,0,0,0,0,0,0,0,0,0,0,0,0,0,0,0,0,0,0,0,0,0,0,0,0,0,0,0,0,0,0,0,0,0,0,2,37
camel,camel-1.0.0,camel-1.1.0,F:/corpus/camel/camel#2009-01-20-05-04-24#camel-1.0.0#e1ba889/components/camel-xmpp/src/main/java/org/apache/camel/component/xmpp/XmppBinding.java,F:/corpus/camel/camel#2009-01-20-05-04-24#camel-1.1.0#52049de/components/camel-xmpp/src/main/java/org/apache/camel/component/xmpp/XmppBinding.java,0,0,0,0,2,1,0,0,0,0,0,0,0,YES,0,0,0,0,0,0,0,0,0,0,0,0,0,0,0,0,0,0,0,0,0,0,0,0,0,0,0,0,0,0,0,0,0,0,0,0,0,0,0,0,0,0,0,0,0,0,0,0,9,69
camel,camel-1.0.0,camel-1.1.0,F:/corpus/camel/camel#2009-01-20-05-04-24#camel-1.0.0#e1ba889/components/camel-xmpp/src/main/java/org/apache/camel/component/xmpp/XmppComponent.java,F:/corpus/camel/camel#2009-01-20-05-04-24#camel-1.1.0#52049de/components/camel-xmpp/src/main/java/org/apache/camel/component/xmpp/XmppComponent.java,0,0,0,0,1,0,0,0,0,0,0,0,0,YES,0,0,0,0,0,0,0,0,0,0,0,0,0,0,0,0,0,0,0,0,0,0,0,0,0,0,0,0,0,0,0,0,0,0,0,0,0,0,0,0,0,0,0,0,0,0,0,0,23,73
camel,camel-1.0.0,camel-1.1.0,F:/corpus/camel/camel#2009-01-20-05-04-24#camel-1.0.0#e1ba889/components/camel-xmpp/src/main/java/org/apache/camel/component/xmpp/XmppConsumer.java,F:/corpus/camel/camel#2009-01-20-05-04-24#camel-1.1.0#52049de/components/camel-xmpp/src/main/java/org/apache/camel/component/xmpp/XmppConsumer.java,0,0,0,0,0,0,0,0,0,0,0,0,0,YES,0,0,0,0,0,0,0,0,1,0,0,0,0,0,0,3,0,0,0,0,0,0,0,0,0,0,0,0,0,0,0,0,0,0,0,0,0,0,0,0,0,0,0,0,0,0,4,0,26,91
camel,camel-1.0.0,camel-1.1.0,F:/corpus/camel/camel#2009-01-20-05-04-24#camel-1.0.0#e1ba889/components/camel-xmpp/src/main/java/org/apache/camel/component/xmpp/XmppEndpoint.java,F:/corpus/camel/camel#2009-01-20-05-04-24#camel-1.1.0#52049de/components/camel-xmpp/src/main/java/org/apache/camel/component/xmpp/XmppEndpoint.java,1,0,0,0,0,0,0,0,0,0,0,0,0,YES,0,0,0,0,0,0,0,0,1,0,0,0,0,0,0,0,0,0,0,0,0,0,0,0,0,0,0,0,0,0,0,0,0,0,0,0,0,0,0,0,0,0,0,0,0,0,3,0,25,242
camel,camel-1.0.0,camel-1.1.0,F:/corpus/camel/camel#2009-01-20-05-04-24#camel-1.0.0#e1ba889/components/camel-xmpp/src/main/java/org/apache/camel/component/xmpp/XmppExchange.java,F:/corpus/camel/camel#2009-01-20-05-04-24#camel-1.1.0#52049de/components/camel-xmpp/src/main/java/org/apache/camel/component/xmpp/XmppExchange.java,0,0,0,0,0,0,0,0,0,0,0,0,0,YES,0,0,0,0,0,0,0,0,0,0,0,0,0,0,0,0,0,0,0,0,0,0,0,0,0,0,0,0,0,0,0,0,0,0,0,0,0,0,0,0,0,0,0,0,0,0,0,0,5,114
camel,camel-1.0.0,camel-1.1.0,F:/corpus/camel/camel#2009-01-20-05-04-24#camel-1.0.0#e1ba889/components/camel-xmpp/src/main/java/org/apache/camel/component/xmpp/XmppGroupChatProducer.java,F:/corpus/camel/camel#2009-01-20-05-04-24#camel-1.1.0#52049de/components/camel-xmpp/src/main/java/org/apache/camel/component/xmpp/XmppGroupChatProducer.java,0,0,0,0,0,0,0,0,0,0,0,0,0,YES,0,0,0,0,0,0,0,0,1,0,0,0,0,0,0,1,0,0,0,0,0,0,0,0,0,0,0,0,0,0,0,0,0,0,0,0,0,0,0,0,0,0,0,0,0,0,1,0,8,94
camel,camel-1.0.0,camel-1.1.0,F:/corpus/camel/camel#2009-01-20-05-04-24#camel-1.0.0#e1ba889/components/camel-xmpp/src/main/java/org/apache/camel/component/xmpp/XmppMessage.java,F:/corpus/camel/camel#2009-01-20-05-04-24#camel-1.1.0#52049de/components/camel-xmpp/src/main/java/org/apache/camel/component/xmpp/XmppMessage.java,0,0,0,0,0,0,0,0,0,0,0,0,0,YES,0,0,0,0,0,0,0,0,0,0,0,0,0,0,0,0,0,0,0,0,0,0,0,0,0,0,0,0,0,0,0,0,0,0,0,0,0,0,0,0,0,0,0,0,0,0,0,0,17,108
camel,camel-1.0.0,camel-1.1.0,F:/corpus/camel/camel#2009-01-20-05-04-24#camel-1.0.0#e1ba889/components/camel-xmpp/src/main/java/org/apache/camel/component/xmpp/XmppPrivateChatProducer.java,F:/corpus/camel/camel#2009-01-20-05-04-24#camel-1.1.0#52049de/components/camel-xmpp/src/main/java/org/apache/camel/component/xmpp/XmppPrivateChatProducer.java,0,0,0,0,0,0,0,0,0,0,0,0,0,YES,0,0,0,0,0,0,0,0,1,0,0,0,0,0,0,1,0,0,0,0,0,0,0,0,0,0,0,0,0,0,0,0,0,0,0,0,0,0,0,0,0,0,0,0,0,0,1,0,8,93
camel,camel-1.0.0,camel-1.1.0,F:/corpus/camel/camel#2009-01-20-05-04-24#camel-1.0.0#e1ba889/tooling/maven/camel-maven-plugin/src/main/java/org/apache/camel/maven/RunCamelMojo.java,F:/corpus/camel/camel#2009-01-20-05-04-24#camel-1.1.0#52049de/tooling/maven/camel-maven-plugin/src/main/java/org/apache/camel/maven/RunCamelMojo.java,0,0,0,0,1,1,0,0,0,1,0,0,0,YES,0,0,0,0,0,0,0,0,0,0,0,0,0,0,0,0,0,0,0,0,0,0,0,0,0,0,0,0,0,0,0,0,0,0,0,0,0,0,0,0,0,0,0,0,0,0,0,0,495,837
camel,camel-1.0.0,camel-1.1.0,F:/corpus/camel/camel#2009-01-20-05-04-24#camel-1.0.0#e1ba889/tooling/maven/maven-html-to-docbook/src/main/java/org/apache/camel/maven/GenerateDocBookMojo.java,F:/corpus/camel/camel#2009-01-20-05-04-24#camel-1.1.0#52049de/tooling/maven/maven-html-to-docbook/src/main/java/org/apache/camel/maven/GenerateDocBookMojo.java,0,0,0,0,0,0,0,0,0,0,0,0,0,YES,0,0,0,0,1,1,0,1,0,0,0,0,0,2,0,0,0,0,0,0,0,0,0,0,0,0,0,0,0,0,0,0,0,0,0,0,0,0,0,0,0,0,8,13,0,0,5,0,408,408
