projectName,oldVersionTag,newVersionTag,oldPath,newPath,DC,LC,MM,RPB,SG,MCH,DCLP,DIVC,FE,LM,LPL,SS,SC,fromChangeDistiller,adding_attribute_modifiability,adding_class_derivability,adding_method_overridability,additional_class,additional_functionality,additional_object_state,alternative_part_delete,alternative_part_insert,attribute_renaming,attribute_type_change,class_renaming,comment_delete,comment_insert,comment_move,comment_update,condition_expression_change,decreasing_accessibility_change,doc_delete,doc_insert,doc_update,increasing_accessibility_change,method_renaming,parameter_delete,parameter_insert,parameter_ordering_change,parameter_renaming,parameter_type_change,parent_class_change,parent_class_delete,parent_class_insert,parent_interface_change,parent_interface_delete,parent_interface_insert,removed_class,removed_functionality,removed_object_state,removing_attribute_modifiability,removing_class_derivability,removing_method_overridability,return_type_change,return_type_delete,return_type_insert,statement_delete,statement_insert,statement_ordering_change,statement_parent_change,statement_update,unclassified_change,codeChurn,LOC
guava,v11.0,v12.0,F:/corpus/guava/guava#2011-12-18-01-04-57#v11.0#5a6bf80/guava-gwt/src-super/com/google/common/base/super/com/google/common/base/Splitter.java,F:/corpus/guava/guava#2012-05-01-02-04-06#v12.0#72d2812/guava-gwt/src-super/com/google/common/base/super/com/google/common/base/Splitter.java,0,0,0,0,2,0,0,0,0,0,0,1,0,YES,0,0,0,0,0,0,0,0,0,0,0,0,3,0,0,0,0,0,0,1,0,0,0,0,0,0,0,0,0,0,0,0,0,0,0,0,0,0,0,0,0,0,1,8,0,3,1,0,28,481
guava,v11.0,v12.0,F:/corpus/guava/guava#2011-12-18-01-04-57#v11.0#5a6bf80/guava-gwt/src-super/com/google/common/cache/super/com/google/common/cache/CacheBuilder.java,F:/corpus/guava/guava#2012-05-01-02-04-06#v12.0#72d2812/guava-gwt/src-super/com/google/common/cache/super/com/google/common/cache/CacheBuilder.java,0,0,0,0,3,0,0,0,0,0,0,4,0,YES,0,0,0,0,0,0,0,0,0,0,0,0,0,0,0,0,0,0,0,0,0,0,0,0,0,0,1,0,0,0,0,0,0,0,0,0,0,0,0,0,0,0,0,0,0,0,0,0,1,321
guava,v11.0,v12.0,F:/corpus/guava/guava#2011-12-18-01-04-57#v11.0#5a6bf80/guava-gwt/src-super/com/google/common/collect/super/com/google/common/collect/AbstractBiMap.java,F:/corpus/guava/guava#2012-05-01-02-04-06#v12.0#72d2812/guava-gwt/src-super/com/google/common/collect/super/com/google/common/collect/AbstractBiMap.java,0,0,0,0,1,0,0,0,0,0,0,0,0,YES,0,0,0,0,4,0,0,0,0,0,0,0,0,0,0,0,0,0,0,0,1,0,0,0,0,0,0,0,0,0,0,0,0,0,0,0,0,0,0,0,0,0,4,4,0,0,0,0,65,383
guava,v11.0,v12.0,F:/corpus/guava/guava#2011-12-18-01-04-57#v11.0#5a6bf80/guava-gwt/src-super/com/google/common/collect/super/com/google/common/collect/AbstractMapBasedMultiset.java,F:/corpus/guava/guava#2012-05-01-02-04-06#v12.0#72d2812/guava-gwt/src-super/com/google/common/collect/super/com/google/common/collect/AbstractMapBasedMultiset.java,0,0,0,0,1,5,0,0,0,0,0,0,0,YES,0,0,0,0,1,0,0,0,0,0,0,0,0,0,0,0,0,0,0,0,0,0,1,0,0,0,0,1,0,1,0,0,0,0,8,2,0,0,0,0,0,0,2,0,0,0,2,0,88,395
guava,v11.0,v12.0,F:/corpus/guava/guava#2011-12-18-01-04-57#v11.0#5a6bf80/guava-gwt/src-super/com/google/common/collect/super/com/google/common/collect/ArrayListMultimap.java,F:/corpus/guava/guava#2012-05-01-02-04-06#v12.0#72d2812/guava-gwt/src-super/com/google/common/collect/super/com/google/common/collect/ArrayListMultimap.java,0,0,0,0,0,0,0,0,0,0,0,1,0,YES,0,0,0,0,0,0,0,0,0,0,0,0,0,0,0,0,0,0,0,1,0,0,0,0,0,0,0,0,0,0,0,0,0,0,0,0,0,0,0,0,0,0,0,0,0,0,0,0,5,134
guava,v11.0,v12.0,F:/corpus/guava/guava#2011-12-18-01-04-57#v11.0#5a6bf80/guava-gwt/src-super/com/google/common/collect/super/com/google/common/collect/EmptyContiguousSet.java,F:/corpus/guava/guava#2012-05-01-02-04-06#v12.0#72d2812/guava-gwt/src-super/com/google/common/collect/super/com/google/common/collect/EmptyContiguousSet.java,0,0,0,0,6,0,0,0,0,0,0,0,0,YES,0,0,0,0,0,0,0,0,0,0,0,0,0,0,0,0,0,0,0,0,0,0,0,0,0,0,0,0,0,0,0,0,0,0,1,0,0,0,0,0,0,0,0,0,0,0,0,0,5,109
guava,v11.0,v12.0,F:/corpus/guava/guava#2011-12-18-01-04-57#v11.0#5a6bf80/guava-gwt/src-super/com/google/common/collect/super/com/google/common/collect/EmptyImmutableList.java,F:/corpus/guava/guava#2012-05-01-02-04-06#v12.0#72d2812/guava-gwt/src-super/com/google/common/collect/super/com/google/common/collect/EmptyImmutableList.java,0,0,0,0,0,0,0,0,0,0,0,0,0,YES,0,0,0,0,0,0,0,0,0,0,0,0,0,0,0,0,0,0,0,0,0,0,0,0,0,0,0,1,0,0,0,0,0,0,0,0,0,0,0,0,0,0,1,1,0,0,0,0,9,26
guava,v11.0,v12.0,F:/corpus/guava/guava#2011-12-18-01-04-57#v11.0#5a6bf80/guava-gwt/src-super/com/google/common/collect/super/com/google/common/collect/EmptyImmutableSortedSet.java,F:/corpus/guava/guava#2012-05-01-02-04-06#v12.0#72d2812/guava-gwt/src-super/com/google/common/collect/super/com/google/common/collect/EmptyImmutableSortedSet.java,0,0,0,0,0,0,0,0,0,0,0,0,0,YES,0,0,0,0,0,0,0,0,0,0,0,0,0,0,0,0,0,0,0,0,0,0,0,0,0,0,0,0,0,0,0,0,0,0,0,0,0,0,0,0,0,0,0,0,0,0,1,0,1,30
guava,v11.0,v12.0,F:/corpus/guava/guava#2011-12-18-01-04-57#v11.0#5a6bf80/guava-gwt/src-super/com/google/common/collect/super/com/google/common/collect/EnumBiMap.java,F:/corpus/guava/guava#2012-05-01-02-04-06#v12.0#72d2812/guava-gwt/src-super/com/google/common/collect/super/com/google/common/collect/EnumBiMap.java,0,0,0,0,0,0,0,0,0,0,0,0,0,YES,0,0,0,0,2,0,0,0,0,0,0,0,0,0,0,0,0,0,0,1,0,0,0,0,0,0,0,0,0,0,0,0,0,0,0,0,0,0,0,0,0,0,0,0,0,0,0,0,15,105
guava,v11.0,v12.0,F:/corpus/guava/guava#2011-12-18-01-04-57#v11.0#5a6bf80/guava-gwt/src-super/com/google/common/collect/super/com/google/common/collect/EnumHashBiMap.java,F:/corpus/guava/guava#2012-05-01-02-04-06#v12.0#72d2812/guava-gwt/src-super/com/google/common/collect/super/com/google/common/collect/EnumHashBiMap.java,0,0,0,0,0,0,0,0,0,0,0,0,0,YES,0,0,0,0,1,0,0,0,0,0,0,0,0,0,0,0,0,0,0,1,0,0,0,0,0,0,0,0,0,0,0,0,0,0,0,0,0,0,0,0,0,0,0,0,0,0,0,0,7,90
guava,v11.0,v12.0,F:/corpus/guava/guava#2011-12-18-01-04-57#v11.0#5a6bf80/guava-gwt/src-super/com/google/common/collect/super/com/google/common/collect/EnumMultiset.java,F:/corpus/guava/guava#2012-05-01-02-04-06#v12.0#72d2812/guava-gwt/src-super/com/google/common/collect/super/com/google/common/collect/EnumMultiset.java,0,0,0,0,0,0,0,0,0,0,0,0,0,YES,0,0,0,0,0,0,0,0,0,0,0,0,0,0,0,0,0,0,0,0,0,0,0,0,0,0,0,0,0,0,0,0,0,0,0,0,0,0,0,0,0,0,0,0,0,0,0,0,4,62
guava,v11.0,v12.0,F:/corpus/guava/guava#2011-12-18-01-04-57#v11.0#5a6bf80/guava-gwt/src-super/com/google/common/collect/super/com/google/common/collect/HashBiMap.java,F:/corpus/guava/guava#2012-05-01-02-04-06#v12.0#72d2812/guava-gwt/src-super/com/google/common/collect/super/com/google/common/collect/HashBiMap.java,0,0,0,0,0,0,0,0,0,0,0,1,0,YES,0,0,0,0,0,0,0,0,0,0,0,0,0,0,0,0,0,0,0,0,0,0,0,0,0,0,0,0,0,0,0,0,0,0,0,0,0,0,0,0,0,0,0,0,0,0,0,0,4,88
guava,v11.0,v12.0,F:/corpus/guava/guava#2011-12-18-01-04-57#v11.0#5a6bf80/guava-gwt/src-super/com/google/common/collect/super/com/google/common/collect/HashMultimap.java,F:/corpus/guava/guava#2012-05-01-02-04-06#v12.0#72d2812/guava-gwt/src-super/com/google/common/collect/super/com/google/common/collect/HashMultimap.java,0,0,0,0,0,0,0,0,0,0,0,1,0,YES,0,0,0,0,0,0,0,0,0,0,0,0,0,0,0,0,0,0,0,0,0,0,0,0,0,0,0,0,0,0,0,0,0,0,0,0,0,0,0,0,0,0,0,0,0,0,0,0,1,112
guava,v11.0,v12.0,F:/corpus/guava/guava#2011-12-18-01-04-57#v11.0#5a6bf80/guava-gwt/src-super/com/google/common/collect/super/com/google/common/collect/ImmutableCollection.java,F:/corpus/guava/guava#2012-05-01-02-04-06#v12.0#72d2812/guava-gwt/src-super/com/google/common/collect/super/com/google/common/collect/ImmutableCollection.java,0,0,1,0,7,0,0,0,0,0,0,6,0,YES,0,0,0,0,1,0,0,0,0,0,0,0,0,0,0,0,0,0,0,0,0,0,0,0,0,0,0,0,0,0,0,0,0,0,0,0,0,0,0,0,0,0,0,0,0,0,0,0,9,173
guava,v11.0,v12.0,F:/corpus/guava/guava#2011-12-18-01-04-57#v11.0#5a6bf80/guava-gwt/src-super/com/google/common/collect/super/com/google/common/collect/ImmutableList.java,F:/corpus/guava/guava#2012-05-01-02-04-06#v12.0#72d2812/guava-gwt/src-super/com/google/common/collect/super/com/google/common/collect/ImmutableList.java,0,0,0,0,5,0,0,0,0,0,5,14,0,YES,0,0,0,0,1,0,0,0,0,0,0,0,0,0,0,0,0,0,0,1,0,0,0,0,0,0,0,1,0,0,0,0,0,0,5,1,0,0,0,2,0,0,5,4,0,0,1,0,45,318
guava,v11.0,v12.0,F:/corpus/guava/guava#2011-12-18-01-04-57#v11.0#5a6bf80/guava-gwt/src-super/com/google/common/collect/super/com/google/common/collect/ImmutableListMultimap.java,F:/corpus/guava/guava#2012-05-01-02-04-06#v12.0#72d2812/guava-gwt/src-super/com/google/common/collect/super/com/google/common/collect/ImmutableListMultimap.java,0,0,0,0,2,0,0,0,0,0,2,0,0,YES,0,0,0,0,0,0,0,0,0,0,0,0,0,0,0,0,0,0,0,0,0,0,0,0,0,0,0,0,0,0,0,0,0,0,0,0,0,0,0,0,0,0,0,0,0,0,0,0,4,326
guava,v11.0,v12.0,F:/corpus/guava/guava#2011-12-18-01-04-57#v11.0#5a6bf80/guava-gwt/src-super/com/google/common/collect/super/com/google/common/collect/ImmutableMultimap.java,F:/corpus/guava/guava#2012-05-01-02-04-06#v12.0#72d2812/guava-gwt/src-super/com/google/common/collect/super/com/google/common/collect/ImmutableMultimap.java,0,0,0,0,7,0,0,0,0,0,2,0,0,YES,0,0,0,0,0,1,0,0,0,0,0,0,0,0,0,0,0,0,0,1,0,0,0,0,0,0,0,0,0,0,0,0,0,1,0,0,0,0,0,0,0,0,3,9,0,0,0,0,56,619
guava,v11.0,v12.0,F:/corpus/guava/guava#2011-12-18-01-04-57#v11.0#5a6bf80/guava-gwt/src-super/com/google/common/collect/super/com/google/common/collect/ImmutableSetMultimap.java,F:/corpus/guava/guava#2012-05-01-02-04-06#v12.0#72d2812/guava-gwt/src-super/com/google/common/collect/super/com/google/common/collect/ImmutableSetMultimap.java,0,0,0,0,2,0,0,0,0,0,2,0,0,YES,0,0,0,0,0,0,0,0,0,0,0,0,0,0,0,0,0,0,0,1,0,0,0,0,0,0,0,0,0,0,0,0,0,0,0,0,0,0,0,0,0,0,1,8,0,0,0,0,37,424
guava,v11.0,v12.0,F:/corpus/guava/guava#2011-12-18-01-04-57#v11.0#5a6bf80/guava-gwt/src-super/com/google/common/collect/super/com/google/common/collect/ImmutableSortedMap.java,F:/corpus/guava/guava#2012-05-01-02-04-06#v12.0#72d2812/guava-gwt/src-super/com/google/common/collect/super/com/google/common/collect/ImmutableSortedMap.java,0,0,0,0,0,0,0,0,0,0,2,1,0,YES,0,0,0,0,3,0,0,0,0,2,0,0,0,0,0,0,0,0,0,0,0,0,0,1,0,0,1,0,0,0,0,0,0,0,0,0,0,0,0,0,0,0,2,2,0,0,9,0,48,320
guava,v11.0,v12.0,F:/corpus/guava/guava#2011-12-18-01-04-57#v11.0#5a6bf80/guava-gwt/src-super/com/google/common/collect/super/com/google/common/collect/ImmutableSortedSet.java,F:/corpus/guava/guava#2012-05-01-02-04-06#v12.0#72d2812/guava-gwt/src-super/com/google/common/collect/super/com/google/common/collect/ImmutableSortedSet.java,0,0,0,0,1,0,0,0,0,0,0,1,0,YES,0,0,0,0,0,0,0,0,0,0,0,0,0,0,0,0,0,0,1,0,0,0,0,0,0,0,0,0,0,0,0,0,0,0,0,0,0,0,0,0,0,0,0,0,0,0,0,0,15,413
guava,v11.0,v12.0,F:/corpus/guava/guava#2011-12-18-01-04-57#v11.0#5a6bf80/guava-gwt/src-super/com/google/common/collect/super/com/google/common/collect/Iterables.java,F:/corpus/guava/guava#2012-05-01-02-04-06#v12.0#72d2812/guava-gwt/src-super/com/google/common/collect/super/com/google/common/collect/Iterables.java,0,1,0,0,1,0,0,0,0,0,0,3,0,YES,0,0,0,0,0,0,0,0,0,0,0,0,0,0,0,0,0,0,0,2,0,0,0,0,0,0,5,0,0,0,0,0,0,1,0,0,0,0,0,0,0,0,1,1,0,0,14,0,38,1090
guava,v11.0,v12.0,F:/corpus/guava/guava#2011-12-18-01-04-57#v11.0#5a6bf80/guava-gwt/src-super/com/google/common/collect/super/com/google/common/collect/Iterators.java,F:/corpus/guava/guava#2012-05-01-02-04-06#v12.0#72d2812/guava-gwt/src-super/com/google/common/collect/super/com/google/common/collect/Iterators.java,0,1,0,0,0,0,0,0,0,0,0,9,0,YES,0,0,0,0,4,0,0,0,0,0,0,2,0,0,0,0,0,0,0,2,0,0,0,0,0,0,6,0,0,0,0,0,0,0,0,0,0,0,0,0,0,0,5,1,0,0,2,0,91,1293
guava,v11.0,v12.0,F:/corpus/guava/guava#2011-12-18-01-04-57#v11.0#5a6bf80/guava-gwt/src-super/com/google/common/collect/super/com/google/common/collect/LinkedHashMultimap.java,F:/corpus/guava/guava#2012-05-01-02-04-06#v12.0#72d2812/guava-gwt/src-super/com/google/common/collect/super/com/google/common/collect/LinkedHashMultimap.java,0,0,0,0,0,0,0,0,0,0,0,1,0,YES,0,0,0,0,0,0,0,0,0,0,0,0,0,0,0,0,0,0,0,0,0,0,0,0,0,0,0,0,0,0,0,0,0,0,0,0,0,0,0,0,0,0,0,0,0,0,0,0,4,354
guava,v11.0,v12.0,F:/corpus/guava/guava#2011-12-18-01-04-57#v11.0#5a6bf80/guava-gwt/src-super/com/google/common/collect/super/com/google/common/collect/LinkedHashMultiset.java,F:/corpus/guava/guava#2012-05-01-02-04-06#v12.0#72d2812/guava-gwt/src-super/com/google/common/collect/super/com/google/common/collect/LinkedHashMultiset.java,0,0,0,0,0,0,0,0,0,0,0,2,0,YES,0,0,0,0,0,0,0,0,0,0,0,0,0,0,0,0,0,0,0,0,0,0,0,0,0,0,0,0,0,0,0,0,0,0,0,0,0,0,0,0,0,0,0,0,0,0,0,0,4,83
guava,v11.0,v12.0,F:/corpus/guava/guava#2011-12-18-01-04-57#v11.0#5a6bf80/guava-gwt/src-super/com/google/common/collect/super/com/google/common/collect/LinkedListMultimap.java,F:/corpus/guava/guava#2012-05-01-02-04-06#v12.0#72d2812/guava-gwt/src-super/com/google/common/collect/super/com/google/common/collect/LinkedListMultimap.java,0,1,0,0,3,0,1,0,0,0,0,1,0,YES,0,0,0,0,2,0,0,0,0,0,0,1,1,0,0,0,0,0,0,1,0,0,1,1,0,0,0,1,1,0,0,0,0,1,6,0,0,0,0,0,0,0,1,0,0,0,6,0,222,1108
guava,v11.0,v12.0,F:/corpus/guava/guava#2011-12-18-01-04-57#v11.0#5a6bf80/guava-gwt/src-super/com/google/common/collect/super/com/google/common/collect/Maps.java,F:/corpus/guava/guava#2012-05-01-02-04-06#v12.0#72d2812/guava-gwt/src-super/com/google/common/collect/super/com/google/common/collect/Maps.java,0,1,0,0,12,0,0,0,0,0,0,6,0,YES,0,0,0,0,5,0,0,0,0,0,0,0,0,0,0,0,0,0,0,1,0,0,0,0,0,0,0,0,0,0,0,0,0,0,1,0,0,0,0,0,0,0,2,2,0,0,1,0,149,2262
guava,v11.0,v12.0,F:/corpus/guava/guava#2011-12-18-01-04-57#v11.0#5a6bf80/guava-gwt/src-super/com/google/common/collect/super/com/google/common/collect/Multimaps.java,F:/corpus/guava/guava#2012-05-01-02-04-06#v12.0#72d2812/guava-gwt/src-super/com/google/common/collect/super/com/google/common/collect/Multimaps.java,0,1,0,0,26,0,0,0,0,0,0,0,0,YES,0,0,0,0,0,0,0,0,0,0,0,0,0,0,0,0,0,0,0,1,0,0,0,0,0,0,0,0,0,0,0,0,0,0,1,0,0,0,0,0,0,0,4,2,0,0,5,0,87,2539
guava,v11.0,v12.0,F:/corpus/guava/guava#2011-12-18-01-04-57#v11.0#5a6bf80/guava-gwt/src-super/com/google/common/collect/super/com/google/common/collect/ObjectArrays.java,F:/corpus/guava/guava#2012-05-01-02-04-06#v12.0#72d2812/guava-gwt/src-super/com/google/common/collect/super/com/google/common/collect/ObjectArrays.java,0,0,0,0,0,0,0,0,0,0,0,3,0,YES,0,0,0,0,0,0,0,0,0,0,0,0,0,0,0,0,0,0,0,0,0,0,0,0,0,0,0,0,0,0,0,0,0,0,0,0,0,0,0,0,0,0,0,0,0,0,2,0,2,156
guava,v11.0,v12.0,F:/corpus/guava/guava#2011-12-18-01-04-57#v11.0#5a6bf80/guava-gwt/src-super/com/google/common/collect/super/com/google/common/collect/Platform.java,F:/corpus/guava/guava#2012-05-01-02-04-06#v12.0#72d2812/guava-gwt/src-super/com/google/common/collect/super/com/google/common/collect/Platform.java,0,0,0,0,1,0,0,0,0,0,0,0,0,YES,0,0,0,0,0,0,0,0,0,0,0,0,0,0,0,0,0,0,0,0,0,0,0,0,0,0,0,0,0,0,0,0,0,0,1,0,0,0,0,0,0,0,0,0,0,0,0,0,8,52
guava,v11.0,v12.0,F:/corpus/guava/guava#2011-12-18-01-04-57#v11.0#5a6bf80/guava-gwt/src-super/com/google/common/collect/super/com/google/common/collect/RegularContiguousSet.java,F:/corpus/guava/guava#2012-05-01-02-04-06#v12.0#72d2812/guava-gwt/src-super/com/google/common/collect/super/com/google/common/collect/RegularContiguousSet.java,0,0,0,0,0,0,0,0,0,0,0,0,0,YES,0,0,0,0,1,0,0,0,0,0,0,0,1,0,0,0,0,0,0,0,0,0,0,0,0,0,0,0,0,0,0,0,0,0,1,0,0,0,0,0,0,0,5,6,0,1,4,0,24,171
guava,v11.0,v12.0,F:/corpus/guava/guava#2011-12-18-01-04-57#v11.0#5a6bf80/guava-gwt/src-super/com/google/common/collect/super/com/google/common/collect/RegularImmutableList.java,F:/corpus/guava/guava#2012-05-01-02-04-06#v12.0#72d2812/guava-gwt/src-super/com/google/common/collect/super/com/google/common/collect/RegularImmutableList.java,0,0,0,0,0,0,0,0,0,0,0,0,0,YES,0,0,0,0,0,0,0,0,0,0,0,0,0,0,0,0,0,0,0,0,0,0,0,0,0,0,0,0,0,0,0,0,0,0,0,0,0,0,0,0,0,0,0,0,0,0,0,0,1,30
guava,v11.0,v12.0,F:/corpus/guava/guava#2011-12-18-01-04-57#v11.0#5a6bf80/guava-gwt/src-super/com/google/common/collect/super/com/google/common/collect/Sets.java,F:/corpus/guava/guava#2012-05-01-02-04-06#v12.0#72d2812/guava-gwt/src-super/com/google/common/collect/super/com/google/common/collect/Sets.java,0,1,0,0,2,1,0,0,0,0,0,12,0,YES,0,0,0,0,2,0,0,0,0,0,0,1,0,0,0,0,0,0,0,1,0,0,0,0,0,1,1,0,0,0,0,0,0,2,1,0,0,0,0,0,0,0,1,1,0,1,2,0,146,1382
guava,v11.0,v12.0,F:/corpus/guava/guava#2011-12-18-01-04-57#v11.0#5a6bf80/guava-gwt/src-super/com/google/common/collect/super/com/google/common/collect/SingletonImmutableList.java,F:/corpus/guava/guava#2012-05-01-02-04-06#v12.0#72d2812/guava-gwt/src-super/com/google/common/collect/super/com/google/common/collect/SingletonImmutableList.java,0,0,0,0,0,0,0,0,0,0,0,0,0,YES,0,0,0,0,0,0,0,0,0,0,0,0,0,0,0,0,0,0,0,0,0,0,0,0,0,0,0,0,0,0,0,0,0,0,0,0,0,0,0,0,0,0,0,0,0,0,0,0,1,39
guava,v11.0,v12.0,F:/corpus/guava/guava#2011-12-18-01-04-57#v11.0#5a6bf80/guava-gwt/src-super/com/google/common/collect/super/com/google/common/collect/Synchronized.java,F:/corpus/guava/guava#2012-05-01-02-04-06#v12.0#72d2812/guava-gwt/src-super/com/google/common/collect/super/com/google/common/collect/Synchronized.java,0,1,0,0,0,0,0,0,0,0,0,0,0,YES,0,0,0,0,0,0,0,0,0,0,0,0,0,0,0,0,0,0,0,0,0,0,0,0,0,0,0,0,0,0,0,0,0,0,0,0,0,0,0,0,0,0,0,0,0,0,2,0,5,1206
guava,v11.0,v12.0,F:/corpus/guava/guava#2011-12-18-01-04-57#v11.0#5a6bf80/guava-gwt/src-super/com/google/common/collect/super/com/google/common/collect/TreeMultimap.java,F:/corpus/guava/guava#2012-05-01-02-04-06#v12.0#72d2812/guava-gwt/src-super/com/google/common/collect/super/com/google/common/collect/TreeMultimap.java,0,0,0,0,0,0,0,0,0,0,0,1,0,YES,0,0,0,0,0,0,0,0,0,0,0,0,0,0,0,0,0,0,0,0,0,0,0,0,0,0,0,0,0,0,0,0,0,0,0,0,0,0,0,0,0,0,0,0,0,0,0,0,4,167
guava,v11.0,v12.0,F:/corpus/guava/guava#2011-12-18-01-04-57#v11.0#5a6bf80/guava-gwt/src-super/com/google/common/collect/super/com/google/common/collect/TreeMultiset.java,F:/corpus/guava/guava#2012-05-01-02-04-06#v12.0#72d2812/guava-gwt/src-super/com/google/common/collect/super/com/google/common/collect/TreeMultiset.java,0,0,0,0,1,1,0,0,0,0,0,1,0,YES,0,0,0,1,0,0,1,0,0,0,0,0,1,0,0,0,0,0,0,1,0,0,0,0,0,0,0,0,0,0,0,0,0,0,0,0,0,0,0,0,0,0,2,4,0,2,4,0,42,539
guava,v11.0,v12.0,F:/corpus/guava/guava#2011-12-18-01-04-57#v11.0#5a6bf80/guava-gwt/src-super/com/google/common/math/super/com/google/common/math/IntMath.java,F:/corpus/guava/guava#2012-05-01-02-04-06#v12.0#72d2812/guava-gwt/src-super/com/google/common/math/super/com/google/common/math/IntMath.java,0,0,0,0,0,0,0,0,0,0,0,0,0,YES,0,0,0,0,3,0,0,0,0,0,0,0,0,0,0,0,0,0,0,0,0,0,0,0,0,0,0,0,0,0,0,0,0,0,0,0,0,0,0,0,0,0,0,0,0,0,0,0,124,199
guava,v11.0,v12.0,F:/corpus/guava/guava#2011-12-18-01-04-57#v11.0#5a6bf80/guava-gwt/src-super/com/google/common/primitives/super/com/google/common/primitives/Chars.java,F:/corpus/guava/guava#2012-05-01-02-04-06#v12.0#72d2812/guava-gwt/src-super/com/google/common/primitives/super/com/google/common/primitives/Chars.java,0,0,0,0,0,0,0,0,0,0,0,0,0,YES,0,0,0,0,0,0,0,0,0,0,0,0,0,0,0,0,0,0,0,0,0,0,0,0,0,0,0,0,0,0,0,0,0,0,0,0,0,0,0,0,0,0,0,0,0,0,0,0,4,532
guava,v11.0,v12.0,F:/corpus/guava/guava#2011-12-18-01-04-57#v11.0#5a6bf80/guava-gwt/src-super/com/google/common/primitives/super/com/google/common/primitives/Ints.java,F:/corpus/guava/guava#2012-05-01-02-04-06#v12.0#72d2812/guava-gwt/src-super/com/google/common/primitives/super/com/google/common/primitives/Ints.java,0,0,0,0,0,0,0,0,0,0,0,1,0,YES,0,0,0,0,0,0,0,0,0,0,0,0,0,0,0,0,0,0,0,2,0,0,0,0,0,0,1,0,0,0,0,0,0,0,0,0,0,0,0,0,0,0,0,0,0,0,1,0,10,533
guava,v11.0,v12.0,F:/corpus/guava/guava#2011-12-18-01-04-57#v11.0#5a6bf80/guava-gwt/src-super/com/google/common/primitives/super/com/google/common/primitives/Longs.java,F:/corpus/guava/guava#2012-05-01-02-04-06#v12.0#72d2812/guava-gwt/src-super/com/google/common/primitives/super/com/google/common/primitives/Longs.java,0,0,0,0,0,0,0,0,0,0,0,0,0,YES,0,0,0,0,0,0,0,0,0,0,0,0,0,0,0,0,0,0,0,2,0,0,0,0,0,0,1,0,0,0,0,0,0,0,0,0,0,0,0,0,0,0,0,0,0,0,1,0,10,507
guava,v11.0,v12.0,F:/corpus/guava/guava#2011-12-18-01-04-57#v11.0#5a6bf80/guava-gwt/src-super/com/google/common/primitives/super/com/google/common/primitives/Shorts.java,F:/corpus/guava/guava#2012-05-01-02-04-06#v12.0#72d2812/guava-gwt/src-super/com/google/common/primitives/super/com/google/common/primitives/Shorts.java,0,0,0,0,0,0,0,0,0,0,0,0,0,YES,0,0,0,0,0,0,0,0,0,0,0,0,0,0,0,0,0,0,0,2,0,0,0,0,0,0,1,0,0,0,0,0,0,0,0,0,0,0,0,0,0,0,0,0,0,0,1,0,10,535
guava,v11.0,v12.0,F:/corpus/guava/guava#2011-12-18-01-04-57#v11.0#5a6bf80/guava-gwt/src/com/google/common/base/GwtSerializationDependencies.java,F:/corpus/guava/guava#2012-05-01-02-04-06#v12.0#72d2812/guava-gwt/src/com/google/common/base/GwtSerializationDependencies.java,0,0,0,0,0,0,0,0,0,0,0,0,0,YES,0,0,0,1,0,0,0,0,0,0,0,0,0,0,0,0,0,0,0,0,0,0,0,0,0,0,0,0,0,0,0,0,0,0,0,0,0,0,0,0,0,0,0,0,0,0,0,0,56,35
guava,v11.0,v12.0,F:/corpus/guava/guava#2011-12-18-01-04-57#v11.0#5a6bf80/guava/src/com/google/common/annotations/Beta.java,F:/corpus/guava/guava#2012-05-01-02-04-06#v12.0#72d2812/guava/src/com/google/common/annotations/Beta.java,0,0,0,0,0,0,0,0,0,0,0,0,0,YES,0,0,0,0,0,0,0,0,0,0,0,0,0,0,0,0,0,0,0,0,0,0,0,0,0,0,0,0,0,0,0,0,0,0,0,0,0,0,0,0,0,0,0,0,0,0,0,0,1,43
guava,v11.0,v12.0,F:/corpus/guava/guava#2011-12-18-01-04-57#v11.0#5a6bf80/guava/src/com/google/common/base/Ascii.java,F:/corpus/guava/guava#2012-05-01-02-04-06#v12.0#72d2812/guava/src/com/google/common/base/Ascii.java,1,0,0,0,0,0,0,0,0,0,0,1,0,YES,0,0,0,0,0,0,0,0,0,2,0,0,0,0,0,0,0,0,0,2,0,0,0,0,0,0,0,0,0,0,0,0,0,0,0,0,0,0,0,0,0,0,0,0,0,0,0,0,4,466
guava,v11.0,v12.0,F:/corpus/guava/guava#2011-12-18-01-04-57#v11.0#5a6bf80/guava/src/com/google/common/base/CharMatcher.java,F:/corpus/guava/guava#2012-05-01-02-04-06#v12.0#72d2812/guava/src/com/google/common/base/CharMatcher.java,0,1,0,0,0,0,0,0,0,0,0,0,0,YES,0,0,0,0,4,0,0,0,0,0,0,0,0,0,0,2,0,0,0,1,0,0,0,0,0,0,0,0,0,0,0,0,0,0,0,2,0,0,0,0,0,0,0,1,0,0,7,0,207,1148
guava,v11.0,v12.0,F:/corpus/guava/guava#2011-12-18-01-04-57#v11.0#5a6bf80/guava/src/com/google/common/base/Charsets.java,F:/corpus/guava/guava#2012-05-01-02-04-06#v12.0#72d2812/guava/src/com/google/common/base/Charsets.java,1,0,0,0,0,0,0,0,0,0,0,0,0,YES,0,0,0,0,0,0,0,0,0,0,0,0,0,0,0,0,0,0,0,1,0,0,0,0,0,0,0,0,0,0,0,0,0,0,0,0,0,0,0,0,0,0,0,0,0,0,0,0,15,68
guava,v11.0,v12.0,F:/corpus/guava/guava#2011-12-18-01-04-57#v11.0#5a6bf80/guava/src/com/google/common/base/Defaults.java,F:/corpus/guava/guava#2012-05-01-02-04-06#v12.0#72d2812/guava/src/com/google/common/base/Defaults.java,0,0,0,0,0,0,0,0,0,0,0,0,0,YES,0,0,0,0,0,0,0,0,0,0,0,0,0,0,0,0,0,0,0,0,0,0,0,0,0,0,0,0,0,0,0,0,0,0,0,0,0,0,0,0,0,0,0,0,0,0,0,0,1,59
guava,v11.0,v12.0,F:/corpus/guava/guava#2011-12-18-01-04-57#v11.0#5a6bf80/guava/src/com/google/common/base/Enums.java,F:/corpus/guava/guava#2012-05-01-02-04-06#v12.0#72d2812/guava/src/com/google/common/base/Enums.java,0,0,0,0,0,0,0,0,0,0,0,0,0,YES,0,0,0,0,2,0,0,0,0,0,0,0,0,0,0,0,0,0,0,0,0,0,0,0,0,0,0,0,0,0,0,0,0,0,0,0,0,0,0,0,0,0,0,0,0,0,0,0,42,90
guava,v11.0,v12.0,F:/corpus/guava/guava#2011-12-18-01-04-57#v11.0#5a6bf80/guava/src/com/google/common/base/FinalizableReferenceQueue.java,F:/corpus/guava/guava#2012-05-01-02-04-06#v12.0#72d2812/guava/src/com/google/common/base/FinalizableReferenceQueue.java,0,0,0,0,0,1,0,0,0,0,0,0,0,YES,0,0,0,0,0,1,1,1,0,0,0,0,1,1,0,0,0,0,0,0,0,0,0,0,0,0,0,0,0,0,0,0,0,0,0,0,0,0,0,0,0,0,1,3,0,3,1,0,11,286
guava,v11.0,v12.0,F:/corpus/guava/guava#2011-12-18-01-04-57#v11.0#5a6bf80/guava/src/com/google/common/base/Function.java,F:/corpus/guava/guava#2012-05-01-02-04-06#v12.0#72d2812/guava/src/com/google/common/base/Function.java,0,0,0,0,1,0,0,0,0,0,0,0,0,YES,0,0,0,0,0,0,0,0,0,0,0,0,0,0,0,0,0,0,0,1,0,0,0,0,0,0,0,0,0,0,0,0,0,0,0,0,0,0,0,0,0,0,0,0,0,0,0,0,2,59
guava,v11.0,v12.0,F:/corpus/guava/guava#2011-12-18-01-04-57#v11.0#5a6bf80/guava/src/com/google/common/base/Functions.java,F:/corpus/guava/guava#2012-05-01-02-04-06#v12.0#72d2812/guava/src/com/google/common/base/Functions.java,0,0,0,0,2,0,0,0,0,0,0,3,0,YES,0,0,0,0,0,0,0,0,0,0,0,0,0,0,0,0,0,0,0,0,0,0,0,0,0,0,0,0,0,0,0,0,0,0,0,0,0,0,0,0,0,0,0,0,0,0,0,0,1,352
guava,v11.0,v12.0,F:/corpus/guava/guava#2011-12-18-01-04-57#v11.0#5a6bf80/guava/src/com/google/common/base/Joiner.java,F:/corpus/guava/guava#2012-05-01-02-04-06#v12.0#72d2812/guava/src/com/google/common/base/Joiner.java,0,0,0,0,0,0,0,0,0,0,0,1,0,YES,0,0,0,0,0,0,0,0,0,0,0,0,0,0,0,0,0,0,0,0,0,0,0,0,0,0,0,0,0,0,0,0,0,0,0,0,0,0,0,0,0,0,0,0,0,0,0,0,9,556
guava,v11.0,v12.0,F:/corpus/guava/guava#2011-12-18-01-04-57#v11.0#5a6bf80/guava/src/com/google/common/base/Objects.java,F:/corpus/guava/guava#2012-05-01-02-04-06#v12.0#72d2812/guava/src/com/google/common/base/Objects.java,0,0,1,0,0,0,0,0,0,0,0,6,0,YES,0,0,0,1,3,3,0,1,0,0,0,1,2,0,0,0,0,0,0,2,0,0,0,0,0,0,0,0,0,0,0,0,0,0,1,2,0,0,0,0,0,0,13,21,0,1,0,0,43,388
guava,v11.0,v12.0,F:/corpus/guava/guava#2011-12-18-01-04-57#v11.0#5a6bf80/guava/src/com/google/common/base/Optional.java,F:/corpus/guava/guava#2012-05-01-02-04-06#v12.0#72d2812/guava/src/com/google/common/base/Optional.java,0,0,0,0,1,0,0,0,0,0,0,0,0,YES,0,0,0,0,1,0,0,0,0,0,0,0,0,0,0,0,0,0,0,1,1,0,0,0,0,0,0,0,0,0,0,0,0,2,0,0,0,0,0,0,0,0,1,0,0,0,1,0,159,305
guava,v11.0,v12.0,F:/corpus/guava/guava#2011-12-18-01-04-57#v11.0#5a6bf80/guava/src/com/google/common/base/Preconditions.java,F:/corpus/guava/guava#2012-05-01-02-04-06#v12.0#72d2812/guava/src/com/google/common/base/Preconditions.java,0,0,0,0,0,0,0,0,0,0,0,10,0,YES,0,0,0,0,0,0,0,0,0,0,0,0,0,0,0,0,0,0,0,0,0,0,0,0,0,0,0,0,0,0,0,0,0,0,0,0,0,0,0,0,0,0,0,0,0,0,0,0,4,445
guava,v11.0,v12.0,F:/corpus/guava/guava#2011-12-18-01-04-57#v11.0#5a6bf80/guava/src/com/google/common/base/Predicate.java,F:/corpus/guava/guava#2012-05-01-02-04-06#v12.0#72d2812/guava/src/com/google/common/base/Predicate.java,0,0,0,0,1,0,0,0,0,0,0,0,0,YES,0,0,0,0,0,0,0,0,0,0,0,0,0,0,0,0,0,0,0,0,0,0,0,0,0,0,0,0,0,0,0,0,0,0,0,0,0,0,0,0,0,0,0,0,0,0,0,0,4,59
guava,v11.0,v12.0,F:/corpus/guava/guava#2011-12-18-01-04-57#v11.0#5a6bf80/guava/src/com/google/common/base/Predicates.java,F:/corpus/guava/guava#2012-05-01-02-04-06#v12.0#72d2812/guava/src/com/google/common/base/Predicates.java,0,0,0,0,0,0,0,0,0,0,0,4,0,YES,0,0,0,0,0,0,0,0,0,0,0,0,0,0,0,0,0,0,0,0,0,0,0,0,0,0,0,0,0,0,0,0,0,0,0,0,0,0,0,0,0,0,0,0,0,0,0,0,4,620
guava,v11.0,v12.0,F:/corpus/guava/guava#2011-12-18-01-04-57#v11.0#5a6bf80/guava/src/com/google/common/base/Splitter.java,F:/corpus/guava/guava#2012-05-01-02-04-06#v12.0#72d2812/guava/src/com/google/common/base/Splitter.java,0,0,0,0,2,0,0,0,0,0,0,1,0,YES,0,0,0,0,0,0,0,0,0,0,0,0,3,0,0,0,0,0,0,1,0,0,0,0,0,0,0,0,0,0,0,0,0,0,0,0,0,0,0,0,0,0,1,8,0,3,1,0,28,539
guava,v11.0,v12.0,F:/corpus/guava/guava#2011-12-18-01-04-57#v11.0#5a6bf80/guava/src/com/google/common/base/Throwables.java,F:/corpus/guava/guava#2012-05-01-02-04-06#v12.0#72d2812/guava/src/com/google/common/base/Throwables.java,0,0,0,0,0,0,0,0,0,0,0,1,0,YES,0,0,0,0,0,0,0,0,0,0,0,0,0,0,0,0,0,0,0,0,0,0,0,0,0,0,0,0,0,0,0,0,0,0,0,0,0,0,0,0,0,0,0,0,0,0,0,0,4,216
guava,v11.0,v12.0,F:/corpus/guava/guava#2011-12-18-01-04-57#v11.0#5a6bf80/guava/src/com/google/common/base/Ticker.java,F:/corpus/guava/guava#2012-05-01-02-04-06#v12.0#72d2812/guava/src/com/google/common/base/Ticker.java,0,0,0,0,0,0,0,0,0,0,0,1,0,YES,0,0,0,0,0,0,0,0,0,0,0,0,0,0,0,0,0,0,0,0,0,0,0,0,0,0,0,0,0,0,0,0,0,0,0,0,0,0,0,0,0,0,0,0,0,0,0,0,2,60
guava,v11.0,v12.0,F:/corpus/guava/guava#2011-12-18-01-04-57#v11.0#5a6bf80/guava/src/com/google/common/base/internal/Finalizer.java,F:/corpus/guava/guava#2012-05-01-02-04-06#v12.0#72d2812/guava/src/com/google/common/base/internal/Finalizer.java,0,0,0,0,0,0,0,0,0,0,0,0,0,YES,0,0,0,0,0,0,0,0,0,0,0,0,0,0,0,0,0,0,0,0,0,0,0,0,0,0,0,0,1,0,0,0,1,0,0,0,0,0,0,0,0,0,8,10,0,0,0,0,17,207
guava,v11.0,v12.0,F:/corpus/guava/guava#2011-12-18-01-04-57#v11.0#5a6bf80/guava/src/com/google/common/cache/AbstractCache.java,F:/corpus/guava/guava#2012-05-01-02-04-06#v12.0#72d2812/guava/src/com/google/common/cache/AbstractCache.java,0,0,1,0,5,0,0,0,0,0,0,0,0,YES,0,0,0,0,1,0,0,0,0,0,0,0,0,0,0,1,0,0,0,4,0,0,0,0,0,0,1,0,0,0,0,0,0,0,2,0,0,0,0,0,0,0,0,1,0,0,1,0,41,269
guava,v11.0,v12.0,F:/corpus/guava/guava#2011-12-18-01-04-57#v11.0#5a6bf80/guava/src/com/google/common/cache/AbstractLoadingCache.java,F:/corpus/guava/guava#2012-05-01-02-04-06#v12.0#72d2812/guava/src/com/google/common/cache/AbstractLoadingCache.java,0,0,0,0,2,0,0,0,0,0,0,0,0,YES,0,0,0,0,0,0,0,0,0,0,0,0,0,0,0,0,0,0,0,0,0,0,0,0,0,0,0,0,0,0,0,0,0,0,0,0,0,0,0,0,0,0,0,0,0,0,0,0,4,78
guava,v11.0,v12.0,F:/corpus/guava/guava#2011-12-18-01-04-57#v11.0#5a6bf80/guava/src/com/google/common/cache/Cache.java,F:/corpus/guava/guava#2012-05-01-02-04-06#v12.0#72d2812/guava/src/com/google/common/cache/Cache.java,0,0,0,0,1,0,0,0,0,0,0,0,0,YES,0,0,0,0,1,0,0,0,0,0,0,0,0,0,0,0,0,0,0,2,0,0,0,0,0,0,2,0,0,0,0,1,0,0,3,0,0,0,0,0,0,0,0,0,0,0,0,0,75,189
guava,v11.0,v12.0,F:/corpus/guava/guava#2011-12-18-01-04-57#v11.0#5a6bf80/guava/src/com/google/common/cache/CacheBuilder.java,F:/corpus/guava/guava#2012-05-01-02-04-06#v12.0#72d2812/guava/src/com/google/common/cache/CacheBuilder.java,0,0,0,0,0,0,0,0,0,0,0,9,0,YES,0,0,0,0,3,0,0,0,0,0,0,0,0,0,0,0,0,0,0,7,0,0,0,0,0,0,0,0,0,0,0,0,0,0,1,0,0,0,0,0,0,0,0,0,0,0,0,0,74,820
guava,v11.0,v12.0,F:/corpus/guava/guava#2011-12-18-01-04-57#v11.0#5a6bf80/guava/src/com/google/common/cache/CacheLoader.java,F:/corpus/guava/guava#2012-05-01-02-04-06#v12.0#72d2812/guava/src/com/google/common/cache/CacheLoader.java,0,0,0,0,4,0,0,0,0,0,0,0,0,YES,0,0,0,0,0,0,0,0,0,0,0,0,0,0,1,0,0,0,0,6,0,0,0,0,0,0,0,0,0,0,0,0,0,0,0,0,0,0,0,0,0,0,0,0,0,0,0,0,24,161
guava,v11.0,v12.0,F:/corpus/guava/guava#2011-12-18-01-04-57#v11.0#5a6bf80/guava/src/com/google/common/cache/ForwardingCache.java,F:/corpus/guava/guava#2012-05-01-02-04-06#v12.0#72d2812/guava/src/com/google/common/cache/ForwardingCache.java,0,0,0,0,2,0,0,0,0,0,0,0,0,YES,0,0,0,0,1,0,0,0,0,0,0,0,0,0,0,0,0,0,0,0,0,0,0,0,0,0,2,0,0,0,0,0,0,0,3,0,0,0,0,0,0,0,0,0,0,0,0,0,29,155
guava,v11.0,v12.0,F:/corpus/guava/guava#2011-12-18-01-04-57#v11.0#5a6bf80/guava/src/com/google/common/cache/LoadingCache.java,F:/corpus/guava/guava#2012-05-01-02-04-06#v12.0#72d2812/guava/src/com/google/common/cache/LoadingCache.java,0,0,0,0,1,0,0,0,0,0,0,0,0,YES,0,0,0,0,1,0,0,0,0,0,0,0,0,0,0,0,0,0,0,1,0,0,0,0,0,0,0,0,0,0,0,0,0,0,0,0,0,0,0,0,0,0,0,0,0,0,0,0,17,148
guava,v11.0,v12.0,F:/corpus/guava/guava#2011-12-18-01-04-57#v11.0#5a6bf80/guava/src/com/google/common/cache/LocalCache.java,F:/corpus/guava/guava#2012-05-01-02-04-06#v12.0#72d2812/guava/src/com/google/common/cache/LocalCache.java,6,2,0,0,26,0,43,0,0,0,1,0,0,YES,0,0,0,0,4,0,2,2,0,0,0,1,4,2,0,4,1,0,1,0,0,0,2,8,0,0,3,0,0,0,0,0,0,0,4,0,0,0,0,0,0,0,6,17,6,11,11,0,116,4883
guava,v11.0,v12.0,F:/corpus/guava/guava#2011-12-18-01-04-57#v11.0#5a6bf80/guava/src/com/google/common/cache/package-info.java,F:/corpus/guava/guava#2012-05-01-02-04-06#v12.0#72d2812/guava/src/com/google/common/cache/package-info.java,0,0,0,0,0,0,0,0,0,0,0,0,0,YES,0,0,0,0,0,0,0,0,0,0,0,0,0,0,0,0,0,0,0,0,0,0,0,0,0,0,0,0,0,0,0,0,0,0,0,0,0,0,0,0,0,0,0,0,0,0,0,0,4,34
guava,v11.0,v12.0,F:/corpus/guava/guava#2011-12-18-01-04-57#v11.0#5a6bf80/guava/src/com/google/common/collect/AbstractBiMap.java,F:/corpus/guava/guava#2012-05-01-02-04-06#v12.0#72d2812/guava/src/com/google/common/collect/AbstractBiMap.java,0,0,0,0,1,0,0,0,0,0,0,0,0,YES,0,0,0,0,4,0,0,0,0,0,0,0,0,0,0,0,0,0,0,0,1,0,0,0,0,0,0,0,0,0,0,0,0,0,0,0,0,0,0,0,0,0,4,4,0,0,0,0,65,414
guava,v11.0,v12.0,F:/corpus/guava/guava#2011-12-18-01-04-57#v11.0#5a6bf80/guava/src/com/google/common/collect/AbstractLinkedIterator.java,F:/corpus/guava/guava#2012-05-01-02-04-06#v12.0#72d2812/guava/src/com/google/common/collect/AbstractLinkedIterator.java,0,0,0,0,1,0,0,0,0,0,0,0,0,YES,0,0,0,0,0,0,0,0,0,0,0,0,0,0,0,0,0,0,0,0,0,0,0,0,0,0,0,0,0,0,0,0,0,0,0,0,0,0,0,0,0,0,0,0,0,0,0,0,3,81
guava,v11.0,v12.0,F:/corpus/guava/guava#2011-12-18-01-04-57#v11.0#5a6bf80/guava/src/com/google/common/collect/AbstractMapBasedMultiset.java,F:/corpus/guava/guava#2012-05-01-02-04-06#v12.0#72d2812/guava/src/com/google/common/collect/AbstractMapBasedMultiset.java,0,0,0,0,1,5,0,0,0,0,0,0,0,YES,0,0,0,0,1,0,0,0,0,0,0,0,0,0,0,0,0,0,0,0,0,0,1,0,0,0,0,1,0,1,0,0,0,0,8,2,0,0,0,0,0,0,2,0,0,0,2,0,87,406
guava,v11.0,v12.0,F:/corpus/guava/guava#2011-12-18-01-04-57#v11.0#5a6bf80/guava/src/com/google/common/collect/AbstractMultimap.java,F:/corpus/guava/guava#2012-05-01-02-04-06#v12.0#72d2812/guava/src/com/google/common/collect/AbstractMultimap.java,0,1,3,0,2,0,1,0,0,0,0,2,0,YES,0,0,0,0,0,0,0,2,0,0,0,0,0,0,0,0,0,0,0,0,0,0,0,0,0,0,0,0,0,0,0,0,0,0,0,0,0,0,0,0,0,0,0,7,0,1,2,0,8,1387
guava,v11.0,v12.0,F:/corpus/guava/guava#2011-12-18-01-04-57#v11.0#5a6bf80/guava/src/com/google/common/collect/AbstractSortedMultiset.java,F:/corpus/guava/guava#2012-05-01-02-04-06#v12.0#72d2812/guava/src/com/google/common/collect/AbstractSortedMultiset.java,0,0,0,0,1,0,0,0,0,0,0,0,0,YES,0,0,0,0,0,0,0,0,0,0,0,0,0,0,0,0,0,0,0,0,0,0,0,0,0,0,0,0,0,0,0,0,0,0,0,0,0,0,0,0,0,0,0,0,0,0,0,0,1,142
guava,v11.0,v12.0,F:/corpus/guava/guava#2011-12-18-01-04-57#v11.0#5a6bf80/guava/src/com/google/common/collect/ArrayListMultimap.java,F:/corpus/guava/guava#2012-05-01-02-04-06#v12.0#72d2812/guava/src/com/google/common/collect/ArrayListMultimap.java,0,0,0,0,0,0,0,0,0,0,0,1,0,YES,0,0,0,0,0,0,0,0,0,0,0,0,0,0,0,0,0,0,0,1,0,0,0,0,0,0,0,0,0,0,0,0,0,0,0,0,0,0,0,0,0,0,0,0,0,0,0,0,5,164
guava,v11.0,v12.0,F:/corpus/guava/guava#2011-12-18-01-04-57#v11.0#5a6bf80/guava/src/com/google/common/collect/ArrayTable.java,F:/corpus/guava/guava#2012-05-01-02-04-06#v12.0#72d2812/guava/src/com/google/common/collect/ArrayTable.java,0,0,0,0,3,0,0,0,0,0,0,0,0,YES,0,0,0,0,0,0,0,0,0,0,0,0,0,0,0,0,0,0,0,0,0,0,0,0,0,0,0,0,0,0,0,0,0,0,0,0,0,0,0,0,0,0,0,0,0,0,0,0,4,842
guava,v11.0,v12.0,F:/corpus/guava/guava#2011-12-18-01-04-57#v11.0#5a6bf80/guava/src/com/google/common/collect/BiMap.java,F:/corpus/guava/guava#2012-05-01-02-04-06#v12.0#72d2812/guava/src/com/google/common/collect/BiMap.java,0,0,0,0,1,0,0,0,0,0,0,0,0,YES,0,0,0,0,0,0,0,0,0,0,0,0,0,0,0,0,0,0,0,0,0,0,0,0,0,0,0,0,0,0,0,0,0,0,0,0,0,0,0,0,0,0,0,0,0,0,0,0,4,106
guava,v11.0,v12.0,F:/corpus/guava/guava#2011-12-18-01-04-57#v11.0#5a6bf80/guava/src/com/google/common/collect/BstMutationResult.java,F:/corpus/guava/guava#2012-05-01-02-04-06#v12.0#72d2812/guava/src/com/google/common/collect/BstMutationResult.java,0,0,0,0,0,0,0,0,0,0,0,0,1,YES,0,0,0,0,0,0,0,0,0,0,0,0,0,0,0,0,0,0,0,0,0,0,0,0,0,0,0,0,0,0,0,0,0,0,0,0,0,0,0,0,0,0,0,0,0,0,0,0,2,156
guava,v11.0,v12.0,F:/corpus/guava/guava#2011-12-18-01-04-57#v11.0#5a6bf80/guava/src/com/google/common/collect/BstOperations.java,F:/corpus/guava/guava#2012-05-01-02-04-06#v12.0#72d2812/guava/src/com/google/common/collect/BstOperations.java,0,0,0,0,0,0,0,0,0,0,0,0,0,YES,0,0,0,0,0,0,0,0,0,0,0,0,0,0,0,0,0,0,0,0,0,0,0,0,0,0,0,0,0,0,0,0,0,0,0,0,0,0,0,0,0,0,1,0,0,0,0,0,1,228
guava,v11.0,v12.0,F:/corpus/guava/guava#2011-12-18-01-04-57#v11.0#5a6bf80/guava/src/com/google/common/collect/ClassToInstanceMap.java,F:/corpus/guava/guava#2012-05-01-02-04-06#v12.0#72d2812/guava/src/com/google/common/collect/ClassToInstanceMap.java,0,0,0,0,1,0,0,0,0,0,0,0,0,YES,0,0,0,0,0,0,0,0,0,0,0,0,0,0,0,0,0,0,0,0,0,0,0,0,0,0,0,0,0,0,0,0,0,0,0,0,0,0,0,0,0,0,0,0,0,0,0,0,4,59
guava,v11.0,v12.0,F:/corpus/guava/guava#2011-12-18-01-04-57#v11.0#5a6bf80/guava/src/com/google/common/collect/Collections2.java,F:/corpus/guava/guava#2012-05-01-02-04-06#v12.0#72d2812/guava/src/com/google/common/collect/Collections2.java,0,0,0,0,0,0,0,0,0,0,0,1,0,YES,0,0,0,4,5,0,0,0,0,0,0,0,0,0,0,0,0,0,0,0,0,0,0,0,0,0,0,0,0,0,0,0,0,0,0,0,0,0,0,0,0,0,0,0,0,0,0,0,9,348
guava,v11.0,v12.0,F:/corpus/guava/guava#2011-12-18-01-04-57#v11.0#5a6bf80/guava/src/com/google/common/collect/ComparisonChain.java,F:/corpus/guava/guava#2012-05-01-02-04-06#v12.0#72d2812/guava/src/com/google/common/collect/ComparisonChain.java,0,0,0,0,8,0,0,0,0,0,0,0,0,YES,0,0,0,0,3,0,0,0,0,0,0,0,0,0,0,0,0,0,0,2,0,1,0,0,0,0,0,0,0,0,0,0,0,0,0,0,0,0,1,0,0,0,0,1,0,0,0,1,11,191
guava,v11.0,v12.0,F:/corpus/guava/guava#2011-12-18-01-04-57#v11.0#5a6bf80/guava/src/com/google/common/collect/ComputingConcurrentHashMap.java,F:/corpus/guava/guava#2012-05-01-02-04-06#v12.0#72d2812/guava/src/com/google/common/collect/ComputingConcurrentHashMap.java,0,0,0,1,4,0,0,0,1,0,1,0,0,YES,0,0,0,0,0,0,0,0,0,0,0,0,0,0,0,0,0,0,0,0,0,0,0,3,0,0,0,0,0,0,0,0,0,0,0,0,0,0,0,0,0,0,0,0,0,0,0,0,3,451
guava,v11.0,v12.0,F:/corpus/guava/guava#2011-12-18-01-04-57#v11.0#5a6bf80/guava/src/com/google/common/collect/ConcurrentHashMultiset.java,F:/corpus/guava/guava#2012-05-01-02-04-06#v12.0#72d2812/guava/src/com/google/common/collect/ConcurrentHashMultiset.java,0,0,0,0,0,1,0,0,0,0,0,0,0,YES,0,0,0,0,0,0,0,0,0,0,0,0,0,0,0,0,0,0,0,1,0,0,0,0,0,0,0,0,0,0,0,0,0,0,0,0,0,0,0,0,0,0,0,0,0,0,1,0,8,584
guava,v11.0,v12.0,F:/corpus/guava/guava#2011-12-18-01-04-57#v11.0#5a6bf80/guava/src/com/google/common/collect/ContiguousSet.java,F:/corpus/guava/guava#2012-05-01-02-04-06#v12.0#72d2812/guava/src/com/google/common/collect/ContiguousSet.java,0,0,0,0,1,0,0,0,0,0,0,0,0,YES,0,0,0,0,0,0,0,0,0,0,0,0,0,0,0,0,0,0,3,0,3,0,0,0,0,0,0,0,0,0,0,0,0,0,0,0,0,0,0,0,0,0,0,0,0,0,3,0,8,116
guava,v11.0,v12.0,F:/corpus/guava/guava#2011-12-18-01-04-57#v11.0#5a6bf80/guava/src/com/google/common/collect/Count.java,F:/corpus/guava/guava#2012-05-01-02-04-06#v12.0#72d2812/guava/src/com/google/common/collect/Count.java,0,0,0,0,0,0,0,0,0,0,0,0,0,YES,0,0,0,0,0,0,0,0,0,0,0,0,0,0,0,0,0,0,0,0,0,0,0,0,0,0,0,0,0,0,0,0,0,0,1,0,0,0,0,0,0,0,0,0,0,0,0,0,4,78
guava,v11.0,v12.0,F:/corpus/guava/guava#2011-12-18-01-04-57#v11.0#5a6bf80/guava/src/com/google/common/collect/DescendingImmutableSortedMultiset.java,F:/corpus/guava/guava#2012-05-01-02-04-06#v12.0#72d2812/guava/src/com/google/common/collect/DescendingImmutableSortedMultiset.java,0,0,0,0,0,0,0,0,0,0,0,0,0,YES,0,0,0,0,1,0,0,0,0,0,0,0,0,0,0,0,0,0,0,0,0,0,0,0,0,0,0,0,0,0,0,0,0,0,3,0,0,0,0,0,0,0,0,0,0,0,0,0,17,96
guava,v11.0,v12.0,F:/corpus/guava/guava#2011-12-18-01-04-57#v11.0#5a6bf80/guava/src/com/google/common/collect/DiscreteDomain.java,F:/corpus/guava/guava#2012-05-01-02-04-06#v12.0#72d2812/guava/src/com/google/common/collect/DiscreteDomain.java,0,0,0,0,1,0,0,0,0,0,0,0,0,YES,0,0,0,0,0,0,0,0,0,0,0,0,0,0,0,0,0,0,0,2,0,0,0,0,0,0,0,0,0,0,0,0,0,0,0,0,0,0,0,0,0,0,0,0,0,0,0,0,5,113
guava,v11.0,v12.0,F:/corpus/guava/guava#2011-12-18-01-04-57#v11.0#5a6bf80/guava/src/com/google/common/collect/DiscreteDomains.java,F:/corpus/guava/guava#2012-05-01-02-04-06#v12.0#72d2812/guava/src/com/google/common/collect/DiscreteDomains.java,0,0,0,0,0,0,0,0,0,0,0,1,0,YES,0,0,0,0,0,0,0,0,0,0,0,0,0,0,0,0,0,0,0,0,0,0,0,0,0,0,0,0,0,0,0,0,0,0,0,0,0,0,0,0,0,0,0,0,0,0,0,0,4,158
guava,v11.0,v12.0,F:/corpus/guava/guava#2011-12-18-01-04-57#v11.0#5a6bf80/guava/src/com/google/common/collect/EmptyContiguousSet.java,F:/corpus/guava/guava#2012-05-01-02-04-06#v12.0#72d2812/guava/src/com/google/common/collect/EmptyContiguousSet.java,0,0,0,0,6,0,0,0,0,0,0,0,0,YES,0,0,0,0,1,0,0,0,0,0,0,0,0,0,0,0,0,0,0,0,0,0,0,0,0,0,0,0,0,0,0,0,0,0,0,0,0,0,0,0,0,0,0,0,0,0,0,0,7,131
guava,v11.0,v12.0,F:/corpus/guava/guava#2011-12-18-01-04-57#v11.0#5a6bf80/guava/src/com/google/common/collect/EmptyImmutableMap.java,F:/corpus/guava/guava#2012-05-01-02-04-06#v12.0#72d2812/guava/src/com/google/common/collect/EmptyImmutableMap.java,0,0,0,0,3,0,0,0,0,0,0,0,0,YES,0,0,0,0,1,0,0,0,0,0,0,0,0,0,0,0,0,0,0,0,0,0,0,0,0,0,0,0,0,0,0,0,0,0,0,0,0,0,0,0,0,0,0,0,0,0,0,0,5,95
guava,v11.0,v12.0,F:/corpus/guava/guava#2011-12-18-01-04-57#v11.0#5a6bf80/guava/src/com/google/common/collect/EmptyImmutableMultiset.java,F:/corpus/guava/guava#2012-05-01-02-04-06#v12.0#72d2812/guava/src/com/google/common/collect/EmptyImmutableMultiset.java,0,0,0,0,1,0,0,0,0,0,0,0,0,YES,0,0,0,0,0,0,0,0,0,0,0,0,0,0,0,0,0,0,0,0,0,0,0,0,0,0,0,0,0,0,0,0,0,0,2,0,0,0,0,0,0,0,0,0,0,0,0,0,14,69
guava,v11.0,v12.0,F:/corpus/guava/guava#2011-12-18-01-04-57#v11.0#5a6bf80/guava/src/com/google/common/collect/EmptyImmutableSortedMultiset.java,F:/corpus/guava/guava#2012-05-01-02-04-06#v12.0#72d2812/guava/src/com/google/common/collect/EmptyImmutableSortedMultiset.java,0,0,0,0,1,0,0,0,0,0,0,0,0,YES,0,0,0,0,1,0,0,0,0,0,0,0,0,0,0,0,0,0,0,0,0,0,0,0,0,0,0,0,0,0,0,0,0,0,3,0,0,0,0,0,0,0,0,0,0,0,0,0,16,96
guava,v11.0,v12.0,F:/corpus/guava/guava#2011-12-18-01-04-57#v11.0#5a6bf80/guava/src/com/google/common/collect/EmptyImmutableSortedSet.java,F:/corpus/guava/guava#2012-05-01-02-04-06#v12.0#72d2812/guava/src/com/google/common/collect/EmptyImmutableSortedSet.java,0,0,0,0,5,0,0,0,0,0,0,0,0,YES,0,0,0,0,1,0,0,0,0,0,0,0,0,0,0,0,0,0,0,0,0,0,0,0,0,0,0,0,0,0,0,0,0,0,0,0,0,0,0,0,0,0,0,0,0,0,0,0,5,123
guava,v11.0,v12.0,F:/corpus/guava/guava#2011-12-18-01-04-57#v11.0#5a6bf80/guava/src/com/google/common/collect/EnumBiMap.java,F:/corpus/guava/guava#2012-05-01-02-04-06#v12.0#72d2812/guava/src/com/google/common/collect/EnumBiMap.java,0,0,0,0,0,0,0,0,0,0,0,0,0,YES,0,0,0,0,2,0,0,0,0,0,0,0,0,0,0,0,0,0,0,1,0,0,0,0,0,0,0,0,0,0,0,0,0,0,0,0,0,0,0,0,0,0,0,0,0,0,0,0,15,136
guava,v11.0,v12.0,F:/corpus/guava/guava#2011-12-18-01-04-57#v11.0#5a6bf80/guava/src/com/google/common/collect/EnumHashBiMap.java,F:/corpus/guava/guava#2012-05-01-02-04-06#v12.0#72d2812/guava/src/com/google/common/collect/EnumHashBiMap.java,0,0,0,0,0,0,0,0,0,0,0,0,0,YES,0,0,0,0,1,0,0,0,0,0,0,0,0,0,0,0,0,0,0,1,0,0,0,0,0,0,0,0,0,0,0,0,0,0,0,0,0,0,0,0,0,0,0,0,0,0,0,0,7,119
guava,v11.0,v12.0,F:/corpus/guava/guava#2011-12-18-01-04-57#v11.0#5a6bf80/guava/src/com/google/common/collect/EnumMultiset.java,F:/corpus/guava/guava#2012-05-01-02-04-06#v12.0#72d2812/guava/src/com/google/common/collect/EnumMultiset.java,0,0,0,0,0,0,0,0,0,0,0,0,0,YES,0,0,0,0,0,0,0,0,0,0,0,0,0,0,0,0,0,0,0,0,0,0,0,0,0,0,0,0,0,0,0,0,0,0,0,0,0,0,0,0,0,0,0,0,0,0,0,0,4,90
guava,v11.0,v12.0,F:/corpus/guava/guava#2011-12-18-01-04-57#v11.0#5a6bf80/guava/src/com/google/common/collect/ForwardingList.java,F:/corpus/guava/guava#2012-05-01-02-04-06#v12.0#72d2812/guava/src/com/google/common/collect/ForwardingList.java,0,0,0,0,1,0,0,0,0,0,0,0,0,YES,0,0,0,0,0,0,0,0,0,0,0,0,0,0,0,0,0,0,0,1,0,0,0,0,0,0,0,0,0,0,0,0,0,0,0,0,0,0,0,0,0,0,0,0,0,0,0,0,2,238
guava,v11.0,v12.0,F:/corpus/guava/guava#2011-12-18-01-04-57#v11.0#5a6bf80/guava/src/com/google/common/collect/ForwardingMap.java,F:/corpus/guava/guava#2012-05-01-02-04-06#v12.0#72d2812/guava/src/com/google/common/collect/ForwardingMap.java,0,0,0,0,2,0,0,0,0,0,0,1,0,YES,0,0,0,0,0,0,0,0,0,0,0,0,0,0,0,0,0,0,3,0,0,0,0,0,0,0,0,0,0,0,0,0,0,0,0,0,0,0,0,0,0,0,0,0,0,0,0,0,3,316
guava,v11.0,v12.0,F:/corpus/guava/guava#2011-12-18-01-04-57#v11.0#5a6bf80/guava/src/com/google/common/collect/ForwardingMultiset.java,F:/corpus/guava/guava#2012-05-01-02-04-06#v12.0#72d2812/guava/src/com/google/common/collect/ForwardingMultiset.java,0,0,0,0,1,0,0,0,0,0,0,0,0,YES,0,0,0,0,0,0,0,0,0,0,0,0,0,0,0,0,0,0,1,0,0,0,0,0,0,0,0,0,0,0,0,0,0,0,0,0,0,0,0,0,0,0,0,0,0,0,0,0,1,312
guava,v11.0,v12.0,F:/corpus/guava/guava#2011-12-18-01-04-57#v11.0#5a6bf80/guava/src/com/google/common/collect/ForwardingSet.java,F:/corpus/guava/guava#2012-05-01-02-04-06#v12.0#72d2812/guava/src/com/google/common/collect/ForwardingSet.java,0,0,0,0,1,0,0,0,0,0,0,0,0,YES,0,0,0,0,1,0,0,0,0,0,0,0,0,0,0,0,0,0,0,0,0,0,0,0,0,0,0,0,0,0,0,0,0,0,0,0,0,0,0,0,0,0,0,0,0,0,0,0,15,85
guava,v11.0,v12.0,F:/corpus/guava/guava#2011-12-18-01-04-57#v11.0#5a6bf80/guava/src/com/google/common/collect/ForwardingTable.java,F:/corpus/guava/guava#2012-05-01-02-04-06#v12.0#72d2812/guava/src/com/google/common/collect/ForwardingTable.java,0,0,0,0,1,0,0,0,0,0,0,0,0,YES,0,0,0,0,0,0,0,0,0,0,0,0,0,0,0,0,0,0,0,0,0,0,0,0,0,0,0,0,0,0,0,0,0,0,0,0,0,0,0,0,0,0,0,0,0,0,0,0,2,146
guava,v11.0,v12.0,F:/corpus/guava/guava#2011-12-18-01-04-57#v11.0#5a6bf80/guava/src/com/google/common/collect/GeneralRange.java,F:/corpus/guava/guava#2012-05-01-02-04-06#v12.0#72d2812/guava/src/com/google/common/collect/GeneralRange.java,0,0,0,0,0,0,0,0,0,0,0,0,0,YES,0,0,0,0,0,0,0,0,0,0,0,0,0,0,0,0,0,0,0,0,0,0,0,0,0,0,0,0,0,0,0,0,0,0,0,0,0,0,0,0,0,0,0,0,0,0,0,0,6,288
guava,v11.0,v12.0,F:/corpus/guava/guava#2011-12-18-01-04-57#v11.0#5a6bf80/guava/src/com/google/common/collect/HashBasedTable.java,F:/corpus/guava/guava#2012-05-01-02-04-06#v12.0#72d2812/guava/src/com/google/common/collect/HashBasedTable.java,0,0,0,0,0,0,0,0,0,0,0,1,0,YES,0,0,0,0,0,0,0,0,0,0,0,0,0,0,0,0,0,0,0,0,0,0,0,0,0,0,0,0,0,0,0,0,0,0,0,0,0,0,0,0,0,0,0,0,0,0,0,0,6,146
guava,v11.0,v12.0,F:/corpus/guava/guava#2011-12-18-01-04-57#v11.0#5a6bf80/guava/src/com/google/common/collect/HashBiMap.java,F:/corpus/guava/guava#2012-05-01-02-04-06#v12.0#72d2812/guava/src/com/google/common/collect/HashBiMap.java,0,0,0,0,0,0,0,0,0,0,0,1,0,YES,0,0,0,0,0,0,0,0,0,0,0,0,0,0,0,0,0,0,0,0,0,0,0,0,0,0,0,0,0,0,0,0,0,0,0,0,0,0,0,0,0,0,0,0,0,0,0,0,4,114
guava,v11.0,v12.0,F:/corpus/guava/guava#2011-12-18-01-04-57#v11.0#5a6bf80/guava/src/com/google/common/collect/HashMultimap.java,F:/corpus/guava/guava#2012-05-01-02-04-06#v12.0#72d2812/guava/src/com/google/common/collect/HashMultimap.java,0,0,0,0,0,0,0,0,0,0,0,1,0,YES,0,0,0,0,0,0,0,0,0,0,0,0,0,0,0,0,0,0,0,0,0,0,0,0,0,0,0,0,0,0,0,0,0,0,0,0,0,0,0,0,0,0,0,0,0,0,0,0,1,142
guava,v11.0,v12.0,F:/corpus/guava/guava#2011-12-18-01-04-57#v11.0#5a6bf80/guava/src/com/google/common/collect/ImmutableBiMap.java,F:/corpus/guava/guava#2012-05-01-02-04-06#v12.0#72d2812/guava/src/com/google/common/collect/ImmutableBiMap.java,0,0,0,0,2,0,0,0,0,0,2,0,0,YES,0,0,0,0,0,0,0,0,0,0,0,0,0,0,0,0,1,0,0,0,0,1,0,0,0,0,0,0,0,0,0,0,0,0,0,0,0,0,0,0,0,0,0,0,0,0,0,0,1,325
guava,v11.0,v12.0,F:/corpus/guava/guava#2011-12-18-01-04-57#v11.0#5a6bf80/guava/src/com/google/common/collect/ImmutableList.java,F:/corpus/guava/guava#2012-05-01-02-04-06#v12.0#72d2812/guava/src/com/google/common/collect/ImmutableList.java,0,0,0,0,6,0,0,0,0,0,5,13,0,YES,0,0,0,1,2,0,0,0,0,0,0,0,0,0,0,0,0,0,0,1,0,0,0,0,0,0,0,0,0,0,0,0,0,0,0,0,0,0,0,0,0,0,0,12,0,0,3,4,21,627
guava,v11.0,v12.0,F:/corpus/guava/guava#2011-12-18-01-04-57#v11.0#5a6bf80/guava/src/com/google/common/collect/ImmutableListMultimap.java,F:/corpus/guava/guava#2012-05-01-02-04-06#v12.0#72d2812/guava/src/com/google/common/collect/ImmutableListMultimap.java,0,0,0,0,2,0,0,0,0,0,2,0,0,YES,0,0,0,0,0,0,0,0,0,0,0,0,0,0,0,0,0,0,0,0,0,0,0,0,0,0,0,0,0,0,0,0,0,0,0,0,0,0,0,0,0,0,0,0,0,0,0,0,4,383
guava,v11.0,v12.0,F:/corpus/guava/guava#2011-12-18-01-04-57#v11.0#5a6bf80/guava/src/com/google/common/collect/ImmutableMap.java,F:/corpus/guava/guava#2012-05-01-02-04-06#v12.0#72d2812/guava/src/com/google/common/collect/ImmutableMap.java,0,0,0,0,4,0,0,0,0,0,2,12,0,YES,0,0,0,6,3,3,0,0,0,0,0,0,0,0,0,0,0,0,0,1,0,0,0,0,0,0,0,0,0,0,0,0,0,0,0,0,0,0,0,0,0,0,0,6,0,0,0,3,10,431
guava,v11.0,v12.0,F:/corpus/guava/guava#2011-12-18-01-04-57#v11.0#5a6bf80/guava/src/com/google/common/collect/ImmutableMultimap.java,F:/corpus/guava/guava#2012-05-01-02-04-06#v12.0#72d2812/guava/src/com/google/common/collect/ImmutableMultimap.java,0,0,0,0,7,0,0,0,0,0,2,0,0,YES,0,0,0,0,0,1,0,0,0,0,0,0,0,0,0,0,0,0,0,1,0,0,0,0,0,0,0,0,0,0,0,0,0,1,0,0,0,0,0,0,0,0,3,9,0,0,0,0,56,629
guava,v11.0,v12.0,F:/corpus/guava/guava#2011-12-18-01-04-57#v11.0#5a6bf80/guava/src/com/google/common/collect/ImmutableMultiset.java,F:/corpus/guava/guava#2012-05-01-02-04-06#v12.0#72d2812/guava/src/com/google/common/collect/ImmutableMultiset.java,0,0,0,0,5,0,0,0,0,0,0,0,0,YES,0,0,0,1,1,0,0,0,0,0,0,0,0,0,0,0,0,0,0,1,0,0,0,0,0,0,0,0,0,0,0,0,0,1,6,1,0,0,1,1,0,0,1,0,0,0,5,2,79,632
guava,v11.0,v12.0,F:/corpus/guava/guava#2011-12-18-01-04-57#v11.0#5a6bf80/guava/src/com/google/common/collect/ImmutableSet.java,F:/corpus/guava/guava#2012-05-01-02-04-06#v12.0#72d2812/guava/src/com/google/common/collect/ImmutableSet.java,0,0,0,0,3,0,0,0,0,0,0,9,0,YES,0,0,0,0,1,2,0,0,0,0,0,0,2,0,0,1,1,0,0,2,0,0,0,0,0,0,1,0,0,0,0,0,0,0,0,1,0,0,0,0,0,0,5,8,0,2,1,0,23,630
guava,v11.0,v12.0,F:/corpus/guava/guava#2011-12-18-01-04-57#v11.0#5a6bf80/guava/src/com/google/common/collect/ImmutableSetMultimap.java,F:/corpus/guava/guava#2012-05-01-02-04-06#v12.0#72d2812/guava/src/com/google/common/collect/ImmutableSetMultimap.java,0,0,0,0,2,0,0,0,0,0,2,0,0,YES,0,0,0,0,0,0,0,0,0,0,0,0,0,0,0,0,0,0,0,1,0,0,0,0,0,0,0,0,0,0,0,0,0,0,0,0,0,0,0,0,0,0,1,8,0,0,0,0,37,485
guava,v11.0,v12.0,F:/corpus/guava/guava#2011-12-18-01-04-57#v11.0#5a6bf80/guava/src/com/google/common/collect/ImmutableSortedAsList.java,F:/corpus/guava/guava#2012-05-01-02-04-06#v12.0#72d2812/guava/src/com/google/common/collect/ImmutableSortedAsList.java,0,0,0,0,0,0,0,0,0,0,0,0,0,YES,0,0,0,0,0,0,0,0,0,0,0,0,0,0,0,0,1,0,0,0,0,1,0,0,0,0,0,0,0,0,0,0,0,0,1,0,0,0,0,0,0,0,1,0,0,0,1,0,16,105
guava,v11.0,v12.0,F:/corpus/guava/guava#2011-12-18-01-04-57#v11.0#5a6bf80/guava/src/com/google/common/collect/ImmutableSortedMap.java,F:/corpus/guava/guava#2012-05-01-02-04-06#v12.0#72d2812/guava/src/com/google/common/collect/ImmutableSortedMap.java,0,0,0,0,0,3,0,0,0,0,2,1,0,YES,0,0,0,0,17,0,0,0,1,1,0,0,0,0,0,0,0,0,3,1,5,0,0,0,0,0,0,1,0,0,0,1,1,3,6,3,0,0,0,0,0,0,9,4,0,0,2,3,215,767
guava,v11.0,v12.0,F:/corpus/guava/guava#2011-12-18-01-04-57#v11.0#5a6bf80/guava/src/com/google/common/collect/ImmutableSortedMultiset.java,F:/corpus/guava/guava#2012-05-01-02-04-06#v12.0#72d2812/guava/src/com/google/common/collect/ImmutableSortedMultiset.java,0,0,0,0,1,0,0,0,0,0,0,0,0,YES,0,0,0,0,0,0,0,0,0,0,0,0,0,0,0,0,0,0,0,3,1,0,0,0,0,0,0,0,0,0,0,0,0,0,1,0,0,0,0,0,0,0,0,0,0,0,1,0,26,606
guava,v11.0,v12.0,F:/corpus/guava/guava#2011-12-18-01-04-57#v11.0#5a6bf80/guava/src/com/google/common/collect/ImmutableSortedSet.java,F:/corpus/guava/guava#2012-05-01-02-04-06#v12.0#72d2812/guava/src/com/google/common/collect/ImmutableSortedSet.java,0,0,0,0,2,0,0,0,0,0,0,1,0,YES,0,0,0,0,9,1,0,0,0,0,0,0,0,0,0,0,0,0,3,1,3,0,0,0,0,0,0,0,0,0,0,1,1,0,0,0,0,0,0,0,0,0,0,0,0,0,0,0,95,699
guava,v11.0,v12.0,F:/corpus/guava/guava#2011-12-18-01-04-57#v11.0#5a6bf80/guava/src/com/google/common/collect/ImmutableTable.java,F:/corpus/guava/guava#2012-05-01-02-04-06#v12.0#72d2812/guava/src/com/google/common/collect/ImmutableTable.java,0,0,0,0,4,0,0,0,0,0,0,0,0,YES,0,0,0,0,0,0,0,0,0,0,0,0,0,0,0,0,0,0,0,0,0,0,0,0,0,0,0,0,0,0,0,0,0,0,0,0,0,0,0,0,0,0,0,0,0,0,0,0,7,334
guava,v11.0,v12.0,F:/corpus/guava/guava#2011-12-18-01-04-57#v11.0#5a6bf80/guava/src/com/google/common/collect/Interners.java,F:/corpus/guava/guava#2012-05-01-02-04-06#v12.0#72d2812/guava/src/com/google/common/collect/Interners.java,0,0,0,0,0,0,0,0,0,0,0,0,0,YES,0,0,0,1,0,0,0,0,0,0,0,0,0,0,0,0,0,0,0,0,0,0,0,0,0,0,0,0,0,0,0,0,0,1,0,0,0,0,0,0,0,0,1,1,0,0,0,0,19,140
guava,v11.0,v12.0,F:/corpus/guava/guava#2011-12-18-01-04-57#v11.0#5a6bf80/guava/src/com/google/common/collect/Iterables.java,F:/corpus/guava/guava#2012-05-01-02-04-06#v12.0#72d2812/guava/src/com/google/common/collect/Iterables.java,0,1,0,0,1,0,0,0,0,0,0,3,0,YES,0,0,0,0,0,0,0,0,0,0,0,0,0,0,0,0,0,0,0,2,0,0,0,0,0,0,5,0,0,0,0,0,0,1,0,0,0,0,0,0,0,0,1,1,0,0,15,0,39,1132
guava,v11.0,v12.0,F:/corpus/guava/guava#2011-12-18-01-04-57#v11.0#5a6bf80/guava/src/com/google/common/collect/Iterators.java,F:/corpus/guava/guava#2012-05-01-02-04-06#v12.0#72d2812/guava/src/com/google/common/collect/Iterators.java,0,1,0,0,0,0,0,0,0,0,0,9,0,YES,0,0,0,0,4,0,0,0,0,0,0,2,0,0,0,0,0,0,0,2,0,0,0,0,0,0,6,0,0,0,0,0,0,0,0,0,0,0,0,0,0,0,5,1,0,0,2,0,91,1329
guava,v11.0,v12.0,F:/corpus/guava/guava#2011-12-18-01-04-57#v11.0#5a6bf80/guava/src/com/google/common/collect/LinkedHashMultimap.java,F:/corpus/guava/guava#2012-05-01-02-04-06#v12.0#72d2812/guava/src/com/google/common/collect/LinkedHashMultimap.java,0,0,0,0,0,0,0,0,0,0,0,1,0,YES,0,0,0,0,0,0,0,0,0,0,0,0,0,0,0,0,0,0,0,0,0,0,0,0,0,0,0,0,0,0,0,0,0,0,0,0,0,0,0,0,0,0,0,0,0,0,0,0,4,396
guava,v11.0,v12.0,F:/corpus/guava/guava#2011-12-18-01-04-57#v11.0#5a6bf80/guava/src/com/google/common/collect/LinkedHashMultiset.java,F:/corpus/guava/guava#2012-05-01-02-04-06#v12.0#72d2812/guava/src/com/google/common/collect/LinkedHashMultiset.java,0,0,0,0,0,0,0,0,0,0,0,2,0,YES,0,0,0,0,0,0,0,0,0,0,0,0,0,0,0,0,0,0,0,0,0,0,0,0,0,0,0,0,0,0,0,0,0,0,0,0,0,0,0,0,0,0,0,0,0,0,0,0,4,109
guava,v11.0,v12.0,F:/corpus/guava/guava#2011-12-18-01-04-57#v11.0#5a6bf80/guava/src/com/google/common/collect/LinkedListMultimap.java,F:/corpus/guava/guava#2012-05-01-02-04-06#v12.0#72d2812/guava/src/com/google/common/collect/LinkedListMultimap.java,0,1,0,0,3,0,1,0,0,0,0,1,0,YES,0,0,0,0,2,0,0,0,0,0,0,1,1,0,0,0,0,0,0,1,0,0,1,1,0,0,0,1,1,0,0,0,0,1,6,0,0,0,0,0,0,0,1,0,0,0,6,0,222,1146
guava,v11.0,v12.0,F:/corpus/guava/guava#2011-12-18-01-04-57#v11.0#5a6bf80/guava/src/com/google/common/collect/ListMultimap.java,F:/corpus/guava/guava#2012-05-01-02-04-06#v12.0#72d2812/guava/src/com/google/common/collect/ListMultimap.java,0,0,0,0,1,0,0,0,0,0,0,0,0,YES,0,0,0,0,0,0,0,0,0,0,0,0,0,0,0,0,0,0,0,0,0,0,0,0,0,0,0,0,0,0,0,0,0,0,0,0,0,0,0,0,0,0,0,0,0,0,0,0,4,91
guava,v11.0,v12.0,F:/corpus/guava/guava#2011-12-18-01-04-57#v11.0#5a6bf80/guava/src/com/google/common/collect/Lists.java,F:/corpus/guava/guava#2012-05-01-02-04-06#v12.0#72d2812/guava/src/com/google/common/collect/Lists.java,0,0,0,0,0,0,2,0,0,0,0,8,0,YES,0,0,0,0,3,0,0,0,0,0,0,0,4,0,0,0,0,0,0,1,0,0,0,0,0,0,0,0,0,0,0,0,0,0,2,0,0,0,0,0,0,0,0,4,0,0,0,0,65,1031
guava,v11.0,v12.0,F:/corpus/guava/guava#2011-12-18-01-04-57#v11.0#5a6bf80/guava/src/com/google/common/collect/MapMaker.java,F:/corpus/guava/guava#2012-05-01-02-04-06#v12.0#72d2812/guava/src/com/google/common/collect/MapMaker.java,0,0,0,0,7,0,0,0,0,0,0,2,0,YES,0,0,0,0,0,0,0,0,0,0,0,0,0,0,0,0,0,0,0,1,0,0,0,0,0,0,0,0,0,0,0,0,0,0,0,0,0,0,0,0,0,0,0,0,0,0,0,0,10,946
guava,v11.0,v12.0,F:/corpus/guava/guava#2011-12-18-01-04-57#v11.0#5a6bf80/guava/src/com/google/common/collect/MapMakerInternalMap.java,F:/corpus/guava/guava#2012-05-01-02-04-06#v12.0#72d2812/guava/src/com/google/common/collect/MapMakerInternalMap.java,6,2,0,0,29,0,72,0,0,0,2,0,0,YES,0,0,0,0,0,0,2,2,0,0,0,0,2,2,0,2,0,0,1,0,0,0,0,4,0,0,0,0,0,0,0,0,0,0,0,0,0,0,0,0,0,0,3,9,5,10,5,0,34,4062
guava,v11.0,v12.0,F:/corpus/guava/guava#2011-12-18-01-04-57#v11.0#5a6bf80/guava/src/com/google/common/collect/Maps.java,F:/corpus/guava/guava#2012-05-01-02-04-06#v12.0#72d2812/guava/src/com/google/common/collect/Maps.java,0,1,0,0,12,0,0,0,0,0,0,6,0,YES,0,0,0,3,6,0,0,0,0,0,0,0,0,0,0,0,0,0,0,1,0,0,0,0,0,0,0,0,0,0,0,0,0,0,1,0,0,0,0,0,0,0,2,2,0,0,1,0,608,2291
guava,v11.0,v12.0,F:/corpus/guava/guava#2011-12-18-01-04-57#v11.0#5a6bf80/guava/src/com/google/common/collect/MinMaxPriorityQueue.java,F:/corpus/guava/guava#2012-05-01-02-04-06#v12.0#72d2812/guava/src/com/google/common/collect/MinMaxPriorityQueue.java,0,0,0,0,0,0,0,0,0,0,0,0,0,YES,0,0,0,0,0,0,0,0,0,0,0,0,0,0,0,0,0,0,0,0,0,0,0,0,0,0,0,0,0,0,0,0,0,0,0,0,0,0,0,0,0,0,0,0,0,0,1,0,5,940
guava,v11.0,v12.0,F:/corpus/guava/guava#2011-12-18-01-04-57#v11.0#5a6bf80/guava/src/com/google/common/collect/Multimap.java,F:/corpus/guava/guava#2012-05-01-02-04-06#v12.0#72d2812/guava/src/com/google/common/collect/Multimap.java,0,0,0,0,1,0,0,0,0,0,0,0,0,YES,0,0,0,0,0,0,0,0,0,0,0,0,0,0,0,0,0,0,0,0,0,0,0,0,0,0,0,0,0,0,0,0,0,0,0,0,0,0,0,0,0,0,0,0,0,0,0,0,4,267
guava,v11.0,v12.0,F:/corpus/guava/guava#2011-12-18-01-04-57#v11.0#5a6bf80/guava/src/com/google/common/collect/Multimaps.java,F:/corpus/guava/guava#2012-05-01-02-04-06#v12.0#72d2812/guava/src/com/google/common/collect/Multimaps.java,0,1,0,0,26,0,0,0,0,0,0,0,0,YES,0,0,0,0,0,0,0,0,0,0,0,0,0,0,0,0,0,0,0,1,0,0,0,0,0,0,0,0,0,0,0,0,0,0,1,0,0,0,0,0,0,0,4,2,0,0,5,0,92,2755
guava,v11.0,v12.0,F:/corpus/guava/guava#2011-12-18-01-04-57#v11.0#5a6bf80/guava/src/com/google/common/collect/Multiset.java,F:/corpus/guava/guava#2012-05-01-02-04-06#v12.0#72d2812/guava/src/com/google/common/collect/Multiset.java,0,0,0,0,2,0,0,0,0,0,0,0,0,YES,0,0,0,0,0,0,0,0,0,0,0,0,0,0,0,0,0,0,0,0,0,0,0,0,0,0,0,0,0,0,0,0,0,0,0,0,0,0,0,0,0,0,0,0,0,0,0,0,11,436
guava,v11.0,v12.0,F:/corpus/guava/guava#2011-12-18-01-04-57#v11.0#5a6bf80/guava/src/com/google/common/collect/Multisets.java,F:/corpus/guava/guava#2012-05-01-02-04-06#v12.0#72d2812/guava/src/com/google/common/collect/Multisets.java,0,0,0,1,17,0,1,0,0,0,0,1,0,YES,0,0,0,0,0,0,0,0,0,0,0,0,0,0,0,0,0,0,0,1,0,0,0,0,0,0,0,0,0,0,0,0,0,0,0,0,0,0,0,0,0,0,1,1,0,0,2,0,26,972
guava,v11.0,v12.0,F:/corpus/guava/guava#2011-12-18-01-04-57#v11.0#5a6bf80/guava/src/com/google/common/collect/MutableClassToInstanceMap.java,F:/corpus/guava/guava#2012-05-01-02-04-06#v12.0#72d2812/guava/src/com/google/common/collect/MutableClassToInstanceMap.java,0,0,0,0,0,0,0,0,0,0,0,0,0,YES,0,0,0,0,0,0,0,0,0,0,0,0,0,0,0,0,0,0,0,0,0,0,0,0,0,0,0,0,0,0,0,0,0,0,0,0,0,0,0,0,0,0,0,0,0,0,0,0,4,82
guava,v11.0,v12.0,F:/corpus/guava/guava#2011-12-18-01-04-57#v11.0#5a6bf80/guava/src/com/google/common/collect/ObjectArrays.java,F:/corpus/guava/guava#2012-05-01-02-04-06#v12.0#72d2812/guava/src/com/google/common/collect/ObjectArrays.java,0,0,0,0,0,0,0,0,0,0,0,3,0,YES,0,0,0,0,0,0,0,0,0,0,0,0,0,0,0,0,0,0,0,0,0,0,0,0,0,0,0,0,0,0,0,0,0,0,0,0,0,0,0,0,0,0,0,0,0,0,4,0,4,182
guava,v11.0,v12.0,F:/corpus/guava/guava#2011-12-18-01-04-57#v11.0#5a6bf80/guava/src/com/google/common/collect/Ordering.java,F:/corpus/guava/guava#2012-05-01-02-04-06#v12.0#72d2812/guava/src/com/google/common/collect/Ordering.java,0,0,0,0,1,0,0,0,0,0,0,7,0,YES,0,0,0,0,0,0,0,0,0,0,0,0,0,0,0,0,0,0,0,2,0,0,0,0,0,0,0,0,0,0,0,0,0,0,0,0,0,0,0,0,0,0,0,0,0,0,0,0,10,736
guava,v11.0,v12.0,F:/corpus/guava/guava#2011-12-18-01-04-57#v11.0#5a6bf80/guava/src/com/google/common/collect/PeekingIterator.java,F:/corpus/guava/guava#2012-05-01-02-04-06#v12.0#72d2812/guava/src/com/google/common/collect/PeekingIterator.java,0,0,0,0,1,0,0,0,0,0,0,0,0,YES,0,0,0,0,0,0,0,0,0,0,0,0,0,0,0,0,0,0,0,0,0,0,0,0,0,0,0,0,0,0,0,0,0,0,0,0,0,0,0,0,0,0,0,0,0,0,0,0,4,65
guava,v11.0,v12.0,F:/corpus/guava/guava#2011-12-18-01-04-57#v11.0#5a6bf80/guava/src/com/google/common/collect/Platform.java,F:/corpus/guava/guava#2012-05-01-02-04-06#v12.0#72d2812/guava/src/com/google/common/collect/Platform.java,0,0,0,0,0,1,0,0,0,0,0,0,0,YES,0,0,0,0,0,0,0,0,0,0,0,0,0,0,0,0,0,0,0,0,0,0,0,0,0,0,0,0,0,0,0,0,0,0,1,0,0,0,0,0,0,0,0,0,0,0,0,0,17,96
guava,v11.0,v12.0,F:/corpus/guava/guava#2011-12-18-01-04-57#v11.0#5a6bf80/guava/src/com/google/common/collect/Queues.java,F:/corpus/guava/guava#2012-05-01-02-04-06#v12.0#72d2812/guava/src/com/google/common/collect/Queues.java,0,0,0,0,0,0,0,0,0,0,0,0,0,YES,0,0,0,0,5,0,0,0,0,0,0,0,0,0,0,0,0,0,0,1,0,0,0,0,0,0,0,0,0,0,0,0,0,0,0,0,0,0,0,0,0,0,0,0,0,0,0,0,79,277
guava,v11.0,v12.0,F:/corpus/guava/guava#2011-12-18-01-04-57#v11.0#5a6bf80/guava/src/com/google/common/collect/Range.java,F:/corpus/guava/guava#2012-05-01-02-04-06#v12.0#72d2812/guava/src/com/google/common/collect/Range.java,0,0,0,0,0,0,0,0,0,0,0,1,0,YES,0,0,0,0,0,0,0,0,0,0,0,0,0,0,0,0,0,0,0,4,0,0,1,1,0,0,0,0,0,0,0,0,0,0,0,0,0,0,0,0,0,0,0,0,0,0,2,0,226,509
guava,v11.0,v12.0,F:/corpus/guava/guava#2011-12-18-01-04-57#v11.0#5a6bf80/guava/src/com/google/common/collect/Ranges.java,F:/corpus/guava/guava#2012-05-01-02-04-06#v12.0#72d2812/guava/src/com/google/common/collect/Ranges.java,0,0,0,0,0,0,0,0,0,0,0,2,0,YES,0,0,0,0,0,0,0,0,0,0,0,0,0,0,0,0,0,0,0,0,0,0,0,0,0,0,0,0,0,0,0,0,0,0,0,0,0,0,0,0,0,0,0,0,0,0,0,0,4,251
guava,v11.0,v12.0,F:/corpus/guava/guava#2011-12-18-01-04-57#v11.0#5a6bf80/guava/src/com/google/common/collect/RegularContiguousSet.java,F:/corpus/guava/guava#2012-05-01-02-04-06#v12.0#72d2812/guava/src/com/google/common/collect/RegularContiguousSet.java,0,0,0,0,0,0,0,0,0,0,0,0,0,YES,0,0,0,1,2,0,0,0,0,0,0,0,1,0,0,0,0,0,0,0,0,0,0,0,0,0,0,0,0,0,0,0,0,0,0,0,0,0,0,0,0,0,5,6,0,1,4,0,107,192
guava,v11.0,v12.0,F:/corpus/guava/guava#2011-12-18-01-04-57#v11.0#5a6bf80/guava/src/com/google/common/collect/RegularImmutableList.java,F:/corpus/guava/guava#2012-05-01-02-04-06#v12.0#72d2812/guava/src/com/google/common/collect/RegularImmutableList.java,0,0,0,0,0,0,0,0,0,0,0,0,0,YES,0,0,0,0,0,0,0,0,0,0,0,0,1,0,0,0,1,0,0,0,0,1,1,1,0,0,0,0,0,0,0,0,0,0,5,0,0,0,0,0,0,0,2,1,0,0,1,0,57,185
guava,v11.0,v12.0,F:/corpus/guava/guava#2011-12-18-01-04-57#v11.0#5a6bf80/guava/src/com/google/common/collect/RegularImmutableMap.java,F:/corpus/guava/guava#2012-05-01-02-04-06#v12.0#72d2812/guava/src/com/google/common/collect/RegularImmutableMap.java,0,0,0,0,1,0,0,0,0,0,0,0,0,YES,0,0,0,0,3,0,0,0,0,0,0,0,0,0,0,0,2,0,0,0,0,2,0,0,0,0,0,1,0,0,0,0,0,2,3,4,0,0,0,0,0,0,4,2,0,0,0,3,86,293
guava,v11.0,v12.0,F:/corpus/guava/guava#2011-12-18-01-04-57#v11.0#5a6bf80/guava/src/com/google/common/collect/RegularImmutableMultiset.java,F:/corpus/guava/guava#2012-05-01-02-04-06#v12.0#72d2812/guava/src/com/google/common/collect/RegularImmutableMultiset.java,0,0,0,0,0,0,0,0,0,0,0,0,0,YES,0,0,0,0,2,0,0,0,0,0,0,0,0,0,0,0,0,0,0,0,0,0,0,0,0,0,0,0,0,0,0,0,0,0,2,0,0,0,0,0,0,0,0,0,0,0,0,0,20,97
guava,v11.0,v12.0,F:/corpus/guava/guava#2011-12-18-01-04-57#v11.0#5a6bf80/guava/src/com/google/common/collect/RegularImmutableSortedMultiset.java,F:/corpus/guava/guava#2012-05-01-02-04-06#v12.0#72d2812/guava/src/com/google/common/collect/RegularImmutableSortedMultiset.java,0,0,0,0,0,0,0,0,0,0,0,0,0,YES,0,0,0,0,1,0,0,0,0,0,0,0,0,0,0,0,0,0,0,0,0,0,0,0,0,0,0,0,0,0,0,0,0,0,3,0,0,0,0,0,0,0,0,0,0,0,1,0,15,198
guava,v11.0,v12.0,F:/corpus/guava/guava#2011-12-18-01-04-57#v11.0#5a6bf80/guava/src/com/google/common/collect/RegularImmutableSortedSet.java,F:/corpus/guava/guava#2012-05-01-02-04-06#v12.0#72d2812/guava/src/com/google/common/collect/RegularImmutableSortedSet.java,0,0,0,0,0,0,0,0,0,0,0,0,0,YES,0,0,0,0,1,0,0,0,0,0,0,0,0,0,0,0,0,0,0,0,0,0,0,0,0,0,0,0,0,0,0,0,0,0,0,0,0,0,0,0,0,0,0,0,0,0,0,0,12,275
guava,v11.0,v12.0,F:/corpus/guava/guava#2011-12-18-01-04-57#v11.0#5a6bf80/guava/src/com/google/common/collect/SetMultimap.java,F:/corpus/guava/guava#2012-05-01-02-04-06#v12.0#72d2812/guava/src/com/google/common/collect/SetMultimap.java,0,0,0,0,1,0,0,0,0,0,0,0,0,YES,0,0,0,0,0,0,0,0,0,0,0,0,0,0,0,0,0,0,0,0,0,0,0,0,0,0,0,0,0,0,0,0,0,0,0,0,0,0,0,0,0,0,0,0,0,0,0,0,4,104
guava,v11.0,v12.0,F:/corpus/guava/guava#2011-12-18-01-04-57#v11.0#5a6bf80/guava/src/com/google/common/collect/Sets.java,F:/corpus/guava/guava#2012-05-01-02-04-06#v12.0#72d2812/guava/src/com/google/common/collect/Sets.java,0,1,0,0,2,0,0,0,0,0,0,13,0,YES,0,0,0,2,5,0,0,0,0,0,0,1,0,0,0,0,0,0,0,1,0,0,0,0,0,1,1,0,0,0,0,0,0,2,1,0,0,0,0,0,0,0,1,1,0,1,2,0,344,1394
guava,v11.0,v12.0,F:/corpus/guava/guava#2011-12-18-01-04-57#v11.0#5a6bf80/guava/src/com/google/common/collect/SingletonImmutableList.java,F:/corpus/guava/guava#2012-05-01-02-04-06#v12.0#72d2812/guava/src/com/google/common/collect/SingletonImmutableList.java,0,0,0,0,0,0,0,0,0,0,0,0,0,YES,0,0,0,0,0,0,0,0,0,0,0,0,0,0,0,0,0,0,0,0,0,0,0,0,0,0,0,0,0,0,0,0,0,0,1,0,0,0,0,0,0,0,1,1,0,0,0,0,42,169
guava,v11.0,v12.0,F:/corpus/guava/guava#2011-12-18-01-04-57#v11.0#5a6bf80/guava/src/com/google/common/collect/SingletonImmutableMap.java,F:/corpus/guava/guava#2012-05-01-02-04-06#v12.0#72d2812/guava/src/com/google/common/collect/SingletonImmutableMap.java,0,0,0,0,0,0,0,0,0,0,0,0,0,YES,0,0,0,0,0,0,0,0,0,0,0,0,0,0,0,0,3,0,0,0,0,3,0,0,0,0,0,0,0,0,0,0,0,1,0,3,0,0,0,0,0,0,4,1,0,0,2,0,45,162
guava,v11.0,v12.0,F:/corpus/guava/guava#2011-12-18-01-04-57#v11.0#5a6bf80/guava/src/com/google/common/collect/SortedLists.java,F:/corpus/guava/guava#2012-05-01-02-04-06#v12.0#72d2812/guava/src/com/google/common/collect/SortedLists.java,0,0,0,0,0,0,0,0,0,0,0,0,0,YES,0,0,0,0,0,0,0,0,0,0,0,0,0,0,0,0,0,0,0,0,0,0,0,0,0,0,0,0,0,0,0,0,0,0,0,0,0,0,0,0,0,0,0,0,0,0,0,0,6,284
guava,v11.0,v12.0,F:/corpus/guava/guava#2011-12-18-01-04-57#v11.0#5a6bf80/guava/src/com/google/common/collect/SortedMultiset.java,F:/corpus/guava/guava#2012-05-01-02-04-06#v12.0#72d2812/guava/src/com/google/common/collect/SortedMultiset.java,0,0,0,0,1,0,0,0,0,0,0,0,0,YES,0,0,0,0,0,0,0,0,0,0,0,0,0,0,0,0,0,0,0,0,0,0,0,0,0,0,0,0,0,0,0,0,0,0,0,0,0,0,0,0,0,0,0,0,0,0,0,0,4,133
guava,v11.0,v12.0,F:/corpus/guava/guava#2011-12-18-01-04-57#v11.0#5a6bf80/guava/src/com/google/common/collect/SortedSetMultimap.java,F:/corpus/guava/guava#2012-05-01-02-04-06#v12.0#72d2812/guava/src/com/google/common/collect/SortedSetMultimap.java,0,0,0,0,1,0,0,0,0,0,0,0,0,YES,0,0,0,0,0,0,0,0,0,0,0,0,0,0,0,0,0,0,0,0,0,0,0,0,0,0,0,0,0,0,0,0,0,0,0,0,0,0,0,0,0,0,0,0,0,0,0,0,4,109
guava,v11.0,v12.0,F:/corpus/guava/guava#2011-12-18-01-04-57#v11.0#5a6bf80/guava/src/com/google/common/collect/StandardTable.java,F:/corpus/guava/guava#2012-05-01-02-04-06#v12.0#72d2812/guava/src/com/google/common/collect/StandardTable.java,0,1,0,0,2,0,0,0,0,0,0,0,0,YES,0,0,0,0,0,0,0,0,0,0,0,0,0,0,0,0,0,0,0,0,0,0,0,0,0,0,0,0,0,0,0,0,0,1,2,0,0,0,0,0,0,0,3,1,0,0,6,0,79,1198
guava,v11.0,v12.0,F:/corpus/guava/guava#2011-12-18-01-04-57#v11.0#5a6bf80/guava/src/com/google/common/collect/Synchronized.java,F:/corpus/guava/guava#2012-05-01-02-04-06#v12.0#72d2812/guava/src/com/google/common/collect/Synchronized.java,0,1,0,0,0,0,0,0,0,0,0,0,0,YES,0,0,0,0,0,0,0,0,0,0,0,0,0,0,0,0,0,0,0,0,0,0,0,0,0,0,0,0,0,0,0,0,0,0,0,0,0,0,0,0,0,0,0,0,0,0,2,0,5,1218
guava,v11.0,v12.0,F:/corpus/guava/guava#2011-12-18-01-04-57#v11.0#5a6bf80/guava/src/com/google/common/collect/Table.java,F:/corpus/guava/guava#2012-05-01-02-04-06#v12.0#72d2812/guava/src/com/google/common/collect/Table.java,0,0,0,0,2,0,0,0,0,0,0,0,0,YES,0,0,0,0,0,0,0,0,0,0,0,0,0,0,0,0,0,0,0,0,0,0,0,0,0,0,0,0,0,0,0,0,0,0,0,0,0,0,0,0,0,0,0,0,0,0,0,0,7,295
guava,v11.0,v12.0,F:/corpus/guava/guava#2011-12-18-01-04-57#v11.0#5a6bf80/guava/src/com/google/common/collect/Tables.java,F:/corpus/guava/guava#2012-05-01-02-04-06#v12.0#72d2812/guava/src/com/google/common/collect/Tables.java,0,0,0,0,6,0,1,0,0,0,0,1,0,YES,0,0,0,0,0,0,0,0,0,0,0,0,0,0,0,0,0,0,0,0,0,0,0,0,0,0,0,0,0,0,0,0,0,0,0,0,0,0,0,0,0,0,0,0,0,0,0,0,4,747
guava,v11.0,v12.0,F:/corpus/guava/guava#2011-12-18-01-04-57#v11.0#5a6bf80/guava/src/com/google/common/collect/TransformedImmutableList.java,F:/corpus/guava/guava#2012-05-01-02-04-06#v12.0#72d2812/guava/src/com/google/common/collect/TransformedImmutableList.java,0,0,0,0,1,0,0,0,0,0,0,0,0,YES,0,0,0,0,0,0,0,0,0,0,0,0,0,0,0,0,0,0,0,0,0,0,0,0,0,0,0,0,0,0,0,0,0,0,5,0,0,0,0,0,0,0,4,1,0,0,0,0,46,128
guava,v11.0,v12.0,F:/corpus/guava/guava#2011-12-18-01-04-57#v11.0#5a6bf80/guava/src/com/google/common/collect/TreeBasedTable.java,F:/corpus/guava/guava#2012-05-01-02-04-06#v12.0#72d2812/guava/src/com/google/common/collect/TreeBasedTable.java,0,0,0,1,0,0,0,0,0,0,0,0,0,YES,0,0,0,0,0,0,0,0,0,0,0,0,0,0,0,0,0,0,0,0,0,0,0,0,0,0,0,0,0,0,0,0,0,0,0,0,0,0,0,0,0,0,0,0,0,0,0,0,4,376
guava,v11.0,v12.0,F:/corpus/guava/guava#2011-12-18-01-04-57#v11.0#5a6bf80/guava/src/com/google/common/collect/TreeMultimap.java,F:/corpus/guava/guava#2012-05-01-02-04-06#v12.0#72d2812/guava/src/com/google/common/collect/TreeMultimap.java,0,0,0,0,0,0,0,0,0,0,0,1,0,YES,0,0,0,0,0,0,0,0,0,0,0,0,0,0,0,0,0,0,0,0,0,0,0,0,0,0,0,0,0,0,0,0,0,0,0,0,0,0,0,0,0,0,0,0,0,0,0,0,4,197
guava,v11.0,v12.0,F:/corpus/guava/guava#2011-12-18-01-04-57#v11.0#5a6bf80/guava/src/com/google/common/collect/TreeMultiset.java,F:/corpus/guava/guava#2012-05-01-02-04-06#v12.0#72d2812/guava/src/com/google/common/collect/TreeMultiset.java,0,0,0,0,1,1,0,0,0,0,0,1,0,YES,0,0,0,1,0,0,1,0,0,0,0,0,1,0,0,0,0,0,0,1,0,0,0,0,0,0,0,0,0,0,0,0,0,0,0,0,0,0,0,0,0,0,2,4,0,2,4,0,44,571
guava,v11.0,v12.0,F:/corpus/guava/guava#2011-12-18-01-04-57#v11.0#5a6bf80/guava/src/com/google/common/collect/WellBehavedMap.java,F:/corpus/guava/guava#2012-05-01-02-04-06#v12.0#72d2812/guava/src/com/google/common/collect/WellBehavedMap.java,0,0,0,0,0,0,0,0,0,0,0,0,0,YES,0,0,0,1,0,0,0,0,0,0,0,0,0,0,0,0,0,0,0,1,0,0,0,0,0,0,0,0,0,0,0,0,0,1,0,0,0,0,0,0,0,0,1,1,0,0,0,0,31,91
guava,v11.0,v12.0,F:/corpus/guava/guava#2011-12-18-01-04-57#v11.0#5a6bf80/guava/src/com/google/common/collect/package-info.java,F:/corpus/guava/guava#2012-05-01-02-04-06#v12.0#72d2812/guava/src/com/google/common/collect/package-info.java,0,0,0,0,0,0,0,0,0,0,0,0,0,YES,0,0,0,0,0,0,0,0,0,0,0,0,0,0,0,0,0,0,0,1,0,0,0,0,0,0,0,0,0,0,0,0,0,0,0,0,0,0,0,0,0,0,0,0,0,0,0,0,6,225
guava,v11.0,v12.0,F:/corpus/guava/guava#2011-12-18-01-04-57#v11.0#5a6bf80/guava/src/com/google/common/eventbus/AllowConcurrentEvents.java,F:/corpus/guava/guava#2012-05-01-02-04-06#v12.0#72d2812/guava/src/com/google/common/eventbus/AllowConcurrentEvents.java,0,0,0,0,0,0,0,0,0,0,0,0,0,YES,0,0,0,0,0,0,0,0,0,0,0,0,0,0,0,0,0,0,0,0,0,0,0,0,0,0,0,0,0,0,0,0,0,0,0,0,0,0,0,0,0,0,0,0,0,0,0,0,1,40
guava,v11.0,v12.0,F:/corpus/guava/guava#2011-12-18-01-04-57#v11.0#5a6bf80/guava/src/com/google/common/eventbus/AnnotatedHandlerFinder.java,F:/corpus/guava/guava#2012-05-01-02-04-06#v12.0#72d2812/guava/src/com/google/common/eventbus/AnnotatedHandlerFinder.java,0,0,0,0,0,0,0,0,0,0,0,0,0,YES,0,0,0,0,0,0,0,0,0,0,0,0,0,0,0,0,0,0,0,0,0,0,0,0,0,0,0,0,0,0,0,0,0,0,0,0,0,0,0,0,0,0,0,0,0,0,0,0,1,97
guava,v11.0,v12.0,F:/corpus/guava/guava#2011-12-18-01-04-57#v11.0#5a6bf80/guava/src/com/google/common/eventbus/AsyncEventBus.java,F:/corpus/guava/guava#2012-05-01-02-04-06#v12.0#72d2812/guava/src/com/google/common/eventbus/AsyncEventBus.java,0,0,0,0,0,0,0,0,0,0,0,0,0,YES,0,0,0,0,0,0,0,0,0,0,0,0,0,0,0,0,0,0,0,0,0,0,0,0,0,0,0,0,0,0,0,0,0,0,0,0,0,0,0,0,0,0,0,0,0,0,0,0,1,99
guava,v11.0,v12.0,F:/corpus/guava/guava#2011-12-18-01-04-57#v11.0#5a6bf80/guava/src/com/google/common/eventbus/EventBus.java,F:/corpus/guava/guava#2012-05-01-02-04-06#v12.0#72d2812/guava/src/com/google/common/eventbus/EventBus.java,0,0,0,0,0,0,0,0,0,0,0,0,0,YES,0,0,0,0,0,0,0,0,0,0,0,0,0,0,0,0,0,0,0,0,0,0,0,0,0,0,0,0,0,0,0,0,0,0,0,0,0,0,0,0,0,0,0,0,0,0,0,0,4,369
guava,v11.0,v12.0,F:/corpus/guava/guava#2011-12-18-01-04-57#v11.0#5a6bf80/guava/src/com/google/common/eventbus/EventHandler.java,F:/corpus/guava/guava#2012-05-01-02-04-06#v12.0#72d2812/guava/src/com/google/common/eventbus/EventHandler.java,0,0,0,0,0,0,0,0,0,0,0,0,0,YES,0,0,0,0,0,0,0,0,0,0,0,0,0,0,0,0,0,0,0,0,0,0,0,0,0,0,0,0,0,0,0,0,0,0,0,0,0,0,0,0,0,0,0,0,0,0,0,0,1,108
guava,v11.0,v12.0,F:/corpus/guava/guava#2011-12-18-01-04-57#v11.0#5a6bf80/guava/src/com/google/common/eventbus/Subscribe.java,F:/corpus/guava/guava#2012-05-01-02-04-06#v12.0#72d2812/guava/src/com/google/common/eventbus/Subscribe.java,0,0,0,0,0,0,0,0,0,0,0,0,0,YES,0,0,0,0,0,0,0,0,0,0,0,0,0,0,0,0,0,0,0,0,0,0,0,0,0,0,0,0,0,0,0,0,0,0,0,0,0,0,0,0,0,0,0,0,0,0,0,0,1,45
guava,v11.0,v12.0,F:/corpus/guava/guava#2011-12-18-01-04-57#v11.0#5a6bf80/guava/src/com/google/common/eventbus/package-info.java,F:/corpus/guava/guava#2012-05-01-02-04-06#v12.0#72d2812/guava/src/com/google/common/eventbus/package-info.java,0,0,0,0,0,0,0,0,0,0,0,0,0,YES,0,0,0,0,0,0,0,0,0,0,0,0,0,0,0,0,0,0,0,0,0,0,0,0,0,0,0,0,0,0,0,0,0,0,0,0,0,0,0,0,0,0,0,0,0,0,0,0,4,264
guava,v11.0,v12.0,F:/corpus/guava/guava#2011-12-18-01-04-57#v11.0#5a6bf80/guava/src/com/google/common/hash/AbstractHasher.java,F:/corpus/guava/guava#2012-05-01-02-04-06#v12.0#72d2812/guava/src/com/google/common/hash/AbstractHasher.java,0,0,0,0,0,0,0,0,0,0,0,0,0,YES,0,0,0,0,0,0,0,0,0,0,0,0,0,0,0,0,0,0,0,0,0,0,0,0,0,0,0,0,0,0,0,0,0,0,0,0,0,0,0,0,0,0,3,0,0,1,1,0,5,53
guava,v11.0,v12.0,F:/corpus/guava/guava#2011-12-18-01-04-57#v11.0#5a6bf80/guava/src/com/google/common/hash/AbstractStreamingHashFunction.java,F:/corpus/guava/guava#2012-05-01-02-04-06#v12.0#72d2812/guava/src/com/google/common/hash/AbstractStreamingHashFunction.java,0,0,0,0,0,0,0,0,0,0,0,0,0,YES,0,0,0,0,1,0,0,0,0,0,0,0,0,0,0,0,0,0,0,0,0,0,0,0,0,0,0,0,0,0,0,0,0,0,0,0,0,0,0,0,0,0,0,0,0,0,0,0,4,249
guava,v11.0,v12.0,F:/corpus/guava/guava#2011-12-18-01-04-57#v11.0#5a6bf80/guava/src/com/google/common/hash/BloomFilter.java,F:/corpus/guava/guava#2012-05-01-02-04-06#v12.0#72d2812/guava/src/com/google/common/hash/BloomFilter.java,0,0,0,0,0,0,0,0,0,0,0,0,0,YES,0,0,0,1,4,2,0,0,0,0,0,1,1,0,0,0,0,0,0,2,0,1,3,3,0,0,0,0,0,0,0,0,0,1,1,3,0,0,0,0,0,1,18,6,0,0,4,0,146,268
guava,v11.0,v12.0,F:/corpus/guava/guava#2011-12-18-01-04-57#v11.0#5a6bf80/guava/src/com/google/common/hash/BloomFilterStrategies.java,F:/corpus/guava/guava#2012-05-01-02-04-06#v12.0#72d2812/guava/src/com/google/common/hash/BloomFilterStrategies.java,0,0,0,0,0,0,0,0,0,0,0,0,0,YES,0,0,0,0,0,0,0,0,0,0,0,0,0,0,0,0,0,0,0,0,0,0,0,0,0,0,0,0,0,0,0,0,0,0,0,0,0,0,0,0,0,0,0,0,0,0,0,0,63,84
guava,v11.0,v12.0,F:/corpus/guava/guava#2011-12-18-01-04-57#v11.0#5a6bf80/guava/src/com/google/common/hash/Funnel.java,F:/corpus/guava/guava#2012-05-01-02-04-06#v12.0#72d2812/guava/src/com/google/common/hash/Funnel.java,0,0,0,0,1,0,0,0,0,0,0,0,0,YES,0,0,0,0,0,0,0,0,0,0,0,0,0,0,0,0,0,0,0,2,0,0,0,0,0,0,1,0,0,0,0,0,1,0,0,0,0,0,0,0,0,0,0,0,0,0,0,0,7,33
guava,v11.0,v12.0,F:/corpus/guava/guava#2011-12-18-01-04-57#v11.0#5a6bf80/guava/src/com/google/common/hash/Funnels.java,F:/corpus/guava/guava#2012-05-01-02-04-06#v12.0#72d2812/guava/src/com/google/common/hash/Funnels.java,0,0,0,0,0,0,0,0,0,0,0,0,0,YES,0,0,0,0,0,0,0,0,0,0,0,0,0,0,0,0,0,0,0,0,0,0,0,0,0,0,0,0,0,0,0,0,0,0,0,0,0,0,0,0,0,0,0,0,0,0,0,0,2,66
guava,v11.0,v12.0,F:/corpus/guava/guava#2011-12-18-01-04-57#v11.0#5a6bf80/guava/src/com/google/common/hash/HashCodes.java,F:/corpus/guava/guava#2012-05-01-02-04-06#v12.0#72d2812/guava/src/com/google/common/hash/HashCodes.java,0,0,0,0,0,0,0,0,0,0,0,1,0,YES,0,0,0,0,1,3,0,0,0,0,0,0,0,0,0,0,0,0,0,2,4,0,0,0,0,0,0,0,0,0,0,0,3,1,1,0,0,3,0,0,0,0,1,2,0,0,0,0,77,185
guava,v11.0,v12.0,F:/corpus/guava/guava#2011-12-18-01-04-57#v11.0#5a6bf80/guava/src/com/google/common/hash/HashFunction.java,F:/corpus/guava/guava#2012-05-01-02-04-06#v12.0#72d2812/guava/src/com/google/common/hash/HashFunction.java,0,0,0,0,0,0,0,0,0,0,0,0,0,YES,0,0,0,0,1,0,0,0,0,0,0,0,0,0,0,0,0,0,0,0,0,0,0,0,0,0,0,0,0,0,0,0,0,0,0,0,0,0,0,0,0,0,0,0,0,0,0,0,7,197
guava,v11.0,v12.0,F:/corpus/guava/guava#2011-12-18-01-04-57#v11.0#5a6bf80/guava/src/com/google/common/hash/Hasher.java,F:/corpus/guava/guava#2012-05-01-02-04-06#v12.0#72d2812/guava/src/com/google/common/hash/Hasher.java,0,0,0,0,0,0,0,0,0,0,0,0,0,YES,0,0,0,0,0,0,0,0,0,0,0,0,0,0,0,0,0,0,0,0,0,0,0,0,0,0,0,0,0,0,0,0,0,0,0,0,0,0,0,0,0,0,0,0,0,0,0,0,4,69
guava,v11.0,v12.0,F:/corpus/guava/guava#2011-12-18-01-04-57#v11.0#5a6bf80/guava/src/com/google/common/hash/Hashing.java,F:/corpus/guava/guava#2012-05-01-02-04-06#v12.0#72d2812/guava/src/com/google/common/hash/Hashing.java,0,0,0,0,0,0,0,0,0,0,0,0,0,YES,0,0,0,0,0,1,0,0,0,0,0,1,2,0,0,1,1,0,0,0,1,0,0,0,0,0,0,0,0,0,0,0,0,0,0,0,0,1,0,0,0,0,2,4,0,0,5,0,29,297
guava,v11.0,v12.0,F:/corpus/guava/guava#2011-12-18-01-04-57#v11.0#5a6bf80/guava/src/com/google/common/hash/MessageDigestHashFunction.java,F:/corpus/guava/guava#2012-05-01-02-04-06#v12.0#72d2812/guava/src/com/google/common/hash/MessageDigestHashFunction.java,0,0,0,0,0,0,0,0,0,0,0,0,0,YES,0,0,0,0,0,1,0,0,0,0,0,0,0,0,0,0,0,0,0,0,0,0,0,0,0,0,0,0,0,0,0,0,0,0,0,1,0,0,0,0,0,0,3,0,0,1,5,0,16,173
guava,v11.0,v12.0,F:/corpus/guava/guava#2011-12-18-01-04-57#v11.0#5a6bf80/guava/src/com/google/common/hash/Murmur3_128HashFunction.java,F:/corpus/guava/guava#2012-05-01-02-04-06#v12.0#72d2812/guava/src/com/google/common/hash/Murmur3_128HashFunction.java,0,0,0,0,0,0,0,0,0,0,0,0,1,YES,0,0,0,0,0,0,0,0,0,0,0,0,0,0,0,0,0,0,0,0,0,0,0,0,0,0,0,0,0,0,0,0,0,0,0,0,0,0,0,0,0,0,0,0,0,0,1,0,12,164
guava,v11.0,v12.0,F:/corpus/guava/guava#2011-12-18-01-04-57#v11.0#5a6bf80/guava/src/com/google/common/hash/Sink.java,F:/corpus/guava/guava#2012-05-01-02-04-06#v12.0#72d2812/guava/src/com/google/common/hash/PrimitiveSink.java,0,0,0,0,1,0,0,0,0,0,0,0,0,YES,0,0,0,0,0,0,0,0,0,0,1,0,0,0,0,0,0,0,0,0,0,0,0,0,0,0,0,0,0,0,0,0,0,0,0,0,0,0,0,0,0,0,0,0,0,0,0,0,14,102
guava,v11.0,v12.0,F:/corpus/guava/guava#2011-12-18-01-04-57#v11.0#5a6bf80/guava/src/com/google/common/hash/package-info.java,F:/corpus/guava/guava#2012-05-01-02-04-06#v12.0#72d2812/guava/src/com/google/common/hash/package-info.java,0,0,0,0,0,0,0,0,0,0,0,0,0,YES,0,0,0,0,0,0,0,0,0,0,0,0,0,0,0,0,0,0,0,0,0,0,0,0,0,0,0,0,0,0,0,0,0,0,0,0,0,0,0,0,0,0,0,0,0,0,0,0,4,22
guava,v11.0,v12.0,F:/corpus/guava/guava#2011-12-18-01-04-57#v11.0#5a6bf80/guava/src/com/google/common/io/ByteArrayDataInput.java,F:/corpus/guava/guava#2012-05-01-02-04-06#v12.0#72d2812/guava/src/com/google/common/io/ByteArrayDataInput.java,0,0,0,0,1,0,0,0,0,0,0,0,0,YES,0,0,0,0,0,0,0,0,0,0,0,0,0,0,0,0,0,0,0,0,0,0,0,0,0,0,0,0,0,0,0,0,0,0,0,0,0,0,0,0,0,0,0,0,0,0,0,0,16,47
guava,v11.0,v12.0,F:/corpus/guava/guava#2011-12-18-01-04-57#v11.0#5a6bf80/guava/src/com/google/common/io/ByteStreams.java,F:/corpus/guava/guava#2012-05-01-02-04-06#v12.0#72d2812/guava/src/com/google/common/io/ByteStreams.java,0,0,0,0,0,0,1,0,0,0,0,1,0,YES,0,0,0,0,1,0,0,0,0,0,0,0,0,0,0,0,0,0,0,1,0,0,0,0,0,0,0,0,0,0,0,0,0,0,0,0,0,0,0,0,0,0,0,0,0,0,0,0,36,878
guava,v11.0,v12.0,F:/corpus/guava/guava#2011-12-18-01-04-57#v11.0#5a6bf80/guava/src/com/google/common/io/CharStreams.java,F:/corpus/guava/guava#2012-05-01-02-04-06#v12.0#72d2812/guava/src/com/google/common/io/CharStreams.java,0,0,0,0,0,0,0,0,0,0,0,0,0,YES,0,0,0,0,0,0,0,0,0,0,0,0,0,0,0,0,0,0,0,2,0,0,0,0,0,0,0,0,0,0,0,0,0,0,0,0,0,0,0,0,0,0,0,0,0,0,0,0,3,441
guava,v11.0,v12.0,F:/corpus/guava/guava#2011-12-18-01-04-57#v11.0#5a6bf80/guava/src/com/google/common/io/Files.java,F:/corpus/guava/guava#2012-05-01-02-04-06#v12.0#72d2812/guava/src/com/google/common/io/Files.java,0,0,0,0,0,1,0,0,0,0,0,0,0,YES,0,0,0,0,1,0,0,0,0,0,0,0,0,0,0,0,0,0,0,16,0,0,0,0,0,0,0,0,0,0,0,0,0,0,0,0,0,0,0,0,0,0,0,0,0,0,0,0,36,764
guava,v11.0,v12.0,F:/corpus/guava/guava#2011-12-18-01-04-57#v11.0#5a6bf80/guava/src/com/google/common/io/Resources.java,F:/corpus/guava/guava#2012-05-01-02-04-06#v12.0#72d2812/guava/src/com/google/common/io/Resources.java,0,0,0,0,0,0,0,0,0,0,0,0,0,YES,0,0,0,0,0,0,0,0,0,0,0,0,0,0,0,0,0,0,0,4,0,0,0,0,0,0,0,0,0,0,0,0,0,0,0,0,0,0,0,0,0,0,0,0,0,0,0,0,5,168
guava,v11.0,v12.0,F:/corpus/guava/guava#2011-12-18-01-04-57#v11.0#5a6bf80/guava/src/com/google/common/io/package-info.java,F:/corpus/guava/guava#2012-05-01-02-04-06#v12.0#72d2812/guava/src/com/google/common/io/package-info.java,0,0,0,0,0,0,0,0,0,0,0,0,0,YES,0,0,0,0,0,0,0,0,0,0,0,0,0,0,0,0,0,0,0,0,0,0,0,0,0,0,0,0,0,0,0,0,0,0,0,0,0,0,0,0,0,0,0,0,0,0,0,0,1,40
guava,v11.0,v12.0,F:/corpus/guava/guava#2011-12-18-01-04-57#v11.0#5a6bf80/guava/src/com/google/common/math/BigIntegerMath.java,F:/corpus/guava/guava#2012-05-01-02-04-06#v12.0#72d2812/guava/src/com/google/common/math/BigIntegerMath.java,0,0,0,0,0,0,0,0,0,0,0,0,2,YES,0,0,0,0,0,0,0,0,0,0,0,0,0,0,0,1,0,0,0,0,0,0,0,0,0,0,0,0,0,0,0,0,0,0,0,0,0,0,0,0,0,0,0,0,0,0,0,0,10,392
guava,v11.0,v12.0,F:/corpus/guava/guava#2011-12-18-01-04-57#v11.0#5a6bf80/guava/src/com/google/common/math/DoubleMath.java,F:/corpus/guava/guava#2012-05-01-02-04-06#v12.0#72d2812/guava/src/com/google/common/math/DoubleMath.java,0,0,0,0,0,0,0,0,0,0,0,0,1,YES,0,0,0,0,0,0,0,0,0,0,0,0,0,0,0,0,1,0,0,0,0,0,0,0,0,0,0,0,0,0,0,0,0,0,0,0,0,0,0,0,0,0,0,0,0,0,5,0,17,302
guava,v11.0,v12.0,F:/corpus/guava/guava#2011-12-18-01-04-57#v11.0#5a6bf80/guava/src/com/google/common/math/DoubleUtils.java,F:/corpus/guava/guava#2012-05-01-02-04-06#v12.0#72d2812/guava/src/com/google/common/math/DoubleUtils.java,0,0,0,0,0,0,0,0,0,0,0,0,0,YES,0,0,0,0,2,0,0,0,0,0,0,0,0,0,0,1,0,0,0,0,0,0,0,0,0,0,0,0,0,0,0,0,0,0,3,2,0,0,0,0,0,0,0,0,0,0,4,0,75,181
guava,v11.0,v12.0,F:/corpus/guava/guava#2011-12-18-01-04-57#v11.0#5a6bf80/guava/src/com/google/common/math/IntMath.java,F:/corpus/guava/guava#2012-05-01-02-04-06#v12.0#72d2812/guava/src/com/google/common/math/IntMath.java,0,0,0,0,0,0,0,0,0,0,0,0,2,YES,0,0,0,0,0,0,0,0,0,0,0,0,0,0,0,0,0,0,0,0,0,0,0,0,0,0,0,0,0,0,0,0,0,0,0,0,0,0,0,0,0,0,0,0,0,0,0,0,3,512
guava,v11.0,v12.0,F:/corpus/guava/guava#2011-12-18-01-04-57#v11.0#5a6bf80/guava/src/com/google/common/math/LongMath.java,F:/corpus/guava/guava#2012-05-01-02-04-06#v12.0#72d2812/guava/src/com/google/common/math/LongMath.java,0,0,0,0,0,0,0,0,0,0,0,0,2,YES,0,0,0,0,0,0,0,0,0,0,0,0,0,0,0,0,0,0,0,0,0,0,0,0,0,0,0,0,0,0,0,0,0,0,0,0,0,0,0,0,0,0,0,0,0,0,0,0,21,624
guava,v11.0,v12.0,F:/corpus/guava/guava#2011-12-18-01-04-57#v11.0#5a6bf80/guava/src/com/google/common/math/package-info.java,F:/corpus/guava/guava#2012-05-01-02-04-06#v12.0#72d2812/guava/src/com/google/common/math/package-info.java,0,0,0,0,0,0,0,0,0,0,0,0,0,YES,0,0,0,0,0,0,0,0,0,0,0,0,0,0,0,0,0,0,0,0,0,0,0,0,0,0,0,0,0,0,0,0,0,0,0,0,0,0,0,0,0,0,0,0,0,0,0,0,5,26
guava,v11.0,v12.0,F:/corpus/guava/guava#2011-12-18-01-04-57#v11.0#5a6bf80/guava/src/com/google/common/net/InetAddresses.java,F:/corpus/guava/guava#2012-05-01-02-04-06#v12.0#72d2812/guava/src/com/google/common/net/InetAddresses.java,0,1,0,0,0,0,0,0,0,0,0,0,0,YES,0,0,0,0,1,0,2,1,0,0,0,5,3,0,0,1,0,0,0,4,0,0,0,0,0,0,0,0,0,0,0,0,0,0,2,0,0,0,0,0,0,0,28,10,0,4,11,0,219,1123
guava,v11.0,v12.0,F:/corpus/guava/guava#2011-12-18-01-04-57#v11.0#5a6bf80/guava/src/com/google/common/net/TldPatterns.java,F:/corpus/guava/guava#2012-05-01-02-04-06#v12.0#72d2812/guava/src/com/google/common/net/TldPatterns.java,0,1,0,0,0,0,0,0,0,0,0,0,0,YES,0,0,0,0,0,0,0,0,0,0,0,0,0,0,0,0,0,0,0,0,0,0,0,0,0,0,0,0,0,0,0,0,0,0,0,0,0,0,0,0,0,0,0,0,0,0,0,0,336,4294
guava,v11.0,v12.0,F:/corpus/guava/guava#2011-12-18-01-04-57#v11.0#5a6bf80/guava/src/com/google/common/net/package-info.java,F:/corpus/guava/guava#2012-05-01-02-04-06#v12.0#72d2812/guava/src/com/google/common/net/package-info.java,0,0,0,0,0,0,0,0,0,0,0,0,0,YES,0,0,0,0,0,0,0,0,0,0,0,0,0,0,0,0,0,0,0,0,0,0,0,0,0,0,0,0,0,0,0,0,0,0,0,0,0,0,0,0,0,0,0,0,0,0,0,0,1,29
guava,v11.0,v12.0,F:/corpus/guava/guava#2011-12-18-01-04-57#v11.0#5a6bf80/guava/src/com/google/common/primitives/Booleans.java,F:/corpus/guava/guava#2012-05-01-02-04-06#v12.0#72d2812/guava/src/com/google/common/primitives/Booleans.java,0,0,0,0,0,0,0,0,0,0,0,0,0,YES,0,0,0,0,0,0,0,0,0,0,0,0,0,0,0,0,0,0,0,0,0,0,0,0,0,0,0,0,0,0,0,0,0,0,0,0,0,0,0,0,0,0,0,0,0,0,0,0,4,466
guava,v11.0,v12.0,F:/corpus/guava/guava#2011-12-18-01-04-57#v11.0#5a6bf80/guava/src/com/google/common/primitives/Bytes.java,F:/corpus/guava/guava#2012-05-01-02-04-06#v12.0#72d2812/guava/src/com/google/common/primitives/Bytes.java,0,0,0,0,0,0,0,0,0,0,0,1,0,YES,0,0,0,0,0,0,0,0,0,0,0,0,0,0,0,0,0,0,0,2,0,0,0,0,0,0,1,0,0,0,0,0,0,0,0,0,0,0,0,0,0,0,0,0,0,0,1,0,10,383
guava,v11.0,v12.0,F:/corpus/guava/guava#2011-12-18-01-04-57#v11.0#5a6bf80/guava/src/com/google/common/primitives/Chars.java,F:/corpus/guava/guava#2012-05-01-02-04-06#v12.0#72d2812/guava/src/com/google/common/primitives/Chars.java,0,0,0,0,0,0,0,0,0,0,0,0,0,YES,0,0,0,0,0,0,0,0,0,0,0,0,0,0,0,0,0,0,0,0,0,0,0,0,0,0,0,0,0,0,0,0,0,0,0,0,0,0,0,0,0,0,0,0,0,0,0,0,4,582
guava,v11.0,v12.0,F:/corpus/guava/guava#2011-12-18-01-04-57#v11.0#5a6bf80/guava/src/com/google/common/primitives/Doubles.java,F:/corpus/guava/guava#2012-05-01-02-04-06#v12.0#72d2812/guava/src/com/google/common/primitives/Doubles.java,0,0,0,0,0,0,0,0,0,0,0,0,0,YES,0,0,0,0,0,0,0,0,0,0,0,0,0,0,0,0,0,0,0,2,0,0,0,0,0,0,1,0,0,0,0,0,0,0,0,0,0,0,0,0,0,0,0,0,0,0,1,0,10,528
guava,v11.0,v12.0,F:/corpus/guava/guava#2011-12-18-01-04-57#v11.0#5a6bf80/guava/src/com/google/common/primitives/Floats.java,F:/corpus/guava/guava#2012-05-01-02-04-06#v12.0#72d2812/guava/src/com/google/common/primitives/Floats.java,0,0,0,0,0,0,0,0,0,0,0,0,0,YES,0,0,0,0,0,0,0,0,0,0,0,0,0,0,0,0,0,0,0,2,0,0,0,0,0,0,1,0,0,0,0,0,0,0,0,0,0,0,0,0,0,0,0,0,0,0,1,0,10,525
guava,v11.0,v12.0,F:/corpus/guava/guava#2011-12-18-01-04-57#v11.0#5a6bf80/guava/src/com/google/common/primitives/Ints.java,F:/corpus/guava/guava#2012-05-01-02-04-06#v12.0#72d2812/guava/src/com/google/common/primitives/Ints.java,0,0,0,0,0,0,0,0,0,0,0,1,0,YES,0,0,0,0,0,0,0,0,0,0,0,0,0,0,0,0,0,0,0,2,0,0,0,0,0,0,1,0,0,0,0,0,0,0,0,0,0,0,0,0,0,0,0,0,0,0,1,0,10,614
guava,v11.0,v12.0,F:/corpus/guava/guava#2011-12-18-01-04-57#v11.0#5a6bf80/guava/src/com/google/common/primitives/Longs.java,F:/corpus/guava/guava#2012-05-01-02-04-06#v12.0#72d2812/guava/src/com/google/common/primitives/Longs.java,0,0,0,0,0,0,0,0,0,0,1,0,0,YES,0,0,0,0,0,0,0,0,0,0,0,0,0,0,0,0,0,0,0,2,0,0,0,0,0,0,1,0,0,0,0,0,0,0,0,0,0,0,0,0,0,0,0,0,0,0,1,0,10,574
guava,v11.0,v12.0,F:/corpus/guava/guava#2011-12-18-01-04-57#v11.0#5a6bf80/guava/src/com/google/common/primitives/Shorts.java,F:/corpus/guava/guava#2012-05-01-02-04-06#v12.0#72d2812/guava/src/com/google/common/primitives/Shorts.java,0,0,0,0,0,0,0,0,0,0,0,0,0,YES,0,0,0,0,0,0,0,0,0,0,0,0,0,0,0,0,0,0,0,2,0,0,0,0,0,0,1,0,0,0,0,0,0,0,0,0,0,0,0,0,0,0,0,0,0,0,1,0,10,587
guava,v11.0,v12.0,F:/corpus/guava/guava#2011-12-18-01-04-57#v11.0#5a6bf80/guava/src/com/google/common/primitives/SignedBytes.java,F:/corpus/guava/guava#2012-05-01-02-04-06#v12.0#72d2812/guava/src/com/google/common/primitives/SignedBytes.java,0,0,0,0,0,0,0,0,0,0,0,0,0,YES,0,0,0,0,0,0,0,0,0,0,0,0,0,0,0,0,0,0,0,0,0,0,0,0,0,0,0,0,0,0,0,0,0,0,0,0,0,0,0,0,0,0,0,0,0,0,0,0,4,190
guava,v11.0,v12.0,F:/corpus/guava/guava#2011-12-18-01-04-57#v11.0#5a6bf80/guava/src/com/google/common/primitives/UnsignedBytes.java,F:/corpus/guava/guava#2012-05-01-02-04-06#v12.0#72d2812/guava/src/com/google/common/primitives/UnsignedBytes.java,0,0,0,0,0,0,0,0,0,0,0,0,0,YES,0,0,0,0,0,0,0,0,0,0,0,0,0,0,0,0,0,0,0,0,0,0,0,0,0,0,0,0,0,0,0,0,0,0,0,0,0,0,0,0,0,0,0,0,0,0,0,0,4,362
guava,v11.0,v12.0,F:/corpus/guava/guava#2011-12-18-01-04-57#v11.0#5a6bf80/guava/src/com/google/common/primitives/UnsignedInteger.java,F:/corpus/guava/guava#2012-05-01-02-04-06#v12.0#72d2812/guava/src/com/google/common/primitives/UnsignedInteger.java,0,0,0,0,0,0,0,0,0,0,0,0,0,YES,0,0,0,0,0,0,0,0,0,0,0,0,0,0,0,0,0,0,0,0,0,0,0,0,0,0,0,0,0,0,0,0,0,0,0,0,0,0,0,0,0,0,0,0,0,0,0,0,12,236
guava,v11.0,v12.0,F:/corpus/guava/guava#2011-12-18-01-04-57#v11.0#5a6bf80/guava/src/com/google/common/primitives/UnsignedInts.java,F:/corpus/guava/guava#2012-05-01-02-04-06#v12.0#72d2812/guava/src/com/google/common/primitives/UnsignedInts.java,0,0,0,0,0,0,0,0,0,0,0,0,0,YES,0,0,0,0,0,0,0,0,0,0,0,0,0,0,0,0,0,0,0,1,0,0,0,0,0,0,0,0,0,0,0,0,0,0,0,0,0,0,0,0,0,0,0,0,0,0,1,0,24,242
guava,v11.0,v12.0,F:/corpus/guava/guava#2011-12-18-01-04-57#v11.0#5a6bf80/guava/src/com/google/common/primitives/UnsignedLong.java,F:/corpus/guava/guava#2012-05-01-02-04-06#v12.0#72d2812/guava/src/com/google/common/primitives/UnsignedLong.java,0,0,0,0,0,0,0,0,0,0,0,0,0,YES,0,0,0,0,0,0,0,0,0,0,0,0,0,0,0,0,1,0,0,1,0,0,0,0,0,0,0,0,0,0,0,0,0,0,0,0,0,1,0,0,0,0,0,0,0,0,0,0,21,242
guava,v11.0,v12.0,F:/corpus/guava/guava#2011-12-18-01-04-57#v11.0#5a6bf80/guava/src/com/google/common/primitives/UnsignedLongs.java,F:/corpus/guava/guava#2012-05-01-02-04-06#v12.0#72d2812/guava/src/com/google/common/primitives/UnsignedLongs.java,0,0,0,0,0,0,0,0,0,0,0,0,0,YES,0,0,0,0,0,0,1,0,0,0,0,1,1,1,0,0,0,0,0,1,0,0,0,0,0,0,0,0,0,0,0,0,0,0,0,0,0,0,0,0,0,0,6,3,0,5,3,0,43,364
guava,v11.0,v12.0,F:/corpus/guava/guava#2011-12-18-01-04-57#v11.0#5a6bf80/guava/src/com/google/common/primitives/package-info.java,F:/corpus/guava/guava#2012-05-01-02-04-06#v12.0#72d2812/guava/src/com/google/common/primitives/package-info.java,0,0,0,0,0,0,0,0,0,0,0,0,0,YES,0,0,0,0,0,0,0,0,0,0,0,0,0,0,0,0,0,0,0,0,0,0,0,0,0,0,0,0,0,0,0,0,0,0,0,0,0,0,0,0,0,0,0,0,0,0,0,0,6,63
guava,v11.0,v12.0,F:/corpus/guava/guava#2011-12-18-01-04-57#v11.0#5a6bf80/guava/src/com/google/common/util/concurrent/AbstractExecutionThreadService.java,F:/corpus/guava/guava#2012-05-01-02-04-06#v12.0#72d2812/guava/src/com/google/common/util/concurrent/AbstractExecutionThreadService.java,0,0,0,0,0,1,0,0,0,0,0,0,0,YES,0,0,0,0,0,0,0,0,0,0,0,0,0,0,0,0,0,0,0,0,0,0,0,0,0,0,0,0,0,0,0,0,0,0,0,0,0,0,0,0,0,0,0,0,0,0,0,0,6,172
guava,v11.0,v12.0,F:/corpus/guava/guava#2011-12-18-01-04-57#v11.0#5a6bf80/guava/src/com/google/common/util/concurrent/AbstractScheduledService.java,F:/corpus/guava/guava#2012-05-01-02-04-06#v12.0#72d2812/guava/src/com/google/common/util/concurrent/AbstractScheduledService.java,0,0,1,0,2,1,1,0,0,0,0,0,0,YES,0,0,0,0,0,0,0,0,0,0,0,0,0,0,0,0,0,0,0,2,0,0,0,0,0,0,0,0,0,0,0,0,0,0,0,0,0,0,0,0,0,0,0,0,0,0,0,2,4,433
guava,v11.0,v12.0,F:/corpus/guava/guava#2011-12-18-01-04-57#v11.0#5a6bf80/guava/src/com/google/common/util/concurrent/AtomicDouble.java,F:/corpus/guava/guava#2012-05-01-02-04-06#v12.0#72d2812/guava/src/com/google/common/util/concurrent/AtomicDouble.java,0,0,0,0,0,0,0,0,0,0,0,0,0,YES,0,0,0,0,0,0,0,0,0,0,0,0,0,0,0,0,0,0,0,0,0,0,0,0,0,0,0,0,0,0,0,0,0,0,0,0,0,0,0,0,0,0,0,0,0,0,0,0,5,256
guava,v11.0,v12.0,F:/corpus/guava/guava#2011-12-18-01-04-57#v11.0#5a6bf80/guava/src/com/google/common/util/concurrent/AtomicDoubleArray.java,F:/corpus/guava/guava#2012-05-01-02-04-06#v12.0#72d2812/guava/src/com/google/common/util/concurrent/AtomicDoubleArray.java,0,0,0,0,0,0,0,0,0,0,0,0,0,YES,0,0,0,0,0,0,0,0,0,0,0,0,0,0,0,0,0,0,0,0,0,0,0,0,0,0,0,0,0,0,0,0,0,0,0,0,0,0,0,0,0,0,0,0,0,0,0,0,5,270
guava,v11.0,v12.0,F:/corpus/guava/guava#2011-12-18-01-04-57#v11.0#5a6bf80/guava/src/com/google/common/util/concurrent/AtomicLongMap.java,F:/corpus/guava/guava#2012-05-01-02-04-06#v12.0#72d2812/guava/src/com/google/common/util/concurrent/AtomicLongMap.java,0,0,0,0,0,0,0,0,0,0,0,0,0,YES,0,0,0,0,0,0,0,0,0,0,0,0,0,0,0,0,0,0,0,0,0,0,0,0,0,0,0,0,0,0,0,0,0,0,0,0,0,0,0,0,0,0,0,0,0,0,0,0,2,418
guava,v11.0,v12.0,F:/corpus/guava/guava#2011-12-18-01-04-57#v11.0#5a6bf80/guava/src/com/google/common/util/concurrent/ExecutionError.java,F:/corpus/guava/guava#2012-05-01-02-04-06#v12.0#72d2812/guava/src/com/google/common/util/concurrent/ExecutionError.java,0,0,0,0,0,0,0,0,0,0,0,0,0,YES,0,0,0,0,0,0,0,0,0,0,0,0,0,0,0,0,0,0,0,0,0,0,0,0,0,0,0,0,0,0,0,0,0,0,0,0,0,0,0,0,0,0,0,0,0,0,0,0,2,64
guava,v11.0,v12.0,F:/corpus/guava/guava#2011-12-18-01-04-57#v11.0#5a6bf80/guava/src/com/google/common/util/concurrent/Futures.java,F:/corpus/guava/guava#2012-05-01-02-04-06#v12.0#72d2812/guava/src/com/google/common/util/concurrent/Futures.java,0,1,0,0,0,0,0,0,0,0,0,1,0,YES,0,0,0,0,0,0,0,0,0,0,0,0,0,0,0,0,0,0,0,4,0,0,0,0,0,3,0,0,0,0,0,0,0,0,6,0,0,0,0,0,0,0,0,0,0,0,5,0,273,1465
guava,v11.0,v12.0,F:/corpus/guava/guava#2011-12-18-01-04-57#v11.0#5a6bf80/guava/src/com/google/common/util/concurrent/JdkFutureAdapters.java,F:/corpus/guava/guava#2012-05-01-02-04-06#v12.0#72d2812/guava/src/com/google/common/util/concurrent/JdkFutureAdapters.java,0,0,0,0,0,0,0,0,0,0,0,0,0,YES,0,0,0,0,0,0,0,0,0,0,0,0,0,0,0,0,0,0,1,1,1,0,0,0,0,0,0,0,0,0,0,0,0,0,0,0,0,0,0,0,0,0,0,0,0,0,0,0,4,160
guava,v11.0,v12.0,F:/corpus/guava/guava#2011-12-18-01-04-57#v11.0#5a6bf80/guava/src/com/google/common/util/concurrent/ListenableFuture.java,F:/corpus/guava/guava#2012-05-01-02-04-06#v12.0#72d2812/guava/src/com/google/common/util/concurrent/ListenableFuture.java,0,0,0,0,1,0,0,0,0,0,0,0,0,YES,0,0,0,0,0,0,0,0,0,0,0,0,0,0,0,0,0,0,0,0,0,0,0,0,0,0,0,0,0,0,0,0,0,0,0,0,0,0,0,0,0,0,0,0,0,0,0,0,4,123
guava,v11.0,v12.0,F:/corpus/guava/guava#2011-12-18-01-04-57#v11.0#5a6bf80/guava/src/com/google/common/util/concurrent/ListenableFutureTask.java,F:/corpus/guava/guava#2012-05-01-02-04-06#v12.0#72d2812/guava/src/com/google/common/util/concurrent/ListenableFutureTask.java,0,0,0,0,0,0,0,0,0,0,0,0,0,YES,0,0,0,0,0,0,0,0,0,0,0,0,0,0,0,0,0,0,0,0,0,0,0,0,0,0,0,0,0,0,0,0,0,0,0,0,0,0,0,0,0,0,0,0,0,0,0,0,2,88
guava,v11.0,v12.0,F:/corpus/guava/guava#2011-12-18-01-04-57#v11.0#5a6bf80/guava/src/com/google/common/util/concurrent/Service.java,F:/corpus/guava/guava#2012-05-01-02-04-06#v12.0#72d2812/guava/src/com/google/common/util/concurrent/Service.java,0,0,0,0,0,0,0,0,0,0,0,0,0,YES,0,0,0,0,0,0,0,0,0,0,0,0,0,0,0,0,0,0,0,0,0,0,0,0,0,0,0,0,0,0,0,0,0,0,0,0,0,0,0,0,0,0,0,0,0,0,0,0,8,159
guava,v11.0,v12.0,F:/corpus/guava/guava#2011-12-18-01-04-57#v11.0#5a6bf80/guava/src/com/google/common/util/concurrent/UncheckedExecutionException.java,F:/corpus/guava/guava#2012-05-01-02-04-06#v12.0#72d2812/guava/src/com/google/common/util/concurrent/UncheckedExecutionException.java,0,0,0,0,0,0,0,0,0,0,0,0,0,YES,0,0,0,0,0,0,0,0,0,0,0,0,0,0,0,0,0,0,0,0,0,0,0,0,0,0,0,0,0,0,0,0,0,0,0,0,0,0,0,0,0,0,0,0,0,0,0,0,4,69
guava,v11.0,v12.0,F:/corpus/guava/guava#2011-12-18-01-04-57#v11.0#5a6bf80/guava/src/com/google/common/util/concurrent/package-info.java,F:/corpus/guava/guava#2012-05-01-02-04-06#v12.0#72d2812/guava/src/com/google/common/util/concurrent/package-info.java,0,0,0,0,0,0,0,0,0,0,0,0,0,YES,0,0,0,0,0,0,0,0,0,0,0,0,0,0,0,0,0,0,0,0,0,0,0,0,0,0,0,0,0,0,0,0,0,0,0,0,0,0,0,0,0,0,0,0,0,0,0,0,1,35
guava,v11.0,v12.0,F:/corpus/guava/guava#2011-12-18-01-04-57#v11.0#5a6bf80/guava/src/com/google/common/annotations/GwtCompatible.java,F:/corpus/guava/guava#2011-12-18-01-04-57#v11.0#5a6bf80/guava/src/com/google/common/annotations/GwtCompatible.java,0,0,0,0,0,0,0,0,0,0,0,0,0,NO,0,0,0,0,0,0,0,0,0,0,0,0,0,0,0,0,0,0,0,0,0,0,0,0,0,0,0,0,0,0,0,0,0,0,0,0,0,0,0,0,0,0,0,0,0,0,0,0,0,88
guava,v11.0,v12.0,F:/corpus/guava/guava#2011-12-18-01-04-57#v11.0#5a6bf80/guava/src/com/google/common/annotations/GwtIncompatible.java,F:/corpus/guava/guava#2011-12-18-01-04-57#v11.0#5a6bf80/guava/src/com/google/common/annotations/GwtIncompatible.java,0,0,0,0,0,0,0,0,0,0,0,0,0,NO,0,0,0,0,0,0,0,0,0,0,0,0,0,0,0,0,0,0,0,0,0,0,0,0,0,0,0,0,0,0,0,0,0,0,0,0,0,0,0,0,0,0,0,0,0,0,0,0,0,52
guava,v11.0,v12.0,F:/corpus/guava/guava#2011-12-18-01-04-57#v11.0#5a6bf80/guava/src/com/google/common/annotations/package-info.java,F:/corpus/guava/guava#2011-12-18-01-04-57#v11.0#5a6bf80/guava/src/com/google/common/annotations/package-info.java,0,0,0,0,0,0,0,0,0,0,0,0,0,NO,0,0,0,0,0,0,0,0,0,0,0,0,0,0,0,0,0,0,0,0,0,0,0,0,0,0,0,0,0,0,0,0,0,0,0,0,0,0,0,0,0,0,0,0,0,0,0,0,0,21
guava,v11.0,v12.0,F:/corpus/guava/guava#2011-12-18-01-04-57#v11.0#5a6bf80/guava/src/com/google/common/annotations/VisibleForTesting.java,F:/corpus/guava/guava#2011-12-18-01-04-57#v11.0#5a6bf80/guava/src/com/google/common/annotations/VisibleForTesting.java,0,0,0,0,0,0,0,0,0,0,0,0,0,NO,0,0,0,0,0,0,0,0,0,0,0,0,0,0,0,0,0,0,0,0,0,0,0,0,0,0,0,0,0,0,0,0,0,0,0,0,0,0,0,0,0,0,0,0,0,0,0,0,0,27
guava,v11.0,v12.0,F:/corpus/guava/guava#2011-12-18-01-04-57#v11.0#5a6bf80/guava/src/com/google/common/base/AbstractIterator.java,F:/corpus/guava/guava#2011-12-18-01-04-57#v11.0#5a6bf80/guava/src/com/google/common/base/AbstractIterator.java,0,0,0,0,1,0,0,0,0,0,0,0,0,NO,0,0,0,0,0,0,0,0,0,0,0,0,0,0,0,0,0,0,0,0,0,0,0,0,0,0,0,0,0,0,0,0,0,0,0,0,0,0,0,0,0,0,0,0,0,0,0,0,0,84
guava,v11.0,v12.0,F:/corpus/guava/guava#2011-12-18-01-04-57#v11.0#5a6bf80/guava/src/com/google/common/base/CaseFormat.java,F:/corpus/guava/guava#2011-12-18-01-04-57#v11.0#5a6bf80/guava/src/com/google/common/base/CaseFormat.java,0,0,0,0,0,0,0,0,0,0,0,0,0,NO,0,0,0,0,0,0,0,0,0,0,0,0,0,0,0,0,0,0,0,0,0,0,0,0,0,0,0,0,0,0,0,0,0,0,0,0,0,0,0,0,0,0,0,0,0,0,0,0,0,164
guava,v11.0,v12.0,F:/corpus/guava/guava#2011-12-18-01-04-57#v11.0#5a6bf80/guava/src/com/google/common/base/Equivalence.java,F:/corpus/guava/guava#2011-12-18-01-04-57#v11.0#5a6bf80/guava/src/com/google/common/base/Equivalence.java,0,0,0,0,1,0,0,0,0,0,0,2,0,NO,0,0,0,0,0,0,0,0,0,0,0,0,0,0,0,0,0,0,0,0,0,0,0,0,0,0,0,0,0,0,0,0,0,0,0,0,0,0,0,0,0,0,0,0,0,0,0,0,0,296
guava,v11.0,v12.0,F:/corpus/guava/guava#2011-12-18-01-04-57#v11.0#5a6bf80/guava/src/com/google/common/base/Equivalences.java,F:/corpus/guava/guava#2011-12-18-01-04-57#v11.0#5a6bf80/guava/src/com/google/common/base/Equivalences.java,0,0,0,0,1,0,0,0,0,0,0,1,0,NO,0,0,0,0,0,0,0,0,0,0,0,0,0,0,0,0,0,0,0,0,0,0,0,0,0,0,0,0,0,0,0,0,0,0,0,0,0,0,0,0,0,0,0,0,0,0,0,0,0,97
guava,v11.0,v12.0,F:/corpus/guava/guava#2011-12-18-01-04-57#v11.0#5a6bf80/guava/src/com/google/common/base/FinalizablePhantomReference.java,F:/corpus/guava/guava#2011-12-18-01-04-57#v11.0#5a6bf80/guava/src/com/google/common/base/FinalizablePhantomReference.java,0,0,0,0,1,0,0,0,0,0,0,0,0,NO,0,0,0,0,0,0,0,0,0,0,0,0,0,0,0,0,0,0,0,0,0,0,0,0,0,0,0,0,0,0,0,0,0,0,0,0,0,0,0,0,0,0,0,0,0,0,0,0,0,44
guava,v11.0,v12.0,F:/corpus/guava/guava#2011-12-18-01-04-57#v11.0#5a6bf80/guava/src/com/google/common/base/FinalizableReference.java,F:/corpus/guava/guava#2011-12-18-01-04-57#v11.0#5a6bf80/guava/src/com/google/common/base/FinalizableReference.java,0,0,0,0,0,0,0,0,0,0,0,0,0,NO,0,0,0,0,0,0,0,0,0,0,0,0,0,0,0,0,0,0,0,0,0,0,0,0,0,0,0,0,0,0,0,0,0,0,0,0,0,0,0,0,0,0,0,0,0,0,0,0,0,33
guava,v11.0,v12.0,F:/corpus/guava/guava#2011-12-18-01-04-57#v11.0#5a6bf80/guava/src/com/google/common/base/FinalizableSoftReference.java,F:/corpus/guava/guava#2011-12-18-01-04-57#v11.0#5a6bf80/guava/src/com/google/common/base/FinalizableSoftReference.java,0,0,0,0,1,0,0,0,0,0,0,0,0,NO,0,0,0,0,0,0,0,0,0,0,0,0,0,0,0,0,0,0,0,0,0,0,0,0,0,0,0,0,0,0,0,0,0,0,0,0,0,0,0,0,0,0,0,0,0,0,0,0,0,42
guava,v11.0,v12.0,F:/corpus/guava/guava#2011-12-18-01-04-57#v11.0#5a6bf80/guava/src/com/google/common/base/FinalizableWeakReference.java,F:/corpus/guava/guava#2011-12-18-01-04-57#v11.0#5a6bf80/guava/src/com/google/common/base/FinalizableWeakReference.java,0,0,0,0,1,0,0,0,0,0,0,0,0,NO,0,0,0,0,0,0,0,0,0,0,0,0,0,0,0,0,0,0,0,0,0,0,0,0,0,0,0,0,0,0,0,0,0,0,0,0,0,0,0,0,0,0,0,0,0,0,0,0,0,42
guava,v11.0,v12.0,F:/corpus/guava/guava#2011-12-18-01-04-57#v11.0#5a6bf80/guava/src/com/google/common/base/FunctionalEquivalence.java,F:/corpus/guava/guava#2011-12-18-01-04-57#v11.0#5a6bf80/guava/src/com/google/common/base/FunctionalEquivalence.java,0,0,0,0,0,0,0,0,0,0,0,0,0,NO,0,0,0,0,0,0,0,0,0,0,0,0,0,0,0,0,0,0,0,0,0,0,0,0,0,0,0,0,0,0,0,0,0,0,0,0,0,0,0,0,0,0,0,0,0,0,0,0,0,77
guava,v11.0,v12.0,F:/corpus/guava/guava#2011-12-18-01-04-57#v11.0#5a6bf80/guava/src/com/google/common/base/package-info.java,F:/corpus/guava/guava#2011-12-18-01-04-57#v11.0#5a6bf80/guava/src/com/google/common/base/package-info.java,0,0,0,0,0,0,0,0,0,0,0,0,0,NO,0,0,0,0,0,0,0,0,0,0,0,0,0,0,0,0,0,0,0,0,0,0,0,0,0,0,0,0,0,0,0,0,0,0,0,0,0,0,0,0,0,0,0,0,0,0,0,0,0,66
guava,v11.0,v12.0,F:/corpus/guava/guava#2011-12-18-01-04-57#v11.0#5a6bf80/guava/src/com/google/common/base/PairwiseEquivalence.java,F:/corpus/guava/guava#2011-12-18-01-04-57#v11.0#5a6bf80/guava/src/com/google/common/base/PairwiseEquivalence.java,0,0,0,0,0,0,0,0,0,0,0,0,0,NO,0,0,0,0,0,0,0,0,0,0,0,0,0,0,0,0,0,0,0,0,0,0,0,0,0,0,0,0,0,0,0,0,0,0,0,0,0,0,0,0,0,0,0,0,0,0,0,0,0,80
guava,v11.0,v12.0,F:/corpus/guava/guava#2011-12-18-01-04-57#v11.0#5a6bf80/guava/src/com/google/common/base/Platform.java,F:/corpus/guava/guava#2011-12-18-01-04-57#v11.0#5a6bf80/guava/src/com/google/common/base/Platform.java,0,0,0,0,0,0,0,0,0,0,0,0,0,NO,0,0,0,0,0,0,0,0,0,0,0,0,0,0,0,0,0,0,0,0,0,0,0,0,0,0,0,0,0,0,0,0,0,0,0,0,0,0,0,0,0,0,0,0,0,0,0,0,0,55
guava,v11.0,v12.0,F:/corpus/guava/guava#2011-12-18-01-04-57#v11.0#5a6bf80/guava/src/com/google/common/base/Stopwatch.java,F:/corpus/guava/guava#2011-12-18-01-04-57#v11.0#5a6bf80/guava/src/com/google/common/base/Stopwatch.java,0,0,0,0,0,0,0,0,0,0,0,0,0,NO,0,0,0,0,0,0,0,0,0,0,0,0,0,0,0,0,0,0,0,0,0,0,0,0,0,0,0,0,0,0,0,0,0,0,0,0,0,0,0,0,0,0,0,0,0,0,0,0,0,223
guava,v11.0,v12.0,F:/corpus/guava/guava#2011-12-18-01-04-57#v11.0#5a6bf80/guava/src/com/google/common/base/Strings.java,F:/corpus/guava/guava#2011-12-18-01-04-57#v11.0#5a6bf80/guava/src/com/google/common/base/Strings.java,0,0,0,0,0,0,0,0,0,0,0,0,0,NO,0,0,0,0,0,0,0,0,0,0,0,0,0,0,0,0,0,0,0,0,0,0,0,0,0,0,0,0,0,0,0,0,0,0,0,0,0,0,0,0,0,0,0,0,0,0,0,0,0,241
guava,v11.0,v12.0,F:/corpus/guava/guava#2011-12-18-01-04-57#v11.0#5a6bf80/guava/src/com/google/common/base/Supplier.java,F:/corpus/guava/guava#2011-12-18-01-04-57#v11.0#5a6bf80/guava/src/com/google/common/base/Supplier.java,0,0,0,0,1,0,0,0,0,0,0,0,0,NO,0,0,0,0,0,0,0,0,0,0,0,0,0,0,0,0,0,0,0,0,0,0,0,0,0,0,0,0,0,0,0,0,0,0,0,0,0,0,0,0,0,0,0,0,0,0,0,0,0,38
guava,v11.0,v12.0,F:/corpus/guava/guava#2011-12-18-01-04-57#v11.0#5a6bf80/guava/src/com/google/common/base/Suppliers.java,F:/corpus/guava/guava#2011-12-18-01-04-57#v11.0#5a6bf80/guava/src/com/google/common/base/Suppliers.java,0,0,0,0,0,0,1,0,0,0,0,0,0,NO,0,0,0,0,0,0,0,0,0,0,0,0,0,0,0,0,0,0,0,0,0,0,0,0,0,0,0,0,0,0,0,0,0,0,0,0,0,0,0,0,0,0,0,0,0,0,0,0,0,254
guava,v11.0,v12.0,F:/corpus/guava/guava#2011-12-18-01-04-57#v11.0#5a6bf80/guava/src/com/google/common/cache/CacheStats.java,F:/corpus/guava/guava#2011-12-18-01-04-57#v11.0#5a6bf80/guava/src/com/google/common/cache/CacheStats.java,0,0,0,0,0,0,0,0,0,0,0,5,0,NO,0,0,0,0,0,0,0,0,0,0,0,0,0,0,0,0,0,0,0,0,0,0,0,0,0,0,0,0,0,0,0,0,0,0,0,0,0,0,0,0,0,0,0,0,0,0,0,0,0,269
guava,v11.0,v12.0,F:/corpus/guava/guava#2011-12-18-01-04-57#v11.0#5a6bf80/guava/src/com/google/common/cache/ForwardingLoadingCache.java,F:/corpus/guava/guava#2011-12-18-01-04-57#v11.0#5a6bf80/guava/src/com/google/common/cache/ForwardingLoadingCache.java,0,0,0,0,2,0,0,0,0,0,0,0,0,NO,0,0,0,0,0,0,0,0,0,0,0,0,0,0,0,0,0,0,0,0,0,0,0,0,0,0,0,0,0,0,0,0,0,0,0,0,0,0,0,0,0,0,0,0,0,0,0,0,0,91
guava,v11.0,v12.0,F:/corpus/guava/guava#2011-12-18-01-04-57#v11.0#5a6bf80/guava/src/com/google/common/cache/RemovalCause.java,F:/corpus/guava/guava#2011-12-18-01-04-57#v11.0#5a6bf80/guava/src/com/google/common/cache/RemovalCause.java,0,0,0,0,0,0,0,0,0,0,0,0,0,NO,0,0,0,0,0,0,0,0,0,0,0,0,0,0,0,0,0,0,0,0,0,0,0,0,0,0,0,0,0,0,0,0,0,0,0,0,0,0,0,0,0,0,0,0,0,0,0,0,0,97
guava,v11.0,v12.0,F:/corpus/guava/guava#2011-12-18-01-04-57#v11.0#5a6bf80/guava/src/com/google/common/cache/RemovalListener.java,F:/corpus/guava/guava#2011-12-18-01-04-57#v11.0#5a6bf80/guava/src/com/google/common/cache/RemovalListener.java,0,0,0,0,1,0,0,0,0,0,0,0,0,NO,0,0,0,0,0,0,0,0,0,0,0,0,0,0,0,0,0,0,0,0,0,0,0,0,0,0,0,0,0,0,0,0,0,0,0,0,0,0,0,0,0,0,0,0,0,0,0,0,0,46
guava,v11.0,v12.0,F:/corpus/guava/guava#2011-12-18-01-04-57#v11.0#5a6bf80/guava/src/com/google/common/cache/RemovalListeners.java,F:/corpus/guava/guava#2011-12-18-01-04-57#v11.0#5a6bf80/guava/src/com/google/common/cache/RemovalListeners.java,0,0,0,0,0,0,0,0,0,0,0,0,0,NO,0,0,0,0,0,0,0,0,0,0,0,0,0,0,0,0,0,0,0,0,0,0,0,0,0,0,0,0,0,0,0,0,0,0,0,0,0,0,0,0,0,0,0,0,0,0,0,0,0,57
guava,v11.0,v12.0,F:/corpus/guava/guava#2011-12-18-01-04-57#v11.0#5a6bf80/guava/src/com/google/common/cache/RemovalNotification.java,F:/corpus/guava/guava#2011-12-18-01-04-57#v11.0#5a6bf80/guava/src/com/google/common/cache/RemovalNotification.java,0,0,0,0,1,0,0,0,0,0,0,1,0,NO,0,0,0,0,0,0,0,0,0,0,0,0,0,0,0,0,0,0,0,0,0,0,0,0,0,0,0,0,0,0,0,0,0,0,0,0,0,0,0,0,0,0,0,0,0,0,0,0,0,100
guava,v11.0,v12.0,F:/corpus/guava/guava#2011-12-18-01-04-57#v11.0#5a6bf80/guava/src/com/google/common/cache/Weigher.java,F:/corpus/guava/guava#2011-12-18-01-04-57#v11.0#5a6bf80/guava/src/com/google/common/cache/Weigher.java,0,0,0,0,1,0,0,0,0,0,0,0,0,NO,0,0,0,0,0,0,0,0,0,0,0,0,0,0,0,0,0,0,0,0,0,0,0,0,0,0,0,0,0,0,0,0,0,0,0,0,0,0,0,0,0,0,0,0,0,0,0,0,0,38
guava,v11.0,v12.0,F:/corpus/guava/guava#2011-12-18-01-04-57#v11.0#5a6bf80/guava/src/com/google/common/collect/AbstractIndexedListIterator.java,F:/corpus/guava/guava#2011-12-18-01-04-57#v11.0#5a6bf80/guava/src/com/google/common/collect/AbstractIndexedListIterator.java,0,0,0,0,1,0,0,0,0,0,0,0,0,NO,0,0,0,0,0,0,0,0,0,0,0,0,0,0,0,0,0,0,0,0,0,0,0,0,0,0,0,0,0,0,0,0,0,0,0,0,0,0,0,0,0,0,0,0,0,0,0,0,0,109
guava,v11.0,v12.0,F:/corpus/guava/guava#2011-12-18-01-04-57#v11.0#5a6bf80/guava/src/com/google/common/collect/AbstractIterator.java,F:/corpus/guava/guava#2011-12-18-01-04-57#v11.0#5a6bf80/guava/src/com/google/common/collect/AbstractIterator.java,0,0,0,0,1,0,0,0,0,0,0,1,0,NO,0,0,0,0,0,0,0,0,0,0,0,0,0,0,0,0,0,0,0,0,0,0,0,0,0,0,0,0,0,0,0,0,0,0,0,0,0,0,0,0,0,0,0,0,0,0,0,0,0,173
guava,v11.0,v12.0,F:/corpus/guava/guava#2011-12-18-01-04-57#v11.0#5a6bf80/guava/src/com/google/common/collect/AbstractListMultimap.java,F:/corpus/guava/guava#2011-12-18-01-04-57#v11.0#5a6bf80/guava/src/com/google/common/collect/AbstractListMultimap.java,0,0,0,0,1,0,0,0,0,0,0,0,0,NO,0,0,0,0,0,0,0,0,0,0,0,0,0,0,0,0,0,0,0,0,0,0,0,0,0,0,0,0,0,0,0,0,0,0,0,0,0,0,0,0,0,0,0,0,0,0,0,0,0,120
guava,v11.0,v12.0,F:/corpus/guava/guava#2011-12-18-01-04-57#v11.0#5a6bf80/guava/src/com/google/common/collect/AbstractMapEntry.java,F:/corpus/guava/guava#2011-12-18-01-04-57#v11.0#5a6bf80/guava/src/com/google/common/collect/AbstractMapEntry.java,0,0,0,0,2,0,0,0,0,0,0,0,0,NO,0,0,0,0,0,0,0,0,0,0,0,0,0,0,0,0,0,0,0,0,0,0,0,0,0,0,0,0,0,0,0,0,0,0,0,0,0,0,0,0,0,0,0,0,0,0,0,0,0,67
guava,v11.0,v12.0,F:/corpus/guava/guava#2011-12-18-01-04-57#v11.0#5a6bf80/guava/src/com/google/common/collect/AbstractMultiset.java,F:/corpus/guava/guava#2011-12-18-01-04-57#v11.0#5a6bf80/guava/src/com/google/common/collect/AbstractMultiset.java,0,0,0,0,3,0,0,0,0,0,0,0,0,NO,0,0,0,0,0,0,0,0,0,0,0,0,0,0,0,0,0,0,0,0,0,0,0,0,0,0,0,0,0,0,0,0,0,0,0,0,0,0,0,0,0,0,0,0,0,0,0,0,0,221
guava,v11.0,v12.0,F:/corpus/guava/guava#2011-12-18-01-04-57#v11.0#5a6bf80/guava/src/com/google/common/collect/AbstractSetMultimap.java,F:/corpus/guava/guava#2011-12-18-01-04-57#v11.0#5a6bf80/guava/src/com/google/common/collect/AbstractSetMultimap.java,0,0,0,0,1,0,0,0,0,0,0,1,0,NO,0,0,0,0,0,0,0,0,0,0,0,0,0,0,0,0,0,0,0,0,0,0,0,0,0,0,0,0,0,0,0,0,0,0,0,0,0,0,0,0,0,0,0,0,0,0,0,0,0,132
guava,v11.0,v12.0,F:/corpus/guava/guava#2011-12-18-01-04-57#v11.0#5a6bf80/guava/src/com/google/common/collect/AbstractSortedSetMultimap.java,F:/corpus/guava/guava#2011-12-18-01-04-57#v11.0#5a6bf80/guava/src/com/google/common/collect/AbstractSortedSetMultimap.java,0,0,0,0,1,0,0,0,0,0,0,0,0,NO,0,0,0,0,0,0,0,0,0,0,0,0,0,0,0,0,0,0,0,0,0,0,0,0,0,0,0,0,0,0,0,0,0,0,0,0,0,0,0,0,0,0,0,0,0,0,0,0,0,124
guava,v11.0,v12.0,F:/corpus/guava/guava#2011-12-18-01-04-57#v11.0#5a6bf80/guava/src/com/google/common/collect/AsynchronousComputationException.java,F:/corpus/guava/guava#2011-12-18-01-04-57#v11.0#5a6bf80/guava/src/com/google/common/collect/AsynchronousComputationException.java,0,0,0,0,0,0,0,0,0,0,0,0,0,NO,0,0,0,0,0,0,0,0,0,0,0,0,0,0,0,0,0,0,0,0,0,0,0,0,0,0,0,0,0,0,0,0,0,0,0,0,0,0,0,0,0,0,0,0,0,0,0,0,0,37
guava,v11.0,v12.0,F:/corpus/guava/guava#2011-12-18-01-04-57#v11.0#5a6bf80/guava/src/com/google/common/collect/BoundType.java,F:/corpus/guava/guava#2011-12-18-01-04-57#v11.0#5a6bf80/guava/src/com/google/common/collect/BoundType.java,0,0,0,0,0,0,0,0,0,0,0,0,0,NO,0,0,0,0,0,0,0,0,0,0,0,0,0,0,0,0,0,0,0,0,0,0,0,0,0,0,0,0,0,0,0,0,0,0,0,0,0,0,0,0,0,0,0,0,0,0,0,0,0,46
guava,v11.0,v12.0,F:/corpus/guava/guava#2011-12-18-01-04-57#v11.0#5a6bf80/guava/src/com/google/common/collect/BstAggregate.java,F:/corpus/guava/guava#2011-12-18-01-04-57#v11.0#5a6bf80/guava/src/com/google/common/collect/BstAggregate.java,0,0,0,0,1,0,0,0,0,0,0,0,0,NO,0,0,0,0,0,0,0,0,0,0,0,0,0,0,0,0,0,0,0,0,0,0,0,0,0,0,0,0,0,0,0,0,0,0,0,0,0,0,0,0,0,0,0,0,0,0,0,0,0,41
guava,v11.0,v12.0,F:/corpus/guava/guava#2011-12-18-01-04-57#v11.0#5a6bf80/guava/src/com/google/common/collect/BstBalancePolicy.java,F:/corpus/guava/guava#2011-12-18-01-04-57#v11.0#5a6bf80/guava/src/com/google/common/collect/BstBalancePolicy.java,0,0,0,0,1,0,0,0,0,0,0,0,0,NO,0,0,0,0,0,0,0,0,0,0,0,0,0,0,0,0,0,0,0,0,0,0,0,0,0,0,0,0,0,0,0,0,0,0,0,0,0,0,0,0,0,0,0,0,0,0,0,0,0,45
guava,v11.0,v12.0,F:/corpus/guava/guava#2011-12-18-01-04-57#v11.0#5a6bf80/guava/src/com/google/common/collect/BstCountBasedBalancePolicies.java,F:/corpus/guava/guava#2011-12-18-01-04-57#v11.0#5a6bf80/guava/src/com/google/common/collect/BstCountBasedBalancePolicies.java,0,0,0,0,0,0,0,0,0,0,0,0,0,NO,0,0,0,0,0,0,0,0,0,0,0,0,0,0,0,0,0,0,0,0,0,0,0,0,0,0,0,0,0,0,0,0,0,0,0,0,0,0,0,0,0,0,0,0,0,0,0,0,0,212
guava,v11.0,v12.0,F:/corpus/guava/guava#2011-12-18-01-04-57#v11.0#5a6bf80/guava/src/com/google/common/collect/BstInOrderPath.java,F:/corpus/guava/guava#2011-12-18-01-04-57#v11.0#5a6bf80/guava/src/com/google/common/collect/BstInOrderPath.java,0,0,0,0,0,0,0,0,0,0,0,0,0,NO,0,0,0,0,0,0,0,0,0,0,0,0,0,0,0,0,0,0,0,0,0,0,0,0,0,0,0,0,0,0,0,0,0,0,0,0,0,0,0,0,0,0,0,0,0,0,0,0,0,126
guava,v11.0,v12.0,F:/corpus/guava/guava#2011-12-18-01-04-57#v11.0#5a6bf80/guava/src/com/google/common/collect/BstModificationResult.java,F:/corpus/guava/guava#2011-12-18-01-04-57#v11.0#5a6bf80/guava/src/com/google/common/collect/BstModificationResult.java,0,0,0,0,0,0,0,0,0,0,0,0,0,NO,0,0,0,0,0,0,0,0,0,0,0,0,0,0,0,0,0,0,0,0,0,0,0,0,0,0,0,0,0,0,0,0,0,0,0,0,0,0,0,0,0,0,0,0,0,0,0,0,0,74
guava,v11.0,v12.0,F:/corpus/guava/guava#2011-12-18-01-04-57#v11.0#5a6bf80/guava/src/com/google/common/collect/BstModifier.java,F:/corpus/guava/guava#2011-12-18-01-04-57#v11.0#5a6bf80/guava/src/com/google/common/collect/BstModifier.java,0,0,0,0,1,0,0,0,0,0,0,0,0,NO,0,0,0,0,0,0,0,0,0,0,0,0,0,0,0,0,0,0,0,0,0,0,0,0,0,0,0,0,0,0,0,0,0,0,0,0,0,0,0,0,0,0,0,0,0,0,0,0,0,49
guava,v11.0,v12.0,F:/corpus/guava/guava#2011-12-18-01-04-57#v11.0#5a6bf80/guava/src/com/google/common/collect/BstMutationRule.java,F:/corpus/guava/guava#2011-12-18-01-04-57#v11.0#5a6bf80/guava/src/com/google/common/collect/BstMutationRule.java,0,0,0,0,0,0,0,0,0,0,0,0,0,NO,0,0,0,0,0,0,0,0,0,0,0,0,0,0,0,0,0,0,0,0,0,0,0,0,0,0,0,0,0,0,0,0,0,0,0,0,0,0,0,0,0,0,0,0,0,0,0,0,0,77
guava,v11.0,v12.0,F:/corpus/guava/guava#2011-12-18-01-04-57#v11.0#5a6bf80/guava/src/com/google/common/collect/BstNode.java,F:/corpus/guava/guava#2011-12-18-01-04-57#v11.0#5a6bf80/guava/src/com/google/common/collect/BstNode.java,0,0,0,0,0,0,0,0,0,0,0,3,0,NO,0,0,0,0,0,0,0,0,0,0,0,0,0,0,0,0,0,0,0,0,0,0,0,0,0,0,0,0,0,0,0,0,0,0,0,0,0,0,0,0,0,0,0,0,0,0,0,0,0,125
guava,v11.0,v12.0,F:/corpus/guava/guava#2011-12-18-01-04-57#v11.0#5a6bf80/guava/src/com/google/common/collect/BstNodeFactory.java,F:/corpus/guava/guava#2011-12-18-01-04-57#v11.0#5a6bf80/guava/src/com/google/common/collect/BstNodeFactory.java,0,0,0,0,1,0,0,0,0,0,0,0,0,NO,0,0,0,0,0,0,0,0,0,0,0,0,0,0,0,0,0,0,0,0,0,0,0,0,0,0,0,0,0,0,0,0,0,0,0,0,0,0,0,0,0,0,0,0,0,0,0,0,0,46
guava,v11.0,v12.0,F:/corpus/guava/guava#2011-12-18-01-04-57#v11.0#5a6bf80/guava/src/com/google/common/collect/BstPath.java,F:/corpus/guava/guava#2011-12-18-01-04-57#v11.0#5a6bf80/guava/src/com/google/common/collect/BstPath.java,0,0,0,0,1,0,0,0,0,0,0,1,0,NO,0,0,0,0,0,0,0,0,0,0,0,0,0,0,0,0,0,0,0,0,0,0,0,0,0,0,0,0,0,0,0,0,0,0,0,0,0,0,0,0,0,0,0,0,0,0,0,0,0,74
guava,v11.0,v12.0,F:/corpus/guava/guava#2011-12-18-01-04-57#v11.0#5a6bf80/guava/src/com/google/common/collect/BstPathFactory.java,F:/corpus/guava/guava#2011-12-18-01-04-57#v11.0#5a6bf80/guava/src/com/google/common/collect/BstPathFactory.java,0,0,0,0,1,0,0,0,0,0,0,0,0,NO,0,0,0,0,0,0,0,0,0,0,0,0,0,0,0,0,0,0,0,0,0,0,0,0,0,0,0,0,0,0,0,0,0,0,0,0,0,0,0,0,0,0,0,0,0,0,0,0,0,38
guava,v11.0,v12.0,F:/corpus/guava/guava#2011-12-18-01-04-57#v11.0#5a6bf80/guava/src/com/google/common/collect/BstRangeOps.java,F:/corpus/guava/guava#2011-12-18-01-04-57#v11.0#5a6bf80/guava/src/com/google/common/collect/BstRangeOps.java,0,0,0,0,0,0,0,0,0,0,0,0,0,NO,0,0,0,0,0,0,0,0,0,0,0,0,0,0,0,0,0,0,0,0,0,0,0,0,0,0,0,0,0,0,0,0,0,0,0,0,0,0,0,0,0,0,0,0,0,0,0,0,0,175
guava,v11.0,v12.0,F:/corpus/guava/guava#2011-12-18-01-04-57#v11.0#5a6bf80/guava/src/com/google/common/collect/BstSide.java,F:/corpus/guava/guava#2011-12-18-01-04-57#v11.0#5a6bf80/guava/src/com/google/common/collect/BstSide.java,0,0,0,0,0,0,0,0,0,0,0,0,0,NO,0,0,0,0,0,0,0,0,0,0,0,0,0,0,0,0,0,0,0,0,0,0,0,0,0,0,0,0,0,0,0,0,0,0,0,0,0,0,0,0,0,0,0,0,0,0,0,0,0,40
guava,v11.0,v12.0,F:/corpus/guava/guava#2011-12-18-01-04-57#v11.0#5a6bf80/guava/src/com/google/common/collect/ByFunctionOrdering.java,F:/corpus/guava/guava#2011-12-18-01-04-57#v11.0#5a6bf80/guava/src/com/google/common/collect/ByFunctionOrdering.java,0,0,0,0,0,0,0,0,0,0,0,0,0,NO,0,0,0,0,0,0,0,0,0,0,0,0,0,0,0,0,0,0,0,0,0,0,0,0,0,0,0,0,0,0,0,0,0,0,0,0,0,0,0,0,0,0,0,0,0,0,0,0,0,70
guava,v11.0,v12.0,F:/corpus/guava/guava#2011-12-18-01-04-57#v11.0#5a6bf80/guava/src/com/google/common/collect/ComparatorOrdering.java,F:/corpus/guava/guava#2011-12-18-01-04-57#v11.0#5a6bf80/guava/src/com/google/common/collect/ComparatorOrdering.java,0,0,0,0,0,0,0,0,0,0,0,0,0,NO,0,0,0,0,0,0,0,0,0,0,0,0,0,0,0,0,0,0,0,0,0,0,0,0,0,0,0,0,0,0,0,0,0,0,0,0,0,0,0,0,0,0,0,0,0,0,0,0,0,75
guava,v11.0,v12.0,F:/corpus/guava/guava#2011-12-18-01-04-57#v11.0#5a6bf80/guava/src/com/google/common/collect/CompoundOrdering.java,F:/corpus/guava/guava#2011-12-18-01-04-57#v11.0#5a6bf80/guava/src/com/google/common/collect/CompoundOrdering.java,0,0,0,0,0,0,0,0,0,0,0,0,0,NO,0,0,0,0,0,0,0,0,0,0,0,0,0,0,0,0,0,0,0,0,0,0,0,0,0,0,0,0,0,0,0,0,0,0,0,0,0,0,0,0,0,0,0,0,0,0,0,0,0,76
guava,v11.0,v12.0,F:/corpus/guava/guava#2011-12-18-01-04-57#v11.0#5a6bf80/guava/src/com/google/common/collect/ComputationException.java,F:/corpus/guava/guava#2011-12-18-01-04-57#v11.0#5a6bf80/guava/src/com/google/common/collect/ComputationException.java,0,0,0,0,0,0,0,0,0,0,0,0,0,NO,0,0,0,0,0,0,0,0,0,0,0,0,0,0,0,0,0,0,0,0,0,0,0,0,0,0,0,0,0,0,0,0,0,0,0,0,0,0,0,0,0,0,0,0,0,0,0,0,0,36
guava,v11.0,v12.0,F:/corpus/guava/guava#2011-12-18-01-04-57#v11.0#5a6bf80/guava/src/com/google/common/collect/Constraint.java,F:/corpus/guava/guava#2011-12-18-01-04-57#v11.0#5a6bf80/guava/src/com/google/common/collect/Constraint.java,0,0,0,0,1,0,0,0,0,0,0,0,0,NO,0,0,0,0,0,0,0,0,0,0,0,0,0,0,0,0,0,0,0,0,0,0,0,0,0,0,0,0,0,0,0,0,0,0,0,0,0,0,0,0,0,0,0,0,0,0,0,0,0,67
guava,v11.0,v12.0,F:/corpus/guava/guava#2011-12-18-01-04-57#v11.0#5a6bf80/guava/src/com/google/common/collect/Constraints.java,F:/corpus/guava/guava#2011-12-18-01-04-57#v11.0#5a6bf80/guava/src/com/google/common/collect/Constraints.java,0,0,0,0,0,0,0,0,0,0,0,0,0,NO,0,0,0,0,0,0,0,0,0,0,0,0,0,0,0,0,0,0,0,0,0,0,0,0,0,0,0,0,0,0,0,0,0,0,0,0,0,0,0,0,0,0,0,0,0,0,0,0,0,382
guava,v11.0,v12.0,F:/corpus/guava/guava#2011-12-18-01-04-57#v11.0#5a6bf80/guava/src/com/google/common/collect/Cut.java,F:/corpus/guava/guava#2011-12-18-01-04-57#v11.0#5a6bf80/guava/src/com/google/common/collect/Cut.java,0,0,0,0,14,0,0,0,0,0,0,0,0,NO,0,0,0,0,0,0,0,0,0,0,0,0,0,0,0,0,0,0,0,0,0,0,0,0,0,0,0,0,0,0,0,0,0,0,0,0,0,0,0,0,0,0,0,0,0,0,0,0,0,347
guava,v11.0,v12.0,F:/corpus/guava/guava#2011-12-18-01-04-57#v11.0#5a6bf80/guava/src/com/google/common/collect/EmptyImmutableList.java,F:/corpus/guava/guava#2011-12-18-01-04-57#v11.0#5a6bf80/guava/src/com/google/common/collect/EmptyImmutableList.java,0,0,0,0,3,0,0,0,0,0,0,0,0,NO,0,0,0,0,0,0,0,0,0,0,0,0,0,0,0,0,0,0,0,0,0,0,0,0,0,0,0,0,0,0,0,0,0,0,0,0,0,0,0,0,0,0,0,0,0,0,0,0,0,161
guava,v11.0,v12.0,F:/corpus/guava/guava#2011-12-18-01-04-57#v11.0#5a6bf80/guava/src/com/google/common/collect/EmptyImmutableListMultimap.java,F:/corpus/guava/guava#2011-12-18-01-04-57#v11.0#5a6bf80/guava/src/com/google/common/collect/EmptyImmutableListMultimap.java,0,0,0,0,0,0,0,0,0,0,0,0,0,NO,0,0,0,0,0,0,0,0,0,0,0,0,0,0,0,0,0,0,0,0,0,0,0,0,0,0,0,0,0,0,0,0,0,0,0,0,0,0,0,0,0,0,0,0,0,0,0,0,0,40
guava,v11.0,v12.0,F:/corpus/guava/guava#2011-12-18-01-04-57#v11.0#5a6bf80/guava/src/com/google/common/collect/EmptyImmutableSet.java,F:/corpus/guava/guava#2011-12-18-01-04-57#v11.0#5a6bf80/guava/src/com/google/common/collect/EmptyImmutableSet.java,0,0,0,0,1,0,0,0,0,0,0,0,0,NO,0,0,0,0,0,0,0,0,0,0,0,0,0,0,0,0,0,0,0,0,0,0,0,0,0,0,0,0,0,0,0,0,0,0,0,0,0,0,0,0,0,0,0,0,0,0,0,0,0,100
guava,v11.0,v12.0,F:/corpus/guava/guava#2011-12-18-01-04-57#v11.0#5a6bf80/guava/src/com/google/common/collect/EmptyImmutableSetMultimap.java,F:/corpus/guava/guava#2011-12-18-01-04-57#v11.0#5a6bf80/guava/src/com/google/common/collect/EmptyImmutableSetMultimap.java,0,0,0,0,0,0,0,0,0,0,0,0,0,NO,0,0,0,0,0,0,0,0,0,0,0,0,0,0,0,0,0,0,0,0,0,0,0,0,0,0,0,0,0,0,0,0,0,0,0,0,0,0,0,0,0,0,0,0,0,0,0,0,0,40
guava,v11.0,v12.0,F:/corpus/guava/guava#2011-12-18-01-04-57#v11.0#5a6bf80/guava/src/com/google/common/collect/EmptyImmutableTable.java,F:/corpus/guava/guava#2011-12-18-01-04-57#v11.0#5a6bf80/guava/src/com/google/common/collect/EmptyImmutableTable.java,0,0,0,0,5,0,0,0,0,0,0,0,0,NO,0,0,0,0,0,0,0,0,0,0,0,0,0,0,0,0,0,0,0,0,0,0,0,0,0,0,0,0,0,0,0,0,0,0,0,0,0,0,0,0,0,0,0,0,0,0,0,0,0,128
guava,v11.0,v12.0,F:/corpus/guava/guava#2011-12-18-01-04-57#v11.0#5a6bf80/guava/src/com/google/common/collect/ExplicitOrdering.java,F:/corpus/guava/guava#2011-12-18-01-04-57#v11.0#5a6bf80/guava/src/com/google/common/collect/ExplicitOrdering.java,0,0,0,0,0,0,0,0,0,0,0,0,0,NO,0,0,0,0,0,0,0,0,0,0,0,0,0,0,0,0,0,0,0,0,0,0,0,0,0,0,0,0,0,0,0,0,0,0,0,0,0,0,0,0,0,0,0,0,0,0,0,0,0,78
guava,v11.0,v12.0,F:/corpus/guava/guava#2011-12-18-01-04-57#v11.0#5a6bf80/guava/src/com/google/common/collect/ForwardingCollection.java,F:/corpus/guava/guava#2011-12-18-01-04-57#v11.0#5a6bf80/guava/src/com/google/common/collect/ForwardingCollection.java,0,0,0,0,1,0,0,0,0,0,0,10,0,NO,0,0,0,0,0,0,0,0,0,0,0,0,0,0,0,0,0,0,0,0,0,0,0,0,0,0,0,0,0,0,0,0,0,0,0,0,0,0,0,0,0,0,0,0,0,0,0,0,0,265
guava,v11.0,v12.0,F:/corpus/guava/guava#2011-12-18-01-04-57#v11.0#5a6bf80/guava/src/com/google/common/collect/ForwardingConcurrentMap.java,F:/corpus/guava/guava#2011-12-18-01-04-57#v11.0#5a6bf80/guava/src/com/google/common/collect/ForwardingConcurrentMap.java,0,0,0,0,1,0,0,0,0,0,0,0,0,NO,0,0,0,0,0,0,0,0,0,0,0,0,0,0,0,0,0,0,0,0,0,0,0,0,0,0,0,0,0,0,0,0,0,0,0,0,0,0,0,0,0,0,0,0,0,0,0,0,0,61
guava,v11.0,v12.0,F:/corpus/guava/guava#2011-12-18-01-04-57#v11.0#5a6bf80/guava/src/com/google/common/collect/ForwardingIterator.java,F:/corpus/guava/guava#2011-12-18-01-04-57#v11.0#5a6bf80/guava/src/com/google/common/collect/ForwardingIterator.java,0,0,0,0,1,0,0,0,0,0,0,0,0,NO,0,0,0,0,0,0,0,0,0,0,0,0,0,0,0,0,0,0,0,0,0,0,0,0,0,0,0,0,0,0,0,0,0,0,0,0,0,0,0,0,0,0,0,0,0,0,0,0,0,55
guava,v11.0,v12.0,F:/corpus/guava/guava#2011-12-18-01-04-57#v11.0#5a6bf80/guava/src/com/google/common/collect/ForwardingListIterator.java,F:/corpus/guava/guava#2011-12-18-01-04-57#v11.0#5a6bf80/guava/src/com/google/common/collect/ForwardingListIterator.java,0,0,0,0,1,0,0,0,0,0,0,0,0,NO,0,0,0,0,0,0,0,0,0,0,0,0,0,0,0,0,0,0,0,0,0,0,0,0,0,0,0,0,0,0,0,0,0,0,0,0,0,0,0,0,0,0,0,0,0,0,0,0,0,70
guava,v11.0,v12.0,F:/corpus/guava/guava#2011-12-18-01-04-57#v11.0#5a6bf80/guava/src/com/google/common/collect/ForwardingListMultimap.java,F:/corpus/guava/guava#2011-12-18-01-04-57#v11.0#5a6bf80/guava/src/com/google/common/collect/ForwardingListMultimap.java,0,0,0,0,1,0,0,0,0,0,0,0,0,NO,0,0,0,0,0,0,0,0,0,0,0,0,0,0,0,0,0,0,0,0,0,0,0,0,0,0,0,0,0,0,0,0,0,0,0,0,0,0,0,0,0,0,0,0,0,0,0,0,0,54
guava,v11.0,v12.0,F:/corpus/guava/guava#2011-12-18-01-04-57#v11.0#5a6bf80/guava/src/com/google/common/collect/ForwardingMapEntry.java,F:/corpus/guava/guava#2011-12-18-01-04-57#v11.0#5a6bf80/guava/src/com/google/common/collect/ForwardingMapEntry.java,0,0,0,0,1,0,0,0,0,0,0,0,0,NO,0,0,0,0,0,0,0,0,0,0,0,0,0,0,0,0,0,0,0,0,0,0,0,0,0,0,0,0,0,0,0,0,0,0,0,0,0,0,0,0,0,0,0,0,0,0,0,0,0,128
guava,v11.0,v12.0,F:/corpus/guava/guava#2011-12-18-01-04-57#v11.0#5a6bf80/guava/src/com/google/common/collect/ForwardingMultimap.java,F:/corpus/guava/guava#2011-12-18-01-04-57#v11.0#5a6bf80/guava/src/com/google/common/collect/ForwardingMultimap.java,0,0,0,0,1,0,0,0,0,0,0,0,0,NO,0,0,0,0,0,0,0,0,0,0,0,0,0,0,0,0,0,0,0,0,0,0,0,0,0,0,0,0,0,0,0,0,0,0,0,0,0,0,0,0,0,0,0,0,0,0,0,0,0,143
guava,v11.0,v12.0,F:/corpus/guava/guava#2011-12-18-01-04-57#v11.0#5a6bf80/guava/src/com/google/common/collect/ForwardingObject.java,F:/corpus/guava/guava#2011-12-18-01-04-57#v11.0#5a6bf80/guava/src/com/google/common/collect/ForwardingObject.java,0,0,0,0,0,0,0,0,0,0,0,0,0,NO,0,0,0,0,0,0,0,0,0,0,0,0,0,0,0,0,0,0,0,0,0,0,0,0,0,0,0,0,0,0,0,0,0,0,0,0,0,0,0,0,0,0,0,0,0,0,0,0,0,76
guava,v11.0,v12.0,F:/corpus/guava/guava#2011-12-18-01-04-57#v11.0#5a6bf80/guava/src/com/google/common/collect/ForwardingQueue.java,F:/corpus/guava/guava#2011-12-18-01-04-57#v11.0#5a6bf80/guava/src/com/google/common/collect/ForwardingQueue.java,0,0,0,0,1,0,0,0,0,0,0,0,0,NO,0,0,0,0,0,0,0,0,0,0,0,0,0,0,0,0,0,0,0,0,0,0,0,0,0,0,0,0,0,0,0,0,0,0,0,0,0,0,0,0,0,0,0,0,0,0,0,0,0,123
guava,v11.0,v12.0,F:/corpus/guava/guava#2011-12-18-01-04-57#v11.0#5a6bf80/guava/src/com/google/common/collect/ForwardingSetMultimap.java,F:/corpus/guava/guava#2011-12-18-01-04-57#v11.0#5a6bf80/guava/src/com/google/common/collect/ForwardingSetMultimap.java,0,0,0,0,1,0,0,0,0,0,0,0,0,NO,0,0,0,0,0,0,0,0,0,0,0,0,0,0,0,0,0,0,0,0,0,0,0,0,0,0,0,0,0,0,0,0,0,0,0,0,0,0,0,0,0,0,0,0,0,0,0,0,0,56
guava,v11.0,v12.0,F:/corpus/guava/guava#2011-12-18-01-04-57#v11.0#5a6bf80/guava/src/com/google/common/collect/ForwardingSortedMap.java,F:/corpus/guava/guava#2011-12-18-01-04-57#v11.0#5a6bf80/guava/src/com/google/common/collect/ForwardingSortedMap.java,0,0,0,0,1,0,0,0,0,0,0,0,0,NO,0,0,0,0,0,0,0,0,0,0,0,0,0,0,0,0,0,0,0,0,0,0,0,0,0,0,0,0,0,0,0,0,0,0,0,0,0,0,0,0,0,0,0,0,0,0,0,0,0,171
guava,v11.0,v12.0,F:/corpus/guava/guava#2011-12-18-01-04-57#v11.0#5a6bf80/guava/src/com/google/common/collect/ForwardingSortedSet.java,F:/corpus/guava/guava#2011-12-18-01-04-57#v11.0#5a6bf80/guava/src/com/google/common/collect/ForwardingSortedSet.java,0,0,0,0,1,0,0,0,0,0,0,0,0,NO,0,0,0,0,0,0,0,0,0,0,0,0,0,0,0,0,0,0,0,0,0,0,0,0,0,0,0,0,0,0,0,0,0,0,0,0,0,0,0,0,0,0,0,0,0,0,0,0,0,166
guava,v11.0,v12.0,F:/corpus/guava/guava#2011-12-18-01-04-57#v11.0#5a6bf80/guava/src/com/google/common/collect/ForwardingSortedSetMultimap.java,F:/corpus/guava/guava#2011-12-18-01-04-57#v11.0#5a6bf80/guava/src/com/google/common/collect/ForwardingSortedSetMultimap.java,0,0,0,0,1,0,0,0,0,0,0,0,0,NO,0,0,0,0,0,0,0,0,0,0,0,0,0,0,0,0,0,0,0,0,0,0,0,0,0,0,0,0,0,0,0,0,0,0,0,0,0,0,0,0,0,0,0,0,0,0,0,0,0,60
guava,v11.0,v12.0,F:/corpus/guava/guava#2011-12-18-01-04-57#v11.0#5a6bf80/guava/src/com/google/common/collect/GenericMapMaker.java,F:/corpus/guava/guava#2011-12-18-01-04-57#v11.0#5a6bf80/guava/src/com/google/common/collect/GenericMapMaker.java,0,0,0,0,1,0,0,0,0,0,0,0,0,NO,0,0,0,0,0,0,0,0,0,0,0,0,0,0,0,0,0,0,0,0,0,0,0,0,0,0,0,0,0,0,0,0,0,0,0,0,0,0,0,0,0,0,0,0,0,0,0,0,0,166
guava,v11.0,v12.0,F:/corpus/guava/guava#2011-12-18-01-04-57#v11.0#5a6bf80/guava/src/com/google/common/collect/GwtTransient.java,F:/corpus/guava/guava#2011-12-18-01-04-57#v11.0#5a6bf80/guava/src/com/google/common/collect/GwtTransient.java,0,0,0,0,0,0,0,0,0,0,0,0,0,NO,0,0,0,0,0,0,0,0,0,0,0,0,0,0,0,0,0,0,0,0,0,0,0,0,0,0,0,0,0,0,0,0,0,0,0,0,0,0,0,0,0,0,0,0,0,0,0,0,0,38
guava,v11.0,v12.0,F:/corpus/guava/guava#2011-12-18-01-04-57#v11.0#5a6bf80/guava/src/com/google/common/collect/Hashing.java,F:/corpus/guava/guava#2011-12-18-01-04-57#v11.0#5a6bf80/guava/src/com/google/common/collect/Hashing.java,0,0,0,0,0,0,0,0,0,0,0,0,0,NO,0,0,0,0,0,0,0,0,0,0,0,0,0,0,0,0,0,0,0,0,0,0,0,0,0,0,0,0,0,0,0,0,0,0,0,0,0,0,0,0,0,0,0,0,0,0,0,0,0,43
guava,v11.0,v12.0,F:/corpus/guava/guava#2011-12-18-01-04-57#v11.0#5a6bf80/guava/src/com/google/common/collect/HashMultiset.java,F:/corpus/guava/guava#2011-12-18-01-04-57#v11.0#5a6bf80/guava/src/com/google/common/collect/HashMultiset.java,0,0,0,0,0,0,0,0,0,0,0,2,0,NO,0,0,0,0,0,0,0,0,0,0,0,0,0,0,0,0,0,0,0,0,0,0,0,0,0,0,0,0,0,0,0,0,0,0,0,0,0,0,0,0,0,0,0,0,0,0,0,0,0,101
guava,v11.0,v12.0,F:/corpus/guava/guava#2011-12-18-01-04-57#v11.0#5a6bf80/guava/src/com/google/common/collect/ImmutableAsList.java,F:/corpus/guava/guava#2011-12-18-01-04-57#v11.0#5a6bf80/guava/src/com/google/common/collect/ImmutableAsList.java,0,0,0,0,1,0,0,0,0,0,0,0,0,NO,0,0,0,0,0,0,0,0,0,0,0,0,0,0,0,0,0,0,0,0,0,0,0,0,0,0,0,0,0,0,0,0,0,0,0,0,0,0,0,0,0,0,0,0,0,0,0,0,0,69
guava,v11.0,v12.0,F:/corpus/guava/guava#2011-12-18-01-04-57#v11.0#5a6bf80/guava/src/com/google/common/collect/ImmutableClassToInstanceMap.java,F:/corpus/guava/guava#2011-12-18-01-04-57#v11.0#5a6bf80/guava/src/com/google/common/collect/ImmutableClassToInstanceMap.java,0,0,0,0,1,0,0,0,0,0,0,0,0,NO,0,0,0,0,0,0,0,0,0,0,0,0,0,0,0,0,0,0,0,0,0,0,0,0,0,0,0,0,0,0,0,0,0,0,0,0,0,0,0,0,0,0,0,0,0,0,0,0,0,154
guava,v11.0,v12.0,F:/corpus/guava/guava#2011-12-18-01-04-57#v11.0#5a6bf80/guava/src/com/google/common/collect/ImmutableCollection.java,F:/corpus/guava/guava#2011-12-18-01-04-57#v11.0#5a6bf80/guava/src/com/google/common/collect/ImmutableCollection.java,0,0,0,0,8,0,0,0,0,0,0,5,0,NO,0,0,0,0,0,0,0,0,0,0,0,0,0,0,0,0,0,0,0,0,0,0,0,0,0,0,0,0,0,0,0,0,0,0,0,0,0,0,0,0,0,0,0,0,0,0,0,0,0,357
guava,v11.0,v12.0,F:/corpus/guava/guava#2011-12-18-01-04-57#v11.0#5a6bf80/guava/src/com/google/common/collect/ImmutableEntry.java,F:/corpus/guava/guava#2011-12-18-01-04-57#v11.0#5a6bf80/guava/src/com/google/common/collect/ImmutableEntry.java,0,0,0,0,1,0,0,0,0,0,0,0,0,NO,0,0,0,0,0,0,0,0,0,0,0,0,0,0,0,0,0,0,0,0,0,0,0,0,0,0,0,0,0,0,0,0,0,0,0,0,0,0,0,0,0,0,0,0,0,0,0,0,0,52
guava,v11.0,v12.0,F:/corpus/guava/guava#2011-12-18-01-04-57#v11.0#5a6bf80/guava/src/com/google/common/collect/ImmutableEnumSet.java,F:/corpus/guava/guava#2011-12-18-01-04-57#v11.0#5a6bf80/guava/src/com/google/common/collect/ImmutableEnumSet.java,0,0,0,0,0,0,0,0,0,0,0,0,0,NO,0,0,0,0,0,0,0,0,0,0,0,0,0,0,0,0,0,0,0,0,0,0,0,0,0,0,0,0,0,0,0,0,0,0,0,0,0,0,0,0,0,0,0,0,0,0,0,0,0,116
guava,v11.0,v12.0,F:/corpus/guava/guava#2011-12-18-01-04-57#v11.0#5a6bf80/guava/src/com/google/common/collect/ImmutableSortedMapFauxverideShim.java,F:/corpus/guava/guava#2011-12-18-01-04-57#v11.0#5a6bf80/guava/src/com/google/common/collect/ImmutableSortedMapFauxverideShim.java,0,0,0,0,6,0,0,0,0,0,2,0,0,NO,0,0,0,0,0,0,0,0,0,0,0,0,0,0,0,0,0,0,0,0,0,0,0,0,0,0,0,0,0,0,0,0,0,0,0,0,0,0,0,0,0,0,0,0,0,0,0,0,0,117
guava,v11.0,v12.0,F:/corpus/guava/guava#2011-12-18-01-04-57#v11.0#5a6bf80/guava/src/com/google/common/collect/ImmutableSortedMultisetFauxverideShim.java,F:/corpus/guava/guava#2011-12-18-01-04-57#v11.0#5a6bf80/guava/src/com/google/common/collect/ImmutableSortedMultisetFauxverideShim.java,0,0,0,0,8,0,0,0,0,0,0,0,0,NO,0,0,0,0,0,0,0,0,0,0,0,0,0,0,0,0,0,0,0,0,0,0,0,0,0,0,0,0,0,0,0,0,0,0,0,0,0,0,0,0,0,0,0,0,0,0,0,0,0,170
guava,v11.0,v12.0,F:/corpus/guava/guava#2011-12-18-01-04-57#v11.0#5a6bf80/guava/src/com/google/common/collect/ImmutableSortedSetFauxverideShim.java,F:/corpus/guava/guava#2011-12-18-01-04-57#v11.0#5a6bf80/guava/src/com/google/common/collect/ImmutableSortedSetFauxverideShim.java,0,0,0,0,8,0,0,0,0,0,0,0,0,NO,0,0,0,0,0,0,0,0,0,0,0,0,0,0,0,0,0,0,0,0,0,0,0,0,0,0,0,0,0,0,0,0,0,0,0,0,0,0,0,0,0,0,0,0,0,0,0,0,0,167
guava,v11.0,v12.0,F:/corpus/guava/guava#2011-12-18-01-04-57#v11.0#5a6bf80/guava/src/com/google/common/collect/Interner.java,F:/corpus/guava/guava#2011-12-18-01-04-57#v11.0#5a6bf80/guava/src/com/google/common/collect/Interner.java,0,0,0,0,1,0,0,0,0,0,0,0,0,NO,0,0,0,0,0,0,0,0,0,0,0,0,0,0,0,0,0,0,0,0,0,0,0,0,0,0,0,0,0,0,0,0,0,0,0,0,0,0,0,0,0,0,0,0,0,0,0,0,0,44
guava,v11.0,v12.0,F:/corpus/guava/guava#2011-12-18-01-04-57#v11.0#5a6bf80/guava/src/com/google/common/collect/LexicographicalOrdering.java,F:/corpus/guava/guava#2011-12-18-01-04-57#v11.0#5a6bf80/guava/src/com/google/common/collect/LexicographicalOrdering.java,0,0,0,0,0,0,0,0,0,0,0,0,0,NO,0,0,0,0,0,0,0,0,0,0,0,0,0,0,0,0,0,0,0,0,0,0,0,0,0,0,0,0,0,0,0,0,0,0,0,0,0,0,0,0,0,0,0,0,0,0,0,0,0,78
guava,v11.0,v12.0,F:/corpus/guava/guava#2011-12-18-01-04-57#v11.0#5a6bf80/guava/src/com/google/common/collect/MapConstraint.java,F:/corpus/guava/guava#2011-12-18-01-04-57#v11.0#5a6bf80/guava/src/com/google/common/collect/MapConstraint.java,0,0,0,0,1,0,0,0,0,0,0,0,0,NO,0,0,0,0,0,0,0,0,0,0,0,0,0,0,0,0,0,0,0,0,0,0,0,0,0,0,0,0,0,0,0,0,0,0,0,0,0,0,0,0,0,0,0,0,0,0,0,0,0,65
guava,v11.0,v12.0,F:/corpus/guava/guava#2011-12-18-01-04-57#v11.0#5a6bf80/guava/src/com/google/common/collect/MapConstraints.java,F:/corpus/guava/guava#2011-12-18-01-04-57#v11.0#5a6bf80/guava/src/com/google/common/collect/MapConstraints.java,0,0,0,0,0,0,0,0,0,0,0,0,0,NO,0,0,0,0,0,0,0,0,0,0,0,0,0,0,0,0,0,0,0,0,0,0,0,0,0,0,0,0,0,0,0,0,0,0,0,0,0,0,0,0,0,0,0,0,0,0,0,0,0,783
guava,v11.0,v12.0,F:/corpus/guava/guava#2011-12-18-01-04-57#v11.0#5a6bf80/guava/src/com/google/common/collect/MapDifference.java,F:/corpus/guava/guava#2011-12-18-01-04-57#v11.0#5a6bf80/guava/src/com/google/common/collect/MapDifference.java,0,0,0,0,2,0,0,0,0,0,0,0,0,NO,0,0,0,0,0,0,0,0,0,0,0,0,0,0,0,0,0,0,0,0,0,0,0,0,0,0,0,0,0,0,0,0,0,0,0,0,0,0,0,0,0,0,0,0,0,0,0,0,0,114
guava,v11.0,v12.0,F:/corpus/guava/guava#2011-12-18-01-04-57#v11.0#5a6bf80/guava/src/com/google/common/collect/NaturalOrdering.java,F:/corpus/guava/guava#2011-12-18-01-04-57#v11.0#5a6bf80/guava/src/com/google/common/collect/NaturalOrdering.java,0,0,0,0,0,0,0,0,0,0,0,0,0,NO,0,0,0,0,0,0,0,0,0,0,0,0,0,0,0,0,0,0,0,0,0,0,0,0,0,0,0,0,0,0,0,0,0,0,0,0,0,0,0,0,0,0,0,0,0,0,0,0,0,74
guava,v11.0,v12.0,F:/corpus/guava/guava#2011-12-18-01-04-57#v11.0#5a6bf80/guava/src/com/google/common/collect/NullsFirstOrdering.java,F:/corpus/guava/guava#2011-12-18-01-04-57#v11.0#5a6bf80/guava/src/com/google/common/collect/NullsFirstOrdering.java,0,0,0,0,0,0,0,0,0,0,0,0,0,NO,0,0,0,0,0,0,0,0,0,0,0,0,0,0,0,0,0,0,0,0,0,0,0,0,0,0,0,0,0,0,0,0,0,0,0,0,0,0,0,0,0,0,0,0,0,0,0,0,0,81
guava,v11.0,v12.0,F:/corpus/guava/guava#2011-12-18-01-04-57#v11.0#5a6bf80/guava/src/com/google/common/collect/NullsLastOrdering.java,F:/corpus/guava/guava#2011-12-18-01-04-57#v11.0#5a6bf80/guava/src/com/google/common/collect/NullsLastOrdering.java,0,0,0,0,0,0,0,0,0,0,0,0,0,NO,0,0,0,0,0,0,0,0,0,0,0,0,0,0,0,0,0,0,0,0,0,0,0,0,0,0,0,0,0,0,0,0,0,0,0,0,0,0,0,0,0,0,0,0,0,0,0,0,0,81
guava,v11.0,v12.0,F:/corpus/guava/guava#2011-12-18-01-04-57#v11.0#5a6bf80/guava/src/com/google/common/collect/RegularImmutableBiMap.java,F:/corpus/guava/guava#2011-12-18-01-04-57#v11.0#5a6bf80/guava/src/com/google/common/collect/RegularImmutableBiMap.java,0,0,0,0,0,0,0,0,0,0,0,0,0,NO,0,0,0,0,0,0,0,0,0,0,0,0,0,0,0,0,0,0,0,0,0,0,0,0,0,0,0,0,0,0,0,0,0,0,0,0,0,0,0,0,0,0,0,0,0,0,0,0,0,60
guava,v11.0,v12.0,F:/corpus/guava/guava#2011-12-18-01-04-57#v11.0#5a6bf80/guava/src/com/google/common/collect/RegularImmutableSet.java,F:/corpus/guava/guava#2011-12-18-01-04-57#v11.0#5a6bf80/guava/src/com/google/common/collect/RegularImmutableSet.java,0,0,0,0,0,0,0,0,0,0,0,0,0,NO,0,0,0,0,0,0,0,0,0,0,0,0,0,0,0,0,0,0,0,0,0,0,0,0,0,0,0,0,0,0,0,0,0,0,0,0,0,0,0,0,0,0,0,0,0,0,0,0,0,67
guava,v11.0,v12.0,F:/corpus/guava/guava#2011-12-18-01-04-57#v11.0#5a6bf80/guava/src/com/google/common/collect/RegularImmutableTable.java,F:/corpus/guava/guava#2011-12-18-01-04-57#v11.0#5a6bf80/guava/src/com/google/common/collect/RegularImmutableTable.java,0,0,0,0,1,0,0,0,0,0,0,0,0,NO,0,0,0,0,0,0,0,0,0,0,0,0,0,0,0,0,0,0,0,0,0,0,0,0,0,0,0,0,0,0,0,0,0,0,0,0,0,0,0,0,0,0,0,0,0,0,0,0,0,433
guava,v11.0,v12.0,F:/corpus/guava/guava#2011-12-18-01-04-57#v11.0#5a6bf80/guava/src/com/google/common/collect/ReverseNaturalOrdering.java,F:/corpus/guava/guava#2011-12-18-01-04-57#v11.0#5a6bf80/guava/src/com/google/common/collect/ReverseNaturalOrdering.java,0,0,0,0,0,0,0,0,0,0,0,0,0,NO,0,0,0,0,0,0,0,0,0,0,0,0,0,0,0,0,0,0,0,0,0,0,0,0,0,0,0,0,0,0,0,0,0,0,0,0,0,0,0,0,0,0,0,0,0,0,0,0,0,92
guava,v11.0,v12.0,F:/corpus/guava/guava#2011-12-18-01-04-57#v11.0#5a6bf80/guava/src/com/google/common/collect/ReverseOrdering.java,F:/corpus/guava/guava#2011-12-18-01-04-57#v11.0#5a6bf80/guava/src/com/google/common/collect/ReverseOrdering.java,0,0,0,0,0,0,0,0,0,0,0,0,0,NO,0,0,0,0,0,0,0,0,0,0,0,0,0,0,0,0,0,0,0,0,0,0,0,0,0,0,0,0,0,0,0,0,0,0,0,0,0,0,0,0,0,0,0,0,0,0,0,0,0,100
guava,v11.0,v12.0,F:/corpus/guava/guava#2011-12-18-01-04-57#v11.0#5a6bf80/guava/src/com/google/common/collect/RowSortedTable.java,F:/corpus/guava/guava#2011-12-18-01-04-57#v11.0#5a6bf80/guava/src/com/google/common/collect/RowSortedTable.java,0,0,0,0,1,0,0,0,0,0,0,0,0,NO,0,0,0,0,0,0,0,0,0,0,0,0,0,0,0,0,0,0,0,0,0,0,0,0,0,0,0,0,0,0,0,0,0,0,0,0,0,0,0,0,0,0,0,0,0,0,0,0,0,55
guava,v11.0,v12.0,F:/corpus/guava/guava#2011-12-18-01-04-57#v11.0#5a6bf80/guava/src/com/google/common/collect/Serialization.java,F:/corpus/guava/guava#2011-12-18-01-04-57#v11.0#5a6bf80/guava/src/com/google/common/collect/Serialization.java,0,0,0,0,0,0,0,0,0,0,0,2,0,NO,0,0,0,0,0,0,0,0,0,0,0,0,0,0,0,0,0,0,0,0,0,0,0,0,0,0,0,0,0,0,0,0,0,0,0,0,0,0,0,0,0,0,0,0,0,0,0,0,0,231
guava,v11.0,v12.0,F:/corpus/guava/guava#2011-12-18-01-04-57#v11.0#5a6bf80/guava/src/com/google/common/collect/SingletonImmutableSet.java,F:/corpus/guava/guava#2011-12-18-01-04-57#v11.0#5a6bf80/guava/src/com/google/common/collect/SingletonImmutableSet.java,0,0,0,0,0,0,0,0,0,0,0,0,0,NO,0,0,0,0,0,0,0,0,0,0,0,0,0,0,0,0,0,0,0,0,0,0,0,0,0,0,0,0,0,0,0,0,0,0,0,0,0,0,0,0,0,0,0,0,0,0,0,0,0,125
guava,v11.0,v12.0,F:/corpus/guava/guava#2011-12-18-01-04-57#v11.0#5a6bf80/guava/src/com/google/common/collect/SingletonImmutableTable.java,F:/corpus/guava/guava#2011-12-18-01-04-57#v11.0#5a6bf80/guava/src/com/google/common/collect/SingletonImmutableTable.java,0,0,0,0,0,0,0,0,0,0,0,0,0,NO,0,0,0,0,0,0,0,0,0,0,0,0,0,0,0,0,0,0,0,0,0,0,0,0,0,0,0,0,0,0,0,0,0,0,0,0,0,0,0,0,0,0,0,0,0,0,0,0,0,149
guava,v11.0,v12.0,F:/corpus/guava/guava#2011-12-18-01-04-57#v11.0#5a6bf80/guava/src/com/google/common/collect/SortedIterable.java,F:/corpus/guava/guava#2011-12-18-01-04-57#v11.0#5a6bf80/guava/src/com/google/common/collect/SortedIterable.java,0,0,0,0,1,0,0,0,0,0,0,0,0,NO,0,0,0,0,0,0,0,0,0,0,0,0,0,0,0,0,0,0,0,0,0,0,0,0,0,0,0,0,0,0,0,0,0,0,0,0,0,0,0,0,0,0,0,0,0,0,0,0,0,42
guava,v11.0,v12.0,F:/corpus/guava/guava#2011-12-18-01-04-57#v11.0#5a6bf80/guava/src/com/google/common/collect/SortedIterables.java,F:/corpus/guava/guava#2011-12-18-01-04-57#v11.0#5a6bf80/guava/src/com/google/common/collect/SortedIterables.java,0,0,0,0,0,0,0,0,0,0,0,0,0,NO,0,0,0,0,0,0,0,0,0,0,0,0,0,0,0,0,0,0,0,0,0,0,0,0,0,0,0,0,0,0,0,0,0,0,0,0,0,0,0,0,0,0,0,0,0,0,0,0,0,195
guava,v11.0,v12.0,F:/corpus/guava/guava#2011-12-18-01-04-57#v11.0#5a6bf80/guava/src/com/google/common/collect/SortedMapDifference.java,F:/corpus/guava/guava#2011-12-18-01-04-57#v11.0#5a6bf80/guava/src/com/google/common/collect/SortedMapDifference.java,0,0,0,0,1,0,0,0,0,0,0,0,0,NO,0,0,0,0,0,0,0,0,0,0,0,0,0,0,0,0,0,0,0,0,0,0,0,0,0,0,0,0,0,0,0,0,0,0,0,0,0,0,0,0,0,0,0,0,0,0,0,0,0,45
guava,v11.0,v12.0,F:/corpus/guava/guava#2011-12-18-01-04-57#v11.0#5a6bf80/guava/src/com/google/common/collect/SortedMultisets.java,F:/corpus/guava/guava#2011-12-18-01-04-57#v11.0#5a6bf80/guava/src/com/google/common/collect/SortedMultisets.java,0,0,0,0,2,0,0,0,0,0,0,0,0,NO,0,0,0,0,0,0,0,0,0,0,0,0,0,0,0,0,0,0,0,0,0,0,0,0,0,0,0,0,0,0,0,0,0,0,0,0,0,0,0,0,0,0,0,0,0,0,0,0,0,196
guava,v11.0,v12.0,F:/corpus/guava/guava#2011-12-18-01-04-57#v11.0#5a6bf80/guava/src/com/google/common/collect/StandardRowSortedTable.java,F:/corpus/guava/guava#2011-12-18-01-04-57#v11.0#5a6bf80/guava/src/com/google/common/collect/StandardRowSortedTable.java,0,0,0,1,0,0,0,0,0,0,0,0,0,NO,0,0,0,0,0,0,0,0,0,0,0,0,0,0,0,0,0,0,0,0,0,0,0,0,0,0,0,0,0,0,0,0,0,0,0,0,0,0,0,0,0,0,0,0,0,0,0,0,0,172
guava,v11.0,v12.0,F:/corpus/guava/guava#2011-12-18-01-04-57#v11.0#5a6bf80/guava/src/com/google/common/collect/UnmodifiableIterator.java,F:/corpus/guava/guava#2011-12-18-01-04-57#v11.0#5a6bf80/guava/src/com/google/common/collect/UnmodifiableIterator.java,0,0,0,0,1,0,0,0,0,0,0,0,0,NO,0,0,0,0,0,0,0,0,0,0,0,0,0,0,0,0,0,0,0,0,0,0,0,0,0,0,0,0,0,0,0,0,0,0,0,0,0,0,0,0,0,0,0,0,0,0,0,0,0,43
guava,v11.0,v12.0,F:/corpus/guava/guava#2011-12-18-01-04-57#v11.0#5a6bf80/guava/src/com/google/common/collect/UnmodifiableListIterator.java,F:/corpus/guava/guava#2011-12-18-01-04-57#v11.0#5a6bf80/guava/src/com/google/common/collect/UnmodifiableListIterator.java,0,0,0,0,3,0,0,0,0,0,0,0,0,NO,0,0,0,0,0,0,0,0,0,0,0,0,0,0,0,0,0,0,0,0,0,0,0,0,0,0,0,0,0,0,0,0,0,0,0,0,0,0,0,0,0,0,0,0,0,0,0,0,0,53
guava,v11.0,v12.0,F:/corpus/guava/guava#2011-12-18-01-04-57#v11.0#5a6bf80/guava/src/com/google/common/collect/UsingToStringOrdering.java,F:/corpus/guava/guava#2011-12-18-01-04-57#v11.0#5a6bf80/guava/src/com/google/common/collect/UsingToStringOrdering.java,0,0,0,0,0,0,0,0,0,0,0,0,0,NO,0,0,0,0,0,0,0,0,0,0,0,0,0,0,0,0,0,0,0,0,0,0,0,0,0,0,0,0,0,0,0,0,0,0,0,0,0,0,0,0,0,0,0,0,0,0,0,0,0,45
guava,v11.0,v12.0,F:/corpus/guava/guava#2011-12-18-01-04-57#v11.0#5a6bf80/guava/src/com/google/common/eventbus/DeadEvent.java,F:/corpus/guava/guava#2011-12-18-01-04-57#v11.0#5a6bf80/guava/src/com/google/common/eventbus/DeadEvent.java,0,0,0,0,0,0,0,0,0,0,0,0,0,NO,0,0,0,0,0,0,0,0,0,0,0,0,0,0,0,0,0,0,0,0,0,0,0,0,0,0,0,0,0,0,0,0,0,0,0,0,0,0,0,0,0,0,0,0,0,0,0,0,0,69
guava,v11.0,v12.0,F:/corpus/guava/guava#2011-12-18-01-04-57#v11.0#5a6bf80/guava/src/com/google/common/eventbus/HandlerFindingStrategy.java,F:/corpus/guava/guava#2011-12-18-01-04-57#v11.0#5a6bf80/guava/src/com/google/common/eventbus/HandlerFindingStrategy.java,0,0,0,0,1,0,0,0,0,0,0,0,0,NO,0,0,0,0,0,0,0,0,0,0,0,0,0,0,0,0,0,0,0,0,0,0,0,0,0,0,0,0,0,0,0,0,0,0,0,0,0,0,0,0,0,0,0,0,0,0,0,0,0,42
guava,v11.0,v12.0,F:/corpus/guava/guava#2011-12-18-01-04-57#v11.0#5a6bf80/guava/src/com/google/common/eventbus/SynchronizedEventHandler.java,F:/corpus/guava/guava#2011-12-18-01-04-57#v11.0#5a6bf80/guava/src/com/google/common/eventbus/SynchronizedEventHandler.java,0,0,0,0,0,0,0,0,0,0,0,0,0,NO,0,0,0,0,0,0,0,0,0,0,0,0,0,0,0,0,0,0,0,0,0,0,0,0,0,0,0,0,0,0,0,0,0,0,0,0,0,0,0,0,0,0,0,0,0,0,0,0,0,48
guava,v11.0,v12.0,F:/corpus/guava/guava#2011-12-18-01-04-57#v11.0#5a6bf80/guava/src/com/google/common/hash/AbstractCompositeHashFunction.java,F:/corpus/guava/guava#2011-12-18-01-04-57#v11.0#5a6bf80/guava/src/com/google/common/hash/AbstractCompositeHashFunction.java,0,0,0,0,0,0,0,0,0,1,0,0,0,NO,0,0,0,0,0,0,0,0,0,0,0,0,0,0,0,0,0,0,0,0,0,0,0,0,0,0,0,0,0,0,0,0,0,0,0,0,0,0,0,0,0,0,0,0,0,0,0,0,0,134
guava,v11.0,v12.0,F:/corpus/guava/guava#2011-12-18-01-04-57#v11.0#5a6bf80/guava/src/com/google/common/hash/AbstractNonStreamingHashFunction.java,F:/corpus/guava/guava#2011-12-18-01-04-57#v11.0#5a6bf80/guava/src/com/google/common/hash/AbstractNonStreamingHashFunction.java,0,0,0,0,0,0,0,0,0,0,0,0,0,NO,0,0,0,0,0,0,0,0,0,0,0,0,0,0,0,0,0,0,0,0,0,0,0,0,0,0,0,0,0,0,0,0,0,0,0,0,0,0,0,0,0,0,0,0,0,0,0,0,0,118
guava,v11.0,v12.0,F:/corpus/guava/guava#2011-12-18-01-04-57#v11.0#5a6bf80/guava/src/com/google/common/hash/HashCode.java,F:/corpus/guava/guava#2011-12-18-01-04-57#v11.0#5a6bf80/guava/src/com/google/common/hash/HashCode.java,0,0,0,0,0,0,0,0,0,0,0,0,0,NO,0,0,0,0,0,0,0,0,0,0,0,0,0,0,0,0,0,0,0,0,0,0,0,0,0,0,0,0,0,0,0,0,0,0,0,0,0,0,0,0,0,0,0,0,0,0,0,0,0,120
guava,v11.0,v12.0,F:/corpus/guava/guava#2011-12-18-01-04-57#v11.0#5a6bf80/guava/src/com/google/common/hash/Murmur3_32HashFunction.java,F:/corpus/guava/guava#2011-12-18-01-04-57#v11.0#5a6bf80/guava/src/com/google/common/hash/Murmur3_32HashFunction.java,0,0,0,0,0,0,0,0,0,0,0,0,0,NO,0,0,0,0,0,0,0,0,0,0,0,0,0,0,0,0,0,0,0,0,0,0,0,0,0,0,0,0,0,0,0,0,0,0,0,0,0,0,0,0,0,0,0,0,0,0,0,0,0,103
guava,v11.0,v12.0,F:/corpus/guava/guava#2011-12-18-01-04-57#v11.0#5a6bf80/guava/src/com/google/common/io/AppendableWriter.java,F:/corpus/guava/guava#2011-12-18-01-04-57#v11.0#5a6bf80/guava/src/com/google/common/io/AppendableWriter.java,0,0,1,0,0,0,0,0,0,0,0,0,0,NO,0,0,0,0,0,0,0,0,0,0,0,0,0,0,0,0,0,0,0,0,0,0,0,0,0,0,0,0,0,0,0,0,0,0,0,0,0,0,0,0,0,0,0,0,0,0,0,0,0,117
guava,v11.0,v12.0,F:/corpus/guava/guava#2011-12-18-01-04-57#v11.0#5a6bf80/guava/src/com/google/common/io/ByteArrayDataOutput.java,F:/corpus/guava/guava#2011-12-18-01-04-57#v11.0#5a6bf80/guava/src/com/google/common/io/ByteArrayDataOutput.java,0,0,0,0,1,0,0,0,0,0,0,0,0,NO,0,0,0,0,0,0,0,0,0,0,0,0,0,0,0,0,0,0,0,0,0,0,0,0,0,0,0,0,0,0,0,0,0,0,0,0,0,0,0,0,0,0,0,0,0,0,0,0,0,55
guava,v11.0,v12.0,F:/corpus/guava/guava#2011-12-18-01-04-57#v11.0#5a6bf80/guava/src/com/google/common/io/ByteProcessor.java,F:/corpus/guava/guava#2011-12-18-01-04-57#v11.0#5a6bf80/guava/src/com/google/common/io/ByteProcessor.java,0,0,0,0,1,0,0,0,0,0,0,0,0,NO,0,0,0,0,0,0,0,0,0,0,0,0,0,0,0,0,0,0,0,0,0,0,0,0,0,0,0,0,0,0,0,0,0,0,0,0,0,0,0,0,0,0,0,0,0,0,0,0,0,49
guava,v11.0,v12.0,F:/corpus/guava/guava#2011-12-18-01-04-57#v11.0#5a6bf80/guava/src/com/google/common/io/Closeables.java,F:/corpus/guava/guava#2011-12-18-01-04-57#v11.0#5a6bf80/guava/src/com/google/common/io/Closeables.java,0,0,0,0,0,0,0,0,0,0,0,0,0,NO,0,0,0,0,0,0,0,0,0,0,0,0,0,0,0,0,0,0,0,0,0,0,0,0,0,0,0,0,0,0,0,0,0,0,0,0,0,0,0,0,0,0,0,0,0,0,0,0,0,104
guava,v11.0,v12.0,F:/corpus/guava/guava#2011-12-18-01-04-57#v11.0#5a6bf80/guava/src/com/google/common/io/CountingInputStream.java,F:/corpus/guava/guava#2011-12-18-01-04-57#v11.0#5a6bf80/guava/src/com/google/common/io/CountingInputStream.java,0,0,0,0,0,0,0,0,0,0,0,0,0,NO,0,0,0,0,0,0,0,0,0,0,0,0,0,0,0,0,0,0,0,0,0,0,0,0,0,0,0,0,0,0,0,0,0,0,0,0,0,0,0,0,0,0,0,0,0,0,0,0,0,90
guava,v11.0,v12.0,F:/corpus/guava/guava#2011-12-18-01-04-57#v11.0#5a6bf80/guava/src/com/google/common/io/CountingOutputStream.java,F:/corpus/guava/guava#2011-12-18-01-04-57#v11.0#5a6bf80/guava/src/com/google/common/io/CountingOutputStream.java,0,0,0,0,0,0,0,0,0,0,0,0,0,NO,0,0,0,0,0,0,0,0,0,0,0,0,0,0,0,0,0,0,0,0,0,0,0,0,0,0,0,0,0,0,0,0,0,0,0,0,0,0,0,0,0,0,0,0,0,0,0,0,0,59
guava,v11.0,v12.0,F:/corpus/guava/guava#2011-12-18-01-04-57#v11.0#5a6bf80/guava/src/com/google/common/io/FileBackedOutputStream.java,F:/corpus/guava/guava#2011-12-18-01-04-57#v11.0#5a6bf80/guava/src/com/google/common/io/FileBackedOutputStream.java,0,0,0,0,0,0,0,0,0,0,0,0,0,NO,0,0,0,0,0,0,0,0,0,0,0,0,0,0,0,0,0,0,0,0,0,0,0,0,0,0,0,0,0,0,0,0,0,0,0,0,0,0,0,0,0,0,0,0,0,0,0,0,0,210
guava,v11.0,v12.0,F:/corpus/guava/guava#2011-12-18-01-04-57#v11.0#5a6bf80/guava/src/com/google/common/io/Flushables.java,F:/corpus/guava/guava#2011-12-18-01-04-57#v11.0#5a6bf80/guava/src/com/google/common/io/Flushables.java,0,0,0,0,0,0,0,0,0,0,0,0,0,NO,0,0,0,0,0,0,0,0,0,0,0,0,0,0,0,0,0,0,0,0,0,0,0,0,0,0,0,0,0,0,0,0,0,0,0,0,0,0,0,0,0,0,0,0,0,0,0,0,0,80
guava,v11.0,v12.0,F:/corpus/guava/guava#2011-12-18-01-04-57#v11.0#5a6bf80/guava/src/com/google/common/io/InputSupplier.java,F:/corpus/guava/guava#2011-12-18-01-04-57#v11.0#5a6bf80/guava/src/com/google/common/io/InputSupplier.java,0,0,0,0,1,0,0,0,0,0,0,0,0,NO,0,0,0,0,0,0,0,0,0,0,0,0,0,0,0,0,0,0,0,0,0,0,0,0,0,0,0,0,0,0,0,0,0,0,0,0,0,0,0,0,0,0,0,0,0,0,0,0,0,40
guava,v11.0,v12.0,F:/corpus/guava/guava#2011-12-18-01-04-57#v11.0#5a6bf80/guava/src/com/google/common/io/LimitInputStream.java,F:/corpus/guava/guava#2011-12-18-01-04-57#v11.0#5a6bf80/guava/src/com/google/common/io/LimitInputStream.java,0,0,0,0,0,0,0,0,0,0,0,0,0,NO,0,0,0,0,0,0,0,0,0,0,0,0,0,0,0,0,0,0,0,0,0,0,0,0,0,0,0,0,0,0,0,0,0,0,0,0,0,0,0,0,0,0,0,0,0,0,0,0,0,104
guava,v11.0,v12.0,F:/corpus/guava/guava#2011-12-18-01-04-57#v11.0#5a6bf80/guava/src/com/google/common/io/LineBuffer.java,F:/corpus/guava/guava#2011-12-18-01-04-57#v11.0#5a6bf80/guava/src/com/google/common/io/LineBuffer.java,0,0,0,0,1,0,0,0,0,0,0,0,0,NO,0,0,0,0,0,0,0,0,0,0,0,0,0,0,0,0,0,0,0,0,0,0,0,0,0,0,0,0,0,0,0,0,0,0,0,0,0,0,0,0,0,0,0,0,0,0,0,0,0,117
guava,v11.0,v12.0,F:/corpus/guava/guava#2011-12-18-01-04-57#v11.0#5a6bf80/guava/src/com/google/common/io/LineProcessor.java,F:/corpus/guava/guava#2011-12-18-01-04-57#v11.0#5a6bf80/guava/src/com/google/common/io/LineProcessor.java,0,0,0,0,1,0,0,0,0,0,0,0,0,NO,0,0,0,0,0,0,0,0,0,0,0,0,0,0,0,0,0,0,0,0,0,0,0,0,0,0,0,0,0,0,0,0,0,0,0,0,0,0,0,0,0,0,0,0,0,0,0,0,0,45
guava,v11.0,v12.0,F:/corpus/guava/guava#2011-12-18-01-04-57#v11.0#5a6bf80/guava/src/com/google/common/io/LineReader.java,F:/corpus/guava/guava#2011-12-18-01-04-57#v11.0#5a6bf80/guava/src/com/google/common/io/LineReader.java,0,0,0,0,0,0,0,0,0,0,0,0,0,NO,0,0,0,0,0,0,0,0,0,0,0,0,0,0,0,0,0,0,0,0,0,0,0,0,0,0,0,0,0,0,0,0,0,0,0,0,0,0,0,0,0,0,0,0,0,0,0,0,0,87
guava,v11.0,v12.0,F:/corpus/guava/guava#2011-12-18-01-04-57#v11.0#5a6bf80/guava/src/com/google/common/io/LittleEndianDataInputStream.java,F:/corpus/guava/guava#2011-12-18-01-04-57#v11.0#5a6bf80/guava/src/com/google/common/io/LittleEndianDataInputStream.java,0,0,0,0,0,0,0,0,0,0,0,0,0,NO,0,0,0,0,0,0,0,0,0,0,0,0,0,0,0,0,0,0,0,0,0,0,0,0,0,0,0,0,0,0,0,0,0,0,0,0,0,0,0,0,0,0,0,0,0,0,0,0,0,232
guava,v11.0,v12.0,F:/corpus/guava/guava#2011-12-18-01-04-57#v11.0#5a6bf80/guava/src/com/google/common/io/LittleEndianDataOutputStream.java,F:/corpus/guava/guava#2011-12-18-01-04-57#v11.0#5a6bf80/guava/src/com/google/common/io/LittleEndianDataOutputStream.java,0,0,1,0,0,0,0,0,0,0,0,0,0,NO,0,0,0,0,0,0,0,0,0,0,0,0,0,0,0,0,0,0,0,0,0,0,0,0,0,0,0,0,0,0,0,0,0,0,0,0,0,0,0,0,0,0,0,0,0,0,0,0,0,164
guava,v11.0,v12.0,F:/corpus/guava/guava#2011-12-18-01-04-57#v11.0#5a6bf80/guava/src/com/google/common/io/MultiInputStream.java,F:/corpus/guava/guava#2011-12-18-01-04-57#v11.0#5a6bf80/guava/src/com/google/common/io/MultiInputStream.java,0,0,0,0,0,0,0,0,0,0,0,0,0,NO,0,0,0,0,0,0,0,0,0,0,0,0,0,0,0,0,0,0,0,0,0,0,0,0,0,0,0,0,0,0,0,0,0,0,0,0,0,0,0,0,0,0,0,0,0,0,0,0,0,115
guava,v11.0,v12.0,F:/corpus/guava/guava#2011-12-18-01-04-57#v11.0#5a6bf80/guava/src/com/google/common/io/MultiReader.java,F:/corpus/guava/guava#2011-12-18-01-04-57#v11.0#5a6bf80/guava/src/com/google/common/io/MultiReader.java,0,0,0,0,0,0,0,0,0,0,0,0,0,NO,0,0,0,0,0,0,0,0,0,0,0,0,0,0,0,0,0,0,0,0,0,0,0,0,0,0,0,0,0,0,0,0,0,0,0,0,0,0,0,0,0,0,0,0,0,0,0,0,0,90
guava,v11.0,v12.0,F:/corpus/guava/guava#2011-12-18-01-04-57#v11.0#5a6bf80/guava/src/com/google/common/io/NullOutputStream.java,F:/corpus/guava/guava#2011-12-18-01-04-57#v11.0#5a6bf80/guava/src/com/google/common/io/NullOutputStream.java,0,0,0,0,0,0,0,0,0,0,0,0,0,NO,0,0,0,0,0,0,0,0,0,0,0,0,0,0,0,0,0,0,0,0,0,0,0,0,0,0,0,0,0,0,0,0,0,0,0,0,0,0,0,0,0,0,0,0,0,0,0,0,0,38
guava,v11.0,v12.0,F:/corpus/guava/guava#2011-12-18-01-04-57#v11.0#5a6bf80/guava/src/com/google/common/io/OutputSupplier.java,F:/corpus/guava/guava#2011-12-18-01-04-57#v11.0#5a6bf80/guava/src/com/google/common/io/OutputSupplier.java,0,0,0,0,1,0,0,0,0,0,0,0,0,NO,0,0,0,0,0,0,0,0,0,0,0,0,0,0,0,0,0,0,0,0,0,0,0,0,0,0,0,0,0,0,0,0,0,0,0,0,0,0,0,0,0,0,0,0,0,0,0,0,0,40
guava,v11.0,v12.0,F:/corpus/guava/guava#2011-12-18-01-04-57#v11.0#5a6bf80/guava/src/com/google/common/io/PatternFilenameFilter.java,F:/corpus/guava/guava#2011-12-18-01-04-57#v11.0#5a6bf80/guava/src/com/google/common/io/PatternFilenameFilter.java,0,0,0,0,1,0,0,0,0,0,0,0,0,NO,0,0,0,0,0,0,0,0,0,0,0,0,0,0,0,0,0,0,0,0,0,0,0,0,0,0,0,0,0,0,0,0,0,0,0,0,0,0,0,0,0,0,0,0,0,0,0,0,0,62
guava,v11.0,v12.0,F:/corpus/guava/guava#2011-12-18-01-04-57#v11.0#5a6bf80/guava/src/com/google/common/math/MathPreconditions.java,F:/corpus/guava/guava#2011-12-18-01-04-57#v11.0#5a6bf80/guava/src/com/google/common/math/MathPreconditions.java,0,0,0,0,0,0,0,0,0,0,0,0,0,NO,0,0,0,0,0,0,0,0,0,0,0,0,0,0,0,0,0,0,0,0,0,0,0,0,0,0,0,0,0,0,0,0,0,0,0,0,0,0,0,0,0,0,0,0,0,0,0,0,0,93
guava,v11.0,v12.0,F:/corpus/guava/guava#2011-12-18-01-04-57#v11.0#5a6bf80/guava/src/com/google/common/net/HostAndPort.java,F:/corpus/guava/guava#2011-12-18-01-04-57#v11.0#5a6bf80/guava/src/com/google/common/net/HostAndPort.java,0,0,0,0,0,0,0,0,0,0,0,0,0,NO,0,0,0,0,0,0,0,0,0,0,0,0,0,0,0,0,0,0,0,0,0,0,0,0,0,0,0,0,0,0,0,0,0,0,0,0,0,0,0,0,0,0,0,0,0,0,0,0,0,265
guava,v11.0,v12.0,F:/corpus/guava/guava#2011-12-18-01-04-57#v11.0#5a6bf80/guava/src/com/google/common/net/HostSpecifier.java,F:/corpus/guava/guava#2011-12-18-01-04-57#v11.0#5a6bf80/guava/src/com/google/common/net/HostSpecifier.java,0,0,0,0,0,0,0,0,0,0,0,0,0,NO,0,0,0,0,0,0,0,0,0,0,0,0,0,0,0,0,0,0,0,0,0,0,0,0,0,0,0,0,0,0,0,0,0,0,0,0,0,0,0,0,0,0,0,0,0,0,0,0,0,178
guava,v11.0,v12.0,F:/corpus/guava/guava#2011-12-18-01-04-57#v11.0#5a6bf80/guava/src/com/google/common/net/HttpHeaders.java,F:/corpus/guava/guava#2011-12-18-01-04-57#v11.0#5a6bf80/guava/src/com/google/common/net/HttpHeaders.java,1,0,0,0,0,0,0,0,0,0,0,0,0,NO,0,0,0,0,0,0,0,0,0,0,0,0,0,0,0,0,0,0,0,0,0,0,0,0,0,0,0,0,0,0,0,0,0,0,0,0,0,0,0,0,0,0,0,0,0,0,0,0,0,200
guava,v11.0,v12.0,F:/corpus/guava/guava#2011-12-18-01-04-57#v11.0#5a6bf80/guava/src/com/google/common/net/InternetDomainName.java,F:/corpus/guava/guava#2011-12-18-01-04-57#v11.0#5a6bf80/guava/src/com/google/common/net/InternetDomainName.java,0,0,0,0,0,0,0,0,0,0,0,0,0,NO,0,0,0,0,0,0,0,0,0,0,0,0,0,0,0,0,0,0,0,0,0,0,0,0,0,0,0,0,0,0,0,0,0,0,0,0,0,0,0,0,0,0,0,0,0,0,0,0,0,578
guava,v11.0,v12.0,F:/corpus/guava/guava#2011-12-18-01-04-57#v11.0#5a6bf80/guava/src/com/google/common/primitives/AndroidInteger.java,F:/corpus/guava/guava#2011-12-18-01-04-57#v11.0#5a6bf80/guava/src/com/google/common/primitives/AndroidInteger.java,0,0,0,0,0,0,0,0,0,0,0,0,0,NO,0,0,0,0,0,0,0,0,0,0,0,0,0,0,0,0,0,0,0,0,0,0,0,0,0,0,0,0,0,0,0,0,0,0,0,0,0,0,0,0,0,0,0,0,0,0,0,0,0,91
guava,v11.0,v12.0,F:/corpus/guava/guava#2011-12-18-01-04-57#v11.0#5a6bf80/guava/src/com/google/common/primitives/Primitives.java,F:/corpus/guava/guava#2011-12-18-01-04-57#v11.0#5a6bf80/guava/src/com/google/common/primitives/Primitives.java,0,0,0,0,0,0,0,0,0,0,0,0,0,NO,0,0,0,0,0,0,0,0,0,0,0,0,0,0,0,0,0,0,0,0,0,0,0,0,0,0,0,0,0,0,0,0,0,0,0,0,0,0,0,0,0,0,0,0,0,0,0,0,0,134
guava,v11.0,v12.0,F:/corpus/guava/guava#2011-12-18-01-04-57#v11.0#5a6bf80/guava/src/com/google/common/util/concurrent/AbstractCheckedFuture.java,F:/corpus/guava/guava#2011-12-18-01-04-57#v11.0#5a6bf80/guava/src/com/google/common/util/concurrent/AbstractCheckedFuture.java,0,0,0,0,1,0,0,0,0,0,0,0,0,NO,0,0,0,0,0,0,0,0,0,0,0,0,0,0,0,0,0,0,0,0,0,0,0,0,0,0,0,0,0,0,0,0,0,0,0,0,0,0,0,0,0,0,0,0,0,0,0,0,0,117
guava,v11.0,v12.0,F:/corpus/guava/guava#2011-12-18-01-04-57#v11.0#5a6bf80/guava/src/com/google/common/util/concurrent/AbstractFuture.java,F:/corpus/guava/guava#2011-12-18-01-04-57#v11.0#5a6bf80/guava/src/com/google/common/util/concurrent/AbstractFuture.java,0,0,0,0,2,0,0,0,0,0,0,2,0,NO,0,0,0,0,0,0,0,0,0,0,0,0,0,0,0,0,0,0,0,0,0,0,0,0,0,0,0,0,0,0,0,0,0,0,0,0,0,0,0,0,0,0,0,0,0,0,0,0,0,366
guava,v11.0,v12.0,F:/corpus/guava/guava#2011-12-18-01-04-57#v11.0#5a6bf80/guava/src/com/google/common/util/concurrent/AbstractIdleService.java,F:/corpus/guava/guava#2011-12-18-01-04-57#v11.0#5a6bf80/guava/src/com/google/common/util/concurrent/AbstractIdleService.java,0,0,0,0,1,1,0,0,0,0,0,0,0,NO,0,0,0,0,0,0,0,0,0,0,0,0,0,0,0,0,0,0,0,0,0,0,0,0,0,0,0,0,0,0,0,0,0,0,0,0,0,0,0,0,0,0,0,0,0,0,0,0,0,128
guava,v11.0,v12.0,F:/corpus/guava/guava#2011-12-18-01-04-57#v11.0#5a6bf80/guava/src/com/google/common/util/concurrent/AbstractListeningExecutorService.java,F:/corpus/guava/guava#2011-12-18-01-04-57#v11.0#5a6bf80/guava/src/com/google/common/util/concurrent/AbstractListeningExecutorService.java,0,0,0,0,0,0,0,0,0,0,0,0,0,NO,0,0,0,0,0,0,0,0,0,0,0,0,0,0,0,0,0,0,0,0,0,0,0,0,0,0,0,0,0,0,0,0,0,0,0,0,0,0,0,0,0,0,0,0,0,0,0,0,0,236
guava,v11.0,v12.0,F:/corpus/guava/guava#2011-12-18-01-04-57#v11.0#5a6bf80/guava/src/com/google/common/util/concurrent/AbstractService.java,F:/corpus/guava/guava#2011-12-18-01-04-57#v11.0#5a6bf80/guava/src/com/google/common/util/concurrent/AbstractService.java,0,0,0,0,0,1,0,0,0,0,0,0,0,NO,0,0,0,0,0,0,0,0,0,0,0,0,0,0,0,0,0,0,0,0,0,0,0,0,0,0,0,0,0,0,0,0,0,0,0,0,0,0,0,0,0,0,0,0,0,0,0,0,0,256
guava,v11.0,v12.0,F:/corpus/guava/guava#2011-12-18-01-04-57#v11.0#5a6bf80/guava/src/com/google/common/util/concurrent/AsyncFunction.java,F:/corpus/guava/guava#2011-12-18-01-04-57#v11.0#5a6bf80/guava/src/com/google/common/util/concurrent/AsyncFunction.java,0,0,0,0,1,0,0,0,0,0,0,0,0,NO,0,0,0,0,0,0,0,0,0,0,0,0,0,0,0,0,0,0,0,0,0,0,0,0,0,0,0,0,0,0,0,0,0,0,0,0,0,0,0,0,0,0,0,0,0,0,0,0,0,41
guava,v11.0,v12.0,F:/corpus/guava/guava#2011-12-18-01-04-57#v11.0#5a6bf80/guava/src/com/google/common/util/concurrent/Atomics.java,F:/corpus/guava/guava#2011-12-18-01-04-57#v11.0#5a6bf80/guava/src/com/google/common/util/concurrent/Atomics.java,0,0,0,0,0,0,0,0,0,0,0,0,0,NO,0,0,0,0,0,0,0,0,0,0,0,0,0,0,0,0,0,0,0,0,0,0,0,0,0,0,0,0,0,0,0,0,0,0,0,0,0,0,0,0,0,0,0,0,0,0,0,0,0,76
guava,v11.0,v12.0,F:/corpus/guava/guava#2011-12-18-01-04-57#v11.0#5a6bf80/guava/src/com/google/common/util/concurrent/Callables.java,F:/corpus/guava/guava#2011-12-18-01-04-57#v11.0#5a6bf80/guava/src/com/google/common/util/concurrent/Callables.java,0,0,0,0,0,0,0,0,0,0,0,1,0,NO,0,0,0,0,0,0,0,0,0,0,0,0,0,0,0,0,0,0,0,0,0,0,0,0,0,0,0,0,0,0,0,0,0,0,0,0,0,0,0,0,0,0,0,0,0,0,0,0,0,43
guava,v11.0,v12.0,F:/corpus/guava/guava#2011-12-18-01-04-57#v11.0#5a6bf80/guava/src/com/google/common/util/concurrent/CheckedFuture.java,F:/corpus/guava/guava#2011-12-18-01-04-57#v11.0#5a6bf80/guava/src/com/google/common/util/concurrent/CheckedFuture.java,0,0,0,0,1,0,0,0,0,0,0,0,0,NO,0,0,0,0,0,0,0,0,0,0,0,0,0,0,0,0,0,0,0,0,0,0,0,0,0,0,0,0,0,0,0,0,0,0,0,0,0,0,0,0,0,0,0,0,0,0,0,0,0,76
guava,v11.0,v12.0,F:/corpus/guava/guava#2011-12-18-01-04-57#v11.0#5a6bf80/guava/src/com/google/common/util/concurrent/ExecutionList.java,F:/corpus/guava/guava#2011-12-18-01-04-57#v11.0#5a6bf80/guava/src/com/google/common/util/concurrent/ExecutionList.java,0,0,0,0,0,0,0,0,0,0,0,0,0,NO,0,0,0,0,0,0,0,0,0,0,0,0,0,0,0,0,0,0,0,0,0,0,0,0,0,0,0,0,0,0,0,0,0,0,0,0,0,0,0,0,0,0,0,0,0,0,0,0,0,159
guava,v11.0,v12.0,F:/corpus/guava/guava#2011-12-18-01-04-57#v11.0#5a6bf80/guava/src/com/google/common/util/concurrent/FakeTimeLimiter.java,F:/corpus/guava/guava#2011-12-18-01-04-57#v11.0#5a6bf80/guava/src/com/google/common/util/concurrent/FakeTimeLimiter.java,0,0,0,0,2,0,0,0,0,0,0,0,0,NO,0,0,0,0,0,0,0,0,0,0,0,0,0,0,0,0,0,0,0,0,0,0,0,0,0,0,0,0,0,0,0,0,0,0,0,0,0,0,0,0,0,0,0,0,0,0,0,0,0,47
guava,v11.0,v12.0,F:/corpus/guava/guava#2011-12-18-01-04-57#v11.0#5a6bf80/guava/src/com/google/common/util/concurrent/ForwardingBlockingQueue.java,F:/corpus/guava/guava#2011-12-18-01-04-57#v11.0#5a6bf80/guava/src/com/google/common/util/concurrent/ForwardingBlockingQueue.java,0,0,0,0,1,0,0,0,0,0,0,0,0,NO,0,0,0,0,0,0,0,0,0,0,0,0,0,0,0,0,0,0,0,0,0,0,0,0,0,0,0,0,0,0,0,0,0,0,0,0,0,0,0,0,0,0,0,0,0,0,0,0,0,74
guava,v11.0,v12.0,F:/corpus/guava/guava#2011-12-18-01-04-57#v11.0#5a6bf80/guava/src/com/google/common/util/concurrent/ForwardingCheckedFuture.java,F:/corpus/guava/guava#2011-12-18-01-04-57#v11.0#5a6bf80/guava/src/com/google/common/util/concurrent/ForwardingCheckedFuture.java,0,0,0,0,2,0,0,0,0,0,0,0,0,NO,0,0,0,0,0,0,0,0,0,0,0,0,0,0,0,0,0,0,0,0,0,0,0,0,0,0,0,0,0,0,0,0,0,0,0,0,0,0,0,0,0,0,0,0,0,0,0,0,0,78
guava,v11.0,v12.0,F:/corpus/guava/guava#2011-12-18-01-04-57#v11.0#5a6bf80/guava/src/com/google/common/util/concurrent/ForwardingExecutorService.java,F:/corpus/guava/guava#2011-12-18-01-04-57#v11.0#5a6bf80/guava/src/com/google/common/util/concurrent/ForwardingExecutorService.java,0,0,0,0,1,0,0,0,0,0,0,0,0,NO,0,0,0,0,0,0,0,0,0,0,0,0,0,0,0,0,0,0,0,0,0,0,0,0,0,0,0,0,0,0,0,0,0,0,0,0,0,0,0,0,0,0,0,0,0,0,0,0,0,117
guava,v11.0,v12.0,F:/corpus/guava/guava#2011-12-18-01-04-57#v11.0#5a6bf80/guava/src/com/google/common/util/concurrent/ForwardingFuture.java,F:/corpus/guava/guava#2011-12-18-01-04-57#v11.0#5a6bf80/guava/src/com/google/common/util/concurrent/ForwardingFuture.java,0,0,0,0,2,0,0,0,0,0,0,0,0,NO,0,0,0,0,0,0,0,0,0,0,0,0,0,0,0,0,0,0,0,0,0,0,0,0,0,0,0,0,0,0,0,0,0,0,0,0,0,0,0,0,0,0,0,0,0,0,0,0,0,96
guava,v11.0,v12.0,F:/corpus/guava/guava#2011-12-18-01-04-57#v11.0#5a6bf80/guava/src/com/google/common/util/concurrent/ForwardingListenableFuture.java,F:/corpus/guava/guava#2011-12-18-01-04-57#v11.0#5a6bf80/guava/src/com/google/common/util/concurrent/ForwardingListenableFuture.java,0,0,0,0,2,0,0,0,0,0,0,0,0,NO,0,0,0,0,0,0,0,0,0,0,0,0,0,0,0,0,0,0,0,0,0,0,0,0,0,0,0,0,0,0,0,0,0,0,0,0,0,0,0,0,0,0,0,0,0,0,0,0,0,74
guava,v11.0,v12.0,F:/corpus/guava/guava#2011-12-18-01-04-57#v11.0#5a6bf80/guava/src/com/google/common/util/concurrent/ForwardingListeningExecutorService.java,F:/corpus/guava/guava#2011-12-18-01-04-57#v11.0#5a6bf80/guava/src/com/google/common/util/concurrent/ForwardingListeningExecutorService.java,0,0,0,0,1,0,0,0,0,0,0,0,0,NO,0,0,0,0,0,0,0,0,0,0,0,0,0,0,0,0,0,0,0,0,0,0,0,0,0,0,0,0,0,0,0,0,0,0,0,0,0,0,0,0,0,0,0,0,0,0,0,0,0,52
guava,v11.0,v12.0,F:/corpus/guava/guava#2011-12-18-01-04-57#v11.0#5a6bf80/guava/src/com/google/common/util/concurrent/ForwardingService.java,F:/corpus/guava/guava#2011-12-18-01-04-57#v11.0#5a6bf80/guava/src/com/google/common/util/concurrent/ForwardingService.java,0,0,0,0,1,0,0,0,0,0,0,0,0,NO,0,0,0,0,0,0,0,0,0,0,0,0,0,0,0,0,0,0,0,0,0,0,0,0,0,0,0,0,0,0,0,0,0,0,0,0,0,0,0,0,0,0,0,0,0,0,0,0,0,80
guava,v11.0,v12.0,F:/corpus/guava/guava#2011-12-18-01-04-57#v11.0#5a6bf80/guava/src/com/google/common/util/concurrent/FutureCallback.java,F:/corpus/guava/guava#2011-12-18-01-04-57#v11.0#5a6bf80/guava/src/com/google/common/util/concurrent/FutureCallback.java,0,0,0,0,1,0,0,0,0,0,0,0,0,NO,0,0,0,0,0,0,0,0,0,0,0,0,0,0,0,0,0,0,0,0,0,0,0,0,0,0,0,0,0,0,0,0,0,0,0,0,0,0,0,0,0,0,0,0,0,0,0,0,0,49
guava,v11.0,v12.0,F:/corpus/guava/guava#2011-12-18-01-04-57#v11.0#5a6bf80/guava/src/com/google/common/util/concurrent/ListeningExecutorService.java,F:/corpus/guava/guava#2011-12-18-01-04-57#v11.0#5a6bf80/guava/src/com/google/common/util/concurrent/ListeningExecutorService.java,0,0,0,0,0,0,0,0,0,0,0,0,0,NO,0,0,0,0,0,0,0,0,0,0,0,0,0,0,0,0,0,0,0,0,0,0,0,0,0,0,0,0,0,0,0,0,0,0,0,0,0,0,0,0,0,0,0,0,0,0,0,0,0,88
guava,v11.0,v12.0,F:/corpus/guava/guava#2011-12-18-01-04-57#v11.0#5a6bf80/guava/src/com/google/common/util/concurrent/ListeningScheduledExecutorService.java,F:/corpus/guava/guava#2011-12-18-01-04-57#v11.0#5a6bf80/guava/src/com/google/common/util/concurrent/ListeningScheduledExecutorService.java,0,0,0,0,1,0,0,0,0,0,0,0,0,NO,0,0,0,0,0,0,0,0,0,0,0,0,0,0,0,0,0,0,0,0,0,0,0,0,0,0,0,0,0,0,0,0,0,0,0,0,0,0,0,0,0,0,0,0,0,0,0,0,0,40
guava,v11.0,v12.0,F:/corpus/guava/guava#2011-12-18-01-04-57#v11.0#5a6bf80/guava/src/com/google/common/util/concurrent/Monitor.java,F:/corpus/guava/guava#2011-12-18-01-04-57#v11.0#5a6bf80/guava/src/com/google/common/util/concurrent/Monitor.java,0,0,0,0,1,0,0,0,0,0,0,0,0,NO,0,0,0,0,0,0,0,0,0,0,0,0,0,0,0,0,0,0,0,0,0,0,0,0,0,0,0,0,0,0,0,0,0,0,0,0,0,0,0,0,0,0,0,0,0,0,0,0,0,942
guava,v11.0,v12.0,F:/corpus/guava/guava#2011-12-18-01-04-57#v11.0#5a6bf80/guava/src/com/google/common/util/concurrent/MoreExecutors.java,F:/corpus/guava/guava#2011-12-18-01-04-57#v11.0#5a6bf80/guava/src/com/google/common/util/concurrent/MoreExecutors.java,0,0,1,0,0,0,0,0,0,0,0,1,0,NO,0,0,0,0,0,0,0,0,0,0,0,0,0,0,0,0,0,0,0,0,0,0,0,0,0,0,0,0,0,0,0,0,0,0,0,0,0,0,0,0,0,0,0,0,0,0,0,0,0,478
guava,v11.0,v12.0,F:/corpus/guava/guava#2011-12-18-01-04-57#v11.0#5a6bf80/guava/src/com/google/common/util/concurrent/SettableFuture.java,F:/corpus/guava/guava#2011-12-18-01-04-57#v11.0#5a6bf80/guava/src/com/google/common/util/concurrent/SettableFuture.java,0,0,0,0,0,0,0,0,0,0,0,3,0,NO,0,0,0,0,0,0,0,0,0,0,0,0,0,0,0,0,0,0,0,0,0,0,0,0,0,0,0,0,0,0,0,0,0,0,0,0,0,0,0,0,0,0,0,0,0,0,0,0,0,70
guava,v11.0,v12.0,F:/corpus/guava/guava#2011-12-18-01-04-57#v11.0#5a6bf80/guava/src/com/google/common/util/concurrent/SimpleTimeLimiter.java,F:/corpus/guava/guava#2011-12-18-01-04-57#v11.0#5a6bf80/guava/src/com/google/common/util/concurrent/SimpleTimeLimiter.java,0,0,0,0,0,0,0,0,0,0,0,0,0,NO,0,0,0,0,0,0,0,0,0,0,0,0,0,0,0,0,0,0,0,0,0,0,0,0,0,0,0,0,0,0,0,0,0,0,0,0,0,0,0,0,0,0,0,0,0,0,0,0,0,195
guava,v11.0,v12.0,F:/corpus/guava/guava#2011-12-18-01-04-57#v11.0#5a6bf80/guava/src/com/google/common/util/concurrent/ThreadFactoryBuilder.java,F:/corpus/guava/guava#2011-12-18-01-04-57#v11.0#5a6bf80/guava/src/com/google/common/util/concurrent/ThreadFactoryBuilder.java,0,0,0,0,0,0,0,0,0,0,0,0,0,NO,0,0,0,0,0,0,0,0,0,0,0,0,0,0,0,0,0,0,0,0,0,0,0,0,0,0,0,0,0,0,0,0,0,0,0,0,0,0,0,0,0,0,0,0,0,0,0,0,0,176
guava,v11.0,v12.0,F:/corpus/guava/guava#2011-12-18-01-04-57#v11.0#5a6bf80/guava/src/com/google/common/util/concurrent/TimeLimiter.java,F:/corpus/guava/guava#2011-12-18-01-04-57#v11.0#5a6bf80/guava/src/com/google/common/util/concurrent/TimeLimiter.java,0,0,0,0,0,0,0,0,0,0,0,0,0,NO,0,0,0,0,0,0,0,0,0,0,0,0,0,0,0,0,0,0,0,0,0,0,0,0,0,0,0,0,0,0,0,0,0,0,0,0,0,0,0,0,0,0,0,0,0,0,0,0,0,106
guava,v11.0,v12.0,F:/corpus/guava/guava#2011-12-18-01-04-57#v11.0#5a6bf80/guava/src/com/google/common/util/concurrent/UncaughtExceptionHandlers.java,F:/corpus/guava/guava#2011-12-18-01-04-57#v11.0#5a6bf80/guava/src/com/google/common/util/concurrent/UncaughtExceptionHandlers.java,0,0,0,0,0,0,0,0,0,0,0,0,0,NO,0,0,0,0,0,0,0,0,0,0,0,0,0,0,0,0,0,0,0,0,0,0,0,0,0,0,0,0,0,0,0,0,0,0,0,0,0,0,0,0,0,0,0,0,0,0,0,0,0,65
guava,v11.0,v12.0,F:/corpus/guava/guava#2011-12-18-01-04-57#v11.0#5a6bf80/guava/src/com/google/common/util/concurrent/UncheckedTimeoutException.java,F:/corpus/guava/guava#2011-12-18-01-04-57#v11.0#5a6bf80/guava/src/com/google/common/util/concurrent/UncheckedTimeoutException.java,0,0,0,0,0,0,0,0,0,0,0,0,0,NO,0,0,0,0,0,0,0,0,0,0,0,0,0,0,0,0,0,0,0,0,0,0,0,0,0,0,0,0,0,0,0,0,0,0,0,0,0,0,0,0,0,0,0,0,0,0,0,0,0,41
guava,v11.0,v12.0,F:/corpus/guava/guava#2011-12-18-01-04-57#v11.0#5a6bf80/guava/src/com/google/common/util/concurrent/Uninterruptibles.java,F:/corpus/guava/guava#2011-12-18-01-04-57#v11.0#5a6bf80/guava/src/com/google/common/util/concurrent/Uninterruptibles.java,0,0,0,0,0,0,0,0,0,0,0,0,0,NO,0,0,0,0,0,0,0,0,0,0,0,0,0,0,0,0,0,0,0,0,0,0,0,0,0,0,0,0,0,0,0,0,0,0,0,0,0,0,0,0,0,0,0,0,0,0,0,0,0,278
guava,v11.0,v12.0,F:/corpus/guava/guava#2011-12-18-01-04-57#v11.0#5a6bf80/guava-gwt/src/com/google/common/base/PairwiseEquivalence_CustomFieldSerializer.java,F:/corpus/guava/guava#2011-12-18-01-04-57#v11.0#5a6bf80/guava-gwt/src/com/google/common/base/PairwiseEquivalence_CustomFieldSerializer.java,0,0,0,0,0,0,0,0,0,0,0,0,0,NO,0,0,0,0,0,0,0,0,0,0,0,0,0,0,0,0,0,0,0,0,0,0,0,0,0,0,0,0,0,0,0,0,0,0,0,0,0,0,0,0,0,0,0,0,0,0,0,0,0,48
guava,v11.0,v12.0,F:/corpus/guava/guava#2011-12-18-01-04-57#v11.0#5a6bf80/guava-gwt/src/com/google/common/collect/ArrayListMultimap_CustomFieldSerializer.java,F:/corpus/guava/guava#2011-12-18-01-04-57#v11.0#5a6bf80/guava-gwt/src/com/google/common/collect/ArrayListMultimap_CustomFieldSerializer.java,0,0,0,0,0,0,0,0,0,0,0,0,0,NO,0,0,0,0,0,0,0,0,0,0,0,0,0,0,0,0,0,0,0,0,0,0,0,0,0,0,0,0,0,0,0,0,0,0,0,0,0,0,0,0,0,0,0,0,0,0,0,0,0,45
guava,v11.0,v12.0,F:/corpus/guava/guava#2011-12-18-01-04-57#v11.0#5a6bf80/guava-gwt/src/com/google/common/collect/ByFunctionOrdering_CustomFieldSerializer.java,F:/corpus/guava/guava#2011-12-18-01-04-57#v11.0#5a6bf80/guava-gwt/src/com/google/common/collect/ByFunctionOrdering_CustomFieldSerializer.java,0,0,0,0,0,0,0,0,0,0,0,0,0,NO,0,0,0,0,0,0,0,0,0,0,0,0,0,0,0,0,0,0,0,0,0,0,0,0,0,0,0,0,0,0,0,0,0,0,0,0,0,0,0,0,0,0,0,0,0,0,0,0,0,48
guava,v11.0,v12.0,F:/corpus/guava/guava#2011-12-18-01-04-57#v11.0#5a6bf80/guava-gwt/src/com/google/common/collect/ComparatorOrdering_CustomFieldSerializer.java,F:/corpus/guava/guava#2011-12-18-01-04-57#v11.0#5a6bf80/guava-gwt/src/com/google/common/collect/ComparatorOrdering_CustomFieldSerializer.java,0,0,0,0,0,0,0,0,0,0,0,0,0,NO,0,0,0,0,0,0,0,0,0,0,0,0,0,0,0,0,0,0,0,0,0,0,0,0,0,0,0,0,0,0,0,0,0,0,0,0,0,0,0,0,0,0,0,0,0,0,0,0,0,47
guava,v11.0,v12.0,F:/corpus/guava/guava#2011-12-18-01-04-57#v11.0#5a6bf80/guava-gwt/src/com/google/common/collect/CompoundOrdering_CustomFieldSerializer.java,F:/corpus/guava/guava#2011-12-18-01-04-57#v11.0#5a6bf80/guava-gwt/src/com/google/common/collect/CompoundOrdering_CustomFieldSerializer.java,0,0,0,0,0,0,0,0,0,0,0,0,0,NO,0,0,0,0,0,0,0,0,0,0,0,0,0,0,0,0,0,0,0,0,0,0,0,0,0,0,0,0,0,0,0,0,0,0,0,0,0,0,0,0,0,0,0,0,0,0,0,0,0,47
guava,v11.0,v12.0,F:/corpus/guava/guava#2011-12-18-01-04-57#v11.0#5a6bf80/guava-gwt/src/com/google/common/collect/EmptyImmutableListMultimap_CustomFieldSerializer.java,F:/corpus/guava/guava#2011-12-18-01-04-57#v11.0#5a6bf80/guava-gwt/src/com/google/common/collect/EmptyImmutableListMultimap_CustomFieldSerializer.java,0,0,0,0,1,0,0,0,0,0,0,0,0,NO,0,0,0,0,0,0,0,0,0,0,0,0,0,0,0,0,0,0,0,0,0,0,0,0,0,0,0,0,0,0,0,0,0,0,0,0,0,0,0,0,0,0,0,0,0,0,0,0,0,42
guava,v11.0,v12.0,F:/corpus/guava/guava#2011-12-18-01-04-57#v11.0#5a6bf80/guava-gwt/src/com/google/common/collect/EmptyImmutableList_CustomFieldSerializer.java,F:/corpus/guava/guava#2011-12-18-01-04-57#v11.0#5a6bf80/guava-gwt/src/com/google/common/collect/EmptyImmutableList_CustomFieldSerializer.java,0,0,0,0,1,0,0,0,0,0,0,0,0,NO,0,0,0,0,0,0,0,0,0,0,0,0,0,0,0,0,0,0,0,0,0,0,0,0,0,0,0,0,0,0,0,0,0,0,0,0,0,0,0,0,0,0,0,0,0,0,0,0,0,41
guava,v11.0,v12.0,F:/corpus/guava/guava#2011-12-18-01-04-57#v11.0#5a6bf80/guava-gwt/src/com/google/common/collect/EmptyImmutableMap_CustomFieldSerializer.java,F:/corpus/guava/guava#2011-12-18-01-04-57#v11.0#5a6bf80/guava-gwt/src/com/google/common/collect/EmptyImmutableMap_CustomFieldSerializer.java,0,0,0,0,1,0,0,0,0,0,0,0,0,NO,0,0,0,0,0,0,0,0,0,0,0,0,0,0,0,0,0,0,0,0,0,0,0,0,0,0,0,0,0,0,0,0,0,0,0,0,0,0,0,0,0,0,0,0,0,0,0,0,0,42
guava,v11.0,v12.0,F:/corpus/guava/guava#2011-12-18-01-04-57#v11.0#5a6bf80/guava-gwt/src/com/google/common/collect/EmptyImmutableMultiset_CustomFieldSerializer.java,F:/corpus/guava/guava#2011-12-18-01-04-57#v11.0#5a6bf80/guava-gwt/src/com/google/common/collect/EmptyImmutableMultiset_CustomFieldSerializer.java,0,0,0,0,1,0,0,0,0,0,0,0,0,NO,0,0,0,0,0,0,0,0,0,0,0,0,0,0,0,0,0,0,0,0,0,0,0,0,0,0,0,0,0,0,0,0,0,0,0,0,0,0,0,0,0,0,0,0,0,0,0,0,0,42
guava,v11.0,v12.0,F:/corpus/guava/guava#2011-12-18-01-04-57#v11.0#5a6bf80/guava-gwt/src/com/google/common/collect/EmptyImmutableSetMultimap_CustomFieldSerializer.java,F:/corpus/guava/guava#2011-12-18-01-04-57#v11.0#5a6bf80/guava-gwt/src/com/google/common/collect/EmptyImmutableSetMultimap_CustomFieldSerializer.java,0,0,0,0,1,0,0,0,0,0,0,0,0,NO,0,0,0,0,0,0,0,0,0,0,0,0,0,0,0,0,0,0,0,0,0,0,0,0,0,0,0,0,0,0,0,0,0,0,0,0,0,0,0,0,0,0,0,0,0,0,0,0,0,42
guava,v11.0,v12.0,F:/corpus/guava/guava#2011-12-18-01-04-57#v11.0#5a6bf80/guava-gwt/src/com/google/common/collect/EmptyImmutableSet_CustomFieldSerializer.java,F:/corpus/guava/guava#2011-12-18-01-04-57#v11.0#5a6bf80/guava-gwt/src/com/google/common/collect/EmptyImmutableSet_CustomFieldSerializer.java,0,0,0,0,1,0,0,0,0,0,0,0,0,NO,0,0,0,0,0,0,0,0,0,0,0,0,0,0,0,0,0,0,0,0,0,0,0,0,0,0,0,0,0,0,0,0,0,0,0,0,0,0,0,0,0,0,0,0,0,0,0,0,0,41
guava,v11.0,v12.0,F:/corpus/guava/guava#2011-12-18-01-04-57#v11.0#5a6bf80/guava-gwt/src/com/google/common/collect/EmptyImmutableSortedSet_CustomFieldSerializer.java,F:/corpus/guava/guava#2011-12-18-01-04-57#v11.0#5a6bf80/guava-gwt/src/com/google/common/collect/EmptyImmutableSortedSet_CustomFieldSerializer.java,0,0,0,0,0,0,0,0,0,0,0,0,0,NO,0,0,0,0,0,0,0,0,0,0,0,0,0,0,0,0,0,0,0,0,0,0,0,0,0,0,0,0,0,0,0,0,0,0,0,0,0,0,0,0,0,0,0,0,0,0,0,0,0,59
guava,v11.0,v12.0,F:/corpus/guava/guava#2011-12-18-01-04-57#v11.0#5a6bf80/guava-gwt/src/com/google/common/collect/ExplicitOrdering_CustomFieldSerializer.java,F:/corpus/guava/guava#2011-12-18-01-04-57#v11.0#5a6bf80/guava-gwt/src/com/google/common/collect/ExplicitOrdering_CustomFieldSerializer.java,0,0,0,0,0,0,0,0,0,0,0,0,0,NO,0,0,0,0,0,0,0,0,0,0,0,0,0,0,0,0,0,0,0,0,0,0,0,0,0,0,0,0,0,0,0,0,0,0,0,0,0,0,0,0,0,0,0,0,0,0,0,0,0,45
guava,v11.0,v12.0,F:/corpus/guava/guava#2011-12-18-01-04-57#v11.0#5a6bf80/guava-gwt/src/com/google/common/collect/GwtSerializationDependencies.java,F:/corpus/guava/guava#2011-12-18-01-04-57#v11.0#5a6bf80/guava-gwt/src/com/google/common/collect/GwtSerializationDependencies.java,0,0,0,0,0,0,0,0,0,0,0,0,0,NO,0,0,0,0,0,0,0,0,0,0,0,0,0,0,0,0,0,0,0,0,0,0,0,0,0,0,0,0,0,0,0,0,0,0,0,0,0,0,0,0,0,0,0,0,0,0,0,0,0,129
guava,v11.0,v12.0,F:/corpus/guava/guava#2011-12-18-01-04-57#v11.0#5a6bf80/guava-gwt/src/com/google/common/collect/HashBasedTable_CustomFieldSerializer.java,F:/corpus/guava/guava#2011-12-18-01-04-57#v11.0#5a6bf80/guava-gwt/src/com/google/common/collect/HashBasedTable_CustomFieldSerializer.java,0,0,0,0,0,0,0,0,0,0,0,0,0,NO,0,0,0,0,0,0,0,0,0,0,0,0,0,0,0,0,0,0,0,0,0,0,0,0,0,0,0,0,0,0,0,0,0,0,0,0,0,0,0,0,0,0,0,0,0,0,0,0,0,58
guava,v11.0,v12.0,F:/corpus/guava/guava#2011-12-18-01-04-57#v11.0#5a6bf80/guava-gwt/src/com/google/common/collect/HashMultimap_CustomFieldSerializer.java,F:/corpus/guava/guava#2011-12-18-01-04-57#v11.0#5a6bf80/guava-gwt/src/com/google/common/collect/HashMultimap_CustomFieldSerializer.java,0,0,0,0,0,0,0,0,0,0,0,0,0,NO,0,0,0,0,0,0,0,0,0,0,0,0,0,0,0,0,0,0,0,0,0,0,0,0,0,0,0,0,0,0,0,0,0,0,0,0,0,0,0,0,0,0,0,0,0,0,0,0,0,45
guava,v11.0,v12.0,F:/corpus/guava/guava#2011-12-18-01-04-57#v11.0#5a6bf80/guava-gwt/src/com/google/common/collect/HashMultiset_CustomFieldSerializer.java,F:/corpus/guava/guava#2011-12-18-01-04-57#v11.0#5a6bf80/guava-gwt/src/com/google/common/collect/HashMultiset_CustomFieldSerializer.java,0,0,0,0,0,0,0,0,0,0,0,0,0,NO,0,0,0,0,0,0,0,0,0,0,0,0,0,0,0,0,0,0,0,0,0,0,0,0,0,0,0,0,0,0,0,0,0,0,0,0,0,0,0,0,0,0,0,0,0,0,0,0,0,44
guava,v11.0,v12.0,F:/corpus/guava/guava#2011-12-18-01-04-57#v11.0#5a6bf80/guava-gwt/src/com/google/common/collect/ImmutableAsList_CustomFieldSerializer.java,F:/corpus/guava/guava#2011-12-18-01-04-57#v11.0#5a6bf80/guava-gwt/src/com/google/common/collect/ImmutableAsList_CustomFieldSerializer.java,0,0,0,0,0,0,0,0,0,0,0,0,0,NO,0,0,0,0,0,0,0,0,0,0,0,0,0,0,0,0,0,0,0,0,0,0,0,0,0,0,0,0,0,0,0,0,0,0,0,0,0,0,0,0,0,0,0,0,0,0,0,0,0,55
guava,v11.0,v12.0,F:/corpus/guava/guava#2011-12-18-01-04-57#v11.0#5a6bf80/guava-gwt/src/com/google/common/collect/ImmutableEntry_CustomFieldSerializer.java,F:/corpus/guava/guava#2011-12-18-01-04-57#v11.0#5a6bf80/guava-gwt/src/com/google/common/collect/ImmutableEntry_CustomFieldSerializer.java,0,0,0,0,0,0,0,0,0,0,0,0,0,NO,0,0,0,0,0,0,0,0,0,0,0,0,0,0,0,0,0,0,0,0,0,0,0,0,0,0,0,0,0,0,0,0,0,0,0,0,0,0,0,0,0,0,0,0,0,0,0,0,0,47
guava,v11.0,v12.0,F:/corpus/guava/guava#2011-12-18-01-04-57#v11.0#5a6bf80/guava-gwt/src/com/google/common/collect/ImmutableEnumSet_CustomFieldSerializer.java,F:/corpus/guava/guava#2011-12-18-01-04-57#v11.0#5a6bf80/guava-gwt/src/com/google/common/collect/ImmutableEnumSet_CustomFieldSerializer.java,0,0,0,0,0,0,0,0,0,0,0,0,0,NO,0,0,0,0,0,0,0,0,0,0,0,0,0,0,0,0,0,0,0,0,0,0,0,0,0,0,0,0,0,0,0,0,0,0,0,0,0,0,0,0,0,0,0,0,0,0,0,0,0,54
guava,v11.0,v12.0,F:/corpus/guava/guava#2011-12-18-01-04-57#v11.0#5a6bf80/guava-gwt/src/com/google/common/collect/ImmutableListMultimap_CustomFieldSerializer.java,F:/corpus/guava/guava#2011-12-18-01-04-57#v11.0#5a6bf80/guava-gwt/src/com/google/common/collect/ImmutableListMultimap_CustomFieldSerializer.java,0,0,0,0,0,0,0,0,0,0,0,0,0,NO,0,0,0,0,0,0,0,0,0,0,0,0,0,0,0,0,0,0,0,0,0,0,0,0,0,0,0,0,0,0,0,0,0,0,0,0,0,0,0,0,0,0,0,0,0,0,0,0,0,45
guava,v11.0,v12.0,F:/corpus/guava/guava#2011-12-18-01-04-57#v11.0#5a6bf80/guava-gwt/src/com/google/common/collect/ImmutableList_CustomFieldSerializer.java,F:/corpus/guava/guava#2011-12-18-01-04-57#v11.0#5a6bf80/guava-gwt/src/com/google/common/collect/ImmutableList_CustomFieldSerializer.java,0,0,0,0,0,0,0,0,0,0,0,0,0,NO,0,0,0,0,0,0,0,0,0,0,0,0,0,0,0,0,0,0,0,0,0,0,0,0,0,0,0,0,0,0,0,0,0,0,0,0,0,0,0,0,0,0,0,0,0,0,0,0,0,26
guava,v11.0,v12.0,F:/corpus/guava/guava#2011-12-18-01-04-57#v11.0#5a6bf80/guava-gwt/src/com/google/common/collect/ImmutableMultiset_CustomFieldSerializer.java,F:/corpus/guava/guava#2011-12-18-01-04-57#v11.0#5a6bf80/guava-gwt/src/com/google/common/collect/ImmutableMultiset_CustomFieldSerializer.java,0,0,0,0,0,0,0,0,0,0,0,0,0,NO,0,0,0,0,0,0,0,0,0,0,0,0,0,0,0,0,0,0,0,0,0,0,0,0,0,0,0,0,0,0,0,0,0,0,0,0,0,0,0,0,0,0,0,0,0,0,0,0,0,26
guava,v11.0,v12.0,F:/corpus/guava/guava#2011-12-18-01-04-57#v11.0#5a6bf80/guava-gwt/src/com/google/common/collect/ImmutableSetMultimap_CustomFieldSerializer.java,F:/corpus/guava/guava#2011-12-18-01-04-57#v11.0#5a6bf80/guava-gwt/src/com/google/common/collect/ImmutableSetMultimap_CustomFieldSerializer.java,0,0,0,0,0,0,0,0,0,0,0,0,0,NO,0,0,0,0,0,0,0,0,0,0,0,0,0,0,0,0,0,0,0,0,0,0,0,0,0,0,0,0,0,0,0,0,0,0,0,0,0,0,0,0,0,0,0,0,0,0,0,0,0,45
guava,v11.0,v12.0,F:/corpus/guava/guava#2011-12-18-01-04-57#v11.0#5a6bf80/guava-gwt/src/com/google/common/collect/ImmutableSet_CustomFieldSerializer.java,F:/corpus/guava/guava#2011-12-18-01-04-57#v11.0#5a6bf80/guava-gwt/src/com/google/common/collect/ImmutableSet_CustomFieldSerializer.java,0,0,0,0,0,0,0,0,0,0,0,0,0,NO,0,0,0,0,0,0,0,0,0,0,0,0,0,0,0,0,0,0,0,0,0,0,0,0,0,0,0,0,0,0,0,0,0,0,0,0,0,0,0,0,0,0,0,0,0,0,0,0,0,26
guava,v11.0,v12.0,F:/corpus/guava/guava#2011-12-18-01-04-57#v11.0#5a6bf80/guava-gwt/src/com/google/common/collect/ImmutableSortedMap_CustomFieldSerializer.java,F:/corpus/guava/guava#2011-12-18-01-04-57#v11.0#5a6bf80/guava-gwt/src/com/google/common/collect/ImmutableSortedMap_CustomFieldSerializer.java,0,0,0,0,0,0,0,0,0,0,0,0,0,NO,0,0,0,0,0,0,0,0,0,0,0,0,0,0,0,0,0,0,0,0,0,0,0,0,0,0,0,0,0,0,0,0,0,0,0,0,0,0,0,0,0,0,0,0,0,0,0,0,0,59
guava,v11.0,v12.0,F:/corpus/guava/guava#2011-12-18-01-04-57#v11.0#5a6bf80/guava-gwt/src/com/google/common/collect/ImmutableSortedSet_CustomFieldSerializer.java,F:/corpus/guava/guava#2011-12-18-01-04-57#v11.0#5a6bf80/guava-gwt/src/com/google/common/collect/ImmutableSortedSet_CustomFieldSerializer.java,0,0,0,0,0,0,0,0,0,0,0,0,0,NO,0,0,0,0,0,0,0,0,0,0,0,0,0,0,0,0,0,0,0,0,0,0,0,0,0,0,0,0,0,0,0,0,0,0,0,0,0,0,0,0,0,0,0,0,0,0,0,0,0,26
guava,v11.0,v12.0,F:/corpus/guava/guava#2011-12-18-01-04-57#v11.0#5a6bf80/guava-gwt/src/com/google/common/collect/LexicographicalOrdering_CustomFieldSerializer.java,F:/corpus/guava/guava#2011-12-18-01-04-57#v11.0#5a6bf80/guava-gwt/src/com/google/common/collect/LexicographicalOrdering_CustomFieldSerializer.java,0,0,0,0,0,0,0,0,0,0,0,0,0,NO,0,0,0,0,0,0,0,0,0,0,0,0,0,0,0,0,0,0,0,0,0,0,0,0,0,0,0,0,0,0,0,0,0,0,0,0,0,0,0,0,0,0,0,0,0,0,0,0,0,45
guava,v11.0,v12.0,F:/corpus/guava/guava#2011-12-18-01-04-57#v11.0#5a6bf80/guava-gwt/src/com/google/common/collect/LinkedHashMultimap_CustomFieldSerializer.java,F:/corpus/guava/guava#2011-12-18-01-04-57#v11.0#5a6bf80/guava-gwt/src/com/google/common/collect/LinkedHashMultimap_CustomFieldSerializer.java,0,0,0,0,0,0,0,0,0,0,0,0,0,NO,0,0,0,0,0,0,0,0,0,0,0,0,0,0,0,0,0,0,0,0,0,0,0,0,0,0,0,0,0,0,0,0,0,0,0,0,0,0,0,0,0,0,0,0,0,0,0,0,0,61
guava,v11.0,v12.0,F:/corpus/guava/guava#2011-12-18-01-04-57#v11.0#5a6bf80/guava-gwt/src/com/google/common/collect/LinkedHashMultiset_CustomFieldSerializer.java,F:/corpus/guava/guava#2011-12-18-01-04-57#v11.0#5a6bf80/guava-gwt/src/com/google/common/collect/LinkedHashMultiset_CustomFieldSerializer.java,0,0,0,0,0,0,0,0,0,0,0,0,0,NO,0,0,0,0,0,0,0,0,0,0,0,0,0,0,0,0,0,0,0,0,0,0,0,0,0,0,0,0,0,0,0,0,0,0,0,0,0,0,0,0,0,0,0,0,0,0,0,0,0,45
guava,v11.0,v12.0,F:/corpus/guava/guava#2011-12-18-01-04-57#v11.0#5a6bf80/guava-gwt/src/com/google/common/collect/LinkedListMultimap_CustomFieldSerializer.java,F:/corpus/guava/guava#2011-12-18-01-04-57#v11.0#5a6bf80/guava-gwt/src/com/google/common/collect/LinkedListMultimap_CustomFieldSerializer.java,0,0,0,0,0,0,0,0,0,0,0,0,0,NO,0,0,0,0,0,0,0,0,0,0,0,0,0,0,0,0,0,0,0,0,0,0,0,0,0,0,0,0,0,0,0,0,0,0,0,0,0,0,0,0,0,0,0,0,0,0,0,0,0,56
guava,v11.0,v12.0,F:/corpus/guava/guava#2011-12-18-01-04-57#v11.0#5a6bf80/guava-gwt/src/com/google/common/collect/Multimap_CustomFieldSerializerBase.java,F:/corpus/guava/guava#2011-12-18-01-04-57#v11.0#5a6bf80/guava-gwt/src/com/google/common/collect/Multimap_CustomFieldSerializerBase.java,0,0,0,0,0,0,0,0,0,0,0,1,0,NO,0,0,0,0,0,0,0,0,0,0,0,0,0,0,0,0,0,0,0,0,0,0,0,0,0,0,0,0,0,0,0,0,0,0,0,0,0,0,0,0,0,0,0,0,0,0,0,0,0,83
guava,v11.0,v12.0,F:/corpus/guava/guava#2011-12-18-01-04-57#v11.0#5a6bf80/guava-gwt/src/com/google/common/collect/Multiset_CustomFieldSerializerBase.java,F:/corpus/guava/guava#2011-12-18-01-04-57#v11.0#5a6bf80/guava-gwt/src/com/google/common/collect/Multiset_CustomFieldSerializerBase.java,0,0,0,0,0,0,0,0,0,0,0,0,0,NO,0,0,0,0,0,0,0,0,0,0,0,0,0,0,0,0,0,0,0,0,0,0,0,0,0,0,0,0,0,0,0,0,0,0,0,0,0,0,0,0,0,0,0,0,0,0,0,0,0,69
guava,v11.0,v12.0,F:/corpus/guava/guava#2011-12-18-01-04-57#v11.0#5a6bf80/guava-gwt/src/com/google/common/collect/NaturalOrdering_CustomFieldSerializer.java,F:/corpus/guava/guava#2011-12-18-01-04-57#v11.0#5a6bf80/guava-gwt/src/com/google/common/collect/NaturalOrdering_CustomFieldSerializer.java,0,0,0,0,1,0,0,0,0,0,0,0,0,NO,0,0,0,0,0,0,0,0,0,0,0,0,0,0,0,0,0,0,0,0,0,0,0,0,0,0,0,0,0,0,0,0,0,0,0,0,0,0,0,0,0,0,0,0,0,0,0,0,0,41
guava,v11.0,v12.0,F:/corpus/guava/guava#2011-12-18-01-04-57#v11.0#5a6bf80/guava-gwt/src/com/google/common/collect/NullsFirstOrdering_CustomFieldSerializer.java,F:/corpus/guava/guava#2011-12-18-01-04-57#v11.0#5a6bf80/guava-gwt/src/com/google/common/collect/NullsFirstOrdering_CustomFieldSerializer.java,0,0,0,0,0,0,0,0,0,0,0,0,0,NO,0,0,0,0,0,0,0,0,0,0,0,0,0,0,0,0,0,0,0,0,0,0,0,0,0,0,0,0,0,0,0,0,0,0,0,0,0,0,0,0,0,0,0,0,0,0,0,0,0,45
guava,v11.0,v12.0,F:/corpus/guava/guava#2011-12-18-01-04-57#v11.0#5a6bf80/guava-gwt/src/com/google/common/collect/NullsLastOrdering_CustomFieldSerializer.java,F:/corpus/guava/guava#2011-12-18-01-04-57#v11.0#5a6bf80/guava-gwt/src/com/google/common/collect/NullsLastOrdering_CustomFieldSerializer.java,0,0,0,0,0,0,0,0,0,0,0,0,0,NO,0,0,0,0,0,0,0,0,0,0,0,0,0,0,0,0,0,0,0,0,0,0,0,0,0,0,0,0,0,0,0,0,0,0,0,0,0,0,0,0,0,0,0,0,0,0,0,0,0,45
guava,v11.0,v12.0,F:/corpus/guava/guava#2011-12-18-01-04-57#v11.0#5a6bf80/guava-gwt/src/com/google/common/collect/RegularImmutableBiMap_CustomFieldSerializer.java,F:/corpus/guava/guava#2011-12-18-01-04-57#v11.0#5a6bf80/guava-gwt/src/com/google/common/collect/RegularImmutableBiMap_CustomFieldSerializer.java,0,0,0,0,0,0,0,0,0,0,0,0,0,NO,0,0,0,0,0,0,0,0,0,0,0,0,0,0,0,0,0,0,0,0,0,0,0,0,0,0,0,0,0,0,0,0,0,0,0,0,0,0,0,0,0,0,0,0,0,0,0,0,0,56
guava,v11.0,v12.0,F:/corpus/guava/guava#2011-12-18-01-04-57#v11.0#5a6bf80/guava-gwt/src/com/google/common/collect/RegularImmutableList_CustomFieldSerializer.java,F:/corpus/guava/guava#2011-12-18-01-04-57#v11.0#5a6bf80/guava-gwt/src/com/google/common/collect/RegularImmutableList_CustomFieldSerializer.java,0,0,0,0,0,0,0,0,0,0,0,0,0,NO,0,0,0,0,0,0,0,0,0,0,0,0,0,0,0,0,0,0,0,0,0,0,0,0,0,0,0,0,0,0,0,0,0,0,0,0,0,0,0,0,0,0,0,0,0,0,0,0,0,56
guava,v11.0,v12.0,F:/corpus/guava/guava#2011-12-18-01-04-57#v11.0#5a6bf80/guava-gwt/src/com/google/common/collect/RegularImmutableMap_CustomFieldSerializer.java,F:/corpus/guava/guava#2011-12-18-01-04-57#v11.0#5a6bf80/guava-gwt/src/com/google/common/collect/RegularImmutableMap_CustomFieldSerializer.java,0,0,0,0,0,0,0,0,0,0,0,0,0,NO,0,0,0,0,0,0,0,0,0,0,0,0,0,0,0,0,0,0,0,0,0,0,0,0,0,0,0,0,0,0,0,0,0,0,0,0,0,0,0,0,0,0,0,0,0,0,0,0,0,55
guava,v11.0,v12.0,F:/corpus/guava/guava#2011-12-18-01-04-57#v11.0#5a6bf80/guava-gwt/src/com/google/common/collect/RegularImmutableMultiset_CustomFieldSerializer.java,F:/corpus/guava/guava#2011-12-18-01-04-57#v11.0#5a6bf80/guava-gwt/src/com/google/common/collect/RegularImmutableMultiset_CustomFieldSerializer.java,0,0,0,0,0,0,0,0,0,0,0,0,0,NO,0,0,0,0,0,0,0,0,0,0,0,0,0,0,0,0,0,0,0,0,0,0,0,0,0,0,0,0,0,0,0,0,0,0,0,0,0,0,0,0,0,0,0,0,0,0,0,0,0,54
guava,v11.0,v12.0,F:/corpus/guava/guava#2011-12-18-01-04-57#v11.0#5a6bf80/guava-gwt/src/com/google/common/collect/RegularImmutableSet_CustomFieldSerializer.java,F:/corpus/guava/guava#2011-12-18-01-04-57#v11.0#5a6bf80/guava-gwt/src/com/google/common/collect/RegularImmutableSet_CustomFieldSerializer.java,0,0,0,0,0,0,0,0,0,0,0,0,0,NO,0,0,0,0,0,0,0,0,0,0,0,0,0,0,0,0,0,0,0,0,0,0,0,0,0,0,0,0,0,0,0,0,0,0,0,0,0,0,0,0,0,0,0,0,0,0,0,0,0,54
guava,v11.0,v12.0,F:/corpus/guava/guava#2011-12-18-01-04-57#v11.0#5a6bf80/guava-gwt/src/com/google/common/collect/RegularImmutableSortedSet_CustomFieldSerializer.java,F:/corpus/guava/guava#2011-12-18-01-04-57#v11.0#5a6bf80/guava-gwt/src/com/google/common/collect/RegularImmutableSortedSet_CustomFieldSerializer.java,0,0,0,0,0,0,0,0,0,0,0,0,0,NO,0,0,0,0,0,0,0,0,0,0,0,0,0,0,0,0,0,0,0,0,0,0,0,0,0,0,0,0,0,0,0,0,0,0,0,0,0,0,0,0,0,0,0,0,0,0,0,0,0,66
guava,v11.0,v12.0,F:/corpus/guava/guava#2011-12-18-01-04-57#v11.0#5a6bf80/guava-gwt/src/com/google/common/collect/ReverseNaturalOrdering_CustomFieldSerializer.java,F:/corpus/guava/guava#2011-12-18-01-04-57#v11.0#5a6bf80/guava-gwt/src/com/google/common/collect/ReverseNaturalOrdering_CustomFieldSerializer.java,0,0,0,0,1,0,0,0,0,0,0,0,0,NO,0,0,0,0,0,0,0,0,0,0,0,0,0,0,0,0,0,0,0,0,0,0,0,0,0,0,0,0,0,0,0,0,0,0,0,0,0,0,0,0,0,0,0,0,0,0,0,0,0,42
guava,v11.0,v12.0,F:/corpus/guava/guava#2011-12-18-01-04-57#v11.0#5a6bf80/guava-gwt/src/com/google/common/collect/ReverseOrdering_CustomFieldSerializer.java,F:/corpus/guava/guava#2011-12-18-01-04-57#v11.0#5a6bf80/guava-gwt/src/com/google/common/collect/ReverseOrdering_CustomFieldSerializer.java,0,0,0,0,0,0,0,0,0,0,0,0,0,NO,0,0,0,0,0,0,0,0,0,0,0,0,0,0,0,0,0,0,0,0,0,0,0,0,0,0,0,0,0,0,0,0,0,0,0,0,0,0,0,0,0,0,0,0,0,0,0,0,0,45
guava,v11.0,v12.0,F:/corpus/guava/guava#2011-12-18-01-04-57#v11.0#5a6bf80/guava-gwt/src/com/google/common/collect/SingletonImmutableList_CustomFieldSerializer.java,F:/corpus/guava/guava#2011-12-18-01-04-57#v11.0#5a6bf80/guava-gwt/src/com/google/common/collect/SingletonImmutableList_CustomFieldSerializer.java,0,0,0,0,0,0,0,0,0,0,0,0,0,NO,0,0,0,0,0,0,0,0,0,0,0,0,0,0,0,0,0,0,0,0,0,0,0,0,0,0,0,0,0,0,0,0,0,0,0,0,0,0,0,0,0,0,0,0,0,0,0,0,0,45
guava,v11.0,v12.0,F:/corpus/guava/guava#2011-12-18-01-04-57#v11.0#5a6bf80/guava-gwt/src/com/google/common/collect/SingletonImmutableMap_CustomFieldSerializer.java,F:/corpus/guava/guava#2011-12-18-01-04-57#v11.0#5a6bf80/guava-gwt/src/com/google/common/collect/SingletonImmutableMap_CustomFieldSerializer.java,0,0,0,0,0,0,0,0,0,0,0,0,0,NO,0,0,0,0,0,0,0,0,0,0,0,0,0,0,0,0,0,0,0,0,0,0,0,0,0,0,0,0,0,0,0,0,0,0,0,0,0,0,0,0,0,0,0,0,0,0,0,0,0,48
guava,v11.0,v12.0,F:/corpus/guava/guava#2011-12-18-01-04-57#v11.0#5a6bf80/guava-gwt/src/com/google/common/collect/SingletonImmutableSet_CustomFieldSerializer.java,F:/corpus/guava/guava#2011-12-18-01-04-57#v11.0#5a6bf80/guava-gwt/src/com/google/common/collect/SingletonImmutableSet_CustomFieldSerializer.java,0,0,0,0,0,0,0,0,0,0,0,0,0,NO,0,0,0,0,0,0,0,0,0,0,0,0,0,0,0,0,0,0,0,0,0,0,0,0,0,0,0,0,0,0,0,0,0,0,0,0,0,0,0,0,0,0,0,0,0,0,0,0,0,44
guava,v11.0,v12.0,F:/corpus/guava/guava#2011-12-18-01-04-57#v11.0#5a6bf80/guava-gwt/src/com/google/common/collect/TreeBasedTable_CustomFieldSerializer.java,F:/corpus/guava/guava#2011-12-18-01-04-57#v11.0#5a6bf80/guava-gwt/src/com/google/common/collect/TreeBasedTable_CustomFieldSerializer.java,0,0,0,0,0,0,0,0,0,0,0,0,0,NO,0,0,0,0,0,0,0,0,0,0,0,0,0,0,0,0,0,0,0,0,0,0,0,0,0,0,0,0,0,0,0,0,0,0,0,0,0,0,0,0,0,0,0,0,0,0,0,0,0,69
guava,v11.0,v12.0,F:/corpus/guava/guava#2011-12-18-01-04-57#v11.0#5a6bf80/guava-gwt/src/com/google/common/collect/TreeMultimap_CustomFieldSerializer.java,F:/corpus/guava/guava#2011-12-18-01-04-57#v11.0#5a6bf80/guava-gwt/src/com/google/common/collect/TreeMultimap_CustomFieldSerializer.java,0,0,0,0,0,0,0,0,0,0,0,0,0,NO,0,0,0,0,0,0,0,0,0,0,0,0,0,0,0,0,0,0,0,0,0,0,0,0,0,0,0,0,0,0,0,0,0,0,0,0,0,0,0,0,0,0,0,0,0,0,0,0,0,53
guava,v11.0,v12.0,F:/corpus/guava/guava#2011-12-18-01-04-57#v11.0#5a6bf80/guava-gwt/src/com/google/common/collect/UsingToStringOrdering_CustomFieldSerializer.java,F:/corpus/guava/guava#2011-12-18-01-04-57#v11.0#5a6bf80/guava-gwt/src/com/google/common/collect/UsingToStringOrdering_CustomFieldSerializer.java,0,0,0,0,1,0,0,0,0,0,0,0,0,NO,0,0,0,0,0,0,0,0,0,0,0,0,0,0,0,0,0,0,0,0,0,0,0,0,0,0,0,0,0,0,0,0,0,0,0,0,0,0,0,0,0,0,0,0,0,0,0,0,0,41
guava,v11.0,v12.0,F:/corpus/guava/guava#2011-12-18-01-04-57#v11.0#5a6bf80/guava-gwt/src-super/com/google/common/base/super/com/google/common/base/Platform.java,F:/corpus/guava/guava#2011-12-18-01-04-57#v11.0#5a6bf80/guava-gwt/src-super/com/google/common/base/super/com/google/common/base/Platform.java,0,0,0,0,0,0,0,0,0,0,0,0,0,NO,0,0,0,0,0,0,0,0,0,0,0,0,0,0,0,0,0,0,0,0,0,0,0,0,0,0,0,0,0,0,0,0,0,0,0,0,0,0,0,0,0,0,0,0,0,0,0,0,0,49
guava,v11.0,v12.0,F:/corpus/guava/guava#2011-12-18-01-04-57#v11.0#5a6bf80/guava-gwt/src-super/com/google/common/base/super/com/google/common/base/Stopwatch.java,F:/corpus/guava/guava#2011-12-18-01-04-57#v11.0#5a6bf80/guava-gwt/src-super/com/google/common/base/super/com/google/common/base/Stopwatch.java,0,0,0,0,0,0,0,0,0,0,0,0,0,NO,0,0,0,0,0,0,0,0,0,0,0,0,0,0,0,0,0,0,0,0,0,0,0,0,0,0,0,0,0,0,0,0,0,0,0,0,0,0,0,0,0,0,0,0,0,0,0,0,0,196
guava,v11.0,v12.0,F:/corpus/guava/guava#2011-12-18-01-04-57#v11.0#5a6bf80/guava-gwt/src-super/com/google/common/collect/super/com/google/common/collect/EmptyImmutableMap.java,F:/corpus/guava/guava#2011-12-18-01-04-57#v11.0#5a6bf80/guava-gwt/src-super/com/google/common/collect/super/com/google/common/collect/EmptyImmutableMap.java,0,0,0,0,0,0,0,0,0,0,0,0,0,NO,0,0,0,0,0,0,0,0,0,0,0,0,0,0,0,0,0,0,0,0,0,0,0,0,0,0,0,0,0,0,0,0,0,0,0,0,0,0,0,0,0,0,0,0,0,0,0,0,0,28
guava,v11.0,v12.0,F:/corpus/guava/guava#2011-12-18-01-04-57#v11.0#5a6bf80/guava-gwt/src-super/com/google/common/collect/super/com/google/common/collect/EmptyImmutableSet.java,F:/corpus/guava/guava#2011-12-18-01-04-57#v11.0#5a6bf80/guava-gwt/src-super/com/google/common/collect/super/com/google/common/collect/EmptyImmutableSet.java,0,0,0,0,0,0,0,0,0,0,0,0,0,NO,0,0,0,0,0,0,0,0,0,0,0,0,0,0,0,0,0,0,0,0,0,0,0,0,0,0,0,0,0,0,0,0,0,0,0,0,0,0,0,0,0,0,0,0,0,0,0,0,0,27
guava,v11.0,v12.0,F:/corpus/guava/guava#2011-12-18-01-04-57#v11.0#5a6bf80/guava-gwt/src-super/com/google/common/collect/super/com/google/common/collect/ForwardingImmutableCollection.java,F:/corpus/guava/guava#2011-12-18-01-04-57#v11.0#5a6bf80/guava-gwt/src-super/com/google/common/collect/super/com/google/common/collect/ForwardingImmutableCollection.java,0,0,0,0,0,0,0,0,0,0,0,0,0,NO,0,0,0,0,0,0,0,0,0,0,0,0,0,0,0,0,0,0,0,0,0,0,0,0,0,0,0,0,0,0,0,0,0,0,0,0,0,0,0,0,0,0,0,0,0,0,0,0,0,69
guava,v11.0,v12.0,F:/corpus/guava/guava#2011-12-18-01-04-57#v11.0#5a6bf80/guava-gwt/src-super/com/google/common/collect/super/com/google/common/collect/GenericMapMaker.java,F:/corpus/guava/guava#2011-12-18-01-04-57#v11.0#5a6bf80/guava-gwt/src-super/com/google/common/collect/super/com/google/common/collect/GenericMapMaker.java,0,0,0,0,1,0,0,0,0,0,0,0,0,NO,0,0,0,0,0,0,0,0,0,0,0,0,0,0,0,0,0,0,0,0,0,0,0,0,0,0,0,0,0,0,0,0,0,0,0,0,0,0,0,0,0,0,0,0,0,0,0,0,0,97
guava,v11.0,v12.0,F:/corpus/guava/guava#2011-12-18-01-04-57#v11.0#5a6bf80/guava-gwt/src-super/com/google/common/collect/super/com/google/common/collect/GwtPlatform.java,F:/corpus/guava/guava#2011-12-18-01-04-57#v11.0#5a6bf80/guava-gwt/src-super/com/google/common/collect/super/com/google/common/collect/GwtPlatform.java,0,0,0,0,0,0,0,0,0,0,0,0,0,NO,0,0,0,0,0,0,0,0,0,0,0,0,0,0,0,0,0,0,0,0,0,0,0,0,0,0,0,0,0,0,0,0,0,0,0,0,0,0,0,0,0,0,0,0,0,0,0,0,0,44
guava,v11.0,v12.0,F:/corpus/guava/guava#2011-12-18-01-04-57#v11.0#5a6bf80/guava-gwt/src-super/com/google/common/collect/super/com/google/common/collect/HashMultiset.java,F:/corpus/guava/guava#2011-12-18-01-04-57#v11.0#5a6bf80/guava-gwt/src-super/com/google/common/collect/super/com/google/common/collect/HashMultiset.java,0,0,0,0,0,0,0,0,0,0,0,2,0,NO,0,0,0,0,0,0,0,0,0,0,0,0,0,0,0,0,0,0,0,0,0,0,0,0,0,0,0,0,0,0,0,0,0,0,0,0,0,0,0,0,0,0,0,0,0,0,0,0,0,75
guava,v11.0,v12.0,F:/corpus/guava/guava#2011-12-18-01-04-57#v11.0#5a6bf80/guava-gwt/src-super/com/google/common/collect/super/com/google/common/collect/ImmutableAsList.java,F:/corpus/guava/guava#2011-12-18-01-04-57#v11.0#5a6bf80/guava-gwt/src-super/com/google/common/collect/super/com/google/common/collect/ImmutableAsList.java,0,0,0,0,0,0,0,0,0,0,0,0,0,NO,0,0,0,0,0,0,0,0,0,0,0,0,0,0,0,0,0,0,0,0,0,0,0,0,0,0,0,0,0,0,0,0,0,0,0,0,0,0,0,0,0,0,0,0,0,0,0,0,0,30
guava,v11.0,v12.0,F:/corpus/guava/guava#2011-12-18-01-04-57#v11.0#5a6bf80/guava-gwt/src-super/com/google/common/collect/super/com/google/common/collect/ImmutableAsList_CustomFieldSerializer.java,F:/corpus/guava/guava#2011-12-18-01-04-57#v11.0#5a6bf80/guava-gwt/src-super/com/google/common/collect/super/com/google/common/collect/ImmutableAsList_CustomFieldSerializer.java,0,0,0,0,0,0,0,0,0,0,0,0,0,NO,0,0,0,0,0,0,0,0,0,0,0,0,0,0,0,0,0,0,0,0,0,0,0,0,0,0,0,0,0,0,0,0,0,0,0,0,0,0,0,0,0,0,0,0,0,0,0,0,0,50
guava,v11.0,v12.0,F:/corpus/guava/guava#2011-12-18-01-04-57#v11.0#5a6bf80/guava-gwt/src-super/com/google/common/collect/super/com/google/common/collect/ImmutableBiMap.java,F:/corpus/guava/guava#2011-12-18-01-04-57#v11.0#5a6bf80/guava-gwt/src-super/com/google/common/collect/super/com/google/common/collect/ImmutableBiMap.java,0,0,0,0,2,0,0,0,0,0,2,0,0,NO,0,0,0,0,0,0,0,0,0,0,0,0,0,0,0,0,0,0,0,0,0,0,0,0,0,0,0,0,0,0,0,0,0,0,0,0,0,0,0,0,0,0,0,0,0,0,0,0,0,131
guava,v11.0,v12.0,F:/corpus/guava/guava#2011-12-18-01-04-57#v11.0#5a6bf80/guava-gwt/src-super/com/google/common/collect/super/com/google/common/collect/ImmutableEnumSet.java,F:/corpus/guava/guava#2011-12-18-01-04-57#v11.0#5a6bf80/guava-gwt/src-super/com/google/common/collect/super/com/google/common/collect/ImmutableEnumSet.java,0,0,0,0,0,0,0,0,0,0,0,0,0,NO,0,0,0,0,0,0,0,0,0,0,0,0,0,0,0,0,0,0,0,0,0,0,0,0,0,0,0,0,0,0,0,0,0,0,0,0,0,0,0,0,0,0,0,0,0,0,0,0,0,31
guava,v11.0,v12.0,F:/corpus/guava/guava#2011-12-18-01-04-57#v11.0#5a6bf80/guava-gwt/src-super/com/google/common/collect/super/com/google/common/collect/ImmutableMap.java,F:/corpus/guava/guava#2011-12-18-01-04-57#v11.0#5a6bf80/guava-gwt/src-super/com/google/common/collect/super/com/google/common/collect/ImmutableMap.java,0,0,0,0,4,0,0,0,0,0,2,15,0,NO,0,0,0,0,0,0,0,0,0,0,0,0,0,0,0,0,0,0,0,0,0,0,0,0,0,0,0,0,0,0,0,0,0,0,0,0,0,0,0,0,0,0,0,0,0,0,0,0,0,291
guava,v11.0,v12.0,F:/corpus/guava/guava#2011-12-18-01-04-57#v11.0#5a6bf80/guava-gwt/src-super/com/google/common/collect/super/com/google/common/collect/ImmutableSet.java,F:/corpus/guava/guava#2011-12-18-01-04-57#v11.0#5a6bf80/guava-gwt/src-super/com/google/common/collect/super/com/google/common/collect/ImmutableSet.java,0,0,0,0,1,0,0,0,0,0,0,9,0,NO,0,0,0,0,0,0,0,0,0,0,0,0,0,0,0,0,0,0,0,0,0,0,0,0,0,0,0,0,0,0,0,0,0,0,0,0,0,0,0,0,0,0,0,0,0,0,0,0,0,221
guava,v11.0,v12.0,F:/corpus/guava/guava#2011-12-18-01-04-57#v11.0#5a6bf80/guava-gwt/src-super/com/google/common/collect/super/com/google/common/collect/MapMaker.java,F:/corpus/guava/guava#2011-12-18-01-04-57#v11.0#5a6bf80/guava-gwt/src-super/com/google/common/collect/super/com/google/common/collect/MapMaker.java,0,0,0,0,1,0,0,0,0,0,0,1,0,NO,0,0,0,0,0,0,0,0,0,0,0,0,0,0,0,0,0,0,0,0,0,0,0,0,0,0,0,0,0,0,0,0,0,0,0,0,0,0,0,0,0,0,0,0,0,0,0,0,0,252
guava,v11.0,v12.0,F:/corpus/guava/guava#2011-12-18-01-04-57#v11.0#5a6bf80/guava-gwt/src-super/com/google/common/collect/super/com/google/common/collect/RegularImmutableBiMap.java,F:/corpus/guava/guava#2011-12-18-01-04-57#v11.0#5a6bf80/guava-gwt/src-super/com/google/common/collect/super/com/google/common/collect/RegularImmutableBiMap.java,0,0,0,0,0,0,0,0,0,0,0,0,0,NO,0,0,0,0,0,0,0,0,0,0,0,0,0,0,0,0,0,0,0,0,0,0,0,0,0,0,0,0,0,0,0,0,0,0,0,0,0,0,0,0,0,0,0,0,0,0,0,0,0,52
guava,v11.0,v12.0,F:/corpus/guava/guava#2011-12-18-01-04-57#v11.0#5a6bf80/guava-gwt/src-super/com/google/common/collect/super/com/google/common/collect/RegularImmutableMap.java,F:/corpus/guava/guava#2011-12-18-01-04-57#v11.0#5a6bf80/guava-gwt/src-super/com/google/common/collect/super/com/google/common/collect/RegularImmutableMap.java,0,0,0,0,0,0,0,0,0,0,0,0,0,NO,0,0,0,0,0,0,0,0,0,0,0,0,0,0,0,0,0,0,0,0,0,0,0,0,0,0,0,0,0,0,0,0,0,0,0,0,0,0,0,0,0,0,0,0,0,0,0,0,0,35
guava,v11.0,v12.0,F:/corpus/guava/guava#2011-12-18-01-04-57#v11.0#5a6bf80/guava-gwt/src-super/com/google/common/collect/super/com/google/common/collect/RegularImmutableSet.java,F:/corpus/guava/guava#2011-12-18-01-04-57#v11.0#5a6bf80/guava-gwt/src-super/com/google/common/collect/super/com/google/common/collect/RegularImmutableSet.java,0,0,0,0,0,0,0,0,0,0,0,0,0,NO,0,0,0,0,0,0,0,0,0,0,0,0,0,0,0,0,0,0,0,0,0,0,0,0,0,0,0,0,0,0,0,0,0,0,0,0,0,0,0,0,0,0,0,0,0,0,0,0,0,36
guava,v11.0,v12.0,F:/corpus/guava/guava#2011-12-18-01-04-57#v11.0#5a6bf80/guava-gwt/src-super/com/google/common/collect/super/com/google/common/collect/RegularImmutableSortedSet.java,F:/corpus/guava/guava#2011-12-18-01-04-57#v11.0#5a6bf80/guava-gwt/src-super/com/google/common/collect/super/com/google/common/collect/RegularImmutableSortedSet.java,0,0,0,0,0,0,0,0,0,0,0,0,0,NO,0,0,0,0,0,0,0,0,0,0,0,0,0,0,0,0,0,0,0,0,0,0,0,0,0,0,0,0,0,0,0,0,0,0,0,0,0,0,0,0,0,0,0,0,0,0,0,0,0,35
guava,v11.0,v12.0,F:/corpus/guava/guava#2011-12-18-01-04-57#v11.0#5a6bf80/guava-gwt/src-super/com/google/common/collect/super/com/google/common/collect/SingletonImmutableMap.java,F:/corpus/guava/guava#2011-12-18-01-04-57#v11.0#5a6bf80/guava-gwt/src-super/com/google/common/collect/super/com/google/common/collect/SingletonImmutableMap.java,0,0,0,0,0,0,0,0,0,0,0,0,0,NO,0,0,0,0,0,0,0,0,0,0,0,0,0,0,0,0,0,0,0,0,0,0,0,0,0,0,0,0,0,0,0,0,0,0,0,0,0,0,0,0,0,0,0,0,0,0,0,0,0,44
guava,v11.0,v12.0,F:/corpus/guava/guava#2011-12-18-01-04-57#v11.0#5a6bf80/guava-gwt/src-super/com/google/common/collect/super/com/google/common/collect/SingletonImmutableSet.java,F:/corpus/guava/guava#2011-12-18-01-04-57#v11.0#5a6bf80/guava-gwt/src-super/com/google/common/collect/super/com/google/common/collect/SingletonImmutableSet.java,0,0,0,0,0,0,0,0,0,0,0,0,0,NO,0,0,0,0,0,0,0,0,0,0,0,0,0,0,0,0,0,0,0,0,0,0,0,0,0,0,0,0,0,0,0,0,0,0,0,0,0,0,0,0,0,0,0,0,0,0,0,0,0,41
guava,v11.0,v12.0,F:/corpus/guava/guava#2011-12-18-01-04-57#v11.0#5a6bf80/guava-gwt/src-super/com/google/common/escape/super/com/google/common/escape/Platform.java,F:/corpus/guava/guava#2011-12-18-01-04-57#v11.0#5a6bf80/guava-gwt/src-super/com/google/common/escape/super/com/google/common/escape/Platform.java,0,0,0,0,0,0,0,0,0,0,0,0,0,NO,0,0,0,0,0,0,0,0,0,0,0,0,0,0,0,0,0,0,0,0,0,0,0,0,0,0,0,0,0,0,0,0,0,0,0,0,0,0,0,0,0,0,0,0,0,0,0,0,0,33
guava,v11.0,v12.0,F:/corpus/guava/guava#2011-12-18-01-04-57#v11.0#5a6bf80/guava-gwt/src-super/java/util/super/java/util/concurrent/atomic/AtomicInteger.java,F:/corpus/guava/guava#2011-12-18-01-04-57#v11.0#5a6bf80/guava-gwt/src-super/java/util/super/java/util/concurrent/atomic/AtomicInteger.java,0,0,0,0,0,0,0,0,0,0,0,2,0,NO,0,0,0,0,0,0,0,0,0,0,0,0,0,0,0,0,0,0,0,0,0,0,0,0,0,0,0,0,0,0,0,0,0,0,0,0,0,0,0,0,0,0,0,0,0,0,0,0,0,109
guava,v11.0,v12.0,F:/corpus/guava/guava#2011-12-18-01-04-57#v11.0#5a6bf80/guava-gwt/src-super/java/util/super/java/util/concurrent/Callable.java,F:/corpus/guava/guava#2011-12-18-01-04-57#v11.0#5a6bf80/guava-gwt/src-super/java/util/super/java/util/concurrent/Callable.java,0,0,0,0,0,0,0,0,0,0,0,0,0,NO,0,0,0,0,0,0,0,0,0,0,0,0,0,0,0,0,0,0,0,0,0,0,0,0,0,0,0,0,0,0,0,0,0,0,0,0,0,0,0,0,0,0,0,0,0,0,0,0,0,26
guava,v11.0,v12.0,F:/corpus/guava/guava#2011-12-18-01-04-57#v11.0#5a6bf80/guava-gwt/src-super/java/util/super/java/util/concurrent/ConcurrentHashMap.java,F:/corpus/guava/guava#2011-12-18-01-04-57#v11.0#5a6bf80/guava-gwt/src-super/java/util/super/java/util/concurrent/ConcurrentHashMap.java,0,0,0,0,0,0,0,0,0,0,0,0,0,NO,0,0,0,0,0,0,0,0,0,0,0,0,0,0,0,0,0,0,0,0,0,0,0,0,0,0,0,0,0,0,0,0,0,0,0,0,0,0,0,0,0,0,0,0,0,0,0,0,0,144
guava,v11.0,v12.0,F:/corpus/guava/guava#2011-12-18-01-04-57#v11.0#5a6bf80/guava-gwt/src-super/java/util/super/java/util/concurrent/ConcurrentMap.java,F:/corpus/guava/guava#2011-12-18-01-04-57#v11.0#5a6bf80/guava-gwt/src-super/java/util/super/java/util/concurrent/ConcurrentMap.java,0,0,0,0,1,0,0,0,0,0,0,0,0,NO,0,0,0,0,0,0,0,0,0,0,0,0,0,0,0,0,0,0,0,0,0,0,0,0,0,0,0,0,0,0,0,0,0,0,0,0,0,0,0,0,0,0,0,0,0,0,0,0,0,35
guava,v11.0,v12.0,F:/corpus/guava/guava#2011-12-18-01-04-57#v11.0#5a6bf80/guava-gwt/src-super/java/util/super/java/util/concurrent/ExecutionException.java,F:/corpus/guava/guava#2011-12-18-01-04-57#v11.0#5a6bf80/guava-gwt/src-super/java/util/super/java/util/concurrent/ExecutionException.java,0,0,0,0,0,0,0,0,0,0,0,0,0,NO,0,0,0,0,0,0,0,0,0,0,0,0,0,0,0,0,0,0,0,0,0,0,0,0,0,0,0,0,0,0,0,0,0,0,0,0,0,0,0,0,0,0,0,0,0,0,0,0,0,38
guava,v11.0,v12.0,F:/corpus/guava/guava#2011-12-18-01-04-57#v11.0#5a6bf80/guava-gwt/src-super/java/util/super/java/util/concurrent/TimeUnit.java,F:/corpus/guava/guava#2011-12-18-01-04-57#v11.0#5a6bf80/guava-gwt/src-super/java/util/super/java/util/concurrent/TimeUnit.java,0,0,0,0,0,0,0,0,0,0,0,0,0,NO,0,0,0,0,0,0,0,0,0,0,0,0,0,0,0,0,0,0,0,0,0,0,0,0,0,0,0,0,0,0,0,0,0,0,0,0,0,0,0,0,0,0,0,0,0,0,0,0,0,144
