projectName,oldVersionTag,newVersionTag,oldPath,newPath,DC,LC,MM,RPB,SG,MCH,DCLP,DIVC,FE,LM,LPL,SS,SC,fromChangeDistiller,adding_attribute_modifiability,adding_class_derivability,adding_method_overridability,additional_class,additional_functionality,additional_object_state,alternative_part_delete,alternative_part_insert,attribute_renaming,attribute_type_change,class_renaming,comment_delete,comment_insert,comment_move,comment_update,condition_expression_change,decreasing_accessibility_change,doc_delete,doc_insert,doc_update,increasing_accessibility_change,method_renaming,parameter_delete,parameter_insert,parameter_ordering_change,parameter_renaming,parameter_type_change,parent_class_change,parent_class_delete,parent_class_insert,parent_interface_change,parent_interface_delete,parent_interface_insert,removed_class,removed_functionality,removed_object_state,removing_attribute_modifiability,removing_class_derivability,removing_method_overridability,return_type_change,return_type_delete,return_type_insert,statement_delete,statement_insert,statement_ordering_change,statement_parent_change,statement_update,unclassified_change,codeChurn,LOC
guava,v1.0,v2.0,F:/corpus/guava/guava#2010-04-10-01-32-12#v1.0#14dd226/src/com/google/common/base/CharMatcher.java,F:/corpus/guava/guava#2010-01-12-01-13-23#v2.0#f5ad01f/src/com/google/common/base/CharMatcher.java,0,1,0,0,0,0,0,0,0,0,0,0,0,YES,0,0,0,0,1,3,0,0,0,0,0,0,0,0,0,0,0,0,0,3,0,0,0,0,0,0,0,0,0,0,0,0,0,0,0,0,0,0,0,0,0,0,3,1,0,0,0,0,61,1081
guava,v1.0,v2.0,F:/corpus/guava/guava#2010-04-10-01-32-12#v1.0#14dd226/src/com/google/common/base/Charsets.java,F:/corpus/guava/guava#2010-01-12-01-13-23#v2.0#f5ad01f/src/com/google/common/base/Charsets.java,1,0,0,0,0,0,0,0,0,0,0,0,0,YES,0,0,0,0,0,0,0,0,0,0,0,0,0,0,0,0,0,0,0,0,0,0,0,0,0,0,0,0,0,0,0,0,0,0,0,0,0,0,0,0,0,0,0,0,0,0,0,0,1,71
guava,v1.0,v2.0,F:/corpus/guava/guava#2010-04-10-01-32-12#v1.0#14dd226/src/com/google/common/base/Service.java,F:/corpus/guava/guava#2010-01-12-01-13-23#v2.0#f5ad01f/src/com/google/common/base/Service.java,0,0,0,0,0,0,0,0,0,0,0,0,0,YES,0,0,0,0,0,0,0,0,0,0,0,0,0,0,0,0,0,0,0,0,0,0,0,0,0,0,0,0,0,0,0,0,0,0,0,0,0,0,0,0,0,0,0,0,0,0,0,0,1,157
guava,v1.0,v2.0,F:/corpus/guava/guava#2010-04-10-01-32-12#v1.0#14dd226/src/com/google/common/base/Splitter.java,F:/corpus/guava/guava#2010-01-12-01-13-23#v2.0#f5ad01f/src/com/google/common/base/Splitter.java,0,0,0,0,3,0,0,0,0,0,0,0,0,YES,0,0,0,0,0,0,0,0,0,0,0,0,0,0,0,0,0,0,0,1,0,0,0,0,0,0,0,0,0,0,0,0,0,0,0,0,0,0,0,0,0,0,0,0,0,0,5,0,9,455
guava,v1.0,v2.0,F:/corpus/guava/guava#2010-04-10-01-32-12#v1.0#14dd226/src/com/google/common/base/Throwables.java,F:/corpus/guava/guava#2010-01-12-01-13-23#v2.0#f5ad01f/src/com/google/common/base/Throwables.java,0,0,0,0,0,0,0,0,0,0,0,0,0,YES,0,0,0,0,0,0,0,0,0,0,0,0,0,0,0,0,0,0,0,0,0,0,0,0,0,0,0,0,0,0,0,0,0,0,0,0,0,0,0,0,0,0,0,0,0,0,0,0,1,242
guava,v1.0,v2.0,F:/corpus/guava/guava#2010-04-10-01-32-12#v1.0#14dd226/src/com/google/common/io/AppendableWriter.java,F:/corpus/guava/guava#2010-01-12-01-13-23#v2.0#f5ad01f/src/com/google/common/io/AppendableWriter.java,0,0,1,0,0,0,0,0,0,0,0,0,0,YES,0,0,0,0,0,0,0,0,0,0,0,0,0,0,0,0,0,0,0,0,0,0,0,0,0,0,0,0,0,0,0,0,0,0,0,0,0,0,0,0,0,0,0,0,0,0,0,0,1,117
guava,v1.0,v2.0,F:/corpus/guava/guava#2010-04-10-01-32-12#v1.0#14dd226/src/com/google/common/io/ByteArrayDataInput.java,F:/corpus/guava/guava#2010-01-12-01-13-23#v2.0#f5ad01f/src/com/google/common/io/ByteArrayDataInput.java,0,0,0,0,1,0,0,0,0,0,0,0,0,YES,0,0,0,0,0,0,0,0,0,0,0,0,0,0,0,0,0,0,0,1,0,0,0,0,0,0,0,0,0,0,0,0,0,0,0,0,0,0,0,0,0,0,0,0,0,0,0,0,16,47
guava,v1.0,v2.0,F:/corpus/guava/guava#2010-04-10-01-32-12#v1.0#14dd226/src/com/google/common/io/ByteArrayDataOutput.java,F:/corpus/guava/guava#2010-01-12-01-13-23#v2.0#f5ad01f/src/com/google/common/io/ByteArrayDataOutput.java,0,0,0,0,1,0,0,0,0,0,0,0,0,YES,0,0,0,0,0,0,0,0,0,0,0,0,0,0,0,0,0,0,0,1,0,0,0,0,0,0,0,0,0,0,0,0,0,0,0,0,0,0,0,0,0,0,0,0,0,0,0,0,15,55
guava,v1.0,v2.0,F:/corpus/guava/guava#2010-04-10-01-32-12#v1.0#14dd226/src/com/google/common/io/ByteProcessor.java,F:/corpus/guava/guava#2010-01-12-01-13-23#v2.0#f5ad01f/src/com/google/common/io/ByteProcessor.java,0,0,0,0,1,0,0,0,0,0,0,0,0,YES,0,0,0,0,0,0,0,0,0,0,0,0,0,0,0,0,0,0,0,0,0,0,0,0,0,0,0,0,0,0,0,0,0,0,0,0,0,0,0,0,0,0,0,0,0,0,0,0,1,46
guava,v1.0,v2.0,F:/corpus/guava/guava#2010-04-10-01-32-12#v1.0#14dd226/src/com/google/common/io/ByteStreams.java,F:/corpus/guava/guava#2010-01-12-01-13-23#v2.0#f5ad01f/src/com/google/common/io/ByteStreams.java,0,0,0,0,0,0,1,0,0,0,0,0,0,YES,0,0,0,0,0,0,0,0,0,0,0,0,0,0,0,0,0,0,0,1,0,0,0,0,0,0,0,0,0,0,0,0,0,0,0,0,0,0,0,0,0,0,0,0,0,0,2,0,33,846
guava,v1.0,v2.0,F:/corpus/guava/guava#2010-04-10-01-32-12#v1.0#14dd226/src/com/google/common/io/CharStreams.java,F:/corpus/guava/guava#2010-01-12-01-13-23#v2.0#f5ad01f/src/com/google/common/io/CharStreams.java,0,0,0,0,0,0,0,0,0,0,0,0,0,YES,0,0,0,0,0,0,0,0,0,0,0,0,0,0,0,0,0,0,0,1,0,0,0,0,0,0,0,0,0,0,0,0,0,0,0,0,0,0,0,0,0,0,0,0,0,0,1,0,2,434
guava,v1.0,v2.0,F:/corpus/guava/guava#2010-04-10-01-32-12#v1.0#14dd226/src/com/google/common/io/Closeables.java,F:/corpus/guava/guava#2010-01-12-01-13-23#v2.0#f5ad01f/src/com/google/common/io/Closeables.java,0,0,0,0,0,0,0,0,0,0,0,0,0,YES,0,0,0,0,0,0,0,0,0,0,0,0,0,0,0,0,0,0,0,0,0,0,0,0,0,0,0,0,0,0,0,0,0,0,0,0,0,0,0,0,0,0,0,0,0,0,0,0,1,100
guava,v1.0,v2.0,F:/corpus/guava/guava#2010-04-10-01-32-12#v1.0#14dd226/src/com/google/common/io/CountingInputStream.java,F:/corpus/guava/guava#2010-01-12-01-13-23#v2.0#f5ad01f/src/com/google/common/io/CountingInputStream.java,0,0,0,0,0,0,0,0,0,0,0,0,0,YES,0,0,0,0,0,0,0,0,0,0,0,0,0,0,0,0,0,0,0,0,0,0,0,0,0,0,0,0,0,0,0,0,0,0,0,0,0,0,0,0,0,0,0,0,0,0,0,0,1,87
guava,v1.0,v2.0,F:/corpus/guava/guava#2010-04-10-01-32-12#v1.0#14dd226/src/com/google/common/io/CountingOutputStream.java,F:/corpus/guava/guava#2010-01-12-01-13-23#v2.0#f5ad01f/src/com/google/common/io/CountingOutputStream.java,0,0,0,0,0,0,0,0,0,0,0,0,0,YES,0,0,0,0,0,0,0,0,0,0,0,0,0,0,0,0,0,0,0,0,0,0,0,0,0,0,0,0,0,0,0,0,0,0,0,0,0,0,0,0,0,0,0,0,0,0,0,0,1,56
guava,v1.0,v2.0,F:/corpus/guava/guava#2010-04-10-01-32-12#v1.0#14dd226/src/com/google/common/io/FileBackedOutputStream.java,F:/corpus/guava/guava#2010-01-12-01-13-23#v2.0#f5ad01f/src/com/google/common/io/FileBackedOutputStream.java,0,0,0,0,0,0,0,0,0,0,0,0,0,YES,0,0,0,0,0,0,0,0,0,0,0,0,0,0,0,0,0,0,0,0,0,0,0,0,0,0,0,0,0,0,0,0,0,0,0,0,0,0,0,0,0,0,0,0,0,0,0,0,1,204
guava,v1.0,v2.0,F:/corpus/guava/guava#2010-04-10-01-32-12#v1.0#14dd226/src/com/google/common/io/Files.java,F:/corpus/guava/guava#2010-01-12-01-13-23#v2.0#f5ad01f/src/com/google/common/io/Files.java,0,0,0,0,0,0,0,0,0,0,0,0,0,YES,0,0,0,0,4,0,0,0,0,0,0,0,0,0,0,0,0,0,0,2,0,0,0,0,0,0,0,0,0,0,0,0,0,0,0,0,0,0,0,0,0,0,0,0,0,0,1,0,107,592
guava,v1.0,v2.0,F:/corpus/guava/guava#2010-04-10-01-32-12#v1.0#14dd226/src/com/google/common/io/Flushables.java,F:/corpus/guava/guava#2010-01-12-01-13-23#v2.0#f5ad01f/src/com/google/common/io/Flushables.java,0,0,0,0,0,0,0,0,0,0,0,0,0,YES,0,0,0,0,0,0,0,0,0,0,0,0,0,0,0,0,0,0,0,0,0,0,0,0,0,0,0,0,0,0,0,0,0,0,0,0,0,0,0,0,0,0,0,0,0,0,0,0,1,76
guava,v1.0,v2.0,F:/corpus/guava/guava#2010-04-10-01-32-12#v1.0#14dd226/src/com/google/common/io/InputSupplier.java,F:/corpus/guava/guava#2010-01-12-01-13-23#v2.0#f5ad01f/src/com/google/common/io/InputSupplier.java,0,0,0,0,1,0,0,0,0,0,0,0,0,YES,0,0,0,0,0,0,0,0,0,0,0,0,0,0,0,0,0,0,0,0,0,0,0,0,0,0,0,0,0,0,0,0,0,0,0,0,0,0,0,0,0,0,0,0,0,0,0,0,3,30
guava,v1.0,v2.0,F:/corpus/guava/guava#2010-04-10-01-32-12#v1.0#14dd226/src/com/google/common/io/LimitInputStream.java,F:/corpus/guava/guava#2010-01-12-01-13-23#v2.0#f5ad01f/src/com/google/common/io/LimitInputStream.java,0,0,0,0,0,0,0,0,0,0,0,0,0,YES,0,0,0,0,0,0,0,0,0,0,0,0,0,0,0,0,0,0,0,0,0,0,0,0,0,0,0,0,0,0,0,0,0,0,0,0,0,0,0,0,0,0,0,0,0,0,0,0,1,103
guava,v1.0,v2.0,F:/corpus/guava/guava#2010-04-10-01-32-12#v1.0#14dd226/src/com/google/common/io/LineBuffer.java,F:/corpus/guava/guava#2010-01-12-01-13-23#v2.0#f5ad01f/src/com/google/common/io/LineBuffer.java,0,0,0,0,1,0,0,0,0,0,0,0,0,YES,0,0,0,0,0,0,0,0,0,0,0,0,0,0,0,0,0,0,0,0,0,0,0,0,0,0,0,0,0,0,0,0,0,0,0,0,0,0,0,0,0,0,0,0,0,0,0,0,1,118
guava,v1.0,v2.0,F:/corpus/guava/guava#2010-04-10-01-32-12#v1.0#14dd226/src/com/google/common/io/LineProcessor.java,F:/corpus/guava/guava#2010-01-12-01-13-23#v2.0#f5ad01f/src/com/google/common/io/LineProcessor.java,0,0,0,0,1,0,0,0,0,0,0,0,0,YES,0,0,0,0,0,0,0,0,0,0,0,0,0,0,0,0,0,0,0,0,0,0,0,0,0,0,0,0,0,0,0,0,0,0,0,0,0,0,0,0,0,0,0,0,0,0,0,0,2,43
guava,v1.0,v2.0,F:/corpus/guava/guava#2010-04-10-01-32-12#v1.0#14dd226/src/com/google/common/io/LineReader.java,F:/corpus/guava/guava#2010-01-12-01-13-23#v2.0#f5ad01f/src/com/google/common/io/LineReader.java,0,0,0,0,0,0,0,0,0,0,0,0,0,YES,0,0,0,0,0,0,0,0,0,0,0,0,0,0,0,0,0,0,0,1,0,0,0,0,0,0,0,0,0,0,0,0,0,0,0,0,0,0,0,0,0,0,0,0,0,0,0,0,3,85
guava,v1.0,v2.0,F:/corpus/guava/guava#2010-04-10-01-32-12#v1.0#14dd226/src/com/google/common/io/MultiInputStream.java,F:/corpus/guava/guava#2010-01-12-01-13-23#v2.0#f5ad01f/src/com/google/common/io/MultiInputStream.java,0,0,0,0,0,0,0,0,0,0,0,0,0,YES,0,0,0,0,0,0,0,0,0,0,0,0,0,0,0,0,0,0,0,0,0,0,0,0,0,0,0,0,0,0,0,0,0,0,0,0,0,0,0,0,0,0,0,0,0,0,0,0,1,115
guava,v1.0,v2.0,F:/corpus/guava/guava#2010-04-10-01-32-12#v1.0#14dd226/src/com/google/common/io/MultiReader.java,F:/corpus/guava/guava#2010-01-12-01-13-23#v2.0#f5ad01f/src/com/google/common/io/MultiReader.java,0,0,0,0,0,0,0,0,0,0,0,0,0,YES,0,0,0,0,0,0,0,0,0,0,0,0,0,0,0,0,0,0,0,0,0,0,0,0,0,0,0,0,0,0,0,0,0,0,0,0,0,0,0,0,0,0,0,0,0,0,0,0,1,90
guava,v1.0,v2.0,F:/corpus/guava/guava#2010-04-10-01-32-12#v1.0#14dd226/src/com/google/common/io/NullOutputStream.java,F:/corpus/guava/guava#2010-01-12-01-13-23#v2.0#f5ad01f/src/com/google/common/io/NullOutputStream.java,0,0,0,0,0,0,0,0,0,0,0,0,0,YES,0,0,0,0,0,0,0,0,0,0,0,0,0,0,0,0,0,0,0,0,0,0,0,0,0,0,0,0,0,0,0,0,0,0,0,0,0,0,0,0,0,0,0,0,0,0,0,0,1,35
guava,v1.0,v2.0,F:/corpus/guava/guava#2010-04-10-01-32-12#v1.0#14dd226/src/com/google/common/io/OutputSupplier.java,F:/corpus/guava/guava#2010-01-12-01-13-23#v2.0#f5ad01f/src/com/google/common/io/OutputSupplier.java,0,0,0,0,1,0,0,0,0,0,0,0,0,YES,0,0,0,0,0,0,0,0,0,0,0,0,0,0,0,0,0,0,0,0,0,0,0,0,0,0,0,0,0,0,0,0,0,0,0,0,0,0,0,0,0,0,0,0,0,0,0,0,2,30
guava,v1.0,v2.0,F:/corpus/guava/guava#2010-04-10-01-32-12#v1.0#14dd226/src/com/google/common/io/PatternFilenameFilter.java,F:/corpus/guava/guava#2010-01-12-01-13-23#v2.0#f5ad01f/src/com/google/common/io/PatternFilenameFilter.java,0,0,0,0,1,0,0,0,0,0,0,0,0,YES,0,0,0,0,0,0,0,0,0,0,0,0,0,0,0,0,0,0,0,1,0,0,0,0,0,0,0,0,0,0,0,0,0,0,0,0,0,0,0,0,0,0,0,0,0,0,0,0,2,57
guava,v1.0,v2.0,F:/corpus/guava/guava#2010-04-10-01-32-12#v1.0#14dd226/src/com/google/common/io/Resources.java,F:/corpus/guava/guava#2010-01-12-01-13-23#v2.0#f5ad01f/src/com/google/common/io/Resources.java,0,0,0,0,0,0,0,0,0,0,0,0,0,YES,0,0,0,0,0,0,0,0,0,0,0,0,0,0,0,0,0,0,0,0,0,0,0,0,0,0,0,0,0,0,0,0,0,0,0,0,0,0,0,0,0,0,0,0,0,0,0,0,1,163
guava,v1.0,v2.0,F:/corpus/guava/guava#2010-04-10-01-32-12#v1.0#14dd226/src/com/google/common/io/package-info.java,F:/corpus/guava/guava#2010-01-12-01-13-23#v2.0#f5ad01f/src/com/google/common/io/package-info.java,0,0,0,0,0,0,0,0,0,0,0,0,0,YES,0,0,0,0,0,0,0,0,0,0,0,0,0,0,0,0,0,0,0,0,0,0,0,0,0,0,0,0,0,0,0,0,0,0,0,0,0,0,0,0,0,0,0,0,0,0,0,0,1,40
guava,v1.0,v2.0,F:/corpus/guava/guava#2010-04-10-01-32-12#v1.0#14dd226/src/com/google/common/primitives/Booleans.java,F:/corpus/guava/guava#2010-01-12-01-13-23#v2.0#f5ad01f/src/com/google/common/primitives/Booleans.java,0,0,0,0,0,0,0,0,0,0,0,0,0,YES,0,0,0,0,1,0,0,0,0,0,0,1,0,0,0,0,0,0,0,2,0,0,0,0,0,0,0,0,0,0,0,0,0,0,0,0,0,0,0,0,0,0,2,5,0,1,2,0,52,424
guava,v1.0,v2.0,F:/corpus/guava/guava#2010-04-10-01-32-12#v1.0#14dd226/src/com/google/common/primitives/Bytes.java,F:/corpus/guava/guava#2010-01-12-01-13-23#v2.0#f5ad01f/src/com/google/common/primitives/Bytes.java,0,0,0,0,0,0,0,0,0,0,0,0,0,YES,0,0,0,0,0,0,0,0,0,0,0,1,0,0,0,0,0,0,0,2,0,0,0,0,0,0,0,0,0,0,0,0,0,0,0,0,0,0,0,0,0,0,2,5,0,1,2,0,10,376
guava,v1.0,v2.0,F:/corpus/guava/guava#2010-04-10-01-32-12#v1.0#14dd226/src/com/google/common/primitives/Chars.java,F:/corpus/guava/guava#2010-01-12-01-13-23#v2.0#f5ad01f/src/com/google/common/primitives/Chars.java,0,0,0,0,0,0,0,0,0,0,0,0,0,YES,0,0,0,0,1,0,0,0,0,0,0,1,0,0,0,0,0,0,0,2,0,0,0,0,0,0,0,0,0,0,0,0,0,0,0,0,0,0,0,0,0,0,2,5,0,1,2,0,55,525
guava,v1.0,v2.0,F:/corpus/guava/guava#2010-04-10-01-32-12#v1.0#14dd226/src/com/google/common/primitives/Doubles.java,F:/corpus/guava/guava#2010-01-12-01-13-23#v2.0#f5ad01f/src/com/google/common/primitives/Doubles.java,0,0,0,0,0,0,0,0,0,0,0,0,0,YES,0,0,0,0,1,0,0,0,0,0,0,1,0,0,0,0,0,0,0,2,0,0,0,0,0,0,0,0,0,0,0,0,0,0,0,0,0,0,0,0,0,0,2,5,0,1,2,0,55,461
guava,v1.0,v2.0,F:/corpus/guava/guava#2010-04-10-01-32-12#v1.0#14dd226/src/com/google/common/primitives/Floats.java,F:/corpus/guava/guava#2010-01-12-01-13-23#v2.0#f5ad01f/src/com/google/common/primitives/Floats.java,0,0,0,0,0,0,0,0,0,0,0,0,0,YES,0,0,0,0,1,0,0,0,0,0,0,1,0,0,0,0,0,0,0,2,0,0,0,0,0,0,0,0,0,0,0,0,0,0,0,0,0,0,0,0,0,0,2,5,0,1,2,0,55,458
guava,v1.0,v2.0,F:/corpus/guava/guava#2010-04-10-01-32-12#v1.0#14dd226/src/com/google/common/primitives/Ints.java,F:/corpus/guava/guava#2010-01-12-01-13-23#v2.0#f5ad01f/src/com/google/common/primitives/Ints.java,0,0,0,0,0,0,0,0,0,0,0,0,0,YES,0,0,0,0,1,0,0,0,0,0,0,1,0,0,0,0,0,0,0,2,0,0,0,0,0,0,0,0,0,0,0,0,0,0,0,0,0,0,0,0,0,0,2,5,0,1,2,0,54,533
guava,v1.0,v2.0,F:/corpus/guava/guava#2010-04-10-01-32-12#v1.0#14dd226/src/com/google/common/primitives/Longs.java,F:/corpus/guava/guava#2010-01-12-01-13-23#v2.0#f5ad01f/src/com/google/common/primitives/Longs.java,0,0,0,0,0,0,0,0,0,0,0,0,0,YES,0,0,0,0,1,0,0,0,0,0,0,1,0,0,0,0,0,0,0,2,0,0,0,0,0,0,0,0,0,0,0,0,0,0,0,0,0,0,0,0,0,0,2,5,0,1,2,0,55,510
guava,v1.0,v2.0,F:/corpus/guava/guava#2010-04-10-01-32-12#v1.0#14dd226/src/com/google/common/primitives/Primitives.java,F:/corpus/guava/guava#2010-01-12-01-13-23#v2.0#f5ad01f/src/com/google/common/primitives/Primitives.java,0,0,0,0,0,0,0,0,0,0,0,0,0,YES,0,0,0,0,0,0,0,0,0,0,0,0,0,0,0,0,0,0,0,0,0,0,0,0,0,0,0,0,0,0,0,0,0,0,0,0,0,0,0,0,0,0,0,0,0,0,0,0,1,121
guava,v1.0,v2.0,F:/corpus/guava/guava#2010-04-10-01-32-12#v1.0#14dd226/src/com/google/common/primitives/Shorts.java,F:/corpus/guava/guava#2010-01-12-01-13-23#v2.0#f5ad01f/src/com/google/common/primitives/Shorts.java,0,0,0,0,0,0,0,0,0,0,0,0,0,YES,0,0,0,0,1,0,0,0,0,0,0,1,0,0,0,0,0,0,0,2,0,0,0,0,0,0,0,0,0,0,0,0,0,0,0,0,0,0,0,0,0,0,3,6,0,1,2,0,56,524
guava,v1.0,v2.0,F:/corpus/guava/guava#2010-04-10-01-32-12#v1.0#14dd226/src/com/google/common/primitives/SignedBytes.java,F:/corpus/guava/guava#2010-01-12-01-13-23#v2.0#f5ad01f/src/com/google/common/primitives/SignedBytes.java,0,0,0,0,0,0,0,0,0,0,0,0,0,YES,0,0,0,0,1,0,0,0,0,0,0,0,0,0,0,0,0,0,0,1,0,0,0,0,0,0,0,0,0,0,0,0,0,0,0,0,0,0,0,0,0,0,0,0,0,0,0,0,39,142
guava,v1.0,v2.0,F:/corpus/guava/guava#2010-04-10-01-32-12#v1.0#14dd226/src/com/google/common/primitives/UnsignedBytes.java,F:/corpus/guava/guava#2010-01-12-01-13-23#v2.0#f5ad01f/src/com/google/common/primitives/UnsignedBytes.java,0,0,0,0,0,0,0,0,0,0,0,0,0,YES,0,0,0,0,1,0,0,0,0,0,0,0,0,0,0,0,0,0,0,1,0,0,0,0,0,0,0,0,0,0,0,0,0,0,0,0,0,0,0,0,0,0,0,0,0,0,0,0,38,146
guava,v1.0,v2.0,F:/corpus/guava/guava#2010-04-10-01-32-12#v1.0#14dd226/src/com/google/common/util/concurrent/AbstractCheckedFuture.java,F:/corpus/guava/guava#2010-01-12-01-13-23#v2.0#f5ad01f/src/com/google/common/util/concurrent/AbstractCheckedFuture.java,0,0,0,0,1,0,0,0,0,0,0,0,0,YES,0,0,0,0,0,0,0,0,0,0,0,0,0,0,0,0,0,0,0,0,0,0,0,0,0,0,0,0,0,0,0,0,0,0,0,0,0,0,0,0,0,0,0,0,0,0,0,0,1,115
guava,v1.0,v2.0,F:/corpus/guava/guava#2010-04-10-01-32-12#v1.0#14dd226/src/com/google/common/util/concurrent/AbstractExecutionThreadService.java,F:/corpus/guava/guava#2010-01-12-01-13-23#v2.0#f5ad01f/src/com/google/common/util/concurrent/AbstractExecutionThreadService.java,0,0,0,0,1,1,0,0,0,0,0,0,0,YES,0,0,0,0,0,0,0,0,0,0,0,0,0,0,0,0,0,0,0,1,0,0,0,0,0,0,0,0,0,0,0,0,0,0,0,0,0,0,0,0,0,0,0,0,0,0,0,0,7,149
guava,v1.0,v2.0,F:/corpus/guava/guava#2010-04-10-01-32-12#v1.0#14dd226/src/com/google/common/util/concurrent/AbstractFuture.java,F:/corpus/guava/guava#2010-01-12-01-13-23#v2.0#f5ad01f/src/com/google/common/util/concurrent/AbstractFuture.java,0,0,0,0,3,0,0,0,0,0,0,0,0,YES,0,0,0,0,0,0,0,0,0,0,0,0,0,0,0,0,0,0,0,0,0,0,0,0,0,0,0,0,0,0,0,0,0,0,0,0,0,0,0,0,0,0,0,0,0,0,0,0,2,323
guava,v1.0,v2.0,F:/corpus/guava/guava#2010-04-10-01-32-12#v1.0#14dd226/src/com/google/common/util/concurrent/AbstractIdleService.java,F:/corpus/guava/guava#2010-01-12-01-13-23#v2.0#f5ad01f/src/com/google/common/util/concurrent/AbstractIdleService.java,0,0,0,0,1,1,0,0,0,0,0,0,0,YES,0,0,0,0,0,0,0,0,0,0,0,0,0,0,0,0,0,0,0,1,0,0,0,0,0,0,0,0,0,0,0,0,0,0,0,0,0,0,0,0,0,0,0,0,0,0,0,0,10,124
guava,v1.0,v2.0,F:/corpus/guava/guava#2010-04-10-01-32-12#v1.0#14dd226/src/com/google/common/util/concurrent/AbstractListenableFuture.java,F:/corpus/guava/guava#2010-01-12-01-13-23#v2.0#f5ad01f/src/com/google/common/util/concurrent/AbstractListenableFuture.java,0,0,1,0,1,0,0,0,0,0,0,0,0,YES,0,0,0,0,0,0,0,0,0,0,0,0,0,0,0,0,0,0,0,0,0,0,0,0,0,0,0,0,0,0,0,0,0,0,0,0,0,0,0,0,0,0,0,0,0,0,0,0,2,60
guava,v1.0,v2.0,F:/corpus/guava/guava#2010-04-10-01-32-12#v1.0#14dd226/src/com/google/common/util/concurrent/AbstractService.java,F:/corpus/guava/guava#2010-01-12-01-13-23#v2.0#f5ad01f/src/com/google/common/util/concurrent/AbstractService.java,0,0,1,0,2,0,0,0,0,0,0,0,0,YES,0,0,0,0,0,0,0,0,0,0,0,0,0,0,0,0,0,0,0,0,0,0,0,0,0,0,0,0,0,0,0,0,0,0,0,0,0,0,0,0,0,0,0,0,0,0,0,0,1,304
guava,v1.0,v2.0,F:/corpus/guava/guava#2010-04-10-01-32-12#v1.0#14dd226/src/com/google/common/util/concurrent/Callables.java,F:/corpus/guava/guava#2010-01-12-01-13-23#v2.0#f5ad01f/src/com/google/common/util/concurrent/Callables.java,0,0,0,0,0,0,0,0,0,0,0,0,0,YES,0,0,0,0,0,0,0,0,0,0,0,0,0,0,0,0,0,0,0,1,0,0,0,0,0,0,0,0,0,0,0,0,0,0,0,0,0,0,0,0,0,0,0,0,0,0,1,0,2,43
guava,v1.0,v2.0,F:/corpus/guava/guava#2010-04-10-01-32-12#v1.0#14dd226/src/com/google/common/util/concurrent/CheckedFuture.java,F:/corpus/guava/guava#2010-01-12-01-13-23#v2.0#f5ad01f/src/com/google/common/util/concurrent/CheckedFuture.java,0,0,0,0,1,0,0,0,0,0,0,0,0,YES,0,0,0,0,0,0,0,0,0,0,0,0,0,0,0,0,0,0,0,0,0,0,0,0,0,0,0,0,0,0,0,0,0,0,0,0,0,0,0,0,0,0,0,0,0,0,0,0,3,72
guava,v1.0,v2.0,F:/corpus/guava/guava#2010-04-10-01-32-12#v1.0#14dd226/src/com/google/common/util/concurrent/DaemonThreadFactory.java,F:/corpus/guava/guava#2010-01-12-01-13-23#v2.0#f5ad01f/src/com/google/common/util/concurrent/DaemonThreadFactory.java,0,0,0,0,0,0,0,0,0,0,0,0,0,YES,0,0,0,0,0,0,0,0,0,0,0,0,0,0,0,0,0,0,0,0,0,0,0,0,0,0,0,0,0,0,0,0,0,0,0,0,0,0,0,0,0,0,0,0,0,0,0,0,1,44
guava,v1.0,v2.0,F:/corpus/guava/guava#2010-04-10-01-32-12#v1.0#14dd226/src/com/google/common/util/concurrent/ExecutionList.java,F:/corpus/guava/guava#2010-01-12-01-13-23#v2.0#f5ad01f/src/com/google/common/util/concurrent/ExecutionList.java,0,0,0,0,0,0,0,0,0,0,0,0,0,YES,0,0,0,0,0,0,0,0,0,0,0,0,0,0,0,0,0,0,0,0,0,0,0,0,0,0,0,0,0,0,0,0,0,0,0,0,0,0,0,0,0,0,0,0,0,0,0,0,1,127
guava,v1.0,v2.0,F:/corpus/guava/guava#2010-04-10-01-32-12#v1.0#14dd226/src/com/google/common/util/concurrent/Executors.java,F:/corpus/guava/guava#2010-01-12-01-13-23#v2.0#f5ad01f/src/com/google/common/util/concurrent/Executors.java,0,0,1,0,0,0,0,0,0,0,0,0,0,YES,0,0,0,0,0,0,0,0,0,0,0,0,0,0,0,0,0,0,0,1,0,0,0,0,0,0,0,0,0,0,0,0,0,0,0,0,0,0,0,0,0,0,0,0,0,0,0,0,43,353
guava,v1.0,v2.0,F:/corpus/guava/guava#2010-04-10-01-32-12#v1.0#14dd226/src/com/google/common/util/concurrent/FakeTimeLimiter.java,F:/corpus/guava/guava#2010-01-12-01-13-23#v2.0#f5ad01f/src/com/google/common/util/concurrent/FakeTimeLimiter.java,0,0,0,0,2,0,0,0,0,0,0,0,0,YES,0,0,0,0,0,0,0,0,0,0,0,0,0,0,0,0,0,0,0,0,0,0,0,0,0,0,0,0,0,0,0,0,0,0,0,0,0,0,0,0,0,0,0,0,0,0,0,0,1,42
guava,v1.0,v2.0,F:/corpus/guava/guava#2010-04-10-01-32-12#v1.0#14dd226/src/com/google/common/util/concurrent/ForwardingFuture.java,F:/corpus/guava/guava#2010-01-12-01-13-23#v2.0#f5ad01f/src/com/google/common/util/concurrent/ForwardingFuture.java,0,0,0,0,1,0,0,0,0,0,0,0,0,YES,0,0,0,0,0,0,0,0,0,0,0,0,0,0,0,0,0,0,0,1,0,0,0,0,0,0,0,0,0,0,0,0,0,0,0,0,0,0,0,0,0,0,0,0,0,0,0,0,9,66
guava,v1.0,v2.0,F:/corpus/guava/guava#2010-04-10-01-32-12#v1.0#14dd226/src/com/google/common/util/concurrent/ForwardingService.java,F:/corpus/guava/guava#2010-01-12-01-13-23#v2.0#f5ad01f/src/com/google/common/util/concurrent/ForwardingService.java,0,0,0,0,1,0,0,0,0,0,0,0,0,YES,0,0,0,0,0,0,0,0,0,0,0,0,0,0,0,0,0,0,0,1,0,0,0,0,0,0,0,0,0,0,0,0,0,0,0,0,0,0,0,0,0,0,0,0,0,0,0,0,7,58
guava,v1.0,v2.0,F:/corpus/guava/guava#2010-04-10-01-32-12#v1.0#14dd226/src/com/google/common/util/concurrent/Futures.java,F:/corpus/guava/guava#2010-01-12-01-13-23#v2.0#f5ad01f/src/com/google/common/util/concurrent/Futures.java,0,0,0,0,0,0,0,0,0,0,0,0,0,YES,0,0,0,0,1,0,0,0,0,0,0,0,1,0,0,0,0,0,0,2,0,0,0,0,0,0,0,0,0,0,0,0,0,0,0,0,0,0,0,0,0,0,2,1,0,0,2,0,63,544
guava,v1.0,v2.0,F:/corpus/guava/guava#2010-04-10-01-32-12#v1.0#14dd226/src/com/google/common/util/concurrent/ListenableFuture.java,F:/corpus/guava/guava#2010-01-12-01-13-23#v2.0#f5ad01f/src/com/google/common/util/concurrent/ListenableFuture.java,0,0,0,0,1,0,0,0,0,0,0,0,0,YES,0,0,0,0,0,0,0,0,0,0,0,0,0,0,0,0,0,0,0,0,0,0,0,0,0,0,0,0,0,0,0,0,0,0,0,0,0,0,0,0,0,0,0,0,0,0,0,0,3,70
guava,v1.0,v2.0,F:/corpus/guava/guava#2010-04-10-01-32-12#v1.0#14dd226/src/com/google/common/util/concurrent/ListenableFutureTask.java,F:/corpus/guava/guava#2010-01-12-01-13-23#v2.0#f5ad01f/src/com/google/common/util/concurrent/ListenableFutureTask.java,0,0,0,0,0,0,0,0,0,0,0,0,0,YES,0,0,0,0,0,0,0,0,0,0,0,0,0,0,0,0,0,0,0,0,0,0,0,0,0,0,0,0,0,0,0,0,0,0,0,0,0,0,0,0,0,0,0,0,0,0,0,0,1,74
guava,v1.0,v2.0,F:/corpus/guava/guava#2010-04-10-01-32-12#v1.0#14dd226/src/com/google/common/util/concurrent/NamingThreadFactory.java,F:/corpus/guava/guava#2010-01-12-01-13-23#v2.0#f5ad01f/src/com/google/common/util/concurrent/NamingThreadFactory.java,0,0,0,0,0,0,0,0,0,0,0,0,0,YES,0,0,0,0,0,0,0,0,0,0,0,0,0,0,0,0,0,0,0,0,0,0,0,0,0,0,0,0,0,0,0,0,0,0,0,0,0,0,0,0,0,0,0,0,0,0,0,0,1,77
guava,v1.0,v2.0,F:/corpus/guava/guava#2010-04-10-01-32-12#v1.0#14dd226/src/com/google/common/util/concurrent/SimpleTimeLimiter.java,F:/corpus/guava/guava#2010-01-12-01-13-23#v2.0#f5ad01f/src/com/google/common/util/concurrent/SimpleTimeLimiter.java,0,0,0,0,0,0,0,0,0,0,0,0,0,YES,0,0,0,0,0,0,0,0,0,0,0,0,0,0,0,0,0,0,0,0,0,0,0,0,0,0,0,0,0,0,0,0,0,0,0,0,0,0,0,0,0,0,0,0,0,0,0,0,1,168
guava,v1.0,v2.0,F:/corpus/guava/guava#2010-04-10-01-32-12#v1.0#14dd226/src/com/google/common/util/concurrent/TimeLimiter.java,F:/corpus/guava/guava#2010-01-12-01-13-23#v2.0#f5ad01f/src/com/google/common/util/concurrent/TimeLimiter.java,0,0,0,0,0,0,0,0,0,0,0,0,0,YES,0,0,0,0,0,0,0,0,0,0,0,0,0,0,0,0,0,0,0,0,0,0,0,0,0,0,0,0,0,0,0,0,0,0,0,0,0,0,0,0,0,0,0,0,0,0,0,0,1,103
guava,v1.0,v2.0,F:/corpus/guava/guava#2010-04-10-01-32-12#v1.0#14dd226/src/com/google/common/util/concurrent/UncheckedTimeoutException.java,F:/corpus/guava/guava#2010-01-12-01-13-23#v2.0#f5ad01f/src/com/google/common/util/concurrent/UncheckedTimeoutException.java,0,0,0,0,0,0,0,0,0,0,0,0,0,YES,0,0,0,0,0,0,0,0,0,0,0,0,0,0,0,0,0,0,0,0,0,0,0,0,0,0,0,0,0,0,0,0,0,0,0,0,0,0,0,0,0,0,0,0,0,0,0,0,1,41
guava,v1.0,v2.0,F:/corpus/guava/guava#2010-04-10-01-32-12#v1.0#14dd226/src/com/google/common/util/concurrent/UninterruptibleFuture.java,F:/corpus/guava/guava#2010-01-12-01-13-23#v2.0#f5ad01f/src/com/google/common/util/concurrent/UninterruptibleFuture.java,0,0,0,0,1,0,0,0,0,0,0,0,0,YES,0,0,0,0,0,0,0,0,0,0,0,0,0,0,0,0,0,0,0,1,0,0,0,0,0,0,0,0,0,0,0,0,0,0,0,0,0,0,0,0,0,0,0,0,0,0,0,0,3,39
guava,v1.0,v2.0,F:/corpus/guava/guava#2010-04-10-01-32-12#v1.0#14dd226/src/com/google/common/util/concurrent/ValueFuture.java,F:/corpus/guava/guava#2010-01-12-01-13-23#v2.0#f5ad01f/src/com/google/common/util/concurrent/ValueFuture.java,0,0,0,0,1,0,0,0,0,0,0,0,0,YES,0,0,0,0,0,0,0,0,0,0,0,0,0,0,0,0,0,0,0,0,0,0,0,0,0,0,0,0,0,0,0,0,0,0,0,0,0,0,0,0,0,0,0,0,0,0,0,0,1,77
guava,v1.0,v2.0,F:/corpus/guava/guava#2010-04-10-01-32-12#v1.0#14dd226/src/com/google/common/base/Defaults.java,F:/corpus/guava/guava#2010-04-10-01-32-12#v1.0#14dd226/src/com/google/common/base/Defaults.java,0,0,0,0,0,0,0,0,0,0,0,0,0,NO,0,0,0,0,0,0,0,0,0,0,0,0,0,0,0,0,0,0,0,0,0,0,0,0,0,0,0,0,0,0,0,0,0,0,0,0,0,0,0,0,0,0,0,0,0,0,0,0,0,57
