projectName,oldVersionTag,newVersionTag,oldPath,newPath,DC,LC,MM,RPB,SG,MCH,DCLP,DIVC,FE,LM,LPL,SS,SC,fromChangeDistiller,adding_attribute_modifiability,adding_class_derivability,adding_method_overridability,additional_class,additional_functionality,additional_object_state,alternative_part_delete,alternative_part_insert,attribute_renaming,attribute_type_change,class_renaming,comment_delete,comment_insert,comment_move,comment_update,condition_expression_change,decreasing_accessibility_change,doc_delete,doc_insert,doc_update,increasing_accessibility_change,method_renaming,parameter_delete,parameter_insert,parameter_ordering_change,parameter_renaming,parameter_type_change,parent_class_change,parent_class_delete,parent_class_insert,parent_interface_change,parent_interface_delete,parent_interface_insert,removed_class,removed_functionality,removed_object_state,removing_attribute_modifiability,removing_class_derivability,removing_method_overridability,return_type_change,return_type_delete,return_type_insert,statement_delete,statement_insert,statement_ordering_change,statement_parent_change,statement_update,unclassified_change,codeChurn,LOC
guava,v3.0,v4.0,F:/corpus/guava/guava#2010-06-03-08-26-58#v3.0#a393220/src/com/google/common/base/CharMatcher.java,F:/corpus/guava/guava#2010-06-03-08-26-58#v4.0#00efa0c/src/com/google/common/base/CharMatcher.java,0,1,0,0,0,0,0,0,0,0,0,0,0,YES,0,0,0,0,0,0,0,0,0,0,0,0,0,0,0,0,0,0,0,0,0,0,0,0,0,0,0,0,0,0,0,0,0,0,0,0,0,0,0,0,0,0,0,0,0,0,0,0,6,1121
guava,v3.0,v4.0,F:/corpus/guava/guava#2010-06-03-08-26-58#v3.0#a393220/src/com/google/common/base/Charsets.java,F:/corpus/guava/guava#2010-06-03-08-26-58#v4.0#00efa0c/src/com/google/common/base/Charsets.java,1,0,0,0,0,0,0,0,0,0,0,0,0,YES,0,0,0,0,0,0,0,0,0,0,0,0,0,0,0,0,0,0,0,0,0,0,0,0,0,0,0,0,0,0,0,0,0,0,0,0,0,0,0,0,0,0,0,0,0,0,0,0,5,76
guava,v3.0,v4.0,F:/corpus/guava/guava#2010-06-03-08-26-58#v3.0#a393220/src/com/google/common/base/Joiner.java,F:/corpus/guava/guava#2010-06-03-08-26-58#v4.0#00efa0c/src/com/google/common/base/Joiner.java,0,0,0,0,0,0,0,0,0,0,0,0,0,YES,0,0,0,0,0,0,0,0,0,0,0,0,0,0,0,0,0,0,0,3,0,0,0,0,0,0,0,0,0,0,0,0,0,0,0,0,2,0,0,0,0,0,0,0,0,0,0,0,15,342
guava,v3.0,v4.0,F:/corpus/guava/guava#2010-06-03-08-26-58#v3.0#a393220/src/com/google/common/base/Objects.java,F:/corpus/guava/guava#2010-06-03-08-26-58#v4.0#00efa0c/src/com/google/common/base/Objects.java,0,0,0,0,0,0,0,0,0,0,0,1,0,YES,0,0,0,0,0,0,0,0,0,0,0,0,0,0,0,0,0,0,0,0,0,0,0,0,0,0,0,0,0,0,0,0,0,0,0,0,0,0,0,0,0,0,0,0,0,0,0,0,4,188
guava,v3.0,v4.0,F:/corpus/guava/guava#2010-06-03-08-26-58#v3.0#a393220/src/com/google/common/base/Strings.java,F:/corpus/guava/guava#2010-06-03-08-26-58#v4.0#00efa0c/src/com/google/common/base/Strings.java,0,0,0,0,0,0,0,0,0,0,0,0,0,YES,0,0,0,0,0,0,0,0,0,0,0,0,0,0,0,0,0,0,0,0,0,0,0,0,0,0,0,0,0,0,0,0,0,0,0,0,0,0,0,0,0,0,0,0,0,0,0,0,7,163
guava,v3.0,v4.0,F:/corpus/guava/guava#2010-06-03-08-26-58#v3.0#a393220/src/com/google/common/base/Suppliers.java,F:/corpus/guava/guava#2010-06-03-08-26-58#v4.0#00efa0c/src/com/google/common/base/Suppliers.java,0,0,0,0,0,0,1,0,0,0,0,0,0,YES,0,0,0,0,0,0,0,0,0,0,0,0,0,0,0,0,0,0,0,0,0,0,0,0,0,0,0,0,0,0,0,0,0,0,0,0,0,0,0,0,0,0,0,0,0,0,0,0,2,197
guava,v3.0,v4.0,F:/corpus/guava/guava#2010-06-03-08-26-58#v3.0#a393220/src/com/google/common/base/Throwables.java,F:/corpus/guava/guava#2010-06-03-08-26-58#v4.0#00efa0c/src/com/google/common/base/Throwables.java,0,0,0,0,0,0,0,0,0,0,0,0,0,YES,0,0,0,0,0,0,0,0,0,0,0,0,0,0,0,0,0,0,0,0,0,0,0,0,0,0,0,0,0,0,0,0,0,0,0,0,0,0,0,0,0,0,0,0,0,0,0,0,6,252
guava,v3.0,v4.0,F:/corpus/guava/guava#2010-06-03-08-26-58#v3.0#a393220/src/com/google/common/collect/AbstractMultimap.java,F:/corpus/guava/guava#2010-06-03-08-26-58#v4.0#00efa0c/src/com/google/common/collect/AbstractMultimap.java,0,1,3,0,2,0,1,0,0,0,0,1,0,YES,0,0,0,0,0,0,0,0,0,0,0,0,0,0,0,0,0,0,0,0,0,0,0,0,0,0,0,0,0,0,0,0,0,0,0,0,0,0,0,0,0,0,0,0,0,0,0,0,4,1491
guava,v3.0,v4.0,F:/corpus/guava/guava#2010-06-03-08-26-58#v3.0#a393220/src/com/google/common/collect/ComparisonChain.java,F:/corpus/guava/guava#2010-06-03-08-26-58#v4.0#00efa0c/src/com/google/common/collect/ComparisonChain.java,0,0,0,0,7,0,0,0,0,0,0,0,0,YES,0,0,0,0,0,0,0,0,0,0,0,0,0,0,0,0,0,0,0,0,0,0,0,0,0,0,0,0,0,0,0,0,0,0,0,0,0,0,0,0,0,0,0,0,0,0,0,0,2,195
guava,v3.0,v4.0,F:/corpus/guava/guava#2010-06-03-08-26-58#v3.0#a393220/src/com/google/common/collect/CustomConcurrentHashMap.java,F:/corpus/guava/guava#2010-06-03-08-26-58#v4.0#00efa0c/src/com/google/common/collect/CustomConcurrentHashMap.java,0,2,0,0,3,0,1,0,0,0,0,0,0,YES,0,1,0,31,26,21,0,1,0,0,0,0,3,0,0,0,0,0,0,2,1,0,0,1,0,0,0,0,0,1,0,0,2,8,0,0,0,0,0,0,0,0,0,40,0,0,0,0,2050,2161
guava,v3.0,v4.0,F:/corpus/guava/guava#2010-06-03-08-26-58#v3.0#a393220/src/com/google/common/collect/ForwardingCollection.java,F:/corpus/guava/guava#2010-06-03-08-26-58#v4.0#00efa0c/src/com/google/common/collect/ForwardingCollection.java,0,0,0,0,1,0,0,0,0,0,0,0,0,YES,0,0,0,0,0,0,0,0,0,0,0,0,0,0,0,0,0,0,1,0,1,0,0,0,0,0,0,0,0,0,0,0,0,0,0,0,0,0,0,0,0,0,0,0,0,0,0,0,3,91
guava,v3.0,v4.0,F:/corpus/guava/guava#2010-06-03-08-26-58#v3.0#a393220/src/com/google/common/collect/ForwardingConcurrentMap.java,F:/corpus/guava/guava#2010-06-03-08-26-58#v4.0#00efa0c/src/com/google/common/collect/ForwardingConcurrentMap.java,0,0,0,0,1,0,0,0,0,0,0,0,0,YES,0,0,0,0,0,0,0,0,0,0,0,0,0,0,0,0,0,0,1,0,1,0,0,0,0,0,0,0,0,0,0,0,0,0,0,0,0,0,0,0,0,0,0,0,0,0,0,0,3,55
guava,v3.0,v4.0,F:/corpus/guava/guava#2010-06-03-08-26-58#v3.0#a393220/src/com/google/common/collect/ForwardingIterator.java,F:/corpus/guava/guava#2010-06-03-08-26-58#v4.0#00efa0c/src/com/google/common/collect/ForwardingIterator.java,0,0,0,0,1,0,0,0,0,0,0,0,0,YES,0,0,0,0,0,0,0,0,0,0,0,0,0,0,0,0,0,0,1,0,1,0,0,0,0,0,0,0,0,0,0,0,0,0,0,0,0,0,0,0,0,0,0,0,0,0,0,0,3,50
guava,v3.0,v4.0,F:/corpus/guava/guava#2010-06-03-08-26-58#v3.0#a393220/src/com/google/common/collect/ForwardingList.java,F:/corpus/guava/guava#2010-06-03-08-26-58#v4.0#00efa0c/src/com/google/common/collect/ForwardingList.java,0,0,0,0,1,0,0,0,0,0,0,0,0,YES,0,0,0,0,0,0,0,0,0,0,0,0,0,0,0,0,0,0,1,0,1,0,0,0,0,0,0,0,0,0,0,0,0,0,0,0,0,0,0,0,0,0,0,0,0,0,0,0,3,93
guava,v3.0,v4.0,F:/corpus/guava/guava#2010-06-03-08-26-58#v3.0#a393220/src/com/google/common/collect/ForwardingListIterator.java,F:/corpus/guava/guava#2010-06-03-08-26-58#v4.0#00efa0c/src/com/google/common/collect/ForwardingListIterator.java,0,0,0,0,1,0,0,0,0,0,0,0,0,YES,0,0,0,0,0,0,0,0,0,0,0,0,0,0,0,0,0,0,1,0,1,0,0,0,0,0,0,0,0,0,0,0,0,0,0,0,0,0,0,0,0,0,0,0,0,0,0,0,3,62
guava,v3.0,v4.0,F:/corpus/guava/guava#2010-06-03-08-26-58#v3.0#a393220/src/com/google/common/collect/ForwardingListMultimap.java,F:/corpus/guava/guava#2010-06-03-08-26-58#v4.0#00efa0c/src/com/google/common/collect/ForwardingListMultimap.java,0,0,0,0,1,0,0,0,0,0,0,0,0,YES,0,0,0,0,0,0,0,0,0,0,0,0,0,0,0,0,0,0,1,0,1,0,0,0,0,0,0,0,0,0,0,0,0,0,0,0,0,0,0,0,0,0,0,0,0,0,0,0,3,52
guava,v3.0,v4.0,F:/corpus/guava/guava#2010-06-03-08-26-58#v3.0#a393220/src/com/google/common/collect/ForwardingMap.java,F:/corpus/guava/guava#2010-06-03-08-26-58#v4.0#00efa0c/src/com/google/common/collect/ForwardingMap.java,0,0,0,0,1,0,0,0,0,0,0,0,0,YES,0,0,0,0,0,0,0,0,0,0,0,0,0,0,0,0,0,0,1,0,1,0,0,0,0,0,0,0,0,0,0,0,0,0,0,0,0,0,0,0,0,0,0,0,0,0,0,0,3,99
guava,v3.0,v4.0,F:/corpus/guava/guava#2010-06-03-08-26-58#v3.0#a393220/src/com/google/common/collect/ForwardingMapEntry.java,F:/corpus/guava/guava#2010-06-03-08-26-58#v4.0#00efa0c/src/com/google/common/collect/ForwardingMapEntry.java,0,0,0,0,1,0,0,0,0,0,0,0,0,YES,0,0,0,0,0,0,0,0,0,0,0,0,0,0,0,0,0,0,1,0,1,0,0,0,0,0,0,0,0,0,0,0,0,0,0,0,0,0,0,0,0,0,0,0,0,0,0,0,3,60
guava,v3.0,v4.0,F:/corpus/guava/guava#2010-06-03-08-26-58#v3.0#a393220/src/com/google/common/collect/ForwardingMultimap.java,F:/corpus/guava/guava#2010-06-03-08-26-58#v4.0#00efa0c/src/com/google/common/collect/ForwardingMultimap.java,0,0,0,0,1,0,0,0,0,0,0,0,0,YES,0,0,0,0,0,0,0,0,0,0,0,0,0,0,0,0,0,0,1,0,1,0,0,0,0,0,0,0,0,0,0,0,0,0,0,0,0,0,0,0,0,0,0,0,0,0,0,0,3,123
guava,v3.0,v4.0,F:/corpus/guava/guava#2010-06-03-08-26-58#v3.0#a393220/src/com/google/common/collect/ForwardingMultiset.java,F:/corpus/guava/guava#2010-06-03-08-26-58#v4.0#00efa0c/src/com/google/common/collect/ForwardingMultiset.java,0,0,0,0,1,0,0,0,0,0,0,0,0,YES,0,0,0,0,0,0,0,0,0,0,0,0,0,0,0,0,0,0,1,0,1,0,0,0,0,0,0,0,0,0,0,0,0,0,0,0,0,0,0,0,0,0,0,0,0,0,0,0,3,76
guava,v3.0,v4.0,F:/corpus/guava/guava#2010-06-03-08-26-58#v3.0#a393220/src/com/google/common/collect/ForwardingObject.java,F:/corpus/guava/guava#2010-06-03-08-26-58#v4.0#00efa0c/src/com/google/common/collect/ForwardingObject.java,0,0,0,0,0,0,0,0,0,0,0,0,0,YES,0,0,0,0,0,0,0,0,0,0,0,0,0,0,0,0,0,0,0,0,0,0,0,0,0,0,0,0,0,0,0,0,0,0,0,0,0,0,0,0,0,0,0,0,0,0,0,0,1,76
guava,v3.0,v4.0,F:/corpus/guava/guava#2010-06-03-08-26-58#v3.0#a393220/src/com/google/common/collect/ForwardingQueue.java,F:/corpus/guava/guava#2010-06-03-08-26-58#v4.0#00efa0c/src/com/google/common/collect/ForwardingQueue.java,0,0,0,0,1,0,0,0,0,0,0,0,0,YES,0,0,0,0,0,0,0,0,0,0,0,0,0,0,0,0,0,0,1,0,1,0,0,0,0,0,0,0,0,0,0,0,0,0,0,0,0,0,0,0,0,0,0,0,0,0,0,0,3,58
guava,v3.0,v4.0,F:/corpus/guava/guava#2010-06-03-08-26-58#v3.0#a393220/src/com/google/common/collect/ForwardingSet.java,F:/corpus/guava/guava#2010-06-03-08-26-58#v4.0#00efa0c/src/com/google/common/collect/ForwardingSet.java,0,0,0,0,1,0,0,0,0,0,0,0,0,YES,0,0,0,0,0,0,0,0,0,0,0,0,0,0,0,0,0,0,1,0,1,0,0,0,0,0,0,0,0,0,0,0,0,0,0,0,0,0,0,0,0,0,0,0,0,0,0,0,3,48
guava,v3.0,v4.0,F:/corpus/guava/guava#2010-06-03-08-26-58#v3.0#a393220/src/com/google/common/collect/ForwardingSortedMap.java,F:/corpus/guava/guava#2010-06-03-08-26-58#v4.0#00efa0c/src/com/google/common/collect/ForwardingSortedMap.java,0,0,0,0,1,0,0,0,0,0,0,0,0,YES,0,0,0,0,0,0,0,0,0,0,0,0,0,0,0,0,0,0,1,0,1,0,0,0,0,0,0,0,0,0,0,0,0,0,0,0,0,0,0,0,0,0,0,0,0,0,0,0,3,63
guava,v3.0,v4.0,F:/corpus/guava/guava#2010-06-03-08-26-58#v3.0#a393220/src/com/google/common/collect/ForwardingSortedSet.java,F:/corpus/guava/guava#2010-06-03-08-26-58#v4.0#00efa0c/src/com/google/common/collect/ForwardingSortedSet.java,0,0,0,0,1,0,0,0,0,0,0,0,0,YES,0,0,0,0,0,0,0,0,0,0,0,0,0,0,0,0,0,0,1,0,1,0,0,0,0,0,0,0,0,0,0,0,0,0,0,0,0,0,0,0,0,0,0,0,0,0,0,0,3,63
guava,v3.0,v4.0,F:/corpus/guava/guava#2010-06-03-08-26-58#v3.0#a393220/src/com/google/common/collect/ForwardingSortedSetMultimap.java,F:/corpus/guava/guava#2010-06-03-08-26-58#v4.0#00efa0c/src/com/google/common/collect/ForwardingSortedSetMultimap.java,0,0,0,0,1,0,0,0,0,0,0,0,0,YES,0,0,0,0,0,0,0,0,0,0,0,0,0,0,0,0,0,0,1,0,1,0,0,0,0,0,0,0,0,0,0,0,0,0,0,0,0,0,0,0,0,0,0,0,0,0,0,0,3,58
guava,v3.0,v4.0,F:/corpus/guava/guava#2010-06-03-08-26-58#v3.0#a393220/src/com/google/common/collect/ImmutableList.java,F:/corpus/guava/guava#2010-06-03-08-26-58#v4.0#00efa0c/src/com/google/common/collect/ImmutableList.java,0,0,0,0,6,0,0,0,0,0,5,1,0,YES,0,0,0,0,0,0,0,0,0,0,0,0,0,0,0,0,0,0,0,0,0,0,0,0,0,0,0,0,0,0,0,0,0,0,0,0,0,0,0,0,0,0,0,0,0,0,0,0,5,516
guava,v3.0,v4.0,F:/corpus/guava/guava#2010-06-03-08-26-58#v3.0#a393220/src/com/google/common/collect/Iterables.java,F:/corpus/guava/guava#2010-06-03-08-26-58#v4.0#00efa0c/src/com/google/common/collect/Iterables.java,0,0,0,0,1,0,0,0,0,0,0,1,0,YES,0,0,0,0,1,0,0,0,0,0,0,0,0,0,0,0,0,0,0,0,0,0,0,0,0,0,0,0,0,0,0,0,0,0,0,0,0,0,0,0,0,0,0,0,0,0,0,0,26,897
guava,v3.0,v4.0,F:/corpus/guava/guava#2010-06-03-08-26-58#v3.0#a393220/src/com/google/common/collect/Iterators.java,F:/corpus/guava/guava#2010-06-03-08-26-58#v4.0#00efa0c/src/com/google/common/collect/Iterators.java,0,1,0,0,0,0,0,0,0,0,0,2,0,YES,0,0,0,0,1,0,0,0,0,0,0,0,0,0,0,0,0,0,0,1,0,0,0,0,0,0,0,0,0,0,0,0,0,0,0,0,0,0,0,0,0,0,0,0,0,0,0,0,32,1110
guava,v3.0,v4.0,F:/corpus/guava/guava#2010-06-03-08-26-58#v3.0#a393220/src/com/google/common/collect/Lists.java,F:/corpus/guava/guava#2010-06-03-08-26-58#v4.0#00efa0c/src/com/google/common/collect/Lists.java,0,0,0,0,0,0,2,0,0,0,0,2,0,YES,0,0,0,0,0,0,0,0,0,0,0,0,0,0,0,0,0,0,0,1,0,0,0,0,0,0,0,0,0,0,0,0,0,0,0,0,0,0,0,0,0,0,0,0,0,0,0,0,1,506
guava,v3.0,v4.0,F:/corpus/guava/guava#2010-06-03-08-26-58#v3.0#a393220/src/com/google/common/collect/MapMaker.java,F:/corpus/guava/guava#2010-06-03-08-26-58#v4.0#00efa0c/src/com/google/common/collect/MapMaker.java,0,1,0,0,5,0,19,0,0,0,0,0,0,YES,0,0,0,2,11,12,0,0,0,0,0,0,2,0,0,0,0,0,0,4,5,0,0,0,0,0,0,0,0,0,0,0,0,15,1,2,0,0,0,0,0,0,11,14,0,2,3,0,873,1119
guava,v3.0,v4.0,F:/corpus/guava/guava#2010-06-03-08-26-58#v3.0#a393220/src/com/google/common/collect/Sets.java,F:/corpus/guava/guava#2010-06-03-08-26-58#v4.0#00efa0c/src/com/google/common/collect/Sets.java,0,0,0,0,1,1,0,0,0,0,0,0,0,YES,0,0,0,1,1,1,0,0,0,0,0,0,0,0,0,1,0,0,0,2,0,0,0,0,0,0,0,0,0,0,0,0,0,0,0,0,0,0,0,0,0,0,0,1,0,0,2,0,153,971
guava,v3.0,v4.0,F:/corpus/guava/guava#2010-06-03-08-26-58#v3.0#a393220/src/com/google/common/collect/TreeMultimap.java,F:/corpus/guava/guava#2010-06-03-08-26-58#v4.0#00efa0c/src/com/google/common/collect/TreeMultimap.java,0,0,0,0,0,0,0,0,0,0,0,0,0,YES,0,0,0,0,0,0,0,0,0,0,0,0,0,0,0,0,0,0,0,0,0,0,0,0,0,0,0,0,0,0,0,0,0,0,1,0,0,0,0,0,0,0,0,0,0,0,4,0,19,207
guava,v3.0,v4.0,F:/corpus/guava/guava#2010-06-03-08-26-58#v3.0#a393220/src/com/google/common/io/ByteArrayDataInput.java,F:/corpus/guava/guava#2010-06-03-08-26-58#v4.0#00efa0c/src/com/google/common/io/ByteArrayDataInput.java,0,0,0,0,0,0,0,0,0,0,0,0,0,YES,0,0,0,0,0,0,0,0,0,0,0,0,0,0,0,0,0,0,0,0,0,0,0,0,0,0,0,0,0,0,0,0,0,0,0,0,0,0,0,0,0,0,0,0,0,0,0,0,3,50
guava,v3.0,v4.0,F:/corpus/guava/guava#2010-06-03-08-26-58#v3.0#a393220/src/com/google/common/io/ByteArrayDataOutput.java,F:/corpus/guava/guava#2010-06-03-08-26-58#v4.0#00efa0c/src/com/google/common/io/ByteArrayDataOutput.java,0,0,0,0,0,0,0,0,0,0,0,0,0,YES,0,0,0,0,0,0,0,0,0,0,0,0,0,0,0,0,0,0,0,0,0,0,0,0,0,0,0,0,0,0,0,0,0,0,0,0,0,0,0,0,0,0,0,0,0,0,0,0,3,58
guava,v3.0,v4.0,F:/corpus/guava/guava#2010-06-03-08-26-58#v3.0#a393220/src/com/google/common/io/Files.java,F:/corpus/guava/guava#2010-06-03-08-26-58#v4.0#00efa0c/src/com/google/common/io/Files.java,0,0,0,0,0,0,0,0,0,0,0,0,0,YES,0,0,0,0,1,0,0,0,0,0,0,0,0,0,0,0,0,0,0,0,0,0,0,0,0,0,0,0,0,0,0,0,0,0,0,0,0,0,0,0,0,0,0,0,0,0,0,0,19,698
guava,v3.0,v4.0,F:/corpus/guava/guava#2010-06-03-08-26-58#v3.0#a393220/src/com/google/common/io/InputSupplier.java,F:/corpus/guava/guava#2010-06-03-08-26-58#v4.0#00efa0c/src/com/google/common/io/InputSupplier.java,0,0,0,0,1,0,0,0,0,0,0,0,0,YES,0,0,0,0,0,0,0,0,0,0,0,0,0,0,0,0,0,0,0,0,0,0,0,0,0,0,0,0,0,0,0,0,0,0,0,0,0,0,0,0,0,0,0,0,0,0,0,0,3,32
guava,v3.0,v4.0,F:/corpus/guava/guava#2010-06-03-08-26-58#v3.0#a393220/src/com/google/common/io/OutputSupplier.java,F:/corpus/guava/guava#2010-06-03-08-26-58#v4.0#00efa0c/src/com/google/common/io/OutputSupplier.java,0,0,0,0,1,0,0,0,0,0,0,0,0,YES,0,0,0,0,0,0,0,0,0,0,0,0,0,0,0,0,0,0,0,0,0,0,0,0,0,0,0,0,0,0,0,0,0,0,0,0,0,0,0,0,0,0,0,0,0,0,0,0,3,32
guava,v3.0,v4.0,F:/corpus/guava/guava#2010-06-03-08-26-58#v3.0#a393220/src/com/google/common/util/concurrent/DaemonThreadFactory.java,F:/corpus/guava/guava#2010-06-03-08-26-58#v4.0#00efa0c/src/com/google/common/util/concurrent/DaemonThreadFactory.java,0,0,0,0,0,0,0,0,0,0,0,0,0,YES,0,0,0,0,0,0,0,0,1,0,0,0,0,0,0,0,0,0,0,0,0,0,0,0,0,0,0,0,0,0,0,0,0,0,0,0,0,0,0,0,0,0,5,2,0,0,0,0,9,46
guava,v3.0,v4.0,F:/corpus/guava/guava#2010-06-03-08-26-58#v3.0#a393220/src/com/google/common/util/concurrent/ForwardingFuture.java,F:/corpus/guava/guava#2010-06-03-08-26-58#v4.0#00efa0c/src/com/google/common/util/concurrent/ForwardingFuture.java,0,0,0,0,1,0,0,0,0,0,0,0,0,YES,0,0,0,0,0,0,0,0,0,0,0,0,0,0,0,0,0,0,1,0,1,0,0,0,0,0,0,0,0,0,0,0,0,0,0,0,0,0,0,0,0,0,0,0,0,0,0,0,5,68
guava,v3.0,v4.0,F:/corpus/guava/guava#2010-06-03-08-26-58#v3.0#a393220/src/com/google/common/util/concurrent/ForwardingService.java,F:/corpus/guava/guava#2010-06-03-08-26-58#v4.0#00efa0c/src/com/google/common/util/concurrent/ForwardingService.java,0,0,0,0,1,0,0,0,0,0,0,0,0,YES,0,0,0,0,0,0,0,0,0,0,0,0,0,0,0,0,0,0,1,0,1,0,0,0,0,0,0,0,0,0,0,0,0,0,0,0,0,0,0,0,0,0,0,0,0,0,0,0,3,60
guava,v3.0,v4.0,F:/corpus/guava/guava#2010-06-03-08-26-58#v3.0#a393220/src/com/google/common/util/concurrent/MoreExecutors.java,F:/corpus/guava/guava#2010-06-03-08-26-58#v4.0#00efa0c/src/com/google/common/util/concurrent/MoreExecutors.java,0,0,1,0,0,0,0,0,0,0,0,0,0,YES,0,0,0,0,0,0,0,0,0,0,0,0,0,0,0,0,0,0,0,0,0,0,0,0,0,0,0,0,0,0,0,0,0,0,0,0,0,0,0,0,0,0,0,0,0,0,1,0,7,355
guava,v3.0,v4.0,F:/corpus/guava/guava#2010-06-03-08-26-58#v3.0#a393220/src/com/google/common/util/concurrent/NamingThreadFactory.java,F:/corpus/guava/guava#2010-06-03-08-26-58#v4.0#00efa0c/src/com/google/common/util/concurrent/NamingThreadFactory.java,0,0,0,0,0,0,0,0,0,0,0,0,0,YES,0,0,0,0,0,0,0,0,1,0,0,0,0,0,0,0,0,0,0,0,0,0,0,0,0,0,0,0,0,0,0,0,0,0,1,2,0,0,0,0,0,0,6,2,0,0,0,0,15,80
guava,v3.0,v4.0,F:/corpus/guava/guava#2010-06-03-08-26-58#v3.0#a393220/src/com/google/common/util/concurrent/UncheckedTimeoutException.java,F:/corpus/guava/guava#2010-06-03-08-26-58#v4.0#00efa0c/src/com/google/common/util/concurrent/UncheckedTimeoutException.java,0,0,0,0,0,0,0,0,0,0,0,0,0,YES,0,0,0,0,0,0,0,0,0,0,0,0,0,0,0,0,0,0,0,0,0,0,0,0,0,0,0,0,0,0,0,0,0,0,0,0,0,0,0,0,0,0,0,0,0,0,0,0,3,44
guava,v3.0,v4.0,F:/corpus/guava/guava#2010-06-03-08-26-58#v3.0#a393220/maven/annotations/src/main/java/com/google/common/annotations/Beta.java,F:/corpus/guava/guava#2010-06-03-08-26-58#v3.0#a393220/maven/annotations/src/main/java/com/google/common/annotations/Beta.java,0,0,0,0,0,0,0,0,0,0,0,0,0,NO,0,0,0,0,0,0,0,0,0,0,0,0,0,0,0,0,0,0,0,0,0,0,0,0,0,0,0,0,0,0,0,0,0,0,0,0,0,0,0,0,0,0,0,0,0,0,0,0,0,44
guava,v3.0,v4.0,F:/corpus/guava/guava#2010-06-03-08-26-58#v3.0#a393220/maven/annotations/src/main/java/com/google/common/annotations/GwtCompatible.java,F:/corpus/guava/guava#2010-06-03-08-26-58#v3.0#a393220/maven/annotations/src/main/java/com/google/common/annotations/GwtCompatible.java,0,0,0,0,0,0,0,0,0,0,0,0,0,NO,0,0,0,0,0,0,0,0,0,0,0,0,0,0,0,0,0,0,0,0,0,0,0,0,0,0,0,0,0,0,0,0,0,0,0,0,0,0,0,0,0,0,0,0,0,0,0,0,0,87
guava,v3.0,v4.0,F:/corpus/guava/guava#2010-06-03-08-26-58#v3.0#a393220/maven/annotations/src/main/java/com/google/common/annotations/GwtIncompatible.java,F:/corpus/guava/guava#2010-06-03-08-26-58#v3.0#a393220/maven/annotations/src/main/java/com/google/common/annotations/GwtIncompatible.java,0,0,0,0,0,0,0,0,0,0,0,0,0,NO,0,0,0,0,0,0,0,0,0,0,0,0,0,0,0,0,0,0,0,0,0,0,0,0,0,0,0,0,0,0,0,0,0,0,0,0,0,0,0,0,0,0,0,0,0,0,0,0,0,51
guava,v3.0,v4.0,F:/corpus/guava/guava#2010-06-03-08-26-58#v3.0#a393220/maven/annotations/src/main/java/com/google/common/annotations/package-info.java,F:/corpus/guava/guava#2010-06-03-08-26-58#v3.0#a393220/maven/annotations/src/main/java/com/google/common/annotations/package-info.java,0,0,0,0,0,0,0,0,0,0,0,0,0,NO,0,0,0,0,0,0,0,0,0,0,0,0,0,0,0,0,0,0,0,0,0,0,0,0,0,0,0,0,0,0,0,0,0,0,0,0,0,0,0,0,0,0,0,0,0,0,0,0,0,21
guava,v3.0,v4.0,F:/corpus/guava/guava#2010-06-03-08-26-58#v3.0#a393220/maven/annotations/src/main/java/com/google/common/annotations/VisibleForTesting.java,F:/corpus/guava/guava#2010-06-03-08-26-58#v3.0#a393220/maven/annotations/src/main/java/com/google/common/annotations/VisibleForTesting.java,0,0,0,0,0,0,0,0,0,0,0,0,0,NO,0,0,0,0,0,0,0,0,0,0,0,0,0,0,0,0,0,0,0,0,0,0,0,0,0,0,0,0,0,0,0,0,0,0,0,0,0,0,0,0,0,0,0,0,0,0,0,0,0,27
guava,v3.0,v4.0,F:/corpus/guava/guava#2010-06-03-08-26-58#v3.0#a393220/maven/base/src/main/java/com/google/common/base/CaseFormat.java,F:/corpus/guava/guava#2010-06-03-08-26-58#v3.0#a393220/maven/base/src/main/java/com/google/common/base/CaseFormat.java,0,0,0,0,0,0,0,0,0,0,0,0,0,NO,0,0,0,0,0,0,0,0,0,0,0,0,0,0,0,0,0,0,0,0,0,0,0,0,0,0,0,0,0,0,0,0,0,0,0,0,0,0,0,0,0,0,0,0,0,0,0,0,0,192
guava,v3.0,v4.0,F:/corpus/guava/guava#2010-06-03-08-26-58#v3.0#a393220/maven/base/src/main/java/com/google/common/base/CharMatcher.java,F:/corpus/guava/guava#2010-06-03-08-26-58#v3.0#a393220/maven/base/src/main/java/com/google/common/base/CharMatcher.java,0,1,0,0,0,0,0,0,0,0,0,0,0,NO,0,0,0,0,0,0,0,0,0,0,0,0,0,0,0,0,0,0,0,0,0,0,0,0,0,0,0,0,0,0,0,0,0,0,0,0,0,0,0,0,0,0,0,0,0,0,0,0,0,1121
guava,v3.0,v4.0,F:/corpus/guava/guava#2010-06-03-08-26-58#v3.0#a393220/maven/base/src/main/java/com/google/common/base/Charsets.java,F:/corpus/guava/guava#2010-06-03-08-26-58#v3.0#a393220/maven/base/src/main/java/com/google/common/base/Charsets.java,1,0,0,0,0,0,0,0,0,0,0,0,0,NO,0,0,0,0,0,0,0,0,0,0,0,0,0,0,0,0,0,0,0,0,0,0,0,0,0,0,0,0,0,0,0,0,0,0,0,0,0,0,0,0,0,0,0,0,0,0,0,0,0,76
guava,v3.0,v4.0,F:/corpus/guava/guava#2010-06-03-08-26-58#v3.0#a393220/maven/base/src/main/java/com/google/common/base/Defaults.java,F:/corpus/guava/guava#2010-06-03-08-26-58#v3.0#a393220/maven/base/src/main/java/com/google/common/base/Defaults.java,0,0,0,0,0,0,0,0,0,0,0,0,0,NO,0,0,0,0,0,0,0,0,0,0,0,0,0,0,0,0,0,0,0,0,0,0,0,0,0,0,0,0,0,0,0,0,0,0,0,0,0,0,0,0,0,0,0,0,0,0,0,0,0,57
guava,v3.0,v4.0,F:/corpus/guava/guava#2010-06-03-08-26-58#v3.0#a393220/maven/base/src/main/java/com/google/common/base/FinalizablePhantomReference.java,F:/corpus/guava/guava#2010-06-03-08-26-58#v3.0#a393220/maven/base/src/main/java/com/google/common/base/FinalizablePhantomReference.java,0,0,0,0,1,0,0,0,0,0,0,0,0,NO,0,0,0,0,0,0,0,0,0,0,0,0,0,0,0,0,0,0,0,0,0,0,0,0,0,0,0,0,0,0,0,0,0,0,0,0,0,0,0,0,0,0,0,0,0,0,0,0,0,47
guava,v3.0,v4.0,F:/corpus/guava/guava#2010-06-03-08-26-58#v3.0#a393220/maven/base/src/main/java/com/google/common/base/FinalizableReference.java,F:/corpus/guava/guava#2010-06-03-08-26-58#v3.0#a393220/maven/base/src/main/java/com/google/common/base/FinalizableReference.java,0,0,0,0,0,0,0,0,0,0,0,0,0,NO,0,0,0,0,0,0,0,0,0,0,0,0,0,0,0,0,0,0,0,0,0,0,0,0,0,0,0,0,0,0,0,0,0,0,0,0,0,0,0,0,0,0,0,0,0,0,0,0,0,36
guava,v3.0,v4.0,F:/corpus/guava/guava#2010-06-03-08-26-58#v3.0#a393220/maven/base/src/main/java/com/google/common/base/FinalizableReferenceQueue.java,F:/corpus/guava/guava#2010-06-03-08-26-58#v3.0#a393220/maven/base/src/main/java/com/google/common/base/FinalizableReferenceQueue.java,0,0,0,0,0,1,0,0,0,0,0,0,0,NO,0,0,0,0,0,0,0,0,0,0,0,0,0,0,0,0,0,0,0,0,0,0,0,0,0,0,0,0,0,0,0,0,0,0,0,0,0,0,0,0,0,0,0,0,0,0,0,0,0,314
guava,v3.0,v4.0,F:/corpus/guava/guava#2010-06-03-08-26-58#v3.0#a393220/maven/base/src/main/java/com/google/common/base/FinalizableSoftReference.java,F:/corpus/guava/guava#2010-06-03-08-26-58#v3.0#a393220/maven/base/src/main/java/com/google/common/base/FinalizableSoftReference.java,0,0,0,0,1,0,0,0,0,0,0,0,0,NO,0,0,0,0,0,0,0,0,0,0,0,0,0,0,0,0,0,0,0,0,0,0,0,0,0,0,0,0,0,0,0,0,0,0,0,0,0,0,0,0,0,0,0,0,0,0,0,0,0,43
guava,v3.0,v4.0,F:/corpus/guava/guava#2010-06-03-08-26-58#v3.0#a393220/maven/base/src/main/java/com/google/common/base/FinalizableWeakReference.java,F:/corpus/guava/guava#2010-06-03-08-26-58#v3.0#a393220/maven/base/src/main/java/com/google/common/base/FinalizableWeakReference.java,0,0,0,0,1,0,0,0,0,0,0,0,0,NO,0,0,0,0,0,0,0,0,0,0,0,0,0,0,0,0,0,0,0,0,0,0,0,0,0,0,0,0,0,0,0,0,0,0,0,0,0,0,0,0,0,0,0,0,0,0,0,0,0,43
guava,v3.0,v4.0,F:/corpus/guava/guava#2010-06-03-08-26-58#v3.0#a393220/maven/base/src/main/java/com/google/common/base/Function.java,F:/corpus/guava/guava#2010-06-03-08-26-58#v3.0#a393220/maven/base/src/main/java/com/google/common/base/Function.java,0,0,0,0,1,0,0,0,0,0,0,0,0,NO,0,0,0,0,0,0,0,0,0,0,0,0,0,0,0,0,0,0,0,0,0,0,0,0,0,0,0,0,0,0,0,0,0,0,0,0,0,0,0,0,0,0,0,0,0,0,0,0,0,68
guava,v3.0,v4.0,F:/corpus/guava/guava#2010-06-03-08-26-58#v3.0#a393220/maven/base/src/main/java/com/google/common/base/Functions.java,F:/corpus/guava/guava#2010-06-03-08-26-58#v3.0#a393220/maven/base/src/main/java/com/google/common/base/Functions.java,0,0,0,0,1,0,0,0,0,0,0,0,0,NO,0,0,0,0,0,0,0,0,0,0,0,0,0,0,0,0,0,0,0,0,0,0,0,0,0,0,0,0,0,0,0,0,0,0,0,0,0,0,0,0,0,0,0,0,0,0,0,0,0,286
guava,v3.0,v4.0,F:/corpus/guava/guava#2010-06-03-08-26-58#v3.0#a393220/maven/base/src/main/java/com/google/common/base/internal/Finalizer.java,F:/corpus/guava/guava#2010-06-03-08-26-58#v3.0#a393220/maven/base/src/main/java/com/google/common/base/internal/Finalizer.java,0,0,0,0,0,0,0,0,0,0,0,0,0,NO,0,0,0,0,0,0,0,0,0,0,0,0,0,0,0,0,0,0,0,0,0,0,0,0,0,0,0,0,0,0,0,0,0,0,0,0,0,0,0,0,0,0,0,0,0,0,0,0,0,207
guava,v3.0,v4.0,F:/corpus/guava/guava#2010-06-03-08-26-58#v3.0#a393220/maven/base/src/main/java/com/google/common/base/Joiner.java,F:/corpus/guava/guava#2010-06-03-08-26-58#v3.0#a393220/maven/base/src/main/java/com/google/common/base/Joiner.java,0,0,0,0,0,0,0,0,0,0,0,0,0,NO,0,0,0,0,0,0,0,0,0,0,0,0,0,0,0,0,0,0,0,0,0,0,0,0,0,0,0,0,0,0,0,0,0,0,0,0,0,0,0,0,0,0,0,0,0,0,0,0,0,342
guava,v3.0,v4.0,F:/corpus/guava/guava#2010-06-03-08-26-58#v3.0#a393220/maven/base/src/main/java/com/google/common/base/Objects.java,F:/corpus/guava/guava#2010-06-03-08-26-58#v3.0#a393220/maven/base/src/main/java/com/google/common/base/Objects.java,0,0,0,0,0,0,0,0,0,0,0,1,0,NO,0,0,0,0,0,0,0,0,0,0,0,0,0,0,0,0,0,0,0,0,0,0,0,0,0,0,0,0,0,0,0,0,0,0,0,0,0,0,0,0,0,0,0,0,0,0,0,0,0,188
guava,v3.0,v4.0,F:/corpus/guava/guava#2010-06-03-08-26-58#v3.0#a393220/maven/base/src/main/java/com/google/common/base/package-info.java,F:/corpus/guava/guava#2010-06-03-08-26-58#v3.0#a393220/maven/base/src/main/java/com/google/common/base/package-info.java,0,0,0,0,0,0,0,0,0,0,0,0,0,NO,0,0,0,0,0,0,0,0,0,0,0,0,0,0,0,0,0,0,0,0,0,0,0,0,0,0,0,0,0,0,0,0,0,0,0,0,0,0,0,0,0,0,0,0,0,0,0,0,0,60
guava,v3.0,v4.0,F:/corpus/guava/guava#2010-06-03-08-26-58#v3.0#a393220/maven/base/src/main/java/com/google/common/base/Platform.java,F:/corpus/guava/guava#2010-06-03-08-26-58#v3.0#a393220/maven/base/src/main/java/com/google/common/base/Platform.java,0,0,0,0,0,0,0,0,0,0,0,0,0,NO,0,0,0,0,0,0,0,0,0,0,0,0,0,0,0,0,0,0,0,0,0,0,0,0,0,0,0,0,0,0,0,0,0,0,0,0,0,0,0,0,0,0,0,0,0,0,0,0,0,59
guava,v3.0,v4.0,F:/corpus/guava/guava#2010-06-03-08-26-58#v3.0#a393220/maven/base/src/main/java/com/google/common/base/Preconditions.java,F:/corpus/guava/guava#2010-06-03-08-26-58#v3.0#a393220/maven/base/src/main/java/com/google/common/base/Preconditions.java,0,0,0,0,0,0,0,0,0,0,0,9,0,NO,0,0,0,0,0,0,0,0,0,0,0,0,0,0,0,0,0,0,0,0,0,0,0,0,0,0,0,0,0,0,0,0,0,0,0,0,0,0,0,0,0,0,0,0,0,0,0,0,0,447
guava,v3.0,v4.0,F:/corpus/guava/guava#2010-06-03-08-26-58#v3.0#a393220/maven/base/src/main/java/com/google/common/base/Predicate.java,F:/corpus/guava/guava#2010-06-03-08-26-58#v3.0#a393220/maven/base/src/main/java/com/google/common/base/Predicate.java,0,0,0,0,1,0,0,0,0,0,0,0,0,NO,0,0,0,0,0,0,0,0,0,0,0,0,0,0,0,0,0,0,0,0,0,0,0,0,0,0,0,0,0,0,0,0,0,0,0,0,0,0,0,0,0,0,0,0,0,0,0,0,0,63
guava,v3.0,v4.0,F:/corpus/guava/guava#2010-06-03-08-26-58#v3.0#a393220/maven/base/src/main/java/com/google/common/base/Predicates.java,F:/corpus/guava/guava#2010-06-03-08-26-58#v3.0#a393220/maven/base/src/main/java/com/google/common/base/Predicates.java,0,0,0,0,0,0,0,0,0,0,0,0,0,NO,0,0,0,0,0,0,0,0,0,0,0,0,0,0,0,0,0,0,0,0,0,0,0,0,0,0,0,0,0,0,0,0,0,0,0,0,0,0,0,0,0,0,0,0,0,0,0,0,0,630
guava,v3.0,v4.0,F:/corpus/guava/guava#2010-06-03-08-26-58#v3.0#a393220/maven/base/src/main/java/com/google/common/base/Service.java,F:/corpus/guava/guava#2010-06-03-08-26-58#v3.0#a393220/maven/base/src/main/java/com/google/common/base/Service.java,0,0,0,0,0,0,0,0,0,0,0,0,0,NO,0,0,0,0,0,0,0,0,0,0,0,0,0,0,0,0,0,0,0,0,0,0,0,0,0,0,0,0,0,0,0,0,0,0,0,0,0,0,0,0,0,0,0,0,0,0,0,0,0,160
guava,v3.0,v4.0,F:/corpus/guava/guava#2010-06-03-08-26-58#v3.0#a393220/maven/base/src/main/java/com/google/common/base/Splitter.java,F:/corpus/guava/guava#2010-06-03-08-26-58#v3.0#a393220/maven/base/src/main/java/com/google/common/base/Splitter.java,0,0,0,0,3,0,0,0,0,0,0,0,0,NO,0,0,0,0,0,0,0,0,0,0,0,0,0,0,0,0,0,0,0,0,0,0,0,0,0,0,0,0,0,0,0,0,0,0,0,0,0,0,0,0,0,0,0,0,0,0,0,0,0,459
guava,v3.0,v4.0,F:/corpus/guava/guava#2010-06-03-08-26-58#v3.0#a393220/maven/base/src/main/java/com/google/common/base/Strings.java,F:/corpus/guava/guava#2010-06-03-08-26-58#v3.0#a393220/maven/base/src/main/java/com/google/common/base/Strings.java,0,0,0,0,0,0,0,0,0,0,0,0,0,NO,0,0,0,0,0,0,0,0,0,0,0,0,0,0,0,0,0,0,0,0,0,0,0,0,0,0,0,0,0,0,0,0,0,0,0,0,0,0,0,0,0,0,0,0,0,0,0,0,0,163
guava,v3.0,v4.0,F:/corpus/guava/guava#2010-06-03-08-26-58#v3.0#a393220/maven/base/src/main/java/com/google/common/base/Supplier.java,F:/corpus/guava/guava#2010-06-03-08-26-58#v3.0#a393220/maven/base/src/main/java/com/google/common/base/Supplier.java,0,0,0,0,1,0,0,0,0,0,0,0,0,NO,0,0,0,0,0,0,0,0,0,0,0,0,0,0,0,0,0,0,0,0,0,0,0,0,0,0,0,0,0,0,0,0,0,0,0,0,0,0,0,0,0,0,0,0,0,0,0,0,0,38
guava,v3.0,v4.0,F:/corpus/guava/guava#2010-06-03-08-26-58#v3.0#a393220/maven/base/src/main/java/com/google/common/base/Suppliers.java,F:/corpus/guava/guava#2010-06-03-08-26-58#v3.0#a393220/maven/base/src/main/java/com/google/common/base/Suppliers.java,0,0,0,0,0,0,1,0,0,0,0,0,0,NO,0,0,0,0,0,0,0,0,0,0,0,0,0,0,0,0,0,0,0,0,0,0,0,0,0,0,0,0,0,0,0,0,0,0,0,0,0,0,0,0,0,0,0,0,0,0,0,0,0,197
guava,v3.0,v4.0,F:/corpus/guava/guava#2010-06-03-08-26-58#v3.0#a393220/maven/base/src/main/java/com/google/common/base/Throwables.java,F:/corpus/guava/guava#2010-06-03-08-26-58#v3.0#a393220/maven/base/src/main/java/com/google/common/base/Throwables.java,0,0,0,0,0,0,0,0,0,0,0,0,0,NO,0,0,0,0,0,0,0,0,0,0,0,0,0,0,0,0,0,0,0,0,0,0,0,0,0,0,0,0,0,0,0,0,0,0,0,0,0,0,0,0,0,0,0,0,0,0,0,0,0,252
guava,v3.0,v4.0,F:/corpus/guava/guava#2010-06-03-08-26-58#v3.0#a393220/maven/collections/src/main/java/com/google/common/collect/AbstractBiMap.java,F:/corpus/guava/guava#2010-06-03-08-26-58#v3.0#a393220/maven/collections/src/main/java/com/google/common/collect/AbstractBiMap.java,0,0,0,0,1,0,0,0,0,0,0,0,0,NO,0,0,0,0,0,0,0,0,0,0,0,0,0,0,0,0,0,0,0,0,0,0,0,0,0,0,0,0,0,0,0,0,0,0,0,0,0,0,0,0,0,0,0,0,0,0,0,0,0,394
guava,v3.0,v4.0,F:/corpus/guava/guava#2010-06-03-08-26-58#v3.0#a393220/maven/collections/src/main/java/com/google/common/collect/AbstractIterator.java,F:/corpus/guava/guava#2010-06-03-08-26-58#v3.0#a393220/maven/collections/src/main/java/com/google/common/collect/AbstractIterator.java,0,0,0,0,1,0,0,0,0,0,0,1,0,NO,0,0,0,0,0,0,0,0,0,0,0,0,0,0,0,0,0,0,0,0,0,0,0,0,0,0,0,0,0,0,0,0,0,0,0,0,0,0,0,0,0,0,0,0,0,0,0,0,0,165
guava,v3.0,v4.0,F:/corpus/guava/guava#2010-06-03-08-26-58#v3.0#a393220/maven/collections/src/main/java/com/google/common/collect/AbstractListMultimap.java,F:/corpus/guava/guava#2010-06-03-08-26-58#v3.0#a393220/maven/collections/src/main/java/com/google/common/collect/AbstractListMultimap.java,0,0,0,0,1,0,0,0,0,0,0,0,0,NO,0,0,0,0,0,0,0,0,0,0,0,0,0,0,0,0,0,0,0,0,0,0,0,0,0,0,0,0,0,0,0,0,0,0,0,0,0,0,0,0,0,0,0,0,0,0,0,0,0,87
guava,v3.0,v4.0,F:/corpus/guava/guava#2010-06-03-08-26-58#v3.0#a393220/maven/collections/src/main/java/com/google/common/collect/AbstractMapBasedMultiset.java,F:/corpus/guava/guava#2010-06-03-08-26-58#v3.0#a393220/maven/collections/src/main/java/com/google/common/collect/AbstractMapBasedMultiset.java,0,0,0,0,1,5,0,0,0,0,0,0,0,NO,0,0,0,0,0,0,0,0,0,0,0,0,0,0,0,0,0,0,0,0,0,0,0,0,0,0,0,0,0,0,0,0,0,0,0,0,0,0,0,0,0,0,0,0,0,0,0,0,0,414
guava,v3.0,v4.0,F:/corpus/guava/guava#2010-06-03-08-26-58#v3.0#a393220/maven/collections/src/main/java/com/google/common/collect/AbstractMapEntry.java,F:/corpus/guava/guava#2010-06-03-08-26-58#v3.0#a393220/maven/collections/src/main/java/com/google/common/collect/AbstractMapEntry.java,0,0,0,0,2,0,0,0,0,0,0,0,0,NO,0,0,0,0,0,0,0,0,0,0,0,0,0,0,0,0,0,0,0,0,0,0,0,0,0,0,0,0,0,0,0,0,0,0,0,0,0,0,0,0,0,0,0,0,0,0,0,0,0,64
guava,v3.0,v4.0,F:/corpus/guava/guava#2010-06-03-08-26-58#v3.0#a393220/maven/collections/src/main/java/com/google/common/collect/AbstractMultimap.java,F:/corpus/guava/guava#2010-06-03-08-26-58#v3.0#a393220/maven/collections/src/main/java/com/google/common/collect/AbstractMultimap.java,0,1,3,0,2,0,1,0,0,0,0,1,0,NO,0,0,0,0,0,0,0,0,0,0,0,0,0,0,0,0,0,0,0,0,0,0,0,0,0,0,0,0,0,0,0,0,0,0,0,0,0,0,0,0,0,0,0,0,0,0,0,0,0,1491
guava,v3.0,v4.0,F:/corpus/guava/guava#2010-06-03-08-26-58#v3.0#a393220/maven/collections/src/main/java/com/google/common/collect/AbstractMultiset.java,F:/corpus/guava/guava#2010-06-03-08-26-58#v3.0#a393220/maven/collections/src/main/java/com/google/common/collect/AbstractMultiset.java,0,0,0,0,3,0,0,0,0,0,0,0,0,NO,0,0,0,0,0,0,0,0,0,0,0,0,0,0,0,0,0,0,0,0,0,0,0,0,0,0,0,0,0,0,0,0,0,0,0,0,0,0,0,0,0,0,0,0,0,0,0,0,0,295
guava,v3.0,v4.0,F:/corpus/guava/guava#2010-06-03-08-26-58#v3.0#a393220/maven/collections/src/main/java/com/google/common/collect/AbstractSetMultimap.java,F:/corpus/guava/guava#2010-06-03-08-26-58#v3.0#a393220/maven/collections/src/main/java/com/google/common/collect/AbstractSetMultimap.java,0,0,0,0,1,0,0,0,0,0,0,0,0,NO,0,0,0,0,0,0,0,0,0,0,0,0,0,0,0,0,0,0,0,0,0,0,0,0,0,0,0,0,0,0,0,0,0,0,0,0,0,0,0,0,0,0,0,0,0,0,0,0,0,95
guava,v3.0,v4.0,F:/corpus/guava/guava#2010-06-03-08-26-58#v3.0#a393220/maven/collections/src/main/java/com/google/common/collect/AbstractSortedSetMultimap.java,F:/corpus/guava/guava#2010-06-03-08-26-58#v3.0#a393220/maven/collections/src/main/java/com/google/common/collect/AbstractSortedSetMultimap.java,0,0,0,0,1,0,0,0,0,0,0,0,0,NO,0,0,0,0,0,0,0,0,0,0,0,0,0,0,0,0,0,0,0,0,0,0,0,0,0,0,0,0,0,0,0,0,0,0,0,0,0,0,0,0,0,0,0,0,0,0,0,0,0,74
guava,v3.0,v4.0,F:/corpus/guava/guava#2010-06-03-08-26-58#v3.0#a393220/maven/collections/src/main/java/com/google/common/collect/ArrayListMultimap.java,F:/corpus/guava/guava#2010-06-03-08-26-58#v3.0#a393220/maven/collections/src/main/java/com/google/common/collect/ArrayListMultimap.java,0,0,0,0,0,0,0,0,0,0,0,0,0,NO,0,0,0,0,0,0,0,0,0,0,0,0,0,0,0,0,0,0,0,0,0,0,0,0,0,0,0,0,0,0,0,0,0,0,0,0,0,0,0,0,0,0,0,0,0,0,0,0,0,159
guava,v3.0,v4.0,F:/corpus/guava/guava#2010-06-03-08-26-58#v3.0#a393220/maven/collections/src/main/java/com/google/common/collect/AsynchronousComputationException.java,F:/corpus/guava/guava#2010-06-03-08-26-58#v3.0#a393220/maven/collections/src/main/java/com/google/common/collect/AsynchronousComputationException.java,0,0,0,0,0,0,0,0,0,0,0,0,0,NO,0,0,0,0,0,0,0,0,0,0,0,0,0,0,0,0,0,0,0,0,0,0,0,0,0,0,0,0,0,0,0,0,0,0,0,0,0,0,0,0,0,0,0,0,0,0,0,0,0,32
guava,v3.0,v4.0,F:/corpus/guava/guava#2010-06-03-08-26-58#v3.0#a393220/maven/collections/src/main/java/com/google/common/collect/BiMap.java,F:/corpus/guava/guava#2010-06-03-08-26-58#v3.0#a393220/maven/collections/src/main/java/com/google/common/collect/BiMap.java,0,0,0,0,1,0,0,0,0,0,0,0,0,NO,0,0,0,0,0,0,0,0,0,0,0,0,0,0,0,0,0,0,0,0,0,0,0,0,0,0,0,0,0,0,0,0,0,0,0,0,0,0,0,0,0,0,0,0,0,0,0,0,0,103
guava,v3.0,v4.0,F:/corpus/guava/guava#2010-06-03-08-26-58#v3.0#a393220/maven/collections/src/main/java/com/google/common/collect/ByFunctionOrdering.java,F:/corpus/guava/guava#2010-06-03-08-26-58#v3.0#a393220/maven/collections/src/main/java/com/google/common/collect/ByFunctionOrdering.java,0,0,0,0,0,0,0,0,0,0,0,0,0,NO,0,0,0,0,0,0,0,0,0,0,0,0,0,0,0,0,0,0,0,0,0,0,0,0,0,0,0,0,0,0,0,0,0,0,0,0,0,0,0,0,0,0,0,0,0,0,0,0,0,69
guava,v3.0,v4.0,F:/corpus/guava/guava#2010-06-03-08-26-58#v3.0#a393220/maven/collections/src/main/java/com/google/common/collect/ClassToInstanceMap.java,F:/corpus/guava/guava#2010-06-03-08-26-58#v3.0#a393220/maven/collections/src/main/java/com/google/common/collect/ClassToInstanceMap.java,0,0,0,0,1,0,0,0,0,0,0,0,0,NO,0,0,0,0,0,0,0,0,0,0,0,0,0,0,0,0,0,0,0,0,0,0,0,0,0,0,0,0,0,0,0,0,0,0,0,0,0,0,0,0,0,0,0,0,0,0,0,0,0,59
guava,v3.0,v4.0,F:/corpus/guava/guava#2010-06-03-08-26-58#v3.0#a393220/maven/collections/src/main/java/com/google/common/collect/Collections2.java,F:/corpus/guava/guava#2010-06-03-08-26-58#v3.0#a393220/maven/collections/src/main/java/com/google/common/collect/Collections2.java,0,0,0,0,0,0,0,0,0,0,0,2,0,NO,0,0,0,0,0,0,0,0,0,0,0,0,0,0,0,0,0,0,0,0,0,0,0,0,0,0,0,0,0,0,0,0,0,0,0,0,0,0,0,0,0,0,0,0,0,0,0,0,0,301
guava,v3.0,v4.0,F:/corpus/guava/guava#2010-06-03-08-26-58#v3.0#a393220/maven/collections/src/main/java/com/google/common/collect/ComparatorOrdering.java,F:/corpus/guava/guava#2010-06-03-08-26-58#v3.0#a393220/maven/collections/src/main/java/com/google/common/collect/ComparatorOrdering.java,0,0,0,0,0,0,0,0,0,0,0,0,0,NO,0,0,0,0,0,0,0,0,0,0,0,0,0,0,0,0,0,0,0,0,0,0,0,0,0,0,0,0,0,0,0,0,0,0,0,0,0,0,0,0,0,0,0,0,0,0,0,0,0,74
guava,v3.0,v4.0,F:/corpus/guava/guava#2010-06-03-08-26-58#v3.0#a393220/maven/collections/src/main/java/com/google/common/collect/ComparisonChain.java,F:/corpus/guava/guava#2010-06-03-08-26-58#v3.0#a393220/maven/collections/src/main/java/com/google/common/collect/ComparisonChain.java,0,0,0,0,7,0,0,0,0,0,0,0,0,NO,0,0,0,0,0,0,0,0,0,0,0,0,0,0,0,0,0,0,0,0,0,0,0,0,0,0,0,0,0,0,0,0,0,0,0,0,0,0,0,0,0,0,0,0,0,0,0,0,0,195
guava,v3.0,v4.0,F:/corpus/guava/guava#2010-06-03-08-26-58#v3.0#a393220/maven/collections/src/main/java/com/google/common/collect/CompoundOrdering.java,F:/corpus/guava/guava#2010-06-03-08-26-58#v3.0#a393220/maven/collections/src/main/java/com/google/common/collect/CompoundOrdering.java,0,0,0,0,0,0,0,0,0,0,0,0,0,NO,0,0,0,0,0,0,0,0,0,0,0,0,0,0,0,0,0,0,0,0,0,0,0,0,0,0,0,0,0,0,0,0,0,0,0,0,0,0,0,0,0,0,0,0,0,0,0,0,0,76
guava,v3.0,v4.0,F:/corpus/guava/guava#2010-06-03-08-26-58#v3.0#a393220/maven/collections/src/main/java/com/google/common/collect/ComputationException.java,F:/corpus/guava/guava#2010-06-03-08-26-58#v3.0#a393220/maven/collections/src/main/java/com/google/common/collect/ComputationException.java,0,0,0,0,0,0,0,0,0,0,0,0,0,NO,0,0,0,0,0,0,0,0,0,0,0,0,0,0,0,0,0,0,0,0,0,0,0,0,0,0,0,0,0,0,0,0,0,0,0,0,0,0,0,0,0,0,0,0,0,0,0,0,0,33
guava,v3.0,v4.0,F:/corpus/guava/guava#2010-06-03-08-26-58#v3.0#a393220/maven/collections/src/main/java/com/google/common/collect/ConcurrentHashMultiset.java,F:/corpus/guava/guava#2010-06-03-08-26-58#v3.0#a393220/maven/collections/src/main/java/com/google/common/collect/ConcurrentHashMultiset.java,0,0,0,0,0,0,0,0,0,0,0,0,0,NO,0,0,0,0,0,0,0,0,0,0,0,0,0,0,0,0,0,0,0,0,0,0,0,0,0,0,0,0,0,0,0,0,0,0,0,0,0,0,0,0,0,0,0,0,0,0,0,0,0,486
guava,v3.0,v4.0,F:/corpus/guava/guava#2010-06-03-08-26-58#v3.0#a393220/maven/collections/src/main/java/com/google/common/collect/Constraint.java,F:/corpus/guava/guava#2010-06-03-08-26-58#v3.0#a393220/maven/collections/src/main/java/com/google/common/collect/Constraint.java,0,0,0,0,1,0,0,0,0,0,0,0,0,NO,0,0,0,0,0,0,0,0,0,0,0,0,0,0,0,0,0,0,0,0,0,0,0,0,0,0,0,0,0,0,0,0,0,0,0,0,0,0,0,0,0,0,0,0,0,0,0,0,0,66
guava,v3.0,v4.0,F:/corpus/guava/guava#2010-06-03-08-26-58#v3.0#a393220/maven/collections/src/main/java/com/google/common/collect/Constraints.java,F:/corpus/guava/guava#2010-06-03-08-26-58#v3.0#a393220/maven/collections/src/main/java/com/google/common/collect/Constraints.java,0,0,1,0,0,0,0,0,0,0,0,0,0,NO,0,0,0,0,0,0,0,0,0,0,0,0,0,0,0,0,0,0,0,0,0,0,0,0,0,0,0,0,0,0,0,0,0,0,0,0,0,0,0,0,0,0,0,0,0,0,0,0,0,382
guava,v3.0,v4.0,F:/corpus/guava/guava#2010-06-03-08-26-58#v3.0#a393220/maven/collections/src/main/java/com/google/common/collect/CustomConcurrentHashMap.java,F:/corpus/guava/guava#2010-06-03-08-26-58#v3.0#a393220/maven/collections/src/main/java/com/google/common/collect/CustomConcurrentHashMap.java,0,2,0,0,3,0,1,0,0,0,0,0,0,NO,0,0,0,0,0,0,0,0,0,0,0,0,0,0,0,0,0,0,0,0,0,0,0,0,0,0,0,0,0,0,0,0,0,0,0,0,0,0,0,0,0,0,0,0,0,0,0,0,0,2161
guava,v3.0,v4.0,F:/corpus/guava/guava#2010-06-03-08-26-58#v3.0#a393220/maven/collections/src/main/java/com/google/common/collect/EmptyImmutableList.java,F:/corpus/guava/guava#2010-06-03-08-26-58#v3.0#a393220/maven/collections/src/main/java/com/google/common/collect/EmptyImmutableList.java,0,0,0,0,3,0,0,0,0,0,0,0,0,NO,0,0,0,0,0,0,0,0,0,0,0,0,0,0,0,0,0,0,0,0,0,0,0,0,0,0,0,0,0,0,0,0,0,0,0,0,0,0,0,0,0,0,0,0,0,0,0,0,0,125
guava,v3.0,v4.0,F:/corpus/guava/guava#2010-06-03-08-26-58#v3.0#a393220/maven/collections/src/main/java/com/google/common/collect/EmptyImmutableListMultimap.java,F:/corpus/guava/guava#2010-06-03-08-26-58#v3.0#a393220/maven/collections/src/main/java/com/google/common/collect/EmptyImmutableListMultimap.java,0,0,0,0,0,0,0,0,0,0,0,0,0,NO,0,0,0,0,0,0,0,0,0,0,0,0,0,0,0,0,0,0,0,0,0,0,0,0,0,0,0,0,0,0,0,0,0,0,0,0,0,0,0,0,0,0,0,0,0,0,0,0,0,40
guava,v3.0,v4.0,F:/corpus/guava/guava#2010-06-03-08-26-58#v3.0#a393220/maven/collections/src/main/java/com/google/common/collect/EmptyImmutableMap.java,F:/corpus/guava/guava#2010-06-03-08-26-58#v3.0#a393220/maven/collections/src/main/java/com/google/common/collect/EmptyImmutableMap.java,0,0,0,0,3,0,0,0,0,0,0,0,0,NO,0,0,0,0,0,0,0,0,0,0,0,0,0,0,0,0,0,0,0,0,0,0,0,0,0,0,0,0,0,0,0,0,0,0,0,0,0,0,0,0,0,0,0,0,0,0,0,0,0,90
guava,v3.0,v4.0,F:/corpus/guava/guava#2010-06-03-08-26-58#v3.0#a393220/maven/collections/src/main/java/com/google/common/collect/EmptyImmutableMultiset.java,F:/corpus/guava/guava#2010-06-03-08-26-58#v3.0#a393220/maven/collections/src/main/java/com/google/common/collect/EmptyImmutableMultiset.java,0,0,0,0,0,0,0,0,0,0,0,0,0,NO,0,0,0,0,0,0,0,0,0,0,0,0,0,0,0,0,0,0,0,0,0,0,0,0,0,0,0,0,0,0,0,0,0,0,0,0,0,0,0,0,0,0,0,0,0,0,0,0,0,39
guava,v3.0,v4.0,F:/corpus/guava/guava#2010-06-03-08-26-58#v3.0#a393220/maven/collections/src/main/java/com/google/common/collect/EmptyImmutableSet.java,F:/corpus/guava/guava#2010-06-03-08-26-58#v3.0#a393220/maven/collections/src/main/java/com/google/common/collect/EmptyImmutableSet.java,0,0,0,0,1,0,0,0,0,0,0,0,0,NO,0,0,0,0,0,0,0,0,0,0,0,0,0,0,0,0,0,0,0,0,0,0,0,0,0,0,0,0,0,0,0,0,0,0,0,0,0,0,0,0,0,0,0,0,0,0,0,0,0,95
guava,v3.0,v4.0,F:/corpus/guava/guava#2010-06-03-08-26-58#v3.0#a393220/maven/collections/src/main/java/com/google/common/collect/EmptyImmutableSetMultimap.java,F:/corpus/guava/guava#2010-06-03-08-26-58#v3.0#a393220/maven/collections/src/main/java/com/google/common/collect/EmptyImmutableSetMultimap.java,0,0,0,0,0,0,0,0,0,0,0,0,0,NO,0,0,0,0,0,0,0,0,0,0,0,0,0,0,0,0,0,0,0,0,0,0,0,0,0,0,0,0,0,0,0,0,0,0,0,0,0,0,0,0,0,0,0,0,0,0,0,0,0,40
guava,v3.0,v4.0,F:/corpus/guava/guava#2010-06-03-08-26-58#v3.0#a393220/maven/collections/src/main/java/com/google/common/collect/EmptyImmutableSortedSet.java,F:/corpus/guava/guava#2010-06-03-08-26-58#v3.0#a393220/maven/collections/src/main/java/com/google/common/collect/EmptyImmutableSortedSet.java,0,0,0,0,5,0,0,0,0,0,0,0,0,NO,0,0,0,0,0,0,0,0,0,0,0,0,0,0,0,0,0,0,0,0,0,0,0,0,0,0,0,0,0,0,0,0,0,0,0,0,0,0,0,0,0,0,0,0,0,0,0,0,0,116
guava,v3.0,v4.0,F:/corpus/guava/guava#2010-06-03-08-26-58#v3.0#a393220/maven/collections/src/main/java/com/google/common/collect/EnumBiMap.java,F:/corpus/guava/guava#2010-06-03-08-26-58#v3.0#a393220/maven/collections/src/main/java/com/google/common/collect/EnumBiMap.java,0,0,0,0,0,0,0,0,0,0,0,0,0,NO,0,0,0,0,0,0,0,0,0,0,0,0,0,0,0,0,0,0,0,0,0,0,0,0,0,0,0,0,0,0,0,0,0,0,0,0,0,0,0,0,0,0,0,0,0,0,0,0,0,126
guava,v3.0,v4.0,F:/corpus/guava/guava#2010-06-03-08-26-58#v3.0#a393220/maven/collections/src/main/java/com/google/common/collect/EnumHashBiMap.java,F:/corpus/guava/guava#2010-06-03-08-26-58#v3.0#a393220/maven/collections/src/main/java/com/google/common/collect/EnumHashBiMap.java,0,0,0,0,0,0,0,0,0,0,0,0,0,NO,0,0,0,0,0,0,0,0,0,0,0,0,0,0,0,0,0,0,0,0,0,0,0,0,0,0,0,0,0,0,0,0,0,0,0,0,0,0,0,0,0,0,0,0,0,0,0,0,0,110
guava,v3.0,v4.0,F:/corpus/guava/guava#2010-06-03-08-26-58#v3.0#a393220/maven/collections/src/main/java/com/google/common/collect/EnumMultiset.java,F:/corpus/guava/guava#2010-06-03-08-26-58#v3.0#a393220/maven/collections/src/main/java/com/google/common/collect/EnumMultiset.java,0,0,0,0,0,0,0,0,0,0,0,0,0,NO,0,0,0,0,0,0,0,0,0,0,0,0,0,0,0,0,0,0,0,0,0,0,0,0,0,0,0,0,0,0,0,0,0,0,0,0,0,0,0,0,0,0,0,0,0,0,0,0,0,90
guava,v3.0,v4.0,F:/corpus/guava/guava#2010-06-03-08-26-58#v3.0#a393220/maven/collections/src/main/java/com/google/common/collect/ExpirationTimer.java,F:/corpus/guava/guava#2010-06-03-08-26-58#v3.0#a393220/maven/collections/src/main/java/com/google/common/collect/ExpirationTimer.java,0,0,0,0,0,0,0,0,0,0,0,0,0,NO,0,0,0,0,0,0,0,0,0,0,0,0,0,0,0,0,0,0,0,0,0,0,0,0,0,0,0,0,0,0,0,0,0,0,0,0,0,0,0,0,0,0,0,0,0,0,0,0,0,26
guava,v3.0,v4.0,F:/corpus/guava/guava#2010-06-03-08-26-58#v3.0#a393220/maven/collections/src/main/java/com/google/common/collect/ExplicitOrderedImmutableSortedSet.java,F:/corpus/guava/guava#2010-06-03-08-26-58#v3.0#a393220/maven/collections/src/main/java/com/google/common/collect/ExplicitOrderedImmutableSortedSet.java,0,0,0,0,1,0,0,0,0,0,0,0,0,NO,0,0,0,0,0,0,0,0,0,0,0,0,0,0,0,0,0,0,0,0,0,0,0,0,0,0,0,0,0,0,0,0,0,0,0,0,0,0,0,0,0,0,0,0,0,0,0,0,0,224
guava,v3.0,v4.0,F:/corpus/guava/guava#2010-06-03-08-26-58#v3.0#a393220/maven/collections/src/main/java/com/google/common/collect/ExplicitOrdering.java,F:/corpus/guava/guava#2010-06-03-08-26-58#v3.0#a393220/maven/collections/src/main/java/com/google/common/collect/ExplicitOrdering.java,0,0,0,0,0,0,0,0,0,0,0,0,0,NO,0,0,0,0,0,0,0,0,0,0,0,0,0,0,0,0,0,0,0,0,0,0,0,0,0,0,0,0,0,0,0,0,0,0,0,0,0,0,0,0,0,0,0,0,0,0,0,0,0,78
guava,v3.0,v4.0,F:/corpus/guava/guava#2010-06-03-08-26-58#v3.0#a393220/maven/collections/src/main/java/com/google/common/collect/ForwardingCollection.java,F:/corpus/guava/guava#2010-06-03-08-26-58#v3.0#a393220/maven/collections/src/main/java/com/google/common/collect/ForwardingCollection.java,0,0,0,0,1,0,0,0,0,0,0,0,0,NO,0,0,0,0,0,0,0,0,0,0,0,0,0,0,0,0,0,0,0,0,0,0,0,0,0,0,0,0,0,0,0,0,0,0,0,0,0,0,0,0,0,0,0,0,0,0,0,0,0,91
guava,v3.0,v4.0,F:/corpus/guava/guava#2010-06-03-08-26-58#v3.0#a393220/maven/collections/src/main/java/com/google/common/collect/ForwardingConcurrentMap.java,F:/corpus/guava/guava#2010-06-03-08-26-58#v3.0#a393220/maven/collections/src/main/java/com/google/common/collect/ForwardingConcurrentMap.java,0,0,0,0,1,0,0,0,0,0,0,0,0,NO,0,0,0,0,0,0,0,0,0,0,0,0,0,0,0,0,0,0,0,0,0,0,0,0,0,0,0,0,0,0,0,0,0,0,0,0,0,0,0,0,0,0,0,0,0,0,0,0,0,55
guava,v3.0,v4.0,F:/corpus/guava/guava#2010-06-03-08-26-58#v3.0#a393220/maven/collections/src/main/java/com/google/common/collect/ForwardingIterator.java,F:/corpus/guava/guava#2010-06-03-08-26-58#v3.0#a393220/maven/collections/src/main/java/com/google/common/collect/ForwardingIterator.java,0,0,0,0,1,0,0,0,0,0,0,0,0,NO,0,0,0,0,0,0,0,0,0,0,0,0,0,0,0,0,0,0,0,0,0,0,0,0,0,0,0,0,0,0,0,0,0,0,0,0,0,0,0,0,0,0,0,0,0,0,0,0,0,50
guava,v3.0,v4.0,F:/corpus/guava/guava#2010-06-03-08-26-58#v3.0#a393220/maven/collections/src/main/java/com/google/common/collect/ForwardingList.java,F:/corpus/guava/guava#2010-06-03-08-26-58#v3.0#a393220/maven/collections/src/main/java/com/google/common/collect/ForwardingList.java,0,0,0,0,1,0,0,0,0,0,0,0,0,NO,0,0,0,0,0,0,0,0,0,0,0,0,0,0,0,0,0,0,0,0,0,0,0,0,0,0,0,0,0,0,0,0,0,0,0,0,0,0,0,0,0,0,0,0,0,0,0,0,0,93
guava,v3.0,v4.0,F:/corpus/guava/guava#2010-06-03-08-26-58#v3.0#a393220/maven/collections/src/main/java/com/google/common/collect/ForwardingListIterator.java,F:/corpus/guava/guava#2010-06-03-08-26-58#v3.0#a393220/maven/collections/src/main/java/com/google/common/collect/ForwardingListIterator.java,0,0,0,0,1,0,0,0,0,0,0,0,0,NO,0,0,0,0,0,0,0,0,0,0,0,0,0,0,0,0,0,0,0,0,0,0,0,0,0,0,0,0,0,0,0,0,0,0,0,0,0,0,0,0,0,0,0,0,0,0,0,0,0,62
guava,v3.0,v4.0,F:/corpus/guava/guava#2010-06-03-08-26-58#v3.0#a393220/maven/collections/src/main/java/com/google/common/collect/ForwardingListMultimap.java,F:/corpus/guava/guava#2010-06-03-08-26-58#v3.0#a393220/maven/collections/src/main/java/com/google/common/collect/ForwardingListMultimap.java,0,0,0,0,1,0,0,0,0,0,0,0,0,NO,0,0,0,0,0,0,0,0,0,0,0,0,0,0,0,0,0,0,0,0,0,0,0,0,0,0,0,0,0,0,0,0,0,0,0,0,0,0,0,0,0,0,0,0,0,0,0,0,0,52
guava,v3.0,v4.0,F:/corpus/guava/guava#2010-06-03-08-26-58#v3.0#a393220/maven/collections/src/main/java/com/google/common/collect/ForwardingMap.java,F:/corpus/guava/guava#2010-06-03-08-26-58#v3.0#a393220/maven/collections/src/main/java/com/google/common/collect/ForwardingMap.java,0,0,0,0,1,0,0,0,0,0,0,0,0,NO,0,0,0,0,0,0,0,0,0,0,0,0,0,0,0,0,0,0,0,0,0,0,0,0,0,0,0,0,0,0,0,0,0,0,0,0,0,0,0,0,0,0,0,0,0,0,0,0,0,99
guava,v3.0,v4.0,F:/corpus/guava/guava#2010-06-03-08-26-58#v3.0#a393220/maven/collections/src/main/java/com/google/common/collect/ForwardingMapEntry.java,F:/corpus/guava/guava#2010-06-03-08-26-58#v3.0#a393220/maven/collections/src/main/java/com/google/common/collect/ForwardingMapEntry.java,0,0,0,0,1,0,0,0,0,0,0,0,0,NO,0,0,0,0,0,0,0,0,0,0,0,0,0,0,0,0,0,0,0,0,0,0,0,0,0,0,0,0,0,0,0,0,0,0,0,0,0,0,0,0,0,0,0,0,0,0,0,0,0,60
guava,v3.0,v4.0,F:/corpus/guava/guava#2010-06-03-08-26-58#v3.0#a393220/maven/collections/src/main/java/com/google/common/collect/ForwardingMultimap.java,F:/corpus/guava/guava#2010-06-03-08-26-58#v3.0#a393220/maven/collections/src/main/java/com/google/common/collect/ForwardingMultimap.java,0,0,0,0,1,0,0,0,0,0,0,0,0,NO,0,0,0,0,0,0,0,0,0,0,0,0,0,0,0,0,0,0,0,0,0,0,0,0,0,0,0,0,0,0,0,0,0,0,0,0,0,0,0,0,0,0,0,0,0,0,0,0,0,123
guava,v3.0,v4.0,F:/corpus/guava/guava#2010-06-03-08-26-58#v3.0#a393220/maven/collections/src/main/java/com/google/common/collect/ForwardingMultiset.java,F:/corpus/guava/guava#2010-06-03-08-26-58#v3.0#a393220/maven/collections/src/main/java/com/google/common/collect/ForwardingMultiset.java,0,0,0,0,1,0,0,0,0,0,0,0,0,NO,0,0,0,0,0,0,0,0,0,0,0,0,0,0,0,0,0,0,0,0,0,0,0,0,0,0,0,0,0,0,0,0,0,0,0,0,0,0,0,0,0,0,0,0,0,0,0,0,0,76
guava,v3.0,v4.0,F:/corpus/guava/guava#2010-06-03-08-26-58#v3.0#a393220/maven/collections/src/main/java/com/google/common/collect/ForwardingObject.java,F:/corpus/guava/guava#2010-06-03-08-26-58#v3.0#a393220/maven/collections/src/main/java/com/google/common/collect/ForwardingObject.java,0,0,0,0,0,0,0,0,0,0,0,0,0,NO,0,0,0,0,0,0,0,0,0,0,0,0,0,0,0,0,0,0,0,0,0,0,0,0,0,0,0,0,0,0,0,0,0,0,0,0,0,0,0,0,0,0,0,0,0,0,0,0,0,76
guava,v3.0,v4.0,F:/corpus/guava/guava#2010-06-03-08-26-58#v3.0#a393220/maven/collections/src/main/java/com/google/common/collect/ForwardingQueue.java,F:/corpus/guava/guava#2010-06-03-08-26-58#v3.0#a393220/maven/collections/src/main/java/com/google/common/collect/ForwardingQueue.java,0,0,0,0,1,0,0,0,0,0,0,0,0,NO,0,0,0,0,0,0,0,0,0,0,0,0,0,0,0,0,0,0,0,0,0,0,0,0,0,0,0,0,0,0,0,0,0,0,0,0,0,0,0,0,0,0,0,0,0,0,0,0,0,58
guava,v3.0,v4.0,F:/corpus/guava/guava#2010-06-03-08-26-58#v3.0#a393220/maven/collections/src/main/java/com/google/common/collect/ForwardingSet.java,F:/corpus/guava/guava#2010-06-03-08-26-58#v3.0#a393220/maven/collections/src/main/java/com/google/common/collect/ForwardingSet.java,0,0,0,0,1,0,0,0,0,0,0,0,0,NO,0,0,0,0,0,0,0,0,0,0,0,0,0,0,0,0,0,0,0,0,0,0,0,0,0,0,0,0,0,0,0,0,0,0,0,0,0,0,0,0,0,0,0,0,0,0,0,0,0,48
guava,v3.0,v4.0,F:/corpus/guava/guava#2010-06-03-08-26-58#v3.0#a393220/maven/collections/src/main/java/com/google/common/collect/ForwardingSetMultimap.java,F:/corpus/guava/guava#2010-06-03-08-26-58#v3.0#a393220/maven/collections/src/main/java/com/google/common/collect/ForwardingSetMultimap.java,0,0,0,0,1,0,0,0,0,0,0,0,0,NO,0,0,0,0,0,0,0,0,0,0,0,0,0,0,0,0,0,0,0,0,0,0,0,0,0,0,0,0,0,0,0,0,0,0,0,0,0,0,0,0,0,0,0,0,0,0,0,0,0,57
guava,v3.0,v4.0,F:/corpus/guava/guava#2010-06-03-08-26-58#v3.0#a393220/maven/collections/src/main/java/com/google/common/collect/ForwardingSortedMap.java,F:/corpus/guava/guava#2010-06-03-08-26-58#v3.0#a393220/maven/collections/src/main/java/com/google/common/collect/ForwardingSortedMap.java,0,0,0,0,1,0,0,0,0,0,0,0,0,NO,0,0,0,0,0,0,0,0,0,0,0,0,0,0,0,0,0,0,0,0,0,0,0,0,0,0,0,0,0,0,0,0,0,0,0,0,0,0,0,0,0,0,0,0,0,0,0,0,0,63
guava,v3.0,v4.0,F:/corpus/guava/guava#2010-06-03-08-26-58#v3.0#a393220/maven/collections/src/main/java/com/google/common/collect/ForwardingSortedSet.java,F:/corpus/guava/guava#2010-06-03-08-26-58#v3.0#a393220/maven/collections/src/main/java/com/google/common/collect/ForwardingSortedSet.java,0,0,0,0,1,0,0,0,0,0,0,0,0,NO,0,0,0,0,0,0,0,0,0,0,0,0,0,0,0,0,0,0,0,0,0,0,0,0,0,0,0,0,0,0,0,0,0,0,0,0,0,0,0,0,0,0,0,0,0,0,0,0,0,63
guava,v3.0,v4.0,F:/corpus/guava/guava#2010-06-03-08-26-58#v3.0#a393220/maven/collections/src/main/java/com/google/common/collect/ForwardingSortedSetMultimap.java,F:/corpus/guava/guava#2010-06-03-08-26-58#v3.0#a393220/maven/collections/src/main/java/com/google/common/collect/ForwardingSortedSetMultimap.java,0,0,0,0,1,0,0,0,0,0,0,0,0,NO,0,0,0,0,0,0,0,0,0,0,0,0,0,0,0,0,0,0,0,0,0,0,0,0,0,0,0,0,0,0,0,0,0,0,0,0,0,0,0,0,0,0,0,0,0,0,0,0,0,58
guava,v3.0,v4.0,F:/corpus/guava/guava#2010-06-03-08-26-58#v3.0#a393220/maven/collections/src/main/java/com/google/common/collect/HashBiMap.java,F:/corpus/guava/guava#2010-06-03-08-26-58#v3.0#a393220/maven/collections/src/main/java/com/google/common/collect/HashBiMap.java,0,0,0,0,0,0,0,0,0,0,0,0,0,NO,0,0,0,0,0,0,0,0,0,0,0,0,0,0,0,0,0,0,0,0,0,0,0,0,0,0,0,0,0,0,0,0,0,0,0,0,0,0,0,0,0,0,0,0,0,0,0,0,0,109
guava,v3.0,v4.0,F:/corpus/guava/guava#2010-06-03-08-26-58#v3.0#a393220/maven/collections/src/main/java/com/google/common/collect/Hashing.java,F:/corpus/guava/guava#2010-06-03-08-26-58#v3.0#a393220/maven/collections/src/main/java/com/google/common/collect/Hashing.java,0,0,0,0,0,0,0,0,0,0,0,0,0,NO,0,0,0,0,0,0,0,0,0,0,0,0,0,0,0,0,0,0,0,0,0,0,0,0,0,0,0,0,0,0,0,0,0,0,0,0,0,0,0,0,0,0,0,0,0,0,0,0,0,58
guava,v3.0,v4.0,F:/corpus/guava/guava#2010-06-03-08-26-58#v3.0#a393220/maven/collections/src/main/java/com/google/common/collect/HashMultimap.java,F:/corpus/guava/guava#2010-06-03-08-26-58#v3.0#a393220/maven/collections/src/main/java/com/google/common/collect/HashMultimap.java,0,0,0,0,0,0,0,0,0,0,0,0,0,NO,0,0,0,0,0,0,0,0,0,0,0,0,0,0,0,0,0,0,0,0,0,0,0,0,0,0,0,0,0,0,0,0,0,0,0,0,0,0,0,0,0,0,0,0,0,0,0,0,0,138
guava,v3.0,v4.0,F:/corpus/guava/guava#2010-06-03-08-26-58#v3.0#a393220/maven/collections/src/main/java/com/google/common/collect/HashMultiset.java,F:/corpus/guava/guava#2010-06-03-08-26-58#v3.0#a393220/maven/collections/src/main/java/com/google/common/collect/HashMultiset.java,0,0,0,0,0,0,0,0,0,0,0,0,0,NO,0,0,0,0,0,0,0,0,0,0,0,0,0,0,0,0,0,0,0,0,0,0,0,0,0,0,0,0,0,0,0,0,0,0,0,0,0,0,0,0,0,0,0,0,0,0,0,0,0,95
guava,v3.0,v4.0,F:/corpus/guava/guava#2010-06-03-08-26-58#v3.0#a393220/maven/collections/src/main/java/com/google/common/collect/ImmutableAsList.java,F:/corpus/guava/guava#2010-06-03-08-26-58#v3.0#a393220/maven/collections/src/main/java/com/google/common/collect/ImmutableAsList.java,0,0,0,0,1,0,0,0,0,0,0,0,0,NO,0,0,0,0,0,0,0,0,0,0,0,0,0,0,0,0,0,0,0,0,0,0,0,0,0,0,0,0,0,0,0,0,0,0,0,0,0,0,0,0,0,0,0,0,0,0,0,0,0,66
guava,v3.0,v4.0,F:/corpus/guava/guava#2010-06-03-08-26-58#v3.0#a393220/maven/collections/src/main/java/com/google/common/collect/ImmutableBiMap.java,F:/corpus/guava/guava#2010-06-03-08-26-58#v3.0#a393220/maven/collections/src/main/java/com/google/common/collect/ImmutableBiMap.java,0,0,0,0,2,0,0,0,0,0,2,0,0,NO,0,0,0,0,0,0,0,0,0,0,0,0,0,0,0,0,0,0,0,0,0,0,0,0,0,0,0,0,0,0,0,0,0,0,0,0,0,0,0,0,0,0,0,0,0,0,0,0,0,312
guava,v3.0,v4.0,F:/corpus/guava/guava#2010-06-03-08-26-58#v3.0#a393220/maven/collections/src/main/java/com/google/common/collect/ImmutableClassToInstanceMap.java,F:/corpus/guava/guava#2010-06-03-08-26-58#v3.0#a393220/maven/collections/src/main/java/com/google/common/collect/ImmutableClassToInstanceMap.java,0,0,0,0,1,0,0,0,0,0,0,0,0,NO,0,0,0,0,0,0,0,0,0,0,0,0,0,0,0,0,0,0,0,0,0,0,0,0,0,0,0,0,0,0,0,0,0,0,0,0,0,0,0,0,0,0,0,0,0,0,0,0,0,148
guava,v3.0,v4.0,F:/corpus/guava/guava#2010-06-03-08-26-58#v3.0#a393220/maven/collections/src/main/java/com/google/common/collect/ImmutableCollection.java,F:/corpus/guava/guava#2010-06-03-08-26-58#v3.0#a393220/maven/collections/src/main/java/com/google/common/collect/ImmutableCollection.java,0,0,0,0,8,0,0,0,0,0,0,0,0,NO,0,0,0,0,0,0,0,0,0,0,0,0,0,0,0,0,0,0,0,0,0,0,0,0,0,0,0,0,0,0,0,0,0,0,0,0,0,0,0,0,0,0,0,0,0,0,0,0,0,343
guava,v3.0,v4.0,F:/corpus/guava/guava#2010-06-03-08-26-58#v3.0#a393220/maven/collections/src/main/java/com/google/common/collect/ImmutableEntry.java,F:/corpus/guava/guava#2010-06-03-08-26-58#v3.0#a393220/maven/collections/src/main/java/com/google/common/collect/ImmutableEntry.java,0,0,0,0,0,0,0,0,0,0,0,0,0,NO,0,0,0,0,0,0,0,0,0,0,0,0,0,0,0,0,0,0,0,0,0,0,0,0,0,0,0,0,0,0,0,0,0,0,0,0,0,0,0,0,0,0,0,0,0,0,0,0,0,47
guava,v3.0,v4.0,F:/corpus/guava/guava#2010-06-03-08-26-58#v3.0#a393220/maven/collections/src/main/java/com/google/common/collect/ImmutableEnumSet.java,F:/corpus/guava/guava#2010-06-03-08-26-58#v3.0#a393220/maven/collections/src/main/java/com/google/common/collect/ImmutableEnumSet.java,0,0,0,0,0,0,0,0,0,0,0,0,0,NO,0,0,0,0,0,0,0,0,0,0,0,0,0,0,0,0,0,0,0,0,0,0,0,0,0,0,0,0,0,0,0,0,0,0,0,0,0,0,0,0,0,0,0,0,0,0,0,0,0,124
guava,v3.0,v4.0,F:/corpus/guava/guava#2010-06-03-08-26-58#v3.0#a393220/maven/collections/src/main/java/com/google/common/collect/ImmutableList.java,F:/corpus/guava/guava#2010-06-03-08-26-58#v3.0#a393220/maven/collections/src/main/java/com/google/common/collect/ImmutableList.java,0,0,0,0,6,0,0,0,0,0,5,1,0,NO,0,0,0,0,0,0,0,0,0,0,0,0,0,0,0,0,0,0,0,0,0,0,0,0,0,0,0,0,0,0,0,0,0,0,0,0,0,0,0,0,0,0,0,0,0,0,0,0,0,516
guava,v3.0,v4.0,F:/corpus/guava/guava#2010-06-03-08-26-58#v3.0#a393220/maven/collections/src/main/java/com/google/common/collect/ImmutableListMultimap.java,F:/corpus/guava/guava#2010-06-03-08-26-58#v3.0#a393220/maven/collections/src/main/java/com/google/common/collect/ImmutableListMultimap.java,0,0,0,0,2,0,0,0,0,0,2,0,0,NO,0,0,0,0,0,0,0,0,0,0,0,0,0,0,0,0,0,0,0,0,0,0,0,0,0,0,0,0,0,0,0,0,0,0,0,0,0,0,0,0,0,0,0,0,0,0,0,0,0,337
guava,v3.0,v4.0,F:/corpus/guava/guava#2010-06-03-08-26-58#v3.0#a393220/maven/collections/src/main/java/com/google/common/collect/ImmutableMap.java,F:/corpus/guava/guava#2010-06-03-08-26-58#v3.0#a393220/maven/collections/src/main/java/com/google/common/collect/ImmutableMap.java,0,0,0,0,4,0,0,0,0,0,2,3,0,NO,0,0,0,0,0,0,0,0,0,0,0,0,0,0,0,0,0,0,0,0,0,0,0,0,0,0,0,0,0,0,0,0,0,0,0,0,0,0,0,0,0,0,0,0,0,0,0,0,0,381
guava,v3.0,v4.0,F:/corpus/guava/guava#2010-06-03-08-26-58#v3.0#a393220/maven/collections/src/main/java/com/google/common/collect/ImmutableMultimap.java,F:/corpus/guava/guava#2010-06-03-08-26-58#v3.0#a393220/maven/collections/src/main/java/com/google/common/collect/ImmutableMultimap.java,0,0,0,0,7,0,0,0,0,0,2,0,0,NO,0,0,0,0,0,0,0,0,0,0,0,0,0,0,0,0,0,0,0,0,0,0,0,0,0,0,0,0,0,0,0,0,0,0,0,0,0,0,0,0,0,0,0,0,0,0,0,0,0,514
guava,v3.0,v4.0,F:/corpus/guava/guava#2010-06-03-08-26-58#v3.0#a393220/maven/collections/src/main/java/com/google/common/collect/ImmutableMultiset.java,F:/corpus/guava/guava#2010-06-03-08-26-58#v3.0#a393220/maven/collections/src/main/java/com/google/common/collect/ImmutableMultiset.java,0,0,0,0,4,0,0,0,0,0,0,0,0,NO,0,0,0,0,0,0,0,0,0,0,0,0,0,0,0,0,0,0,0,0,0,0,0,0,0,0,0,0,0,0,0,0,0,0,0,0,0,0,0,0,0,0,0,0,0,0,0,0,0,529
guava,v3.0,v4.0,F:/corpus/guava/guava#2010-06-03-08-26-58#v3.0#a393220/maven/collections/src/main/java/com/google/common/collect/ImmutableSet.java,F:/corpus/guava/guava#2010-06-03-08-26-58#v3.0#a393220/maven/collections/src/main/java/com/google/common/collect/ImmutableSet.java,0,0,0,0,3,0,0,0,0,0,0,0,0,NO,0,0,0,0,0,0,0,0,0,0,0,0,0,0,0,0,0,0,0,0,0,0,0,0,0,0,0,0,0,0,0,0,0,0,0,0,0,0,0,0,0,0,0,0,0,0,0,0,0,568
guava,v3.0,v4.0,F:/corpus/guava/guava#2010-06-03-08-26-58#v3.0#a393220/maven/collections/src/main/java/com/google/common/collect/ImmutableSetMultimap.java,F:/corpus/guava/guava#2010-06-03-08-26-58#v3.0#a393220/maven/collections/src/main/java/com/google/common/collect/ImmutableSetMultimap.java,0,0,0,0,2,0,0,0,0,0,2,0,0,NO,0,0,0,0,0,0,0,0,0,0,0,0,0,0,0,0,0,0,0,0,0,0,0,0,0,0,0,0,0,0,0,0,0,0,0,0,0,0,0,0,0,0,0,0,0,0,0,0,0,388
guava,v3.0,v4.0,F:/corpus/guava/guava#2010-06-03-08-26-58#v3.0#a393220/maven/collections/src/main/java/com/google/common/collect/ImmutableSortedAsList.java,F:/corpus/guava/guava#2010-06-03-08-26-58#v3.0#a393220/maven/collections/src/main/java/com/google/common/collect/ImmutableSortedAsList.java,0,0,0,0,0,0,0,0,0,0,0,0,0,NO,0,0,0,0,0,0,0,0,0,0,0,0,0,0,0,0,0,0,0,0,0,0,0,0,0,0,0,0,0,0,0,0,0,0,0,0,0,0,0,0,0,0,0,0,0,0,0,0,0,67
guava,v3.0,v4.0,F:/corpus/guava/guava#2010-06-03-08-26-58#v3.0#a393220/maven/collections/src/main/java/com/google/common/collect/ImmutableSortedMap.java,F:/corpus/guava/guava#2010-06-03-08-26-58#v3.0#a393220/maven/collections/src/main/java/com/google/common/collect/ImmutableSortedMap.java,0,0,0,0,0,0,0,0,0,0,2,0,0,NO,0,0,0,0,0,0,0,0,0,0,0,0,0,0,0,0,0,0,0,0,0,0,0,0,0,0,0,0,0,0,0,0,0,0,0,0,0,0,0,0,0,0,0,0,0,0,0,0,0,695
guava,v3.0,v4.0,F:/corpus/guava/guava#2010-06-03-08-26-58#v3.0#a393220/maven/collections/src/main/java/com/google/common/collect/ImmutableSortedMapFauxverideShim.java,F:/corpus/guava/guava#2010-06-03-08-26-58#v3.0#a393220/maven/collections/src/main/java/com/google/common/collect/ImmutableSortedMapFauxverideShim.java,0,0,0,0,6,0,0,0,0,0,2,0,0,NO,0,0,0,0,0,0,0,0,0,0,0,0,0,0,0,0,0,0,0,0,0,0,0,0,0,0,0,0,0,0,0,0,0,0,0,0,0,0,0,0,0,0,0,0,0,0,0,0,0,117
guava,v3.0,v4.0,F:/corpus/guava/guava#2010-06-03-08-26-58#v3.0#a393220/maven/collections/src/main/java/com/google/common/collect/ImmutableSortedSet.java,F:/corpus/guava/guava#2010-06-03-08-26-58#v3.0#a393220/maven/collections/src/main/java/com/google/common/collect/ImmutableSortedSet.java,0,0,0,0,2,0,0,0,0,0,0,0,0,NO,0,0,0,0,0,0,0,0,0,0,0,0,0,0,0,0,0,0,0,0,0,0,0,0,0,0,0,0,0,0,0,0,0,0,0,0,0,0,0,0,0,0,0,0,0,0,0,0,0,755
guava,v3.0,v4.0,F:/corpus/guava/guava#2010-06-03-08-26-58#v3.0#a393220/maven/collections/src/main/java/com/google/common/collect/ImmutableSortedSetFauxverideShim.java,F:/corpus/guava/guava#2010-06-03-08-26-58#v3.0#a393220/maven/collections/src/main/java/com/google/common/collect/ImmutableSortedSetFauxverideShim.java,0,0,0,0,9,0,0,0,0,0,0,0,0,NO,0,0,0,0,0,0,0,0,0,0,0,0,0,0,0,0,0,0,0,0,0,0,0,0,0,0,0,0,0,0,0,0,0,0,0,0,0,0,0,0,0,0,0,0,0,0,0,0,0,182
guava,v3.0,v4.0,F:/corpus/guava/guava#2010-06-03-08-26-58#v3.0#a393220/maven/collections/src/main/java/com/google/common/collect/Interner.java,F:/corpus/guava/guava#2010-06-03-08-26-58#v3.0#a393220/maven/collections/src/main/java/com/google/common/collect/Interner.java,0,0,0,0,1,0,0,0,0,0,0,0,0,NO,0,0,0,0,0,0,0,0,0,0,0,0,0,0,0,0,0,0,0,0,0,0,0,0,0,0,0,0,0,0,0,0,0,0,0,0,0,0,0,0,0,0,0,0,0,0,0,0,0,44
guava,v3.0,v4.0,F:/corpus/guava/guava#2010-06-03-08-26-58#v3.0#a393220/maven/collections/src/main/java/com/google/common/collect/Interners.java,F:/corpus/guava/guava#2010-06-03-08-26-58#v3.0#a393220/maven/collections/src/main/java/com/google/common/collect/Interners.java,0,0,0,0,0,0,0,0,0,0,0,0,0,NO,0,0,0,0,0,0,0,0,0,0,0,0,0,0,0,0,0,0,0,0,0,0,0,0,0,0,0,0,0,0,0,0,0,0,0,0,0,0,0,0,0,0,0,0,0,0,0,0,0,175
guava,v3.0,v4.0,F:/corpus/guava/guava#2010-06-03-08-26-58#v3.0#a393220/maven/collections/src/main/java/com/google/common/collect/Iterables.java,F:/corpus/guava/guava#2010-06-03-08-26-58#v3.0#a393220/maven/collections/src/main/java/com/google/common/collect/Iterables.java,0,0,0,0,1,0,0,0,0,0,0,1,0,NO,0,0,0,0,0,0,0,0,0,0,0,0,0,0,0,0,0,0,0,0,0,0,0,0,0,0,0,0,0,0,0,0,0,0,0,0,0,0,0,0,0,0,0,0,0,0,0,0,0,897
guava,v3.0,v4.0,F:/corpus/guava/guava#2010-06-03-08-26-58#v3.0#a393220/maven/collections/src/main/java/com/google/common/collect/Iterators.java,F:/corpus/guava/guava#2010-06-03-08-26-58#v3.0#a393220/maven/collections/src/main/java/com/google/common/collect/Iterators.java,0,1,0,0,0,0,0,0,0,0,0,2,0,NO,0,0,0,0,0,0,0,0,0,0,0,0,0,0,0,0,0,0,0,0,0,0,0,0,0,0,0,0,0,0,0,0,0,0,0,0,0,0,0,0,0,0,0,0,0,0,0,0,0,1110
guava,v3.0,v4.0,F:/corpus/guava/guava#2010-06-03-08-26-58#v3.0#a393220/maven/collections/src/main/java/com/google/common/collect/LexicographicalOrdering.java,F:/corpus/guava/guava#2010-06-03-08-26-58#v3.0#a393220/maven/collections/src/main/java/com/google/common/collect/LexicographicalOrdering.java,0,0,0,0,0,0,0,0,0,0,0,0,0,NO,0,0,0,0,0,0,0,0,0,0,0,0,0,0,0,0,0,0,0,0,0,0,0,0,0,0,0,0,0,0,0,0,0,0,0,0,0,0,0,0,0,0,0,0,0,0,0,0,0,77
guava,v3.0,v4.0,F:/corpus/guava/guava#2010-06-03-08-26-58#v3.0#a393220/maven/collections/src/main/java/com/google/common/collect/LinkedHashMultimap.java,F:/corpus/guava/guava#2010-06-03-08-26-58#v3.0#a393220/maven/collections/src/main/java/com/google/common/collect/LinkedHashMultimap.java,0,0,0,0,0,0,0,0,0,0,0,0,0,NO,0,0,0,0,0,0,0,0,0,0,0,0,0,0,0,0,0,0,0,0,0,0,0,0,0,0,0,0,0,0,0,0,0,0,0,0,0,0,0,0,0,0,0,0,0,0,0,0,0,382
guava,v3.0,v4.0,F:/corpus/guava/guava#2010-06-03-08-26-58#v3.0#a393220/maven/collections/src/main/java/com/google/common/collect/LinkedHashMultiset.java,F:/corpus/guava/guava#2010-06-03-08-26-58#v3.0#a393220/maven/collections/src/main/java/com/google/common/collect/LinkedHashMultiset.java,0,0,0,0,0,0,0,0,0,0,0,0,0,NO,0,0,0,0,0,0,0,0,0,0,0,0,0,0,0,0,0,0,0,0,0,0,0,0,0,0,0,0,0,0,0,0,0,0,0,0,0,0,0,0,0,0,0,0,0,0,0,0,0,103
guava,v3.0,v4.0,F:/corpus/guava/guava#2010-06-03-08-26-58#v3.0#a393220/maven/collections/src/main/java/com/google/common/collect/LinkedListMultimap.java,F:/corpus/guava/guava#2010-06-03-08-26-58#v3.0#a393220/maven/collections/src/main/java/com/google/common/collect/LinkedListMultimap.java,0,0,1,0,1,0,0,0,0,0,0,0,0,NO,0,0,0,0,0,0,0,0,0,0,0,0,0,0,0,0,0,0,0,0,0,0,0,0,0,0,0,0,0,0,0,0,0,0,0,0,0,0,0,0,0,0,0,0,0,0,0,0,0,952
guava,v3.0,v4.0,F:/corpus/guava/guava#2010-06-03-08-26-58#v3.0#a393220/maven/collections/src/main/java/com/google/common/collect/ListMultimap.java,F:/corpus/guava/guava#2010-06-03-08-26-58#v3.0#a393220/maven/collections/src/main/java/com/google/common/collect/ListMultimap.java,0,0,0,0,1,0,0,0,0,0,0,0,0,NO,0,0,0,0,0,0,0,0,0,0,0,0,0,0,0,0,0,0,0,0,0,0,0,0,0,0,0,0,0,0,0,0,0,0,0,0,0,0,0,0,0,0,0,0,0,0,0,0,0,83
guava,v3.0,v4.0,F:/corpus/guava/guava#2010-06-03-08-26-58#v3.0#a393220/maven/collections/src/main/java/com/google/common/collect/Lists.java,F:/corpus/guava/guava#2010-06-03-08-26-58#v3.0#a393220/maven/collections/src/main/java/com/google/common/collect/Lists.java,0,0,0,0,0,0,2,0,0,0,0,2,0,NO,0,0,0,0,0,0,0,0,0,0,0,0,0,0,0,0,0,0,0,0,0,0,0,0,0,0,0,0,0,0,0,0,0,0,0,0,0,0,0,0,0,0,0,0,0,0,0,0,0,506
guava,v3.0,v4.0,F:/corpus/guava/guava#2010-06-03-08-26-58#v3.0#a393220/maven/collections/src/main/java/com/google/common/collect/MapConstraint.java,F:/corpus/guava/guava#2010-06-03-08-26-58#v3.0#a393220/maven/collections/src/main/java/com/google/common/collect/MapConstraint.java,0,0,0,0,1,0,0,0,0,0,0,0,0,NO,0,0,0,0,0,0,0,0,0,0,0,0,0,0,0,0,0,0,0,0,0,0,0,0,0,0,0,0,0,0,0,0,0,0,0,0,0,0,0,0,0,0,0,0,0,0,0,0,0,64
guava,v3.0,v4.0,F:/corpus/guava/guava#2010-06-03-08-26-58#v3.0#a393220/maven/collections/src/main/java/com/google/common/collect/MapConstraints.java,F:/corpus/guava/guava#2010-06-03-08-26-58#v3.0#a393220/maven/collections/src/main/java/com/google/common/collect/MapConstraints.java,0,0,0,0,0,0,0,0,0,0,0,0,0,NO,0,0,0,0,0,0,0,0,0,0,0,0,0,0,0,0,0,0,0,0,0,0,0,0,0,0,0,0,0,0,0,0,0,0,0,0,0,0,0,0,0,0,0,0,0,0,0,0,0,772
guava,v3.0,v4.0,F:/corpus/guava/guava#2010-06-03-08-26-58#v3.0#a393220/maven/collections/src/main/java/com/google/common/collect/MapDifference.java,F:/corpus/guava/guava#2010-06-03-08-26-58#v3.0#a393220/maven/collections/src/main/java/com/google/common/collect/MapDifference.java,0,0,0,0,2,0,0,0,0,0,0,0,0,NO,0,0,0,0,0,0,0,0,0,0,0,0,0,0,0,0,0,0,0,0,0,0,0,0,0,0,0,0,0,0,0,0,0,0,0,0,0,0,0,0,0,0,0,0,0,0,0,0,0,110
guava,v3.0,v4.0,F:/corpus/guava/guava#2010-06-03-08-26-58#v3.0#a393220/maven/collections/src/main/java/com/google/common/collect/MapMaker.java,F:/corpus/guava/guava#2010-06-03-08-26-58#v3.0#a393220/maven/collections/src/main/java/com/google/common/collect/MapMaker.java,0,1,0,0,5,0,19,0,0,0,0,0,0,NO,0,0,0,0,0,0,0,0,0,0,0,0,0,0,0,0,0,0,0,0,0,0,0,0,0,0,0,0,0,0,0,0,0,0,0,0,0,0,0,0,0,0,0,0,0,0,0,0,0,1119
guava,v3.0,v4.0,F:/corpus/guava/guava#2010-06-03-08-26-58#v3.0#a393220/maven/collections/src/main/java/com/google/common/collect/Maps.java,F:/corpus/guava/guava#2010-06-03-08-26-58#v3.0#a393220/maven/collections/src/main/java/com/google/common/collect/Maps.java,0,1,0,0,3,0,0,0,0,0,0,3,0,NO,0,0,0,0,0,0,0,0,0,0,0,0,0,0,0,0,0,0,0,0,0,0,0,0,0,0,0,0,0,0,0,0,0,0,0,0,0,0,0,0,0,0,0,0,0,0,0,0,0,1379
guava,v3.0,v4.0,F:/corpus/guava/guava#2010-06-03-08-26-58#v3.0#a393220/maven/collections/src/main/java/com/google/common/collect/Multimap.java,F:/corpus/guava/guava#2010-06-03-08-26-58#v3.0#a393220/maven/collections/src/main/java/com/google/common/collect/Multimap.java,0,0,0,0,1,0,0,0,0,0,0,0,0,NO,0,0,0,0,0,0,0,0,0,0,0,0,0,0,0,0,0,0,0,0,0,0,0,0,0,0,0,0,0,0,0,0,0,0,0,0,0,0,0,0,0,0,0,0,0,0,0,0,0,263
guava,v3.0,v4.0,F:/corpus/guava/guava#2010-06-03-08-26-58#v3.0#a393220/maven/collections/src/main/java/com/google/common/collect/Multimaps.java,F:/corpus/guava/guava#2010-06-03-08-26-58#v3.0#a393220/maven/collections/src/main/java/com/google/common/collect/Multimaps.java,0,1,0,0,16,0,0,0,0,0,0,0,0,NO,0,0,0,0,0,0,0,0,0,0,0,0,0,0,0,0,0,0,0,0,0,0,0,0,0,0,0,0,0,0,0,0,0,0,0,0,0,0,0,0,0,0,0,0,0,0,0,0,0,1229
guava,v3.0,v4.0,F:/corpus/guava/guava#2010-06-03-08-26-58#v3.0#a393220/maven/collections/src/main/java/com/google/common/collect/Multiset.java,F:/corpus/guava/guava#2010-06-03-08-26-58#v3.0#a393220/maven/collections/src/main/java/com/google/common/collect/Multiset.java,0,0,0,0,2,0,0,0,0,0,0,0,0,NO,0,0,0,0,0,0,0,0,0,0,0,0,0,0,0,0,0,0,0,0,0,0,0,0,0,0,0,0,0,0,0,0,0,0,0,0,0,0,0,0,0,0,0,0,0,0,0,0,0,404
guava,v3.0,v4.0,F:/corpus/guava/guava#2010-06-03-08-26-58#v3.0#a393220/maven/collections/src/main/java/com/google/common/collect/Multisets.java,F:/corpus/guava/guava#2010-06-03-08-26-58#v3.0#a393220/maven/collections/src/main/java/com/google/common/collect/Multisets.java,0,0,0,0,15,0,1,0,0,0,0,0,0,NO,0,0,0,0,0,0,0,0,0,0,0,0,0,0,0,0,0,0,0,0,0,0,0,0,0,0,0,0,0,0,0,0,0,0,0,0,0,0,0,0,0,0,0,0,0,0,0,0,0,471
guava,v3.0,v4.0,F:/corpus/guava/guava#2010-06-03-08-26-58#v3.0#a393220/maven/collections/src/main/java/com/google/common/collect/MutableClassToInstanceMap.java,F:/corpus/guava/guava#2010-06-03-08-26-58#v3.0#a393220/maven/collections/src/main/java/com/google/common/collect/MutableClassToInstanceMap.java,0,0,0,0,0,0,0,0,0,0,0,0,0,NO,0,0,0,0,0,0,0,0,0,0,0,0,0,0,0,0,0,0,0,0,0,0,0,0,0,0,0,0,0,0,0,0,0,0,0,0,0,0,0,0,0,0,0,0,0,0,0,0,0,79
guava,v3.0,v4.0,F:/corpus/guava/guava#2010-06-03-08-26-58#v3.0#a393220/maven/collections/src/main/java/com/google/common/collect/NaturalOrdering.java,F:/corpus/guava/guava#2010-06-03-08-26-58#v3.0#a393220/maven/collections/src/main/java/com/google/common/collect/NaturalOrdering.java,0,0,0,0,0,0,0,0,0,0,0,0,0,NO,0,0,0,0,0,0,0,0,0,0,0,0,0,0,0,0,0,0,0,0,0,0,0,0,0,0,0,0,0,0,0,0,0,0,0,0,0,0,0,0,0,0,0,0,0,0,0,0,0,76
guava,v3.0,v4.0,F:/corpus/guava/guava#2010-06-03-08-26-58#v3.0#a393220/maven/collections/src/main/java/com/google/common/collect/NullOutputException.java,F:/corpus/guava/guava#2010-06-03-08-26-58#v3.0#a393220/maven/collections/src/main/java/com/google/common/collect/NullOutputException.java,0,0,0,0,0,0,0,0,0,0,0,0,0,NO,0,0,0,0,0,0,0,0,0,0,0,0,0,0,0,0,0,0,0,0,0,0,0,0,0,0,0,0,0,0,0,0,0,0,0,0,0,0,0,0,0,0,0,0,0,0,0,0,0,31
guava,v3.0,v4.0,F:/corpus/guava/guava#2010-06-03-08-26-58#v3.0#a393220/maven/collections/src/main/java/com/google/common/collect/NullsFirstOrdering.java,F:/corpus/guava/guava#2010-06-03-08-26-58#v3.0#a393220/maven/collections/src/main/java/com/google/common/collect/NullsFirstOrdering.java,0,0,0,0,0,0,0,0,0,0,0,0,0,NO,0,0,0,0,0,0,0,0,0,0,0,0,0,0,0,0,0,0,0,0,0,0,0,0,0,0,0,0,0,0,0,0,0,0,0,0,0,0,0,0,0,0,0,0,0,0,0,0,0,81
guava,v3.0,v4.0,F:/corpus/guava/guava#2010-06-03-08-26-58#v3.0#a393220/maven/collections/src/main/java/com/google/common/collect/NullsLastOrdering.java,F:/corpus/guava/guava#2010-06-03-08-26-58#v3.0#a393220/maven/collections/src/main/java/com/google/common/collect/NullsLastOrdering.java,0,0,0,0,0,0,0,0,0,0,0,0,0,NO,0,0,0,0,0,0,0,0,0,0,0,0,0,0,0,0,0,0,0,0,0,0,0,0,0,0,0,0,0,0,0,0,0,0,0,0,0,0,0,0,0,0,0,0,0,0,0,0,0,81
guava,v3.0,v4.0,F:/corpus/guava/guava#2010-06-03-08-26-58#v3.0#a393220/maven/collections/src/main/java/com/google/common/collect/ObjectArrays.java,F:/corpus/guava/guava#2010-06-03-08-26-58#v3.0#a393220/maven/collections/src/main/java/com/google/common/collect/ObjectArrays.java,0,0,0,0,0,0,0,0,0,0,0,3,0,NO,0,0,0,0,0,0,0,0,0,0,0,0,0,0,0,0,0,0,0,0,0,0,0,0,0,0,0,0,0,0,0,0,0,0,0,0,0,0,0,0,0,0,0,0,0,0,0,0,0,176
guava,v3.0,v4.0,F:/corpus/guava/guava#2010-06-03-08-26-58#v3.0#a393220/maven/collections/src/main/java/com/google/common/collect/Ordering.java,F:/corpus/guava/guava#2010-06-03-08-26-58#v3.0#a393220/maven/collections/src/main/java/com/google/common/collect/Ordering.java,0,0,0,0,1,0,0,0,0,0,0,0,0,NO,0,0,0,0,0,0,0,0,0,0,0,0,0,0,0,0,0,0,0,0,0,0,0,0,0,0,0,0,0,0,0,0,0,0,0,0,0,0,0,0,0,0,0,0,0,0,0,0,0,599
guava,v3.0,v4.0,F:/corpus/guava/guava#2010-06-03-08-26-58#v3.0#a393220/maven/collections/src/main/java/com/google/common/collect/package-info.java,F:/corpus/guava/guava#2010-06-03-08-26-58#v3.0#a393220/maven/collections/src/main/java/com/google/common/collect/package-info.java,0,0,0,0,0,0,0,0,0,0,0,0,0,NO,0,0,0,0,0,0,0,0,0,0,0,0,0,0,0,0,0,0,0,0,0,0,0,0,0,0,0,0,0,0,0,0,0,0,0,0,0,0,0,0,0,0,0,0,0,0,0,0,0,192
guava,v3.0,v4.0,F:/corpus/guava/guava#2010-06-03-08-26-58#v3.0#a393220/maven/collections/src/main/java/com/google/common/collect/PeekingIterator.java,F:/corpus/guava/guava#2010-06-03-08-26-58#v3.0#a393220/maven/collections/src/main/java/com/google/common/collect/PeekingIterator.java,0,0,0,0,1,0,0,0,0,0,0,0,0,NO,0,0,0,0,0,0,0,0,0,0,0,0,0,0,0,0,0,0,0,0,0,0,0,0,0,0,0,0,0,0,0,0,0,0,0,0,0,0,0,0,0,0,0,0,0,0,0,0,0,63
guava,v3.0,v4.0,F:/corpus/guava/guava#2010-06-03-08-26-58#v3.0#a393220/maven/collections/src/main/java/com/google/common/collect/Platform.java,F:/corpus/guava/guava#2010-06-03-08-26-58#v3.0#a393220/maven/collections/src/main/java/com/google/common/collect/Platform.java,0,0,0,0,0,1,0,0,0,0,0,0,0,NO,0,0,0,0,0,0,0,0,0,0,0,0,0,0,0,0,0,0,0,0,0,0,0,0,0,0,0,0,0,0,0,0,0,0,0,0,0,0,0,0,0,0,0,0,0,0,0,0,0,109
guava,v3.0,v4.0,F:/corpus/guava/guava#2010-06-03-08-26-58#v3.0#a393220/maven/collections/src/main/java/com/google/common/collect/RegularImmutableBiMap.java,F:/corpus/guava/guava#2010-06-03-08-26-58#v3.0#a393220/maven/collections/src/main/java/com/google/common/collect/RegularImmutableBiMap.java,0,0,0,0,0,0,0,0,0,0,0,0,0,NO,0,0,0,0,0,0,0,0,0,0,0,0,0,0,0,0,0,0,0,0,0,0,0,0,0,0,0,0,0,0,0,0,0,0,0,0,0,0,0,0,0,0,0,0,0,0,0,0,0,56
guava,v3.0,v4.0,F:/corpus/guava/guava#2010-06-03-08-26-58#v3.0#a393220/maven/collections/src/main/java/com/google/common/collect/RegularImmutableList.java,F:/corpus/guava/guava#2010-06-03-08-26-58#v3.0#a393220/maven/collections/src/main/java/com/google/common/collect/RegularImmutableList.java,0,0,0,0,0,0,0,0,0,0,0,0,0,NO,0,0,0,0,0,0,0,0,0,0,0,0,0,0,0,0,0,0,0,0,0,0,0,0,0,0,0,0,0,0,0,0,0,0,0,0,0,0,0,0,0,0,0,0,0,0,0,0,0,235
guava,v3.0,v4.0,F:/corpus/guava/guava#2010-06-03-08-26-58#v3.0#a393220/maven/collections/src/main/java/com/google/common/collect/RegularImmutableMap.java,F:/corpus/guava/guava#2010-06-03-08-26-58#v3.0#a393220/maven/collections/src/main/java/com/google/common/collect/RegularImmutableMap.java,0,0,0,0,0,0,0,0,0,0,0,0,0,NO,0,0,0,0,0,0,0,0,0,0,0,0,0,0,0,0,0,0,0,0,0,0,0,0,0,0,0,0,0,0,0,0,0,0,0,0,0,0,0,0,0,0,0,0,0,0,0,0,0,209
guava,v3.0,v4.0,F:/corpus/guava/guava#2010-06-03-08-26-58#v3.0#a393220/maven/collections/src/main/java/com/google/common/collect/RegularImmutableSet.java,F:/corpus/guava/guava#2010-06-03-08-26-58#v3.0#a393220/maven/collections/src/main/java/com/google/common/collect/RegularImmutableSet.java,0,0,0,0,0,0,0,0,0,0,0,0,0,NO,0,0,0,0,0,0,0,0,0,0,0,0,0,0,0,0,0,0,0,0,0,0,0,0,0,0,0,0,0,0,0,0,0,0,0,0,0,0,0,0,0,0,0,0,0,0,0,0,0,67
guava,v3.0,v4.0,F:/corpus/guava/guava#2010-06-03-08-26-58#v3.0#a393220/maven/collections/src/main/java/com/google/common/collect/RegularImmutableSortedSet.java,F:/corpus/guava/guava#2010-06-03-08-26-58#v3.0#a393220/maven/collections/src/main/java/com/google/common/collect/RegularImmutableSortedSet.java,0,0,0,0,0,0,0,0,0,0,0,0,0,NO,0,0,0,0,0,0,0,0,0,0,0,0,0,0,0,0,0,0,0,0,0,0,0,0,0,0,0,0,0,0,0,0,0,0,0,0,0,0,0,0,0,0,0,0,0,0,0,0,0,273
guava,v3.0,v4.0,F:/corpus/guava/guava#2010-06-03-08-26-58#v3.0#a393220/maven/collections/src/main/java/com/google/common/collect/ReverseNaturalOrdering.java,F:/corpus/guava/guava#2010-06-03-08-26-58#v3.0#a393220/maven/collections/src/main/java/com/google/common/collect/ReverseNaturalOrdering.java,0,0,0,0,0,0,0,0,0,0,0,0,0,NO,0,0,0,0,0,0,0,0,0,0,0,0,0,0,0,0,0,0,0,0,0,0,0,0,0,0,0,0,0,0,0,0,0,0,0,0,0,0,0,0,0,0,0,0,0,0,0,0,0,84
guava,v3.0,v4.0,F:/corpus/guava/guava#2010-06-03-08-26-58#v3.0#a393220/maven/collections/src/main/java/com/google/common/collect/ReverseOrdering.java,F:/corpus/guava/guava#2010-06-03-08-26-58#v3.0#a393220/maven/collections/src/main/java/com/google/common/collect/ReverseOrdering.java,0,0,0,0,0,0,0,0,0,0,0,0,0,NO,0,0,0,0,0,0,0,0,0,0,0,0,0,0,0,0,0,0,0,0,0,0,0,0,0,0,0,0,0,0,0,0,0,0,0,0,0,0,0,0,0,0,0,0,0,0,0,0,0,90
guava,v3.0,v4.0,F:/corpus/guava/guava#2010-06-03-08-26-58#v3.0#a393220/maven/collections/src/main/java/com/google/common/collect/Serialization.java,F:/corpus/guava/guava#2010-06-03-08-26-58#v3.0#a393220/maven/collections/src/main/java/com/google/common/collect/Serialization.java,0,0,0,0,0,0,0,0,0,0,0,3,0,NO,0,0,0,0,0,0,0,0,0,0,0,0,0,0,0,0,0,0,0,0,0,0,0,0,0,0,0,0,0,0,0,0,0,0,0,0,0,0,0,0,0,0,0,0,0,0,0,0,0,249
guava,v3.0,v4.0,F:/corpus/guava/guava#2010-06-03-08-26-58#v3.0#a393220/maven/collections/src/main/java/com/google/common/collect/SetMultimap.java,F:/corpus/guava/guava#2010-06-03-08-26-58#v3.0#a393220/maven/collections/src/main/java/com/google/common/collect/SetMultimap.java,0,0,0,0,1,0,0,0,0,0,0,0,0,NO,0,0,0,0,0,0,0,0,0,0,0,0,0,0,0,0,0,0,0,0,0,0,0,0,0,0,0,0,0,0,0,0,0,0,0,0,0,0,0,0,0,0,0,0,0,0,0,0,0,95
guava,v3.0,v4.0,F:/corpus/guava/guava#2010-06-03-08-26-58#v3.0#a393220/maven/collections/src/main/java/com/google/common/collect/Sets.java,F:/corpus/guava/guava#2010-06-03-08-26-58#v3.0#a393220/maven/collections/src/main/java/com/google/common/collect/Sets.java,0,0,0,0,1,0,0,0,0,0,0,0,0,NO,0,0,0,0,0,0,0,0,0,0,0,0,0,0,0,0,0,0,0,0,0,0,0,0,0,0,0,0,0,0,0,0,0,0,0,0,0,0,0,0,0,0,0,0,0,0,0,0,0,971
guava,v3.0,v4.0,F:/corpus/guava/guava#2010-06-03-08-26-58#v3.0#a393220/maven/collections/src/main/java/com/google/common/collect/SingletonImmutableList.java,F:/corpus/guava/guava#2010-06-03-08-26-58#v3.0#a393220/maven/collections/src/main/java/com/google/common/collect/SingletonImmutableList.java,0,0,0,0,0,0,0,0,0,0,0,0,0,NO,0,0,0,0,0,0,0,0,0,0,0,0,0,0,0,0,0,0,0,0,0,0,0,0,0,0,0,0,0,0,0,0,0,0,0,0,0,0,0,0,0,0,0,0,0,0,0,0,0,120
guava,v3.0,v4.0,F:/corpus/guava/guava#2010-06-03-08-26-58#v3.0#a393220/maven/collections/src/main/java/com/google/common/collect/SingletonImmutableMap.java,F:/corpus/guava/guava#2010-06-03-08-26-58#v3.0#a393220/maven/collections/src/main/java/com/google/common/collect/SingletonImmutableMap.java,0,0,0,0,0,0,0,0,0,0,0,0,0,NO,0,0,0,0,0,0,0,0,0,0,0,0,0,0,0,0,0,0,0,0,0,0,0,0,0,0,0,0,0,0,0,0,0,0,0,0,0,0,0,0,0,0,0,0,0,0,0,0,0,152
guava,v3.0,v4.0,F:/corpus/guava/guava#2010-06-03-08-26-58#v3.0#a393220/maven/collections/src/main/java/com/google/common/collect/SingletonImmutableSet.java,F:/corpus/guava/guava#2010-06-03-08-26-58#v3.0#a393220/maven/collections/src/main/java/com/google/common/collect/SingletonImmutableSet.java,0,0,0,0,0,0,0,0,0,0,0,0,0,NO,0,0,0,0,0,0,0,0,0,0,0,0,0,0,0,0,0,0,0,0,0,0,0,0,0,0,0,0,0,0,0,0,0,0,0,0,0,0,0,0,0,0,0,0,0,0,0,0,0,117
guava,v3.0,v4.0,F:/corpus/guava/guava#2010-06-03-08-26-58#v3.0#a393220/maven/collections/src/main/java/com/google/common/collect/SortedSetMultimap.java,F:/corpus/guava/guava#2010-06-03-08-26-58#v3.0#a393220/maven/collections/src/main/java/com/google/common/collect/SortedSetMultimap.java,0,0,0,0,1,0,0,0,0,0,0,0,0,NO,0,0,0,0,0,0,0,0,0,0,0,0,0,0,0,0,0,0,0,0,0,0,0,0,0,0,0,0,0,0,0,0,0,0,0,0,0,0,0,0,0,0,0,0,0,0,0,0,0,101
guava,v3.0,v4.0,F:/corpus/guava/guava#2010-06-03-08-26-58#v3.0#a393220/maven/collections/src/main/java/com/google/common/collect/Synchronized.java,F:/corpus/guava/guava#2010-06-03-08-26-58#v3.0#a393220/maven/collections/src/main/java/com/google/common/collect/Synchronized.java,0,1,0,0,0,0,0,0,0,0,0,0,0,NO,0,0,0,0,0,0,0,0,0,0,0,0,0,0,0,0,0,0,0,0,0,0,0,0,0,0,0,0,0,0,0,0,0,0,0,0,0,0,0,0,0,0,0,0,0,0,0,0,0,1066
guava,v3.0,v4.0,F:/corpus/guava/guava#2010-06-03-08-26-58#v3.0#a393220/maven/collections/src/main/java/com/google/common/collect/TreeMultimap.java,F:/corpus/guava/guava#2010-06-03-08-26-58#v3.0#a393220/maven/collections/src/main/java/com/google/common/collect/TreeMultimap.java,0,0,0,0,0,0,0,0,0,0,0,0,0,NO,0,0,0,0,0,0,0,0,0,0,0,0,0,0,0,0,0,0,0,0,0,0,0,0,0,0,0,0,0,0,0,0,0,0,0,0,0,0,0,0,0,0,0,0,0,0,0,0,0,207
guava,v3.0,v4.0,F:/corpus/guava/guava#2010-06-03-08-26-58#v3.0#a393220/maven/collections/src/main/java/com/google/common/collect/TreeMultiset.java,F:/corpus/guava/guava#2010-06-03-08-26-58#v3.0#a393220/maven/collections/src/main/java/com/google/common/collect/TreeMultiset.java,0,0,0,0,0,0,0,0,0,0,0,0,0,NO,0,0,0,0,0,0,0,0,0,0,0,0,0,0,0,0,0,0,0,0,0,0,0,0,0,0,0,0,0,0,0,0,0,0,0,0,0,0,0,0,0,0,0,0,0,0,0,0,0,215
guava,v3.0,v4.0,F:/corpus/guava/guava#2010-06-03-08-26-58#v3.0#a393220/maven/collections/src/main/java/com/google/common/collect/UnmodifiableIterator.java,F:/corpus/guava/guava#2010-06-03-08-26-58#v3.0#a393220/maven/collections/src/main/java/com/google/common/collect/UnmodifiableIterator.java,0,0,0,0,1,0,0,0,0,0,0,0,0,NO,0,0,0,0,0,0,0,0,0,0,0,0,0,0,0,0,0,0,0,0,0,0,0,0,0,0,0,0,0,0,0,0,0,0,0,0,0,0,0,0,0,0,0,0,0,0,0,0,0,39
guava,v3.0,v4.0,F:/corpus/guava/guava#2010-06-03-08-26-58#v3.0#a393220/maven/collections/src/main/java/com/google/common/collect/UsingToStringOrdering.java,F:/corpus/guava/guava#2010-06-03-08-26-58#v3.0#a393220/maven/collections/src/main/java/com/google/common/collect/UsingToStringOrdering.java,0,0,0,0,0,0,0,0,0,0,0,0,0,NO,0,0,0,0,0,0,0,0,0,0,0,0,0,0,0,0,0,0,0,0,0,0,0,0,0,0,0,0,0,0,0,0,0,0,0,0,0,0,0,0,0,0,0,0,0,0,0,0,0,45
guava,v3.0,v4.0,F:/corpus/guava/guava#2010-06-03-08-26-58#v3.0#a393220/maven/concurrent/src/main/java/com/google/common/util/concurrent/AbstractCheckedFuture.java,F:/corpus/guava/guava#2010-06-03-08-26-58#v3.0#a393220/maven/concurrent/src/main/java/com/google/common/util/concurrent/AbstractCheckedFuture.java,0,0,0,0,1,0,0,0,0,0,0,0,0,NO,0,0,0,0,0,0,0,0,0,0,0,0,0,0,0,0,0,0,0,0,0,0,0,0,0,0,0,0,0,0,0,0,0,0,0,0,0,0,0,0,0,0,0,0,0,0,0,0,0,118
guava,v3.0,v4.0,F:/corpus/guava/guava#2010-06-03-08-26-58#v3.0#a393220/maven/concurrent/src/main/java/com/google/common/util/concurrent/AbstractExecutionThreadService.java,F:/corpus/guava/guava#2010-06-03-08-26-58#v3.0#a393220/maven/concurrent/src/main/java/com/google/common/util/concurrent/AbstractExecutionThreadService.java,0,0,0,0,1,1,0,0,0,0,0,0,0,NO,0,0,0,0,0,0,0,0,0,0,0,0,0,0,0,0,0,0,0,0,0,0,0,0,0,0,0,0,0,0,0,0,0,0,0,0,0,0,0,0,0,0,0,0,0,0,0,0,0,154
guava,v3.0,v4.0,F:/corpus/guava/guava#2010-06-03-08-26-58#v3.0#a393220/maven/concurrent/src/main/java/com/google/common/util/concurrent/AbstractFuture.java,F:/corpus/guava/guava#2010-06-03-08-26-58#v3.0#a393220/maven/concurrent/src/main/java/com/google/common/util/concurrent/AbstractFuture.java,0,0,0,0,3,0,0,0,0,0,0,0,0,NO,0,0,0,0,0,0,0,0,0,0,0,0,0,0,0,0,0,0,0,0,0,0,0,0,0,0,0,0,0,0,0,0,0,0,0,0,0,0,0,0,0,0,0,0,0,0,0,0,0,325
guava,v3.0,v4.0,F:/corpus/guava/guava#2010-06-03-08-26-58#v3.0#a393220/maven/concurrent/src/main/java/com/google/common/util/concurrent/AbstractIdleService.java,F:/corpus/guava/guava#2010-06-03-08-26-58#v3.0#a393220/maven/concurrent/src/main/java/com/google/common/util/concurrent/AbstractIdleService.java,0,0,0,0,1,1,0,0,0,0,0,0,0,NO,0,0,0,0,0,0,0,0,0,0,0,0,0,0,0,0,0,0,0,0,0,0,0,0,0,0,0,0,0,0,0,0,0,0,0,0,0,0,0,0,0,0,0,0,0,0,0,0,0,129
guava,v3.0,v4.0,F:/corpus/guava/guava#2010-06-03-08-26-58#v3.0#a393220/maven/concurrent/src/main/java/com/google/common/util/concurrent/AbstractListenableFuture.java,F:/corpus/guava/guava#2010-06-03-08-26-58#v3.0#a393220/maven/concurrent/src/main/java/com/google/common/util/concurrent/AbstractListenableFuture.java,0,0,1,0,1,0,0,0,0,0,0,0,0,NO,0,0,0,0,0,0,0,0,0,0,0,0,0,0,0,0,0,0,0,0,0,0,0,0,0,0,0,0,0,0,0,0,0,0,0,0,0,0,0,0,0,0,0,0,0,0,0,0,0,62
guava,v3.0,v4.0,F:/corpus/guava/guava#2010-06-03-08-26-58#v3.0#a393220/maven/concurrent/src/main/java/com/google/common/util/concurrent/AbstractService.java,F:/corpus/guava/guava#2010-06-03-08-26-58#v3.0#a393220/maven/concurrent/src/main/java/com/google/common/util/concurrent/AbstractService.java,0,0,0,0,2,1,0,0,0,0,0,0,0,NO,0,0,0,0,0,0,0,0,0,0,0,0,0,0,0,0,0,0,0,0,0,0,0,0,0,0,0,0,0,0,0,0,0,0,0,0,0,0,0,0,0,0,0,0,0,0,0,0,0,310
guava,v3.0,v4.0,F:/corpus/guava/guava#2010-06-03-08-26-58#v3.0#a393220/maven/concurrent/src/main/java/com/google/common/util/concurrent/Callables.java,F:/corpus/guava/guava#2010-06-03-08-26-58#v3.0#a393220/maven/concurrent/src/main/java/com/google/common/util/concurrent/Callables.java,0,0,0,0,0,0,0,0,0,0,0,0,0,NO,0,0,0,0,0,0,0,0,0,0,0,0,0,0,0,0,0,0,0,0,0,0,0,0,0,0,0,0,0,0,0,0,0,0,0,0,0,0,0,0,0,0,0,0,0,0,0,0,0,46
guava,v3.0,v4.0,F:/corpus/guava/guava#2010-06-03-08-26-58#v3.0#a393220/maven/concurrent/src/main/java/com/google/common/util/concurrent/CheckedFuture.java,F:/corpus/guava/guava#2010-06-03-08-26-58#v3.0#a393220/maven/concurrent/src/main/java/com/google/common/util/concurrent/CheckedFuture.java,0,0,0,0,1,0,0,0,0,0,0,0,0,NO,0,0,0,0,0,0,0,0,0,0,0,0,0,0,0,0,0,0,0,0,0,0,0,0,0,0,0,0,0,0,0,0,0,0,0,0,0,0,0,0,0,0,0,0,0,0,0,0,0,72
guava,v3.0,v4.0,F:/corpus/guava/guava#2010-06-03-08-26-58#v3.0#a393220/maven/concurrent/src/main/java/com/google/common/util/concurrent/DaemonThreadFactory.java,F:/corpus/guava/guava#2010-06-03-08-26-58#v3.0#a393220/maven/concurrent/src/main/java/com/google/common/util/concurrent/DaemonThreadFactory.java,0,0,0,0,0,0,0,0,0,0,0,0,0,NO,0,0,0,0,0,0,0,0,0,0,0,0,0,0,0,0,0,0,0,0,0,0,0,0,0,0,0,0,0,0,0,0,0,0,0,0,0,0,0,0,0,0,0,0,0,0,0,0,0,46
guava,v3.0,v4.0,F:/corpus/guava/guava#2010-06-03-08-26-58#v3.0#a393220/maven/concurrent/src/main/java/com/google/common/util/concurrent/ExecutionList.java,F:/corpus/guava/guava#2010-06-03-08-26-58#v3.0#a393220/maven/concurrent/src/main/java/com/google/common/util/concurrent/ExecutionList.java,0,0,0,0,0,0,0,0,0,0,0,0,0,NO,0,0,0,0,0,0,0,0,0,0,0,0,0,0,0,0,0,0,0,0,0,0,0,0,0,0,0,0,0,0,0,0,0,0,0,0,0,0,0,0,0,0,0,0,0,0,0,0,0,129
guava,v3.0,v4.0,F:/corpus/guava/guava#2010-06-03-08-26-58#v3.0#a393220/maven/concurrent/src/main/java/com/google/common/util/concurrent/Executors.java,F:/corpus/guava/guava#2010-06-03-08-26-58#v3.0#a393220/maven/concurrent/src/main/java/com/google/common/util/concurrent/Executors.java,0,0,0,0,0,0,0,0,0,0,0,0,0,NO,0,0,0,0,0,0,0,0,0,0,0,0,0,0,0,0,0,0,0,0,0,0,0,0,0,0,0,0,0,0,0,0,0,0,0,0,0,0,0,0,0,0,0,0,0,0,0,0,0,131
guava,v3.0,v4.0,F:/corpus/guava/guava#2010-06-03-08-26-58#v3.0#a393220/maven/concurrent/src/main/java/com/google/common/util/concurrent/FakeTimeLimiter.java,F:/corpus/guava/guava#2010-06-03-08-26-58#v3.0#a393220/maven/concurrent/src/main/java/com/google/common/util/concurrent/FakeTimeLimiter.java,0,0,0,0,2,0,0,0,0,0,0,0,0,NO,0,0,0,0,0,0,0,0,0,0,0,0,0,0,0,0,0,0,0,0,0,0,0,0,0,0,0,0,0,0,0,0,0,0,0,0,0,0,0,0,0,0,0,0,0,0,0,0,0,45
guava,v3.0,v4.0,F:/corpus/guava/guava#2010-06-03-08-26-58#v3.0#a393220/maven/concurrent/src/main/java/com/google/common/util/concurrent/ForwardingFuture.java,F:/corpus/guava/guava#2010-06-03-08-26-58#v3.0#a393220/maven/concurrent/src/main/java/com/google/common/util/concurrent/ForwardingFuture.java,0,0,0,0,1,0,0,0,0,0,0,0,0,NO,0,0,0,0,0,0,0,0,0,0,0,0,0,0,0,0,0,0,0,0,0,0,0,0,0,0,0,0,0,0,0,0,0,0,0,0,0,0,0,0,0,0,0,0,0,0,0,0,0,68
guava,v3.0,v4.0,F:/corpus/guava/guava#2010-06-03-08-26-58#v3.0#a393220/maven/concurrent/src/main/java/com/google/common/util/concurrent/ForwardingService.java,F:/corpus/guava/guava#2010-06-03-08-26-58#v3.0#a393220/maven/concurrent/src/main/java/com/google/common/util/concurrent/ForwardingService.java,0,0,0,0,1,0,0,0,0,0,0,0,0,NO,0,0,0,0,0,0,0,0,0,0,0,0,0,0,0,0,0,0,0,0,0,0,0,0,0,0,0,0,0,0,0,0,0,0,0,0,0,0,0,0,0,0,0,0,0,0,0,0,0,60
guava,v3.0,v4.0,F:/corpus/guava/guava#2010-06-03-08-26-58#v3.0#a393220/maven/concurrent/src/main/java/com/google/common/util/concurrent/Futures.java,F:/corpus/guava/guava#2010-06-03-08-26-58#v3.0#a393220/maven/concurrent/src/main/java/com/google/common/util/concurrent/Futures.java,0,0,0,0,0,0,0,0,0,0,0,0,0,NO,0,0,0,0,0,0,0,0,0,0,0,0,0,0,0,0,0,0,0,0,0,0,0,0,0,0,0,0,0,0,0,0,0,0,0,0,0,0,0,0,0,0,0,0,0,0,0,0,0,569
guava,v3.0,v4.0,F:/corpus/guava/guava#2010-06-03-08-26-58#v3.0#a393220/maven/concurrent/src/main/java/com/google/common/util/concurrent/ListenableFuture.java,F:/corpus/guava/guava#2010-06-03-08-26-58#v3.0#a393220/maven/concurrent/src/main/java/com/google/common/util/concurrent/ListenableFuture.java,0,0,0,0,1,0,0,0,0,0,0,0,0,NO,0,0,0,0,0,0,0,0,0,0,0,0,0,0,0,0,0,0,0,0,0,0,0,0,0,0,0,0,0,0,0,0,0,0,0,0,0,0,0,0,0,0,0,0,0,0,0,0,0,70
guava,v3.0,v4.0,F:/corpus/guava/guava#2010-06-03-08-26-58#v3.0#a393220/maven/concurrent/src/main/java/com/google/common/util/concurrent/ListenableFutureTask.java,F:/corpus/guava/guava#2010-06-03-08-26-58#v3.0#a393220/maven/concurrent/src/main/java/com/google/common/util/concurrent/ListenableFutureTask.java,0,0,0,0,0,0,0,0,0,0,0,0,0,NO,0,0,0,0,0,0,0,0,0,0,0,0,0,0,0,0,0,0,0,0,0,0,0,0,0,0,0,0,0,0,0,0,0,0,0,0,0,0,0,0,0,0,0,0,0,0,0,0,0,77
guava,v3.0,v4.0,F:/corpus/guava/guava#2010-06-03-08-26-58#v3.0#a393220/maven/concurrent/src/main/java/com/google/common/util/concurrent/MoreExecutors.java,F:/corpus/guava/guava#2010-06-03-08-26-58#v3.0#a393220/maven/concurrent/src/main/java/com/google/common/util/concurrent/MoreExecutors.java,0,0,1,0,0,0,0,0,0,0,0,0,0,NO,0,0,0,0,0,0,0,0,0,0,0,0,0,0,0,0,0,0,0,0,0,0,0,0,0,0,0,0,0,0,0,0,0,0,0,0,0,0,0,0,0,0,0,0,0,0,0,0,0,355
guava,v3.0,v4.0,F:/corpus/guava/guava#2010-06-03-08-26-58#v3.0#a393220/maven/concurrent/src/main/java/com/google/common/util/concurrent/NamingThreadFactory.java,F:/corpus/guava/guava#2010-06-03-08-26-58#v3.0#a393220/maven/concurrent/src/main/java/com/google/common/util/concurrent/NamingThreadFactory.java,0,0,0,0,0,0,0,0,0,0,0,0,0,NO,0,0,0,0,0,0,0,0,0,0,0,0,0,0,0,0,0,0,0,0,0,0,0,0,0,0,0,0,0,0,0,0,0,0,0,0,0,0,0,0,0,0,0,0,0,0,0,0,0,80
guava,v3.0,v4.0,F:/corpus/guava/guava#2010-06-03-08-26-58#v3.0#a393220/maven/concurrent/src/main/java/com/google/common/util/concurrent/package-info.java,F:/corpus/guava/guava#2010-06-03-08-26-58#v3.0#a393220/maven/concurrent/src/main/java/com/google/common/util/concurrent/package-info.java,0,0,0,0,0,0,0,0,0,0,0,0,0,NO,0,0,0,0,0,0,0,0,0,0,0,0,0,0,0,0,0,0,0,0,0,0,0,0,0,0,0,0,0,0,0,0,0,0,0,0,0,0,0,0,0,0,0,0,0,0,0,0,0,26
guava,v3.0,v4.0,F:/corpus/guava/guava#2010-06-03-08-26-58#v3.0#a393220/maven/concurrent/src/main/java/com/google/common/util/concurrent/SimpleTimeLimiter.java,F:/corpus/guava/guava#2010-06-03-08-26-58#v3.0#a393220/maven/concurrent/src/main/java/com/google/common/util/concurrent/SimpleTimeLimiter.java,0,0,0,0,0,0,0,0,0,0,0,0,0,NO,0,0,0,0,0,0,0,0,0,0,0,0,0,0,0,0,0,0,0,0,0,0,0,0,0,0,0,0,0,0,0,0,0,0,0,0,0,0,0,0,0,0,0,0,0,0,0,0,0,170
guava,v3.0,v4.0,F:/corpus/guava/guava#2010-06-03-08-26-58#v3.0#a393220/maven/concurrent/src/main/java/com/google/common/util/concurrent/TimeLimiter.java,F:/corpus/guava/guava#2010-06-03-08-26-58#v3.0#a393220/maven/concurrent/src/main/java/com/google/common/util/concurrent/TimeLimiter.java,0,0,0,0,0,0,0,0,0,0,0,0,0,NO,0,0,0,0,0,0,0,0,0,0,0,0,0,0,0,0,0,0,0,0,0,0,0,0,0,0,0,0,0,0,0,0,0,0,0,0,0,0,0,0,0,0,0,0,0,0,0,0,0,106
guava,v3.0,v4.0,F:/corpus/guava/guava#2010-06-03-08-26-58#v3.0#a393220/maven/concurrent/src/main/java/com/google/common/util/concurrent/UncheckedTimeoutException.java,F:/corpus/guava/guava#2010-06-03-08-26-58#v3.0#a393220/maven/concurrent/src/main/java/com/google/common/util/concurrent/UncheckedTimeoutException.java,0,0,0,0,0,0,0,0,0,0,0,0,0,NO,0,0,0,0,0,0,0,0,0,0,0,0,0,0,0,0,0,0,0,0,0,0,0,0,0,0,0,0,0,0,0,0,0,0,0,0,0,0,0,0,0,0,0,0,0,0,0,0,0,44
guava,v3.0,v4.0,F:/corpus/guava/guava#2010-06-03-08-26-58#v3.0#a393220/maven/concurrent/src/main/java/com/google/common/util/concurrent/UninterruptibleFuture.java,F:/corpus/guava/guava#2010-06-03-08-26-58#v3.0#a393220/maven/concurrent/src/main/java/com/google/common/util/concurrent/UninterruptibleFuture.java,0,0,0,0,1,0,0,0,0,0,0,0,0,NO,0,0,0,0,0,0,0,0,0,0,0,0,0,0,0,0,0,0,0,0,0,0,0,0,0,0,0,0,0,0,0,0,0,0,0,0,0,0,0,0,0,0,0,0,0,0,0,0,0,42
guava,v3.0,v4.0,F:/corpus/guava/guava#2010-06-03-08-26-58#v3.0#a393220/maven/concurrent/src/main/java/com/google/common/util/concurrent/ValueFuture.java,F:/corpus/guava/guava#2010-06-03-08-26-58#v3.0#a393220/maven/concurrent/src/main/java/com/google/common/util/concurrent/ValueFuture.java,0,0,0,0,1,0,0,0,0,0,0,0,0,NO,0,0,0,0,0,0,0,0,0,0,0,0,0,0,0,0,0,0,0,0,0,0,0,0,0,0,0,0,0,0,0,0,0,0,0,0,0,0,0,0,0,0,0,0,0,0,0,0,0,80
guava,v3.0,v4.0,F:/corpus/guava/guava#2010-06-03-08-26-58#v3.0#a393220/maven/io/src/main/java/com/google/common/io/AppendableWriter.java,F:/corpus/guava/guava#2010-06-03-08-26-58#v3.0#a393220/maven/io/src/main/java/com/google/common/io/AppendableWriter.java,0,0,1,0,0,0,0,0,0,0,0,0,0,NO,0,0,0,0,0,0,0,0,0,0,0,0,0,0,0,0,0,0,0,0,0,0,0,0,0,0,0,0,0,0,0,0,0,0,0,0,0,0,0,0,0,0,0,0,0,0,0,0,0,117
guava,v3.0,v4.0,F:/corpus/guava/guava#2010-06-03-08-26-58#v3.0#a393220/maven/io/src/main/java/com/google/common/io/ByteArrayDataInput.java,F:/corpus/guava/guava#2010-06-03-08-26-58#v3.0#a393220/maven/io/src/main/java/com/google/common/io/ByteArrayDataInput.java,0,0,0,0,0,0,0,0,0,0,0,0,0,NO,0,0,0,0,0,0,0,0,0,0,0,0,0,0,0,0,0,0,0,0,0,0,0,0,0,0,0,0,0,0,0,0,0,0,0,0,0,0,0,0,0,0,0,0,0,0,0,0,0,50
guava,v3.0,v4.0,F:/corpus/guava/guava#2010-06-03-08-26-58#v3.0#a393220/maven/io/src/main/java/com/google/common/io/ByteArrayDataOutput.java,F:/corpus/guava/guava#2010-06-03-08-26-58#v3.0#a393220/maven/io/src/main/java/com/google/common/io/ByteArrayDataOutput.java,0,0,0,0,0,0,0,0,0,0,0,0,0,NO,0,0,0,0,0,0,0,0,0,0,0,0,0,0,0,0,0,0,0,0,0,0,0,0,0,0,0,0,0,0,0,0,0,0,0,0,0,0,0,0,0,0,0,0,0,0,0,0,0,58
guava,v3.0,v4.0,F:/corpus/guava/guava#2010-06-03-08-26-58#v3.0#a393220/maven/io/src/main/java/com/google/common/io/ByteProcessor.java,F:/corpus/guava/guava#2010-06-03-08-26-58#v3.0#a393220/maven/io/src/main/java/com/google/common/io/ByteProcessor.java,0,0,0,0,1,0,0,0,0,0,0,0,0,NO,0,0,0,0,0,0,0,0,0,0,0,0,0,0,0,0,0,0,0,0,0,0,0,0,0,0,0,0,0,0,0,0,0,0,0,0,0,0,0,0,0,0,0,0,0,0,0,0,0,49
guava,v3.0,v4.0,F:/corpus/guava/guava#2010-06-03-08-26-58#v3.0#a393220/maven/io/src/main/java/com/google/common/io/ByteStreams.java,F:/corpus/guava/guava#2010-06-03-08-26-58#v3.0#a393220/maven/io/src/main/java/com/google/common/io/ByteStreams.java,0,0,0,0,0,0,1,0,0,0,0,0,0,NO,0,0,0,0,0,0,0,0,0,0,0,0,0,0,0,0,0,0,0,0,0,0,0,0,0,0,0,0,0,0,0,0,0,0,0,0,0,0,0,0,0,0,0,0,0,0,0,0,0,848
guava,v3.0,v4.0,F:/corpus/guava/guava#2010-06-03-08-26-58#v3.0#a393220/maven/io/src/main/java/com/google/common/io/CharStreams.java,F:/corpus/guava/guava#2010-06-03-08-26-58#v3.0#a393220/maven/io/src/main/java/com/google/common/io/CharStreams.java,0,0,0,0,0,0,0,0,0,0,0,0,0,NO,0,0,0,0,0,0,0,0,0,0,0,0,0,0,0,0,0,0,0,0,0,0,0,0,0,0,0,0,0,0,0,0,0,0,0,0,0,0,0,0,0,0,0,0,0,0,0,0,0,437
guava,v3.0,v4.0,F:/corpus/guava/guava#2010-06-03-08-26-58#v3.0#a393220/maven/io/src/main/java/com/google/common/io/Closeables.java,F:/corpus/guava/guava#2010-06-03-08-26-58#v3.0#a393220/maven/io/src/main/java/com/google/common/io/Closeables.java,0,0,0,0,0,0,0,0,0,0,0,0,0,NO,0,0,0,0,0,0,0,0,0,0,0,0,0,0,0,0,0,0,0,0,0,0,0,0,0,0,0,0,0,0,0,0,0,0,0,0,0,0,0,0,0,0,0,0,0,0,0,0,0,103
guava,v3.0,v4.0,F:/corpus/guava/guava#2010-06-03-08-26-58#v3.0#a393220/maven/io/src/main/java/com/google/common/io/CountingInputStream.java,F:/corpus/guava/guava#2010-06-03-08-26-58#v3.0#a393220/maven/io/src/main/java/com/google/common/io/CountingInputStream.java,0,0,0,0,0,0,0,0,0,0,0,0,0,NO,0,0,0,0,0,0,0,0,0,0,0,0,0,0,0,0,0,0,0,0,0,0,0,0,0,0,0,0,0,0,0,0,0,0,0,0,0,0,0,0,0,0,0,0,0,0,0,0,0,90
guava,v3.0,v4.0,F:/corpus/guava/guava#2010-06-03-08-26-58#v3.0#a393220/maven/io/src/main/java/com/google/common/io/CountingOutputStream.java,F:/corpus/guava/guava#2010-06-03-08-26-58#v3.0#a393220/maven/io/src/main/java/com/google/common/io/CountingOutputStream.java,0,0,0,0,0,0,0,0,0,0,0,0,0,NO,0,0,0,0,0,0,0,0,0,0,0,0,0,0,0,0,0,0,0,0,0,0,0,0,0,0,0,0,0,0,0,0,0,0,0,0,0,0,0,0,0,0,0,0,0,0,0,0,0,59
guava,v3.0,v4.0,F:/corpus/guava/guava#2010-06-03-08-26-58#v3.0#a393220/maven/io/src/main/java/com/google/common/io/FileBackedOutputStream.java,F:/corpus/guava/guava#2010-06-03-08-26-58#v3.0#a393220/maven/io/src/main/java/com/google/common/io/FileBackedOutputStream.java,0,0,0,0,0,0,0,0,0,0,0,0,0,NO,0,0,0,0,0,0,0,0,0,0,0,0,0,0,0,0,0,0,0,0,0,0,0,0,0,0,0,0,0,0,0,0,0,0,0,0,0,0,0,0,0,0,0,0,0,0,0,0,0,207
guava,v3.0,v4.0,F:/corpus/guava/guava#2010-06-03-08-26-58#v3.0#a393220/maven/io/src/main/java/com/google/common/io/Files.java,F:/corpus/guava/guava#2010-06-03-08-26-58#v3.0#a393220/maven/io/src/main/java/com/google/common/io/Files.java,0,0,0,0,0,0,0,0,0,0,0,0,0,NO,0,0,0,0,0,0,0,0,0,0,0,0,0,0,0,0,0,0,0,0,0,0,0,0,0,0,0,0,0,0,0,0,0,0,0,0,0,0,0,0,0,0,0,0,0,0,0,0,0,698
guava,v3.0,v4.0,F:/corpus/guava/guava#2010-06-03-08-26-58#v3.0#a393220/maven/io/src/main/java/com/google/common/io/Flushables.java,F:/corpus/guava/guava#2010-06-03-08-26-58#v3.0#a393220/maven/io/src/main/java/com/google/common/io/Flushables.java,0,0,0,0,0,0,0,0,0,0,0,0,0,NO,0,0,0,0,0,0,0,0,0,0,0,0,0,0,0,0,0,0,0,0,0,0,0,0,0,0,0,0,0,0,0,0,0,0,0,0,0,0,0,0,0,0,0,0,0,0,0,0,0,79
guava,v3.0,v4.0,F:/corpus/guava/guava#2010-06-03-08-26-58#v3.0#a393220/maven/io/src/main/java/com/google/common/io/InputSupplier.java,F:/corpus/guava/guava#2010-06-03-08-26-58#v3.0#a393220/maven/io/src/main/java/com/google/common/io/InputSupplier.java,0,0,0,0,1,0,0,0,0,0,0,0,0,NO,0,0,0,0,0,0,0,0,0,0,0,0,0,0,0,0,0,0,0,0,0,0,0,0,0,0,0,0,0,0,0,0,0,0,0,0,0,0,0,0,0,0,0,0,0,0,0,0,0,32
guava,v3.0,v4.0,F:/corpus/guava/guava#2010-06-03-08-26-58#v3.0#a393220/maven/io/src/main/java/com/google/common/io/LimitInputStream.java,F:/corpus/guava/guava#2010-06-03-08-26-58#v3.0#a393220/maven/io/src/main/java/com/google/common/io/LimitInputStream.java,0,0,0,0,0,0,0,0,0,0,0,0,0,NO,0,0,0,0,0,0,0,0,0,0,0,0,0,0,0,0,0,0,0,0,0,0,0,0,0,0,0,0,0,0,0,0,0,0,0,0,0,0,0,0,0,0,0,0,0,0,0,0,0,104
guava,v3.0,v4.0,F:/corpus/guava/guava#2010-06-03-08-26-58#v3.0#a393220/maven/io/src/main/java/com/google/common/io/LineBuffer.java,F:/corpus/guava/guava#2010-06-03-08-26-58#v3.0#a393220/maven/io/src/main/java/com/google/common/io/LineBuffer.java,0,0,0,0,1,0,0,0,0,0,0,0,0,NO,0,0,0,0,0,0,0,0,0,0,0,0,0,0,0,0,0,0,0,0,0,0,0,0,0,0,0,0,0,0,0,0,0,0,0,0,0,0,0,0,0,0,0,0,0,0,0,0,0,118
guava,v3.0,v4.0,F:/corpus/guava/guava#2010-06-03-08-26-58#v3.0#a393220/maven/io/src/main/java/com/google/common/io/LineProcessor.java,F:/corpus/guava/guava#2010-06-03-08-26-58#v3.0#a393220/maven/io/src/main/java/com/google/common/io/LineProcessor.java,0,0,0,0,1,0,0,0,0,0,0,0,0,NO,0,0,0,0,0,0,0,0,0,0,0,0,0,0,0,0,0,0,0,0,0,0,0,0,0,0,0,0,0,0,0,0,0,0,0,0,0,0,0,0,0,0,0,0,0,0,0,0,0,45
guava,v3.0,v4.0,F:/corpus/guava/guava#2010-06-03-08-26-58#v3.0#a393220/maven/io/src/main/java/com/google/common/io/LineReader.java,F:/corpus/guava/guava#2010-06-03-08-26-58#v3.0#a393220/maven/io/src/main/java/com/google/common/io/LineReader.java,0,0,0,0,0,0,0,0,0,0,0,0,0,NO,0,0,0,0,0,0,0,0,0,0,0,0,0,0,0,0,0,0,0,0,0,0,0,0,0,0,0,0,0,0,0,0,0,0,0,0,0,0,0,0,0,0,0,0,0,0,0,0,0,87
guava,v3.0,v4.0,F:/corpus/guava/guava#2010-06-03-08-26-58#v3.0#a393220/maven/io/src/main/java/com/google/common/io/MultiInputStream.java,F:/corpus/guava/guava#2010-06-03-08-26-58#v3.0#a393220/maven/io/src/main/java/com/google/common/io/MultiInputStream.java,0,0,0,0,0,0,0,0,0,0,0,0,0,NO,0,0,0,0,0,0,0,0,0,0,0,0,0,0,0,0,0,0,0,0,0,0,0,0,0,0,0,0,0,0,0,0,0,0,0,0,0,0,0,0,0,0,0,0,0,0,0,0,0,115
guava,v3.0,v4.0,F:/corpus/guava/guava#2010-06-03-08-26-58#v3.0#a393220/maven/io/src/main/java/com/google/common/io/MultiReader.java,F:/corpus/guava/guava#2010-06-03-08-26-58#v3.0#a393220/maven/io/src/main/java/com/google/common/io/MultiReader.java,0,0,0,0,0,0,0,0,0,0,0,0,0,NO,0,0,0,0,0,0,0,0,0,0,0,0,0,0,0,0,0,0,0,0,0,0,0,0,0,0,0,0,0,0,0,0,0,0,0,0,0,0,0,0,0,0,0,0,0,0,0,0,0,90
guava,v3.0,v4.0,F:/corpus/guava/guava#2010-06-03-08-26-58#v3.0#a393220/maven/io/src/main/java/com/google/common/io/NullOutputStream.java,F:/corpus/guava/guava#2010-06-03-08-26-58#v3.0#a393220/maven/io/src/main/java/com/google/common/io/NullOutputStream.java,0,0,0,0,0,0,0,0,0,0,0,0,0,NO,0,0,0,0,0,0,0,0,0,0,0,0,0,0,0,0,0,0,0,0,0,0,0,0,0,0,0,0,0,0,0,0,0,0,0,0,0,0,0,0,0,0,0,0,0,0,0,0,0,38
guava,v3.0,v4.0,F:/corpus/guava/guava#2010-06-03-08-26-58#v3.0#a393220/maven/io/src/main/java/com/google/common/io/OutputSupplier.java,F:/corpus/guava/guava#2010-06-03-08-26-58#v3.0#a393220/maven/io/src/main/java/com/google/common/io/OutputSupplier.java,0,0,0,0,1,0,0,0,0,0,0,0,0,NO,0,0,0,0,0,0,0,0,0,0,0,0,0,0,0,0,0,0,0,0,0,0,0,0,0,0,0,0,0,0,0,0,0,0,0,0,0,0,0,0,0,0,0,0,0,0,0,0,0,32
guava,v3.0,v4.0,F:/corpus/guava/guava#2010-06-03-08-26-58#v3.0#a393220/maven/io/src/main/java/com/google/common/io/package-info.java,F:/corpus/guava/guava#2010-06-03-08-26-58#v3.0#a393220/maven/io/src/main/java/com/google/common/io/package-info.java,0,0,0,0,0,0,0,0,0,0,0,0,0,NO,0,0,0,0,0,0,0,0,0,0,0,0,0,0,0,0,0,0,0,0,0,0,0,0,0,0,0,0,0,0,0,0,0,0,0,0,0,0,0,0,0,0,0,0,0,0,0,0,0,40
guava,v3.0,v4.0,F:/corpus/guava/guava#2010-06-03-08-26-58#v3.0#a393220/maven/io/src/main/java/com/google/common/io/PatternFilenameFilter.java,F:/corpus/guava/guava#2010-06-03-08-26-58#v3.0#a393220/maven/io/src/main/java/com/google/common/io/PatternFilenameFilter.java,0,0,0,0,1,0,0,0,0,0,0,0,0,NO,0,0,0,0,0,0,0,0,0,0,0,0,0,0,0,0,0,0,0,0,0,0,0,0,0,0,0,0,0,0,0,0,0,0,0,0,0,0,0,0,0,0,0,0,0,0,0,0,0,59
guava,v3.0,v4.0,F:/corpus/guava/guava#2010-06-03-08-26-58#v3.0#a393220/maven/io/src/main/java/com/google/common/io/Resources.java,F:/corpus/guava/guava#2010-06-03-08-26-58#v3.0#a393220/maven/io/src/main/java/com/google/common/io/Resources.java,0,0,0,0,0,0,0,0,0,0,0,0,0,NO,0,0,0,0,0,0,0,0,0,0,0,0,0,0,0,0,0,0,0,0,0,0,0,0,0,0,0,0,0,0,0,0,0,0,0,0,0,0,0,0,0,0,0,0,0,0,0,0,0,166
guava,v3.0,v4.0,F:/corpus/guava/guava#2010-06-03-08-26-58#v3.0#a393220/maven/primitives/src/main/java/com/google/common/primitives/Booleans.java,F:/corpus/guava/guava#2010-06-03-08-26-58#v3.0#a393220/maven/primitives/src/main/java/com/google/common/primitives/Booleans.java,0,0,0,0,0,0,0,0,0,0,0,0,0,NO,0,0,0,0,0,0,0,0,0,0,0,0,0,0,0,0,0,0,0,0,0,0,0,0,0,0,0,0,0,0,0,0,0,0,0,0,0,0,0,0,0,0,0,0,0,0,0,0,0,465
guava,v3.0,v4.0,F:/corpus/guava/guava#2010-06-03-08-26-58#v3.0#a393220/maven/primitives/src/main/java/com/google/common/primitives/Bytes.java,F:/corpus/guava/guava#2010-06-03-08-26-58#v3.0#a393220/maven/primitives/src/main/java/com/google/common/primitives/Bytes.java,0,0,0,0,0,0,0,0,0,0,0,0,0,NO,0,0,0,0,0,0,0,0,0,0,0,0,0,0,0,0,0,0,0,0,0,0,0,0,0,0,0,0,0,0,0,0,0,0,0,0,0,0,0,0,0,0,0,0,0,0,0,0,0,381
guava,v3.0,v4.0,F:/corpus/guava/guava#2010-06-03-08-26-58#v3.0#a393220/maven/primitives/src/main/java/com/google/common/primitives/Chars.java,F:/corpus/guava/guava#2010-06-03-08-26-58#v3.0#a393220/maven/primitives/src/main/java/com/google/common/primitives/Chars.java,0,0,0,0,0,0,0,0,0,0,0,0,0,NO,0,0,0,0,0,0,0,0,0,0,0,0,0,0,0,0,0,0,0,0,0,0,0,0,0,0,0,0,0,0,0,0,0,0,0,0,0,0,0,0,0,0,0,0,0,0,0,0,0,569
guava,v3.0,v4.0,F:/corpus/guava/guava#2010-06-03-08-26-58#v3.0#a393220/maven/primitives/src/main/java/com/google/common/primitives/Doubles.java,F:/corpus/guava/guava#2010-06-03-08-26-58#v3.0#a393220/maven/primitives/src/main/java/com/google/common/primitives/Doubles.java,0,0,0,0,0,0,0,0,0,0,0,0,0,NO,0,0,0,0,0,0,0,0,0,0,0,0,0,0,0,0,0,0,0,0,0,0,0,0,0,0,0,0,0,0,0,0,0,0,0,0,0,0,0,0,0,0,0,0,0,0,0,0,0,502
guava,v3.0,v4.0,F:/corpus/guava/guava#2010-06-03-08-26-58#v3.0#a393220/maven/primitives/src/main/java/com/google/common/primitives/Floats.java,F:/corpus/guava/guava#2010-06-03-08-26-58#v3.0#a393220/maven/primitives/src/main/java/com/google/common/primitives/Floats.java,0,0,0,0,0,0,0,0,0,0,0,0,0,NO,0,0,0,0,0,0,0,0,0,0,0,0,0,0,0,0,0,0,0,0,0,0,0,0,0,0,0,0,0,0,0,0,0,0,0,0,0,0,0,0,0,0,0,0,0,0,0,0,0,499
guava,v3.0,v4.0,F:/corpus/guava/guava#2010-06-03-08-26-58#v3.0#a393220/maven/primitives/src/main/java/com/google/common/primitives/Ints.java,F:/corpus/guava/guava#2010-06-03-08-26-58#v3.0#a393220/maven/primitives/src/main/java/com/google/common/primitives/Ints.java,0,0,0,0,0,0,0,0,0,0,0,0,0,NO,0,0,0,0,0,0,0,0,0,0,0,0,0,0,0,0,0,0,0,0,0,0,0,0,0,0,0,0,0,0,0,0,0,0,0,0,0,0,0,0,0,0,0,0,0,0,0,0,0,573
guava,v3.0,v4.0,F:/corpus/guava/guava#2010-06-03-08-26-58#v3.0#a393220/maven/primitives/src/main/java/com/google/common/primitives/Longs.java,F:/corpus/guava/guava#2010-06-03-08-26-58#v3.0#a393220/maven/primitives/src/main/java/com/google/common/primitives/Longs.java,0,0,0,0,0,0,0,0,0,0,0,0,0,NO,0,0,0,0,0,0,0,0,0,0,0,0,0,0,0,0,0,0,0,0,0,0,0,0,0,0,0,0,0,0,0,0,0,0,0,0,0,0,0,0,0,0,0,0,0,0,0,0,0,551
guava,v3.0,v4.0,F:/corpus/guava/guava#2010-06-03-08-26-58#v3.0#a393220/maven/primitives/src/main/java/com/google/common/primitives/package-info.java,F:/corpus/guava/guava#2010-06-03-08-26-58#v3.0#a393220/maven/primitives/src/main/java/com/google/common/primitives/package-info.java,0,0,0,0,0,0,0,0,0,0,0,0,0,NO,0,0,0,0,0,0,0,0,0,0,0,0,0,0,0,0,0,0,0,0,0,0,0,0,0,0,0,0,0,0,0,0,0,0,0,0,0,0,0,0,0,0,0,0,0,0,0,0,0,51
guava,v3.0,v4.0,F:/corpus/guava/guava#2010-06-03-08-26-58#v3.0#a393220/maven/primitives/src/main/java/com/google/common/primitives/Primitives.java,F:/corpus/guava/guava#2010-06-03-08-26-58#v3.0#a393220/maven/primitives/src/main/java/com/google/common/primitives/Primitives.java,0,0,0,0,0,0,0,0,0,0,0,0,0,NO,0,0,0,0,0,0,0,0,0,0,0,0,0,0,0,0,0,0,0,0,0,0,0,0,0,0,0,0,0,0,0,0,0,0,0,0,0,0,0,0,0,0,0,0,0,0,0,0,0,134
guava,v3.0,v4.0,F:/corpus/guava/guava#2010-06-03-08-26-58#v3.0#a393220/maven/primitives/src/main/java/com/google/common/primitives/Shorts.java,F:/corpus/guava/guava#2010-06-03-08-26-58#v3.0#a393220/maven/primitives/src/main/java/com/google/common/primitives/Shorts.java,0,0,0,0,0,0,0,0,0,0,0,0,0,NO,0,0,0,0,0,0,0,0,0,0,0,0,0,0,0,0,0,0,0,0,0,0,0,0,0,0,0,0,0,0,0,0,0,0,0,0,0,0,0,0,0,0,0,0,0,0,0,0,0,566
guava,v3.0,v4.0,F:/corpus/guava/guava#2010-06-03-08-26-58#v3.0#a393220/maven/primitives/src/main/java/com/google/common/primitives/SignedBytes.java,F:/corpus/guava/guava#2010-06-03-08-26-58#v3.0#a393220/maven/primitives/src/main/java/com/google/common/primitives/SignedBytes.java,0,0,0,0,0,0,0,0,0,0,0,0,0,NO,0,0,0,0,0,0,0,0,0,0,0,0,0,0,0,0,0,0,0,0,0,0,0,0,0,0,0,0,0,0,0,0,0,0,0,0,0,0,0,0,0,0,0,0,0,0,0,0,0,180
guava,v3.0,v4.0,F:/corpus/guava/guava#2010-06-03-08-26-58#v3.0#a393220/maven/primitives/src/main/java/com/google/common/primitives/UnsignedBytes.java,F:/corpus/guava/guava#2010-06-03-08-26-58#v3.0#a393220/maven/primitives/src/main/java/com/google/common/primitives/UnsignedBytes.java,0,0,0,0,0,0,0,0,0,0,0,0,0,NO,0,0,0,0,0,0,0,0,0,0,0,0,0,0,0,0,0,0,0,0,0,0,0,0,0,0,0,0,0,0,0,0,0,0,0,0,0,0,0,0,0,0,0,0,0,0,0,0,0,183
guava,v3.0,v4.0,F:/corpus/guava/guava#2010-06-03-08-26-58#v3.0#a393220/src/com/google/common/annotations/Beta.java,F:/corpus/guava/guava#2010-06-03-08-26-58#v3.0#a393220/src/com/google/common/annotations/Beta.java,0,0,0,0,0,0,0,0,0,0,0,0,0,NO,0,0,0,0,0,0,0,0,0,0,0,0,0,0,0,0,0,0,0,0,0,0,0,0,0,0,0,0,0,0,0,0,0,0,0,0,0,0,0,0,0,0,0,0,0,0,0,0,0,44
guava,v3.0,v4.0,F:/corpus/guava/guava#2010-06-03-08-26-58#v3.0#a393220/src/com/google/common/annotations/GwtCompatible.java,F:/corpus/guava/guava#2010-06-03-08-26-58#v3.0#a393220/src/com/google/common/annotations/GwtCompatible.java,0,0,0,0,0,0,0,0,0,0,0,0,0,NO,0,0,0,0,0,0,0,0,0,0,0,0,0,0,0,0,0,0,0,0,0,0,0,0,0,0,0,0,0,0,0,0,0,0,0,0,0,0,0,0,0,0,0,0,0,0,0,0,0,87
guava,v3.0,v4.0,F:/corpus/guava/guava#2010-06-03-08-26-58#v3.0#a393220/src/com/google/common/annotations/package-info.java,F:/corpus/guava/guava#2010-06-03-08-26-58#v3.0#a393220/src/com/google/common/annotations/package-info.java,0,0,0,0,0,0,0,0,0,0,0,0,0,NO,0,0,0,0,0,0,0,0,0,0,0,0,0,0,0,0,0,0,0,0,0,0,0,0,0,0,0,0,0,0,0,0,0,0,0,0,0,0,0,0,0,0,0,0,0,0,0,0,0,21
guava,v3.0,v4.0,F:/corpus/guava/guava#2010-06-03-08-26-58#v3.0#a393220/src/com/google/common/annotations/VisibleForTesting.java,F:/corpus/guava/guava#2010-06-03-08-26-58#v3.0#a393220/src/com/google/common/annotations/VisibleForTesting.java,0,0,0,0,0,0,0,0,0,0,0,0,0,NO,0,0,0,0,0,0,0,0,0,0,0,0,0,0,0,0,0,0,0,0,0,0,0,0,0,0,0,0,0,0,0,0,0,0,0,0,0,0,0,0,0,0,0,0,0,0,0,0,0,27
guava,v3.0,v4.0,F:/corpus/guava/guava#2010-06-03-08-26-58#v3.0#a393220/src/com/google/common/base/CaseFormat.java,F:/corpus/guava/guava#2010-06-03-08-26-58#v3.0#a393220/src/com/google/common/base/CaseFormat.java,0,0,0,0,0,0,0,0,0,0,0,0,0,NO,0,0,0,0,0,0,0,0,0,0,0,0,0,0,0,0,0,0,0,0,0,0,0,0,0,0,0,0,0,0,0,0,0,0,0,0,0,0,0,0,0,0,0,0,0,0,0,0,0,192
guava,v3.0,v4.0,F:/corpus/guava/guava#2010-06-03-08-26-58#v3.0#a393220/src/com/google/common/base/Defaults.java,F:/corpus/guava/guava#2010-06-03-08-26-58#v3.0#a393220/src/com/google/common/base/Defaults.java,0,0,0,0,0,0,0,0,0,0,0,0,0,NO,0,0,0,0,0,0,0,0,0,0,0,0,0,0,0,0,0,0,0,0,0,0,0,0,0,0,0,0,0,0,0,0,0,0,0,0,0,0,0,0,0,0,0,0,0,0,0,0,0,57
guava,v3.0,v4.0,F:/corpus/guava/guava#2010-06-03-08-26-58#v3.0#a393220/src/com/google/common/base/FinalizablePhantomReference.java,F:/corpus/guava/guava#2010-06-03-08-26-58#v3.0#a393220/src/com/google/common/base/FinalizablePhantomReference.java,0,0,0,0,1,0,0,0,0,0,0,0,0,NO,0,0,0,0,0,0,0,0,0,0,0,0,0,0,0,0,0,0,0,0,0,0,0,0,0,0,0,0,0,0,0,0,0,0,0,0,0,0,0,0,0,0,0,0,0,0,0,0,0,47
guava,v3.0,v4.0,F:/corpus/guava/guava#2010-06-03-08-26-58#v3.0#a393220/src/com/google/common/base/FinalizableReference.java,F:/corpus/guava/guava#2010-06-03-08-26-58#v3.0#a393220/src/com/google/common/base/FinalizableReference.java,0,0,0,0,0,0,0,0,0,0,0,0,0,NO,0,0,0,0,0,0,0,0,0,0,0,0,0,0,0,0,0,0,0,0,0,0,0,0,0,0,0,0,0,0,0,0,0,0,0,0,0,0,0,0,0,0,0,0,0,0,0,0,0,36
guava,v3.0,v4.0,F:/corpus/guava/guava#2010-06-03-08-26-58#v3.0#a393220/src/com/google/common/base/FinalizableReferenceQueue.java,F:/corpus/guava/guava#2010-06-03-08-26-58#v3.0#a393220/src/com/google/common/base/FinalizableReferenceQueue.java,0,0,0,0,0,1,0,0,0,0,0,0,0,NO,0,0,0,0,0,0,0,0,0,0,0,0,0,0,0,0,0,0,0,0,0,0,0,0,0,0,0,0,0,0,0,0,0,0,0,0,0,0,0,0,0,0,0,0,0,0,0,0,0,314
guava,v3.0,v4.0,F:/corpus/guava/guava#2010-06-03-08-26-58#v3.0#a393220/src/com/google/common/base/FinalizableSoftReference.java,F:/corpus/guava/guava#2010-06-03-08-26-58#v3.0#a393220/src/com/google/common/base/FinalizableSoftReference.java,0,0,0,0,1,0,0,0,0,0,0,0,0,NO,0,0,0,0,0,0,0,0,0,0,0,0,0,0,0,0,0,0,0,0,0,0,0,0,0,0,0,0,0,0,0,0,0,0,0,0,0,0,0,0,0,0,0,0,0,0,0,0,0,43
guava,v3.0,v4.0,F:/corpus/guava/guava#2010-06-03-08-26-58#v3.0#a393220/src/com/google/common/base/FinalizableWeakReference.java,F:/corpus/guava/guava#2010-06-03-08-26-58#v3.0#a393220/src/com/google/common/base/FinalizableWeakReference.java,0,0,0,0,1,0,0,0,0,0,0,0,0,NO,0,0,0,0,0,0,0,0,0,0,0,0,0,0,0,0,0,0,0,0,0,0,0,0,0,0,0,0,0,0,0,0,0,0,0,0,0,0,0,0,0,0,0,0,0,0,0,0,0,43
guava,v3.0,v4.0,F:/corpus/guava/guava#2010-06-03-08-26-58#v3.0#a393220/src/com/google/common/base/Function.java,F:/corpus/guava/guava#2010-06-03-08-26-58#v3.0#a393220/src/com/google/common/base/Function.java,0,0,0,0,1,0,0,0,0,0,0,0,0,NO,0,0,0,0,0,0,0,0,0,0,0,0,0,0,0,0,0,0,0,0,0,0,0,0,0,0,0,0,0,0,0,0,0,0,0,0,0,0,0,0,0,0,0,0,0,0,0,0,0,68
guava,v3.0,v4.0,F:/corpus/guava/guava#2010-06-03-08-26-58#v3.0#a393220/src/com/google/common/base/Functions.java,F:/corpus/guava/guava#2010-06-03-08-26-58#v3.0#a393220/src/com/google/common/base/Functions.java,0,0,0,0,1,0,0,0,0,0,0,0,0,NO,0,0,0,0,0,0,0,0,0,0,0,0,0,0,0,0,0,0,0,0,0,0,0,0,0,0,0,0,0,0,0,0,0,0,0,0,0,0,0,0,0,0,0,0,0,0,0,0,0,286
guava,v3.0,v4.0,F:/corpus/guava/guava#2010-06-03-08-26-58#v3.0#a393220/src/com/google/common/base/internal/Finalizer.java,F:/corpus/guava/guava#2010-06-03-08-26-58#v3.0#a393220/src/com/google/common/base/internal/Finalizer.java,0,0,0,0,0,0,0,0,0,0,0,0,0,NO,0,0,0,0,0,0,0,0,0,0,0,0,0,0,0,0,0,0,0,0,0,0,0,0,0,0,0,0,0,0,0,0,0,0,0,0,0,0,0,0,0,0,0,0,0,0,0,0,0,207
guava,v3.0,v4.0,F:/corpus/guava/guava#2010-06-03-08-26-58#v3.0#a393220/src/com/google/common/base/package-info.java,F:/corpus/guava/guava#2010-06-03-08-26-58#v3.0#a393220/src/com/google/common/base/package-info.java,0,0,0,0,0,0,0,0,0,0,0,0,0,NO,0,0,0,0,0,0,0,0,0,0,0,0,0,0,0,0,0,0,0,0,0,0,0,0,0,0,0,0,0,0,0,0,0,0,0,0,0,0,0,0,0,0,0,0,0,0,0,0,0,60
guava,v3.0,v4.0,F:/corpus/guava/guava#2010-06-03-08-26-58#v3.0#a393220/src/com/google/common/base/Platform.java,F:/corpus/guava/guava#2010-06-03-08-26-58#v3.0#a393220/src/com/google/common/base/Platform.java,0,0,0,0,0,0,0,0,0,0,0,0,0,NO,0,0,0,0,0,0,0,0,0,0,0,0,0,0,0,0,0,0,0,0,0,0,0,0,0,0,0,0,0,0,0,0,0,0,0,0,0,0,0,0,0,0,0,0,0,0,0,0,0,59
guava,v3.0,v4.0,F:/corpus/guava/guava#2010-06-03-08-26-58#v3.0#a393220/src/com/google/common/base/Preconditions.java,F:/corpus/guava/guava#2010-06-03-08-26-58#v3.0#a393220/src/com/google/common/base/Preconditions.java,0,0,0,0,0,0,0,0,0,0,0,8,0,NO,0,0,0,0,0,0,0,0,0,0,0,0,0,0,0,0,0,0,0,0,0,0,0,0,0,0,0,0,0,0,0,0,0,0,0,0,0,0,0,0,0,0,0,0,0,0,0,0,0,447
guava,v3.0,v4.0,F:/corpus/guava/guava#2010-06-03-08-26-58#v3.0#a393220/src/com/google/common/base/Predicate.java,F:/corpus/guava/guava#2010-06-03-08-26-58#v3.0#a393220/src/com/google/common/base/Predicate.java,0,0,0,0,1,0,0,0,0,0,0,0,0,NO,0,0,0,0,0,0,0,0,0,0,0,0,0,0,0,0,0,0,0,0,0,0,0,0,0,0,0,0,0,0,0,0,0,0,0,0,0,0,0,0,0,0,0,0,0,0,0,0,0,63
guava,v3.0,v4.0,F:/corpus/guava/guava#2010-06-03-08-26-58#v3.0#a393220/src/com/google/common/base/Predicates.java,F:/corpus/guava/guava#2010-06-03-08-26-58#v3.0#a393220/src/com/google/common/base/Predicates.java,0,0,0,0,0,0,0,0,0,0,0,0,0,NO,0,0,0,0,0,0,0,0,0,0,0,0,0,0,0,0,0,0,0,0,0,0,0,0,0,0,0,0,0,0,0,0,0,0,0,0,0,0,0,0,0,0,0,0,0,0,0,0,0,630
guava,v3.0,v4.0,F:/corpus/guava/guava#2010-06-03-08-26-58#v3.0#a393220/src/com/google/common/base/Service.java,F:/corpus/guava/guava#2010-06-03-08-26-58#v3.0#a393220/src/com/google/common/base/Service.java,0,0,0,0,0,0,0,0,0,0,0,0,0,NO,0,0,0,0,0,0,0,0,0,0,0,0,0,0,0,0,0,0,0,0,0,0,0,0,0,0,0,0,0,0,0,0,0,0,0,0,0,0,0,0,0,0,0,0,0,0,0,0,0,160
guava,v3.0,v4.0,F:/corpus/guava/guava#2010-06-03-08-26-58#v3.0#a393220/src/com/google/common/base/Splitter.java,F:/corpus/guava/guava#2010-06-03-08-26-58#v3.0#a393220/src/com/google/common/base/Splitter.java,0,0,0,0,3,0,0,0,0,0,0,0,0,NO,0,0,0,0,0,0,0,0,0,0,0,0,0,0,0,0,0,0,0,0,0,0,0,0,0,0,0,0,0,0,0,0,0,0,0,0,0,0,0,0,0,0,0,0,0,0,0,0,0,459
guava,v3.0,v4.0,F:/corpus/guava/guava#2010-06-03-08-26-58#v3.0#a393220/src/com/google/common/base/Supplier.java,F:/corpus/guava/guava#2010-06-03-08-26-58#v3.0#a393220/src/com/google/common/base/Supplier.java,0,0,0,0,1,0,0,0,0,0,0,0,0,NO,0,0,0,0,0,0,0,0,0,0,0,0,0,0,0,0,0,0,0,0,0,0,0,0,0,0,0,0,0,0,0,0,0,0,0,0,0,0,0,0,0,0,0,0,0,0,0,0,0,38
guava,v3.0,v4.0,F:/corpus/guava/guava#2010-06-03-08-26-58#v3.0#a393220/src/com/google/common/collect/AbstractBiMap.java,F:/corpus/guava/guava#2010-06-03-08-26-58#v3.0#a393220/src/com/google/common/collect/AbstractBiMap.java,0,0,0,0,1,0,0,0,0,0,0,0,0,NO,0,0,0,0,0,0,0,0,0,0,0,0,0,0,0,0,0,0,0,0,0,0,0,0,0,0,0,0,0,0,0,0,0,0,0,0,0,0,0,0,0,0,0,0,0,0,0,0,0,394
guava,v3.0,v4.0,F:/corpus/guava/guava#2010-06-03-08-26-58#v3.0#a393220/src/com/google/common/collect/AbstractIterator.java,F:/corpus/guava/guava#2010-06-03-08-26-58#v3.0#a393220/src/com/google/common/collect/AbstractIterator.java,0,0,0,0,1,0,0,0,0,0,0,1,0,NO,0,0,0,0,0,0,0,0,0,0,0,0,0,0,0,0,0,0,0,0,0,0,0,0,0,0,0,0,0,0,0,0,0,0,0,0,0,0,0,0,0,0,0,0,0,0,0,0,0,165
guava,v3.0,v4.0,F:/corpus/guava/guava#2010-06-03-08-26-58#v3.0#a393220/src/com/google/common/collect/AbstractListMultimap.java,F:/corpus/guava/guava#2010-06-03-08-26-58#v3.0#a393220/src/com/google/common/collect/AbstractListMultimap.java,0,0,0,0,1,0,0,0,0,0,0,0,0,NO,0,0,0,0,0,0,0,0,0,0,0,0,0,0,0,0,0,0,0,0,0,0,0,0,0,0,0,0,0,0,0,0,0,0,0,0,0,0,0,0,0,0,0,0,0,0,0,0,0,87
guava,v3.0,v4.0,F:/corpus/guava/guava#2010-06-03-08-26-58#v3.0#a393220/src/com/google/common/collect/AbstractMapBasedMultiset.java,F:/corpus/guava/guava#2010-06-03-08-26-58#v3.0#a393220/src/com/google/common/collect/AbstractMapBasedMultiset.java,0,0,0,0,1,5,0,0,0,0,0,0,0,NO,0,0,0,0,0,0,0,0,0,0,0,0,0,0,0,0,0,0,0,0,0,0,0,0,0,0,0,0,0,0,0,0,0,0,0,0,0,0,0,0,0,0,0,0,0,0,0,0,0,414
guava,v3.0,v4.0,F:/corpus/guava/guava#2010-06-03-08-26-58#v3.0#a393220/src/com/google/common/collect/AbstractMapEntry.java,F:/corpus/guava/guava#2010-06-03-08-26-58#v3.0#a393220/src/com/google/common/collect/AbstractMapEntry.java,0,0,0,0,2,0,0,0,0,0,0,0,0,NO,0,0,0,0,0,0,0,0,0,0,0,0,0,0,0,0,0,0,0,0,0,0,0,0,0,0,0,0,0,0,0,0,0,0,0,0,0,0,0,0,0,0,0,0,0,0,0,0,0,64
guava,v3.0,v4.0,F:/corpus/guava/guava#2010-06-03-08-26-58#v3.0#a393220/src/com/google/common/collect/AbstractMultiset.java,F:/corpus/guava/guava#2010-06-03-08-26-58#v3.0#a393220/src/com/google/common/collect/AbstractMultiset.java,0,0,0,0,3,0,0,0,0,0,0,0,0,NO,0,0,0,0,0,0,0,0,0,0,0,0,0,0,0,0,0,0,0,0,0,0,0,0,0,0,0,0,0,0,0,0,0,0,0,0,0,0,0,0,0,0,0,0,0,0,0,0,0,295
guava,v3.0,v4.0,F:/corpus/guava/guava#2010-06-03-08-26-58#v3.0#a393220/src/com/google/common/collect/AbstractSetMultimap.java,F:/corpus/guava/guava#2010-06-03-08-26-58#v3.0#a393220/src/com/google/common/collect/AbstractSetMultimap.java,0,0,0,0,1,0,0,0,0,0,0,0,0,NO,0,0,0,0,0,0,0,0,0,0,0,0,0,0,0,0,0,0,0,0,0,0,0,0,0,0,0,0,0,0,0,0,0,0,0,0,0,0,0,0,0,0,0,0,0,0,0,0,0,95
guava,v3.0,v4.0,F:/corpus/guava/guava#2010-06-03-08-26-58#v3.0#a393220/src/com/google/common/collect/AbstractSortedSetMultimap.java,F:/corpus/guava/guava#2010-06-03-08-26-58#v3.0#a393220/src/com/google/common/collect/AbstractSortedSetMultimap.java,0,0,0,0,1,0,0,0,0,0,0,0,0,NO,0,0,0,0,0,0,0,0,0,0,0,0,0,0,0,0,0,0,0,0,0,0,0,0,0,0,0,0,0,0,0,0,0,0,0,0,0,0,0,0,0,0,0,0,0,0,0,0,0,74
guava,v3.0,v4.0,F:/corpus/guava/guava#2010-06-03-08-26-58#v3.0#a393220/src/com/google/common/collect/ArrayListMultimap.java,F:/corpus/guava/guava#2010-06-03-08-26-58#v3.0#a393220/src/com/google/common/collect/ArrayListMultimap.java,0,0,0,0,0,0,0,0,0,0,0,0,0,NO,0,0,0,0,0,0,0,0,0,0,0,0,0,0,0,0,0,0,0,0,0,0,0,0,0,0,0,0,0,0,0,0,0,0,0,0,0,0,0,0,0,0,0,0,0,0,0,0,0,159
guava,v3.0,v4.0,F:/corpus/guava/guava#2010-06-03-08-26-58#v3.0#a393220/src/com/google/common/collect/AsynchronousComputationException.java,F:/corpus/guava/guava#2010-06-03-08-26-58#v3.0#a393220/src/com/google/common/collect/AsynchronousComputationException.java,0,0,0,0,0,0,0,0,0,0,0,0,0,NO,0,0,0,0,0,0,0,0,0,0,0,0,0,0,0,0,0,0,0,0,0,0,0,0,0,0,0,0,0,0,0,0,0,0,0,0,0,0,0,0,0,0,0,0,0,0,0,0,0,32
guava,v3.0,v4.0,F:/corpus/guava/guava#2010-06-03-08-26-58#v3.0#a393220/src/com/google/common/collect/BiMap.java,F:/corpus/guava/guava#2010-06-03-08-26-58#v3.0#a393220/src/com/google/common/collect/BiMap.java,0,0,0,0,1,0,0,0,0,0,0,0,0,NO,0,0,0,0,0,0,0,0,0,0,0,0,0,0,0,0,0,0,0,0,0,0,0,0,0,0,0,0,0,0,0,0,0,0,0,0,0,0,0,0,0,0,0,0,0,0,0,0,0,103
guava,v3.0,v4.0,F:/corpus/guava/guava#2010-06-03-08-26-58#v3.0#a393220/src/com/google/common/collect/ByFunctionOrdering.java,F:/corpus/guava/guava#2010-06-03-08-26-58#v3.0#a393220/src/com/google/common/collect/ByFunctionOrdering.java,0,0,0,0,0,0,0,0,0,0,0,0,0,NO,0,0,0,0,0,0,0,0,0,0,0,0,0,0,0,0,0,0,0,0,0,0,0,0,0,0,0,0,0,0,0,0,0,0,0,0,0,0,0,0,0,0,0,0,0,0,0,0,0,69
guava,v3.0,v4.0,F:/corpus/guava/guava#2010-06-03-08-26-58#v3.0#a393220/src/com/google/common/collect/ClassToInstanceMap.java,F:/corpus/guava/guava#2010-06-03-08-26-58#v3.0#a393220/src/com/google/common/collect/ClassToInstanceMap.java,0,0,0,0,1,0,0,0,0,0,0,0,0,NO,0,0,0,0,0,0,0,0,0,0,0,0,0,0,0,0,0,0,0,0,0,0,0,0,0,0,0,0,0,0,0,0,0,0,0,0,0,0,0,0,0,0,0,0,0,0,0,0,0,59
guava,v3.0,v4.0,F:/corpus/guava/guava#2010-06-03-08-26-58#v3.0#a393220/src/com/google/common/collect/Collections2.java,F:/corpus/guava/guava#2010-06-03-08-26-58#v3.0#a393220/src/com/google/common/collect/Collections2.java,0,0,0,0,0,0,0,0,0,0,0,2,0,NO,0,0,0,0,0,0,0,0,0,0,0,0,0,0,0,0,0,0,0,0,0,0,0,0,0,0,0,0,0,0,0,0,0,0,0,0,0,0,0,0,0,0,0,0,0,0,0,0,0,301
guava,v3.0,v4.0,F:/corpus/guava/guava#2010-06-03-08-26-58#v3.0#a393220/src/com/google/common/collect/ComparatorOrdering.java,F:/corpus/guava/guava#2010-06-03-08-26-58#v3.0#a393220/src/com/google/common/collect/ComparatorOrdering.java,0,0,0,0,0,0,0,0,0,0,0,0,0,NO,0,0,0,0,0,0,0,0,0,0,0,0,0,0,0,0,0,0,0,0,0,0,0,0,0,0,0,0,0,0,0,0,0,0,0,0,0,0,0,0,0,0,0,0,0,0,0,0,0,74
guava,v3.0,v4.0,F:/corpus/guava/guava#2010-06-03-08-26-58#v3.0#a393220/src/com/google/common/collect/CompoundOrdering.java,F:/corpus/guava/guava#2010-06-03-08-26-58#v3.0#a393220/src/com/google/common/collect/CompoundOrdering.java,0,0,0,0,0,0,0,0,0,0,0,0,0,NO,0,0,0,0,0,0,0,0,0,0,0,0,0,0,0,0,0,0,0,0,0,0,0,0,0,0,0,0,0,0,0,0,0,0,0,0,0,0,0,0,0,0,0,0,0,0,0,0,0,76
guava,v3.0,v4.0,F:/corpus/guava/guava#2010-06-03-08-26-58#v3.0#a393220/src/com/google/common/collect/ComputationException.java,F:/corpus/guava/guava#2010-06-03-08-26-58#v3.0#a393220/src/com/google/common/collect/ComputationException.java,0,0,0,0,0,0,0,0,0,0,0,0,0,NO,0,0,0,0,0,0,0,0,0,0,0,0,0,0,0,0,0,0,0,0,0,0,0,0,0,0,0,0,0,0,0,0,0,0,0,0,0,0,0,0,0,0,0,0,0,0,0,0,0,33
guava,v3.0,v4.0,F:/corpus/guava/guava#2010-06-03-08-26-58#v3.0#a393220/src/com/google/common/collect/ConcurrentHashMultiset.java,F:/corpus/guava/guava#2010-06-03-08-26-58#v3.0#a393220/src/com/google/common/collect/ConcurrentHashMultiset.java,0,0,0,0,0,0,0,0,0,0,0,0,0,NO,0,0,0,0,0,0,0,0,0,0,0,0,0,0,0,0,0,0,0,0,0,0,0,0,0,0,0,0,0,0,0,0,0,0,0,0,0,0,0,0,0,0,0,0,0,0,0,0,0,486
guava,v3.0,v4.0,F:/corpus/guava/guava#2010-06-03-08-26-58#v3.0#a393220/src/com/google/common/collect/Constraint.java,F:/corpus/guava/guava#2010-06-03-08-26-58#v3.0#a393220/src/com/google/common/collect/Constraint.java,0,0,0,0,1,0,0,0,0,0,0,0,0,NO,0,0,0,0,0,0,0,0,0,0,0,0,0,0,0,0,0,0,0,0,0,0,0,0,0,0,0,0,0,0,0,0,0,0,0,0,0,0,0,0,0,0,0,0,0,0,0,0,0,66
guava,v3.0,v4.0,F:/corpus/guava/guava#2010-06-03-08-26-58#v3.0#a393220/src/com/google/common/collect/Constraints.java,F:/corpus/guava/guava#2010-06-03-08-26-58#v3.0#a393220/src/com/google/common/collect/Constraints.java,0,0,1,0,0,0,0,0,0,0,0,0,0,NO,0,0,0,0,0,0,0,0,0,0,0,0,0,0,0,0,0,0,0,0,0,0,0,0,0,0,0,0,0,0,0,0,0,0,0,0,0,0,0,0,0,0,0,0,0,0,0,0,0,382
guava,v3.0,v4.0,F:/corpus/guava/guava#2010-06-03-08-26-58#v3.0#a393220/src/com/google/common/collect/EmptyImmutableList.java,F:/corpus/guava/guava#2010-06-03-08-26-58#v3.0#a393220/src/com/google/common/collect/EmptyImmutableList.java,0,0,0,0,3,0,0,0,0,0,0,0,0,NO,0,0,0,0,0,0,0,0,0,0,0,0,0,0,0,0,0,0,0,0,0,0,0,0,0,0,0,0,0,0,0,0,0,0,0,0,0,0,0,0,0,0,0,0,0,0,0,0,0,125
guava,v3.0,v4.0,F:/corpus/guava/guava#2010-06-03-08-26-58#v3.0#a393220/src/com/google/common/collect/EmptyImmutableListMultimap.java,F:/corpus/guava/guava#2010-06-03-08-26-58#v3.0#a393220/src/com/google/common/collect/EmptyImmutableListMultimap.java,0,0,0,0,0,0,0,0,0,0,0,0,0,NO,0,0,0,0,0,0,0,0,0,0,0,0,0,0,0,0,0,0,0,0,0,0,0,0,0,0,0,0,0,0,0,0,0,0,0,0,0,0,0,0,0,0,0,0,0,0,0,0,0,40
guava,v3.0,v4.0,F:/corpus/guava/guava#2010-06-03-08-26-58#v3.0#a393220/src/com/google/common/collect/EmptyImmutableMap.java,F:/corpus/guava/guava#2010-06-03-08-26-58#v3.0#a393220/src/com/google/common/collect/EmptyImmutableMap.java,0,0,0,0,3,0,0,0,0,0,0,0,0,NO,0,0,0,0,0,0,0,0,0,0,0,0,0,0,0,0,0,0,0,0,0,0,0,0,0,0,0,0,0,0,0,0,0,0,0,0,0,0,0,0,0,0,0,0,0,0,0,0,0,90
guava,v3.0,v4.0,F:/corpus/guava/guava#2010-06-03-08-26-58#v3.0#a393220/src/com/google/common/collect/EmptyImmutableMultiset.java,F:/corpus/guava/guava#2010-06-03-08-26-58#v3.0#a393220/src/com/google/common/collect/EmptyImmutableMultiset.java,0,0,0,0,0,0,0,0,0,0,0,0,0,NO,0,0,0,0,0,0,0,0,0,0,0,0,0,0,0,0,0,0,0,0,0,0,0,0,0,0,0,0,0,0,0,0,0,0,0,0,0,0,0,0,0,0,0,0,0,0,0,0,0,39
guava,v3.0,v4.0,F:/corpus/guava/guava#2010-06-03-08-26-58#v3.0#a393220/src/com/google/common/collect/EmptyImmutableSet.java,F:/corpus/guava/guava#2010-06-03-08-26-58#v3.0#a393220/src/com/google/common/collect/EmptyImmutableSet.java,0,0,0,0,1,0,0,0,0,0,0,0,0,NO,0,0,0,0,0,0,0,0,0,0,0,0,0,0,0,0,0,0,0,0,0,0,0,0,0,0,0,0,0,0,0,0,0,0,0,0,0,0,0,0,0,0,0,0,0,0,0,0,0,95
guava,v3.0,v4.0,F:/corpus/guava/guava#2010-06-03-08-26-58#v3.0#a393220/src/com/google/common/collect/EmptyImmutableSetMultimap.java,F:/corpus/guava/guava#2010-06-03-08-26-58#v3.0#a393220/src/com/google/common/collect/EmptyImmutableSetMultimap.java,0,0,0,0,0,0,0,0,0,0,0,0,0,NO,0,0,0,0,0,0,0,0,0,0,0,0,0,0,0,0,0,0,0,0,0,0,0,0,0,0,0,0,0,0,0,0,0,0,0,0,0,0,0,0,0,0,0,0,0,0,0,0,0,40
guava,v3.0,v4.0,F:/corpus/guava/guava#2010-06-03-08-26-58#v3.0#a393220/src/com/google/common/collect/EmptyImmutableSortedSet.java,F:/corpus/guava/guava#2010-06-03-08-26-58#v3.0#a393220/src/com/google/common/collect/EmptyImmutableSortedSet.java,0,0,0,0,5,0,0,0,0,0,0,0,0,NO,0,0,0,0,0,0,0,0,0,0,0,0,0,0,0,0,0,0,0,0,0,0,0,0,0,0,0,0,0,0,0,0,0,0,0,0,0,0,0,0,0,0,0,0,0,0,0,0,0,116
guava,v3.0,v4.0,F:/corpus/guava/guava#2010-06-03-08-26-58#v3.0#a393220/src/com/google/common/collect/EnumBiMap.java,F:/corpus/guava/guava#2010-06-03-08-26-58#v3.0#a393220/src/com/google/common/collect/EnumBiMap.java,0,0,0,0,0,0,0,0,0,0,0,0,0,NO,0,0,0,0,0,0,0,0,0,0,0,0,0,0,0,0,0,0,0,0,0,0,0,0,0,0,0,0,0,0,0,0,0,0,0,0,0,0,0,0,0,0,0,0,0,0,0,0,0,126
guava,v3.0,v4.0,F:/corpus/guava/guava#2010-06-03-08-26-58#v3.0#a393220/src/com/google/common/collect/EnumHashBiMap.java,F:/corpus/guava/guava#2010-06-03-08-26-58#v3.0#a393220/src/com/google/common/collect/EnumHashBiMap.java,0,0,0,0,0,0,0,0,0,0,0,0,0,NO,0,0,0,0,0,0,0,0,0,0,0,0,0,0,0,0,0,0,0,0,0,0,0,0,0,0,0,0,0,0,0,0,0,0,0,0,0,0,0,0,0,0,0,0,0,0,0,0,0,110
guava,v3.0,v4.0,F:/corpus/guava/guava#2010-06-03-08-26-58#v3.0#a393220/src/com/google/common/collect/EnumMultiset.java,F:/corpus/guava/guava#2010-06-03-08-26-58#v3.0#a393220/src/com/google/common/collect/EnumMultiset.java,0,0,0,0,0,0,0,0,0,0,0,0,0,NO,0,0,0,0,0,0,0,0,0,0,0,0,0,0,0,0,0,0,0,0,0,0,0,0,0,0,0,0,0,0,0,0,0,0,0,0,0,0,0,0,0,0,0,0,0,0,0,0,0,90
guava,v3.0,v4.0,F:/corpus/guava/guava#2010-06-03-08-26-58#v3.0#a393220/src/com/google/common/collect/ExpirationTimer.java,F:/corpus/guava/guava#2010-06-03-08-26-58#v3.0#a393220/src/com/google/common/collect/ExpirationTimer.java,0,0,0,0,0,0,0,0,0,0,0,0,0,NO,0,0,0,0,0,0,0,0,0,0,0,0,0,0,0,0,0,0,0,0,0,0,0,0,0,0,0,0,0,0,0,0,0,0,0,0,0,0,0,0,0,0,0,0,0,0,0,0,0,26
guava,v3.0,v4.0,F:/corpus/guava/guava#2010-06-03-08-26-58#v3.0#a393220/src/com/google/common/collect/ExplicitOrderedImmutableSortedSet.java,F:/corpus/guava/guava#2010-06-03-08-26-58#v3.0#a393220/src/com/google/common/collect/ExplicitOrderedImmutableSortedSet.java,0,0,0,0,1,0,0,0,0,0,0,0,0,NO,0,0,0,0,0,0,0,0,0,0,0,0,0,0,0,0,0,0,0,0,0,0,0,0,0,0,0,0,0,0,0,0,0,0,0,0,0,0,0,0,0,0,0,0,0,0,0,0,0,224
guava,v3.0,v4.0,F:/corpus/guava/guava#2010-06-03-08-26-58#v3.0#a393220/src/com/google/common/collect/ExplicitOrdering.java,F:/corpus/guava/guava#2010-06-03-08-26-58#v3.0#a393220/src/com/google/common/collect/ExplicitOrdering.java,0,0,0,0,0,0,0,0,0,0,0,0,0,NO,0,0,0,0,0,0,0,0,0,0,0,0,0,0,0,0,0,0,0,0,0,0,0,0,0,0,0,0,0,0,0,0,0,0,0,0,0,0,0,0,0,0,0,0,0,0,0,0,0,78
guava,v3.0,v4.0,F:/corpus/guava/guava#2010-06-03-08-26-58#v3.0#a393220/src/com/google/common/collect/ForwardingSetMultimap.java,F:/corpus/guava/guava#2010-06-03-08-26-58#v3.0#a393220/src/com/google/common/collect/ForwardingSetMultimap.java,0,0,0,0,1,0,0,0,0,0,0,0,0,NO,0,0,0,0,0,0,0,0,0,0,0,0,0,0,0,0,0,0,0,0,0,0,0,0,0,0,0,0,0,0,0,0,0,0,0,0,0,0,0,0,0,0,0,0,0,0,0,0,0,57
guava,v3.0,v4.0,F:/corpus/guava/guava#2010-06-03-08-26-58#v3.0#a393220/src/com/google/common/collect/HashBiMap.java,F:/corpus/guava/guava#2010-06-03-08-26-58#v3.0#a393220/src/com/google/common/collect/HashBiMap.java,0,0,0,0,0,0,0,0,0,0,0,0,0,NO,0,0,0,0,0,0,0,0,0,0,0,0,0,0,0,0,0,0,0,0,0,0,0,0,0,0,0,0,0,0,0,0,0,0,0,0,0,0,0,0,0,0,0,0,0,0,0,0,0,109
guava,v3.0,v4.0,F:/corpus/guava/guava#2010-06-03-08-26-58#v3.0#a393220/src/com/google/common/collect/Hashing.java,F:/corpus/guava/guava#2010-06-03-08-26-58#v3.0#a393220/src/com/google/common/collect/Hashing.java,0,0,0,0,0,0,0,0,0,0,0,0,0,NO,0,0,0,0,0,0,0,0,0,0,0,0,0,0,0,0,0,0,0,0,0,0,0,0,0,0,0,0,0,0,0,0,0,0,0,0,0,0,0,0,0,0,0,0,0,0,0,0,0,58
guava,v3.0,v4.0,F:/corpus/guava/guava#2010-06-03-08-26-58#v3.0#a393220/src/com/google/common/collect/HashMultimap.java,F:/corpus/guava/guava#2010-06-03-08-26-58#v3.0#a393220/src/com/google/common/collect/HashMultimap.java,0,0,0,0,0,0,0,0,0,0,0,0,0,NO,0,0,0,0,0,0,0,0,0,0,0,0,0,0,0,0,0,0,0,0,0,0,0,0,0,0,0,0,0,0,0,0,0,0,0,0,0,0,0,0,0,0,0,0,0,0,0,0,0,138
guava,v3.0,v4.0,F:/corpus/guava/guava#2010-06-03-08-26-58#v3.0#a393220/src/com/google/common/collect/HashMultiset.java,F:/corpus/guava/guava#2010-06-03-08-26-58#v3.0#a393220/src/com/google/common/collect/HashMultiset.java,0,0,0,0,0,0,0,0,0,0,0,0,0,NO,0,0,0,0,0,0,0,0,0,0,0,0,0,0,0,0,0,0,0,0,0,0,0,0,0,0,0,0,0,0,0,0,0,0,0,0,0,0,0,0,0,0,0,0,0,0,0,0,0,95
guava,v3.0,v4.0,F:/corpus/guava/guava#2010-06-03-08-26-58#v3.0#a393220/src/com/google/common/collect/ImmutableAsList.java,F:/corpus/guava/guava#2010-06-03-08-26-58#v3.0#a393220/src/com/google/common/collect/ImmutableAsList.java,0,0,0,0,1,0,0,0,0,0,0,0,0,NO,0,0,0,0,0,0,0,0,0,0,0,0,0,0,0,0,0,0,0,0,0,0,0,0,0,0,0,0,0,0,0,0,0,0,0,0,0,0,0,0,0,0,0,0,0,0,0,0,0,66
guava,v3.0,v4.0,F:/corpus/guava/guava#2010-06-03-08-26-58#v3.0#a393220/src/com/google/common/collect/ImmutableBiMap.java,F:/corpus/guava/guava#2010-06-03-08-26-58#v3.0#a393220/src/com/google/common/collect/ImmutableBiMap.java,0,0,0,0,2,0,0,0,0,0,2,0,0,NO,0,0,0,0,0,0,0,0,0,0,0,0,0,0,0,0,0,0,0,0,0,0,0,0,0,0,0,0,0,0,0,0,0,0,0,0,0,0,0,0,0,0,0,0,0,0,0,0,0,312
guava,v3.0,v4.0,F:/corpus/guava/guava#2010-06-03-08-26-58#v3.0#a393220/src/com/google/common/collect/ImmutableClassToInstanceMap.java,F:/corpus/guava/guava#2010-06-03-08-26-58#v3.0#a393220/src/com/google/common/collect/ImmutableClassToInstanceMap.java,0,0,0,0,1,0,0,0,0,0,0,0,0,NO,0,0,0,0,0,0,0,0,0,0,0,0,0,0,0,0,0,0,0,0,0,0,0,0,0,0,0,0,0,0,0,0,0,0,0,0,0,0,0,0,0,0,0,0,0,0,0,0,0,148
guava,v3.0,v4.0,F:/corpus/guava/guava#2010-06-03-08-26-58#v3.0#a393220/src/com/google/common/collect/ImmutableCollection.java,F:/corpus/guava/guava#2010-06-03-08-26-58#v3.0#a393220/src/com/google/common/collect/ImmutableCollection.java,0,0,0,0,8,0,0,0,0,0,0,0,0,NO,0,0,0,0,0,0,0,0,0,0,0,0,0,0,0,0,0,0,0,0,0,0,0,0,0,0,0,0,0,0,0,0,0,0,0,0,0,0,0,0,0,0,0,0,0,0,0,0,0,343
guava,v3.0,v4.0,F:/corpus/guava/guava#2010-06-03-08-26-58#v3.0#a393220/src/com/google/common/collect/ImmutableEntry.java,F:/corpus/guava/guava#2010-06-03-08-26-58#v3.0#a393220/src/com/google/common/collect/ImmutableEntry.java,0,0,0,0,0,0,0,0,0,0,0,0,0,NO,0,0,0,0,0,0,0,0,0,0,0,0,0,0,0,0,0,0,0,0,0,0,0,0,0,0,0,0,0,0,0,0,0,0,0,0,0,0,0,0,0,0,0,0,0,0,0,0,0,47
guava,v3.0,v4.0,F:/corpus/guava/guava#2010-06-03-08-26-58#v3.0#a393220/src/com/google/common/collect/ImmutableEnumSet.java,F:/corpus/guava/guava#2010-06-03-08-26-58#v3.0#a393220/src/com/google/common/collect/ImmutableEnumSet.java,0,0,0,0,0,0,0,0,0,0,0,0,0,NO,0,0,0,0,0,0,0,0,0,0,0,0,0,0,0,0,0,0,0,0,0,0,0,0,0,0,0,0,0,0,0,0,0,0,0,0,0,0,0,0,0,0,0,0,0,0,0,0,0,124
guava,v3.0,v4.0,F:/corpus/guava/guava#2010-06-03-08-26-58#v3.0#a393220/src/com/google/common/collect/ImmutableListMultimap.java,F:/corpus/guava/guava#2010-06-03-08-26-58#v3.0#a393220/src/com/google/common/collect/ImmutableListMultimap.java,0,0,0,0,2,0,0,0,0,0,2,0,0,NO,0,0,0,0,0,0,0,0,0,0,0,0,0,0,0,0,0,0,0,0,0,0,0,0,0,0,0,0,0,0,0,0,0,0,0,0,0,0,0,0,0,0,0,0,0,0,0,0,0,337
guava,v3.0,v4.0,F:/corpus/guava/guava#2010-06-03-08-26-58#v3.0#a393220/src/com/google/common/collect/ImmutableMap.java,F:/corpus/guava/guava#2010-06-03-08-26-58#v3.0#a393220/src/com/google/common/collect/ImmutableMap.java,0,0,0,0,4,0,0,0,0,0,2,3,0,NO,0,0,0,0,0,0,0,0,0,0,0,0,0,0,0,0,0,0,0,0,0,0,0,0,0,0,0,0,0,0,0,0,0,0,0,0,0,0,0,0,0,0,0,0,0,0,0,0,0,381
guava,v3.0,v4.0,F:/corpus/guava/guava#2010-06-03-08-26-58#v3.0#a393220/src/com/google/common/collect/ImmutableMultimap.java,F:/corpus/guava/guava#2010-06-03-08-26-58#v3.0#a393220/src/com/google/common/collect/ImmutableMultimap.java,0,0,0,0,7,0,0,0,0,0,2,0,0,NO,0,0,0,0,0,0,0,0,0,0,0,0,0,0,0,0,0,0,0,0,0,0,0,0,0,0,0,0,0,0,0,0,0,0,0,0,0,0,0,0,0,0,0,0,0,0,0,0,0,514
guava,v3.0,v4.0,F:/corpus/guava/guava#2010-06-03-08-26-58#v3.0#a393220/src/com/google/common/collect/ImmutableMultiset.java,F:/corpus/guava/guava#2010-06-03-08-26-58#v3.0#a393220/src/com/google/common/collect/ImmutableMultiset.java,0,0,0,0,4,0,0,0,0,0,0,0,0,NO,0,0,0,0,0,0,0,0,0,0,0,0,0,0,0,0,0,0,0,0,0,0,0,0,0,0,0,0,0,0,0,0,0,0,0,0,0,0,0,0,0,0,0,0,0,0,0,0,0,529
guava,v3.0,v4.0,F:/corpus/guava/guava#2010-06-03-08-26-58#v3.0#a393220/src/com/google/common/collect/ImmutableSet.java,F:/corpus/guava/guava#2010-06-03-08-26-58#v3.0#a393220/src/com/google/common/collect/ImmutableSet.java,0,0,0,0,3,0,0,0,0,0,0,0,0,NO,0,0,0,0,0,0,0,0,0,0,0,0,0,0,0,0,0,0,0,0,0,0,0,0,0,0,0,0,0,0,0,0,0,0,0,0,0,0,0,0,0,0,0,0,0,0,0,0,0,568
guava,v3.0,v4.0,F:/corpus/guava/guava#2010-06-03-08-26-58#v3.0#a393220/src/com/google/common/collect/ImmutableSetMultimap.java,F:/corpus/guava/guava#2010-06-03-08-26-58#v3.0#a393220/src/com/google/common/collect/ImmutableSetMultimap.java,0,0,0,0,2,0,0,0,0,0,2,0,0,NO,0,0,0,0,0,0,0,0,0,0,0,0,0,0,0,0,0,0,0,0,0,0,0,0,0,0,0,0,0,0,0,0,0,0,0,0,0,0,0,0,0,0,0,0,0,0,0,0,0,388
guava,v3.0,v4.0,F:/corpus/guava/guava#2010-06-03-08-26-58#v3.0#a393220/src/com/google/common/collect/ImmutableSortedAsList.java,F:/corpus/guava/guava#2010-06-03-08-26-58#v3.0#a393220/src/com/google/common/collect/ImmutableSortedAsList.java,0,0,0,0,0,0,0,0,0,0,0,0,0,NO,0,0,0,0,0,0,0,0,0,0,0,0,0,0,0,0,0,0,0,0,0,0,0,0,0,0,0,0,0,0,0,0,0,0,0,0,0,0,0,0,0,0,0,0,0,0,0,0,0,67
guava,v3.0,v4.0,F:/corpus/guava/guava#2010-06-03-08-26-58#v3.0#a393220/src/com/google/common/collect/ImmutableSortedMap.java,F:/corpus/guava/guava#2010-06-03-08-26-58#v3.0#a393220/src/com/google/common/collect/ImmutableSortedMap.java,0,0,0,0,0,0,0,0,0,0,2,0,0,NO,0,0,0,0,0,0,0,0,0,0,0,0,0,0,0,0,0,0,0,0,0,0,0,0,0,0,0,0,0,0,0,0,0,0,0,0,0,0,0,0,0,0,0,0,0,0,0,0,0,695
guava,v3.0,v4.0,F:/corpus/guava/guava#2010-06-03-08-26-58#v3.0#a393220/src/com/google/common/collect/ImmutableSortedMapFauxverideShim.java,F:/corpus/guava/guava#2010-06-03-08-26-58#v3.0#a393220/src/com/google/common/collect/ImmutableSortedMapFauxverideShim.java,0,0,0,0,6,0,0,0,0,0,2,0,0,NO,0,0,0,0,0,0,0,0,0,0,0,0,0,0,0,0,0,0,0,0,0,0,0,0,0,0,0,0,0,0,0,0,0,0,0,0,0,0,0,0,0,0,0,0,0,0,0,0,0,117
guava,v3.0,v4.0,F:/corpus/guava/guava#2010-06-03-08-26-58#v3.0#a393220/src/com/google/common/collect/ImmutableSortedSet.java,F:/corpus/guava/guava#2010-06-03-08-26-58#v3.0#a393220/src/com/google/common/collect/ImmutableSortedSet.java,0,0,0,0,2,0,0,0,0,0,0,0,0,NO,0,0,0,0,0,0,0,0,0,0,0,0,0,0,0,0,0,0,0,0,0,0,0,0,0,0,0,0,0,0,0,0,0,0,0,0,0,0,0,0,0,0,0,0,0,0,0,0,0,755
guava,v3.0,v4.0,F:/corpus/guava/guava#2010-06-03-08-26-58#v3.0#a393220/src/com/google/common/collect/ImmutableSortedSetFauxverideShim.java,F:/corpus/guava/guava#2010-06-03-08-26-58#v3.0#a393220/src/com/google/common/collect/ImmutableSortedSetFauxverideShim.java,0,0,0,0,9,0,0,0,0,0,0,0,0,NO,0,0,0,0,0,0,0,0,0,0,0,0,0,0,0,0,0,0,0,0,0,0,0,0,0,0,0,0,0,0,0,0,0,0,0,0,0,0,0,0,0,0,0,0,0,0,0,0,0,182
guava,v3.0,v4.0,F:/corpus/guava/guava#2010-06-03-08-26-58#v3.0#a393220/src/com/google/common/collect/Interner.java,F:/corpus/guava/guava#2010-06-03-08-26-58#v3.0#a393220/src/com/google/common/collect/Interner.java,0,0,0,0,1,0,0,0,0,0,0,0,0,NO,0,0,0,0,0,0,0,0,0,0,0,0,0,0,0,0,0,0,0,0,0,0,0,0,0,0,0,0,0,0,0,0,0,0,0,0,0,0,0,0,0,0,0,0,0,0,0,0,0,44
guava,v3.0,v4.0,F:/corpus/guava/guava#2010-06-03-08-26-58#v3.0#a393220/src/com/google/common/collect/Interners.java,F:/corpus/guava/guava#2010-06-03-08-26-58#v3.0#a393220/src/com/google/common/collect/Interners.java,0,0,0,0,0,0,0,0,0,0,0,0,0,NO,0,0,0,0,0,0,0,0,0,0,0,0,0,0,0,0,0,0,0,0,0,0,0,0,0,0,0,0,0,0,0,0,0,0,0,0,0,0,0,0,0,0,0,0,0,0,0,0,0,175
guava,v3.0,v4.0,F:/corpus/guava/guava#2010-06-03-08-26-58#v3.0#a393220/src/com/google/common/collect/LexicographicalOrdering.java,F:/corpus/guava/guava#2010-06-03-08-26-58#v3.0#a393220/src/com/google/common/collect/LexicographicalOrdering.java,0,0,0,0,0,0,0,0,0,0,0,0,0,NO,0,0,0,0,0,0,0,0,0,0,0,0,0,0,0,0,0,0,0,0,0,0,0,0,0,0,0,0,0,0,0,0,0,0,0,0,0,0,0,0,0,0,0,0,0,0,0,0,0,77
guava,v3.0,v4.0,F:/corpus/guava/guava#2010-06-03-08-26-58#v3.0#a393220/src/com/google/common/collect/LinkedHashMultimap.java,F:/corpus/guava/guava#2010-06-03-08-26-58#v3.0#a393220/src/com/google/common/collect/LinkedHashMultimap.java,0,0,0,0,0,0,0,0,0,0,0,0,0,NO,0,0,0,0,0,0,0,0,0,0,0,0,0,0,0,0,0,0,0,0,0,0,0,0,0,0,0,0,0,0,0,0,0,0,0,0,0,0,0,0,0,0,0,0,0,0,0,0,0,382
guava,v3.0,v4.0,F:/corpus/guava/guava#2010-06-03-08-26-58#v3.0#a393220/src/com/google/common/collect/LinkedHashMultiset.java,F:/corpus/guava/guava#2010-06-03-08-26-58#v3.0#a393220/src/com/google/common/collect/LinkedHashMultiset.java,0,0,0,0,0,0,0,0,0,0,0,0,0,NO,0,0,0,0,0,0,0,0,0,0,0,0,0,0,0,0,0,0,0,0,0,0,0,0,0,0,0,0,0,0,0,0,0,0,0,0,0,0,0,0,0,0,0,0,0,0,0,0,0,103
guava,v3.0,v4.0,F:/corpus/guava/guava#2010-06-03-08-26-58#v3.0#a393220/src/com/google/common/collect/LinkedListMultimap.java,F:/corpus/guava/guava#2010-06-03-08-26-58#v3.0#a393220/src/com/google/common/collect/LinkedListMultimap.java,0,0,1,0,1,0,0,0,0,0,0,0,0,NO,0,0,0,0,0,0,0,0,0,0,0,0,0,0,0,0,0,0,0,0,0,0,0,0,0,0,0,0,0,0,0,0,0,0,0,0,0,0,0,0,0,0,0,0,0,0,0,0,0,952
guava,v3.0,v4.0,F:/corpus/guava/guava#2010-06-03-08-26-58#v3.0#a393220/src/com/google/common/collect/ListMultimap.java,F:/corpus/guava/guava#2010-06-03-08-26-58#v3.0#a393220/src/com/google/common/collect/ListMultimap.java,0,0,0,0,1,0,0,0,0,0,0,0,0,NO,0,0,0,0,0,0,0,0,0,0,0,0,0,0,0,0,0,0,0,0,0,0,0,0,0,0,0,0,0,0,0,0,0,0,0,0,0,0,0,0,0,0,0,0,0,0,0,0,0,83
guava,v3.0,v4.0,F:/corpus/guava/guava#2010-06-03-08-26-58#v3.0#a393220/src/com/google/common/collect/MapConstraint.java,F:/corpus/guava/guava#2010-06-03-08-26-58#v3.0#a393220/src/com/google/common/collect/MapConstraint.java,0,0,0,0,1,0,0,0,0,0,0,0,0,NO,0,0,0,0,0,0,0,0,0,0,0,0,0,0,0,0,0,0,0,0,0,0,0,0,0,0,0,0,0,0,0,0,0,0,0,0,0,0,0,0,0,0,0,0,0,0,0,0,0,64
guava,v3.0,v4.0,F:/corpus/guava/guava#2010-06-03-08-26-58#v3.0#a393220/src/com/google/common/collect/MapConstraints.java,F:/corpus/guava/guava#2010-06-03-08-26-58#v3.0#a393220/src/com/google/common/collect/MapConstraints.java,0,0,0,0,0,0,0,0,0,0,0,0,0,NO,0,0,0,0,0,0,0,0,0,0,0,0,0,0,0,0,0,0,0,0,0,0,0,0,0,0,0,0,0,0,0,0,0,0,0,0,0,0,0,0,0,0,0,0,0,0,0,0,0,772
guava,v3.0,v4.0,F:/corpus/guava/guava#2010-06-03-08-26-58#v3.0#a393220/src/com/google/common/collect/MapDifference.java,F:/corpus/guava/guava#2010-06-03-08-26-58#v3.0#a393220/src/com/google/common/collect/MapDifference.java,0,0,0,0,2,0,0,0,0,0,0,0,0,NO,0,0,0,0,0,0,0,0,0,0,0,0,0,0,0,0,0,0,0,0,0,0,0,0,0,0,0,0,0,0,0,0,0,0,0,0,0,0,0,0,0,0,0,0,0,0,0,0,0,110
guava,v3.0,v4.0,F:/corpus/guava/guava#2010-06-03-08-26-58#v3.0#a393220/src/com/google/common/collect/Maps.java,F:/corpus/guava/guava#2010-06-03-08-26-58#v3.0#a393220/src/com/google/common/collect/Maps.java,0,1,0,0,3,0,0,0,0,0,0,3,0,NO,0,0,0,0,0,0,0,0,0,0,0,0,0,0,0,0,0,0,0,0,0,0,0,0,0,0,0,0,0,0,0,0,0,0,0,0,0,0,0,0,0,0,0,0,0,0,0,0,0,1379
guava,v3.0,v4.0,F:/corpus/guava/guava#2010-06-03-08-26-58#v3.0#a393220/src/com/google/common/collect/Multimap.java,F:/corpus/guava/guava#2010-06-03-08-26-58#v3.0#a393220/src/com/google/common/collect/Multimap.java,0,0,0,0,1,0,0,0,0,0,0,0,0,NO,0,0,0,0,0,0,0,0,0,0,0,0,0,0,0,0,0,0,0,0,0,0,0,0,0,0,0,0,0,0,0,0,0,0,0,0,0,0,0,0,0,0,0,0,0,0,0,0,0,263
guava,v3.0,v4.0,F:/corpus/guava/guava#2010-06-03-08-26-58#v3.0#a393220/src/com/google/common/collect/Multimaps.java,F:/corpus/guava/guava#2010-06-03-08-26-58#v3.0#a393220/src/com/google/common/collect/Multimaps.java,0,1,0,0,16,0,0,0,0,0,0,0,0,NO,0,0,0,0,0,0,0,0,0,0,0,0,0,0,0,0,0,0,0,0,0,0,0,0,0,0,0,0,0,0,0,0,0,0,0,0,0,0,0,0,0,0,0,0,0,0,0,0,0,1229
guava,v3.0,v4.0,F:/corpus/guava/guava#2010-06-03-08-26-58#v3.0#a393220/src/com/google/common/collect/Multiset.java,F:/corpus/guava/guava#2010-06-03-08-26-58#v3.0#a393220/src/com/google/common/collect/Multiset.java,0,0,0,0,2,0,0,0,0,0,0,0,0,NO,0,0,0,0,0,0,0,0,0,0,0,0,0,0,0,0,0,0,0,0,0,0,0,0,0,0,0,0,0,0,0,0,0,0,0,0,0,0,0,0,0,0,0,0,0,0,0,0,0,404
guava,v3.0,v4.0,F:/corpus/guava/guava#2010-06-03-08-26-58#v3.0#a393220/src/com/google/common/collect/Multisets.java,F:/corpus/guava/guava#2010-06-03-08-26-58#v3.0#a393220/src/com/google/common/collect/Multisets.java,0,0,0,0,15,0,1,0,0,0,0,0,0,NO,0,0,0,0,0,0,0,0,0,0,0,0,0,0,0,0,0,0,0,0,0,0,0,0,0,0,0,0,0,0,0,0,0,0,0,0,0,0,0,0,0,0,0,0,0,0,0,0,0,471
guava,v3.0,v4.0,F:/corpus/guava/guava#2010-06-03-08-26-58#v3.0#a393220/src/com/google/common/collect/MutableClassToInstanceMap.java,F:/corpus/guava/guava#2010-06-03-08-26-58#v3.0#a393220/src/com/google/common/collect/MutableClassToInstanceMap.java,0,0,0,0,0,0,0,0,0,0,0,0,0,NO,0,0,0,0,0,0,0,0,0,0,0,0,0,0,0,0,0,0,0,0,0,0,0,0,0,0,0,0,0,0,0,0,0,0,0,0,0,0,0,0,0,0,0,0,0,0,0,0,0,79
guava,v3.0,v4.0,F:/corpus/guava/guava#2010-06-03-08-26-58#v3.0#a393220/src/com/google/common/collect/NaturalOrdering.java,F:/corpus/guava/guava#2010-06-03-08-26-58#v3.0#a393220/src/com/google/common/collect/NaturalOrdering.java,0,0,0,0,0,0,0,0,0,0,0,0,0,NO,0,0,0,0,0,0,0,0,0,0,0,0,0,0,0,0,0,0,0,0,0,0,0,0,0,0,0,0,0,0,0,0,0,0,0,0,0,0,0,0,0,0,0,0,0,0,0,0,0,76
guava,v3.0,v4.0,F:/corpus/guava/guava#2010-06-03-08-26-58#v3.0#a393220/src/com/google/common/collect/NullOutputException.java,F:/corpus/guava/guava#2010-06-03-08-26-58#v3.0#a393220/src/com/google/common/collect/NullOutputException.java,0,0,0,0,0,0,0,0,0,0,0,0,0,NO,0,0,0,0,0,0,0,0,0,0,0,0,0,0,0,0,0,0,0,0,0,0,0,0,0,0,0,0,0,0,0,0,0,0,0,0,0,0,0,0,0,0,0,0,0,0,0,0,0,31
guava,v3.0,v4.0,F:/corpus/guava/guava#2010-06-03-08-26-58#v3.0#a393220/src/com/google/common/collect/NullsFirstOrdering.java,F:/corpus/guava/guava#2010-06-03-08-26-58#v3.0#a393220/src/com/google/common/collect/NullsFirstOrdering.java,0,0,0,0,0,0,0,0,0,0,0,0,0,NO,0,0,0,0,0,0,0,0,0,0,0,0,0,0,0,0,0,0,0,0,0,0,0,0,0,0,0,0,0,0,0,0,0,0,0,0,0,0,0,0,0,0,0,0,0,0,0,0,0,81
guava,v3.0,v4.0,F:/corpus/guava/guava#2010-06-03-08-26-58#v3.0#a393220/src/com/google/common/collect/NullsLastOrdering.java,F:/corpus/guava/guava#2010-06-03-08-26-58#v3.0#a393220/src/com/google/common/collect/NullsLastOrdering.java,0,0,0,0,0,0,0,0,0,0,0,0,0,NO,0,0,0,0,0,0,0,0,0,0,0,0,0,0,0,0,0,0,0,0,0,0,0,0,0,0,0,0,0,0,0,0,0,0,0,0,0,0,0,0,0,0,0,0,0,0,0,0,0,81
guava,v3.0,v4.0,F:/corpus/guava/guava#2010-06-03-08-26-58#v3.0#a393220/src/com/google/common/collect/ObjectArrays.java,F:/corpus/guava/guava#2010-06-03-08-26-58#v3.0#a393220/src/com/google/common/collect/ObjectArrays.java,0,0,0,0,0,0,0,0,0,0,0,3,0,NO,0,0,0,0,0,0,0,0,0,0,0,0,0,0,0,0,0,0,0,0,0,0,0,0,0,0,0,0,0,0,0,0,0,0,0,0,0,0,0,0,0,0,0,0,0,0,0,0,0,176
guava,v3.0,v4.0,F:/corpus/guava/guava#2010-06-03-08-26-58#v3.0#a393220/src/com/google/common/collect/Ordering.java,F:/corpus/guava/guava#2010-06-03-08-26-58#v3.0#a393220/src/com/google/common/collect/Ordering.java,0,0,0,0,1,0,0,0,0,0,0,0,0,NO,0,0,0,0,0,0,0,0,0,0,0,0,0,0,0,0,0,0,0,0,0,0,0,0,0,0,0,0,0,0,0,0,0,0,0,0,0,0,0,0,0,0,0,0,0,0,0,0,0,599
guava,v3.0,v4.0,F:/corpus/guava/guava#2010-06-03-08-26-58#v3.0#a393220/src/com/google/common/collect/package-info.java,F:/corpus/guava/guava#2010-06-03-08-26-58#v3.0#a393220/src/com/google/common/collect/package-info.java,0,0,0,0,0,0,0,0,0,0,0,0,0,NO,0,0,0,0,0,0,0,0,0,0,0,0,0,0,0,0,0,0,0,0,0,0,0,0,0,0,0,0,0,0,0,0,0,0,0,0,0,0,0,0,0,0,0,0,0,0,0,0,0,192
guava,v3.0,v4.0,F:/corpus/guava/guava#2010-06-03-08-26-58#v3.0#a393220/src/com/google/common/collect/PeekingIterator.java,F:/corpus/guava/guava#2010-06-03-08-26-58#v3.0#a393220/src/com/google/common/collect/PeekingIterator.java,0,0,0,0,1,0,0,0,0,0,0,0,0,NO,0,0,0,0,0,0,0,0,0,0,0,0,0,0,0,0,0,0,0,0,0,0,0,0,0,0,0,0,0,0,0,0,0,0,0,0,0,0,0,0,0,0,0,0,0,0,0,0,0,63
guava,v3.0,v4.0,F:/corpus/guava/guava#2010-06-03-08-26-58#v3.0#a393220/src/com/google/common/collect/Platform.java,F:/corpus/guava/guava#2010-06-03-08-26-58#v3.0#a393220/src/com/google/common/collect/Platform.java,0,0,0,0,0,1,0,0,0,0,0,0,0,NO,0,0,0,0,0,0,0,0,0,0,0,0,0,0,0,0,0,0,0,0,0,0,0,0,0,0,0,0,0,0,0,0,0,0,0,0,0,0,0,0,0,0,0,0,0,0,0,0,0,109
guava,v3.0,v4.0,F:/corpus/guava/guava#2010-06-03-08-26-58#v3.0#a393220/src/com/google/common/collect/RegularImmutableBiMap.java,F:/corpus/guava/guava#2010-06-03-08-26-58#v3.0#a393220/src/com/google/common/collect/RegularImmutableBiMap.java,0,0,0,0,0,0,0,0,0,0,0,0,0,NO,0,0,0,0,0,0,0,0,0,0,0,0,0,0,0,0,0,0,0,0,0,0,0,0,0,0,0,0,0,0,0,0,0,0,0,0,0,0,0,0,0,0,0,0,0,0,0,0,0,56
guava,v3.0,v4.0,F:/corpus/guava/guava#2010-06-03-08-26-58#v3.0#a393220/src/com/google/common/collect/RegularImmutableList.java,F:/corpus/guava/guava#2010-06-03-08-26-58#v3.0#a393220/src/com/google/common/collect/RegularImmutableList.java,0,0,0,0,0,0,0,0,0,0,0,0,0,NO,0,0,0,0,0,0,0,0,0,0,0,0,0,0,0,0,0,0,0,0,0,0,0,0,0,0,0,0,0,0,0,0,0,0,0,0,0,0,0,0,0,0,0,0,0,0,0,0,0,235
guava,v3.0,v4.0,F:/corpus/guava/guava#2010-06-03-08-26-58#v3.0#a393220/src/com/google/common/collect/RegularImmutableMap.java,F:/corpus/guava/guava#2010-06-03-08-26-58#v3.0#a393220/src/com/google/common/collect/RegularImmutableMap.java,0,0,0,0,0,0,0,0,0,0,0,0,0,NO,0,0,0,0,0,0,0,0,0,0,0,0,0,0,0,0,0,0,0,0,0,0,0,0,0,0,0,0,0,0,0,0,0,0,0,0,0,0,0,0,0,0,0,0,0,0,0,0,0,209
guava,v3.0,v4.0,F:/corpus/guava/guava#2010-06-03-08-26-58#v3.0#a393220/src/com/google/common/collect/RegularImmutableSet.java,F:/corpus/guava/guava#2010-06-03-08-26-58#v3.0#a393220/src/com/google/common/collect/RegularImmutableSet.java,0,0,0,0,0,0,0,0,0,0,0,0,0,NO,0,0,0,0,0,0,0,0,0,0,0,0,0,0,0,0,0,0,0,0,0,0,0,0,0,0,0,0,0,0,0,0,0,0,0,0,0,0,0,0,0,0,0,0,0,0,0,0,0,67
guava,v3.0,v4.0,F:/corpus/guava/guava#2010-06-03-08-26-58#v3.0#a393220/src/com/google/common/collect/RegularImmutableSortedSet.java,F:/corpus/guava/guava#2010-06-03-08-26-58#v3.0#a393220/src/com/google/common/collect/RegularImmutableSortedSet.java,0,0,0,0,0,0,0,0,0,0,0,0,0,NO,0,0,0,0,0,0,0,0,0,0,0,0,0,0,0,0,0,0,0,0,0,0,0,0,0,0,0,0,0,0,0,0,0,0,0,0,0,0,0,0,0,0,0,0,0,0,0,0,0,273
guava,v3.0,v4.0,F:/corpus/guava/guava#2010-06-03-08-26-58#v3.0#a393220/src/com/google/common/collect/ReverseNaturalOrdering.java,F:/corpus/guava/guava#2010-06-03-08-26-58#v3.0#a393220/src/com/google/common/collect/ReverseNaturalOrdering.java,0,0,0,0,0,0,0,0,0,0,0,0,0,NO,0,0,0,0,0,0,0,0,0,0,0,0,0,0,0,0,0,0,0,0,0,0,0,0,0,0,0,0,0,0,0,0,0,0,0,0,0,0,0,0,0,0,0,0,0,0,0,0,0,84
guava,v3.0,v4.0,F:/corpus/guava/guava#2010-06-03-08-26-58#v3.0#a393220/src/com/google/common/collect/ReverseOrdering.java,F:/corpus/guava/guava#2010-06-03-08-26-58#v3.0#a393220/src/com/google/common/collect/ReverseOrdering.java,0,0,0,0,0,0,0,0,0,0,0,0,0,NO,0,0,0,0,0,0,0,0,0,0,0,0,0,0,0,0,0,0,0,0,0,0,0,0,0,0,0,0,0,0,0,0,0,0,0,0,0,0,0,0,0,0,0,0,0,0,0,0,0,90
guava,v3.0,v4.0,F:/corpus/guava/guava#2010-06-03-08-26-58#v3.0#a393220/src/com/google/common/collect/Serialization.java,F:/corpus/guava/guava#2010-06-03-08-26-58#v3.0#a393220/src/com/google/common/collect/Serialization.java,0,0,0,0,0,0,0,0,0,0,0,3,0,NO,0,0,0,0,0,0,0,0,0,0,0,0,0,0,0,0,0,0,0,0,0,0,0,0,0,0,0,0,0,0,0,0,0,0,0,0,0,0,0,0,0,0,0,0,0,0,0,0,0,249
guava,v3.0,v4.0,F:/corpus/guava/guava#2010-06-03-08-26-58#v3.0#a393220/src/com/google/common/collect/SetMultimap.java,F:/corpus/guava/guava#2010-06-03-08-26-58#v3.0#a393220/src/com/google/common/collect/SetMultimap.java,0,0,0,0,1,0,0,0,0,0,0,0,0,NO,0,0,0,0,0,0,0,0,0,0,0,0,0,0,0,0,0,0,0,0,0,0,0,0,0,0,0,0,0,0,0,0,0,0,0,0,0,0,0,0,0,0,0,0,0,0,0,0,0,95
guava,v3.0,v4.0,F:/corpus/guava/guava#2010-06-03-08-26-58#v3.0#a393220/src/com/google/common/collect/SingletonImmutableList.java,F:/corpus/guava/guava#2010-06-03-08-26-58#v3.0#a393220/src/com/google/common/collect/SingletonImmutableList.java,0,0,0,0,0,0,0,0,0,0,0,0,0,NO,0,0,0,0,0,0,0,0,0,0,0,0,0,0,0,0,0,0,0,0,0,0,0,0,0,0,0,0,0,0,0,0,0,0,0,0,0,0,0,0,0,0,0,0,0,0,0,0,0,120
guava,v3.0,v4.0,F:/corpus/guava/guava#2010-06-03-08-26-58#v3.0#a393220/src/com/google/common/collect/SingletonImmutableMap.java,F:/corpus/guava/guava#2010-06-03-08-26-58#v3.0#a393220/src/com/google/common/collect/SingletonImmutableMap.java,0,0,0,0,0,0,0,0,0,0,0,0,0,NO,0,0,0,0,0,0,0,0,0,0,0,0,0,0,0,0,0,0,0,0,0,0,0,0,0,0,0,0,0,0,0,0,0,0,0,0,0,0,0,0,0,0,0,0,0,0,0,0,0,152
guava,v3.0,v4.0,F:/corpus/guava/guava#2010-06-03-08-26-58#v3.0#a393220/src/com/google/common/collect/SingletonImmutableSet.java,F:/corpus/guava/guava#2010-06-03-08-26-58#v3.0#a393220/src/com/google/common/collect/SingletonImmutableSet.java,0,0,0,0,0,0,0,0,0,0,0,0,0,NO,0,0,0,0,0,0,0,0,0,0,0,0,0,0,0,0,0,0,0,0,0,0,0,0,0,0,0,0,0,0,0,0,0,0,0,0,0,0,0,0,0,0,0,0,0,0,0,0,0,117
guava,v3.0,v4.0,F:/corpus/guava/guava#2010-06-03-08-26-58#v3.0#a393220/src/com/google/common/collect/SortedSetMultimap.java,F:/corpus/guava/guava#2010-06-03-08-26-58#v3.0#a393220/src/com/google/common/collect/SortedSetMultimap.java,0,0,0,0,1,0,0,0,0,0,0,0,0,NO,0,0,0,0,0,0,0,0,0,0,0,0,0,0,0,0,0,0,0,0,0,0,0,0,0,0,0,0,0,0,0,0,0,0,0,0,0,0,0,0,0,0,0,0,0,0,0,0,0,101
guava,v3.0,v4.0,F:/corpus/guava/guava#2010-06-03-08-26-58#v3.0#a393220/src/com/google/common/collect/Synchronized.java,F:/corpus/guava/guava#2010-06-03-08-26-58#v3.0#a393220/src/com/google/common/collect/Synchronized.java,0,1,0,0,0,0,0,0,0,0,0,0,0,NO,0,0,0,0,0,0,0,0,0,0,0,0,0,0,0,0,0,0,0,0,0,0,0,0,0,0,0,0,0,0,0,0,0,0,0,0,0,0,0,0,0,0,0,0,0,0,0,0,0,1066
guava,v3.0,v4.0,F:/corpus/guava/guava#2010-06-03-08-26-58#v3.0#a393220/src/com/google/common/collect/TreeMultiset.java,F:/corpus/guava/guava#2010-06-03-08-26-58#v3.0#a393220/src/com/google/common/collect/TreeMultiset.java,0,0,0,0,0,0,0,0,0,0,0,0,0,NO,0,0,0,0,0,0,0,0,0,0,0,0,0,0,0,0,0,0,0,0,0,0,0,0,0,0,0,0,0,0,0,0,0,0,0,0,0,0,0,0,0,0,0,0,0,0,0,0,0,215
guava,v3.0,v4.0,F:/corpus/guava/guava#2010-06-03-08-26-58#v3.0#a393220/src/com/google/common/collect/UnmodifiableIterator.java,F:/corpus/guava/guava#2010-06-03-08-26-58#v3.0#a393220/src/com/google/common/collect/UnmodifiableIterator.java,0,0,0,0,1,0,0,0,0,0,0,0,0,NO,0,0,0,0,0,0,0,0,0,0,0,0,0,0,0,0,0,0,0,0,0,0,0,0,0,0,0,0,0,0,0,0,0,0,0,0,0,0,0,0,0,0,0,0,0,0,0,0,0,39
guava,v3.0,v4.0,F:/corpus/guava/guava#2010-06-03-08-26-58#v3.0#a393220/src/com/google/common/collect/UsingToStringOrdering.java,F:/corpus/guava/guava#2010-06-03-08-26-58#v3.0#a393220/src/com/google/common/collect/UsingToStringOrdering.java,0,0,0,0,0,0,0,0,0,0,0,0,0,NO,0,0,0,0,0,0,0,0,0,0,0,0,0,0,0,0,0,0,0,0,0,0,0,0,0,0,0,0,0,0,0,0,0,0,0,0,0,0,0,0,0,0,0,0,0,0,0,0,0,45
guava,v3.0,v4.0,F:/corpus/guava/guava#2010-06-03-08-26-58#v3.0#a393220/src/com/google/common/io/AppendableWriter.java,F:/corpus/guava/guava#2010-06-03-08-26-58#v3.0#a393220/src/com/google/common/io/AppendableWriter.java,0,0,1,0,0,0,0,0,0,0,0,0,0,NO,0,0,0,0,0,0,0,0,0,0,0,0,0,0,0,0,0,0,0,0,0,0,0,0,0,0,0,0,0,0,0,0,0,0,0,0,0,0,0,0,0,0,0,0,0,0,0,0,0,117
guava,v3.0,v4.0,F:/corpus/guava/guava#2010-06-03-08-26-58#v3.0#a393220/src/com/google/common/io/ByteProcessor.java,F:/corpus/guava/guava#2010-06-03-08-26-58#v3.0#a393220/src/com/google/common/io/ByteProcessor.java,0,0,0,0,1,0,0,0,0,0,0,0,0,NO,0,0,0,0,0,0,0,0,0,0,0,0,0,0,0,0,0,0,0,0,0,0,0,0,0,0,0,0,0,0,0,0,0,0,0,0,0,0,0,0,0,0,0,0,0,0,0,0,0,49
guava,v3.0,v4.0,F:/corpus/guava/guava#2010-06-03-08-26-58#v3.0#a393220/src/com/google/common/io/ByteStreams.java,F:/corpus/guava/guava#2010-06-03-08-26-58#v3.0#a393220/src/com/google/common/io/ByteStreams.java,0,0,0,0,0,0,0,0,0,0,0,0,0,NO,0,0,0,0,0,0,0,0,0,0,0,0,0,0,0,0,0,0,0,0,0,0,0,0,0,0,0,0,0,0,0,0,0,0,0,0,0,0,0,0,0,0,0,0,0,0,0,0,0,848
guava,v3.0,v4.0,F:/corpus/guava/guava#2010-06-03-08-26-58#v3.0#a393220/src/com/google/common/io/CharStreams.java,F:/corpus/guava/guava#2010-06-03-08-26-58#v3.0#a393220/src/com/google/common/io/CharStreams.java,0,0,0,0,0,0,0,0,0,0,0,0,0,NO,0,0,0,0,0,0,0,0,0,0,0,0,0,0,0,0,0,0,0,0,0,0,0,0,0,0,0,0,0,0,0,0,0,0,0,0,0,0,0,0,0,0,0,0,0,0,0,0,0,437
guava,v3.0,v4.0,F:/corpus/guava/guava#2010-06-03-08-26-58#v3.0#a393220/src/com/google/common/io/Closeables.java,F:/corpus/guava/guava#2010-06-03-08-26-58#v3.0#a393220/src/com/google/common/io/Closeables.java,0,0,0,0,0,0,0,0,0,0,0,0,0,NO,0,0,0,0,0,0,0,0,0,0,0,0,0,0,0,0,0,0,0,0,0,0,0,0,0,0,0,0,0,0,0,0,0,0,0,0,0,0,0,0,0,0,0,0,0,0,0,0,0,103
guava,v3.0,v4.0,F:/corpus/guava/guava#2010-06-03-08-26-58#v3.0#a393220/src/com/google/common/io/CountingInputStream.java,F:/corpus/guava/guava#2010-06-03-08-26-58#v3.0#a393220/src/com/google/common/io/CountingInputStream.java,0,0,0,0,0,0,0,0,0,0,0,0,0,NO,0,0,0,0,0,0,0,0,0,0,0,0,0,0,0,0,0,0,0,0,0,0,0,0,0,0,0,0,0,0,0,0,0,0,0,0,0,0,0,0,0,0,0,0,0,0,0,0,0,90
guava,v3.0,v4.0,F:/corpus/guava/guava#2010-06-03-08-26-58#v3.0#a393220/src/com/google/common/io/CountingOutputStream.java,F:/corpus/guava/guava#2010-06-03-08-26-58#v3.0#a393220/src/com/google/common/io/CountingOutputStream.java,0,0,0,0,0,0,0,0,0,0,0,0,0,NO,0,0,0,0,0,0,0,0,0,0,0,0,0,0,0,0,0,0,0,0,0,0,0,0,0,0,0,0,0,0,0,0,0,0,0,0,0,0,0,0,0,0,0,0,0,0,0,0,0,59
guava,v3.0,v4.0,F:/corpus/guava/guava#2010-06-03-08-26-58#v3.0#a393220/src/com/google/common/io/FileBackedOutputStream.java,F:/corpus/guava/guava#2010-06-03-08-26-58#v3.0#a393220/src/com/google/common/io/FileBackedOutputStream.java,0,0,0,0,0,0,0,0,0,0,0,0,0,NO,0,0,0,0,0,0,0,0,0,0,0,0,0,0,0,0,0,0,0,0,0,0,0,0,0,0,0,0,0,0,0,0,0,0,0,0,0,0,0,0,0,0,0,0,0,0,0,0,0,207
guava,v3.0,v4.0,F:/corpus/guava/guava#2010-06-03-08-26-58#v3.0#a393220/src/com/google/common/io/Flushables.java,F:/corpus/guava/guava#2010-06-03-08-26-58#v3.0#a393220/src/com/google/common/io/Flushables.java,0,0,0,0,0,0,0,0,0,0,0,0,0,NO,0,0,0,0,0,0,0,0,0,0,0,0,0,0,0,0,0,0,0,0,0,0,0,0,0,0,0,0,0,0,0,0,0,0,0,0,0,0,0,0,0,0,0,0,0,0,0,0,0,79
guava,v3.0,v4.0,F:/corpus/guava/guava#2010-06-03-08-26-58#v3.0#a393220/src/com/google/common/io/LimitInputStream.java,F:/corpus/guava/guava#2010-06-03-08-26-58#v3.0#a393220/src/com/google/common/io/LimitInputStream.java,0,0,0,0,0,0,0,0,0,0,0,0,0,NO,0,0,0,0,0,0,0,0,0,0,0,0,0,0,0,0,0,0,0,0,0,0,0,0,0,0,0,0,0,0,0,0,0,0,0,0,0,0,0,0,0,0,0,0,0,0,0,0,0,104
guava,v3.0,v4.0,F:/corpus/guava/guava#2010-06-03-08-26-58#v3.0#a393220/src/com/google/common/io/LineBuffer.java,F:/corpus/guava/guava#2010-06-03-08-26-58#v3.0#a393220/src/com/google/common/io/LineBuffer.java,0,0,0,0,1,0,0,0,0,0,0,0,0,NO,0,0,0,0,0,0,0,0,0,0,0,0,0,0,0,0,0,0,0,0,0,0,0,0,0,0,0,0,0,0,0,0,0,0,0,0,0,0,0,0,0,0,0,0,0,0,0,0,0,118
guava,v3.0,v4.0,F:/corpus/guava/guava#2010-06-03-08-26-58#v3.0#a393220/src/com/google/common/io/LineProcessor.java,F:/corpus/guava/guava#2010-06-03-08-26-58#v3.0#a393220/src/com/google/common/io/LineProcessor.java,0,0,0,0,1,0,0,0,0,0,0,0,0,NO,0,0,0,0,0,0,0,0,0,0,0,0,0,0,0,0,0,0,0,0,0,0,0,0,0,0,0,0,0,0,0,0,0,0,0,0,0,0,0,0,0,0,0,0,0,0,0,0,0,45
guava,v3.0,v4.0,F:/corpus/guava/guava#2010-06-03-08-26-58#v3.0#a393220/src/com/google/common/io/LineReader.java,F:/corpus/guava/guava#2010-06-03-08-26-58#v3.0#a393220/src/com/google/common/io/LineReader.java,0,0,0,0,0,0,0,0,0,0,0,0,0,NO,0,0,0,0,0,0,0,0,0,0,0,0,0,0,0,0,0,0,0,0,0,0,0,0,0,0,0,0,0,0,0,0,0,0,0,0,0,0,0,0,0,0,0,0,0,0,0,0,0,87
guava,v3.0,v4.0,F:/corpus/guava/guava#2010-06-03-08-26-58#v3.0#a393220/src/com/google/common/io/MultiInputStream.java,F:/corpus/guava/guava#2010-06-03-08-26-58#v3.0#a393220/src/com/google/common/io/MultiInputStream.java,0,0,0,0,0,0,0,0,0,0,0,0,0,NO,0,0,0,0,0,0,0,0,0,0,0,0,0,0,0,0,0,0,0,0,0,0,0,0,0,0,0,0,0,0,0,0,0,0,0,0,0,0,0,0,0,0,0,0,0,0,0,0,0,115
guava,v3.0,v4.0,F:/corpus/guava/guava#2010-06-03-08-26-58#v3.0#a393220/src/com/google/common/io/MultiReader.java,F:/corpus/guava/guava#2010-06-03-08-26-58#v3.0#a393220/src/com/google/common/io/MultiReader.java,0,0,0,0,0,0,0,0,0,0,0,0,0,NO,0,0,0,0,0,0,0,0,0,0,0,0,0,0,0,0,0,0,0,0,0,0,0,0,0,0,0,0,0,0,0,0,0,0,0,0,0,0,0,0,0,0,0,0,0,0,0,0,0,90
guava,v3.0,v4.0,F:/corpus/guava/guava#2010-06-03-08-26-58#v3.0#a393220/src/com/google/common/io/NullOutputStream.java,F:/corpus/guava/guava#2010-06-03-08-26-58#v3.0#a393220/src/com/google/common/io/NullOutputStream.java,0,0,0,0,0,0,0,0,0,0,0,0,0,NO,0,0,0,0,0,0,0,0,0,0,0,0,0,0,0,0,0,0,0,0,0,0,0,0,0,0,0,0,0,0,0,0,0,0,0,0,0,0,0,0,0,0,0,0,0,0,0,0,0,38
guava,v3.0,v4.0,F:/corpus/guava/guava#2010-06-03-08-26-58#v3.0#a393220/src/com/google/common/io/package-info.java,F:/corpus/guava/guava#2010-06-03-08-26-58#v3.0#a393220/src/com/google/common/io/package-info.java,0,0,0,0,0,0,0,0,0,0,0,0,0,NO,0,0,0,0,0,0,0,0,0,0,0,0,0,0,0,0,0,0,0,0,0,0,0,0,0,0,0,0,0,0,0,0,0,0,0,0,0,0,0,0,0,0,0,0,0,0,0,0,0,40
guava,v3.0,v4.0,F:/corpus/guava/guava#2010-06-03-08-26-58#v3.0#a393220/src/com/google/common/io/PatternFilenameFilter.java,F:/corpus/guava/guava#2010-06-03-08-26-58#v3.0#a393220/src/com/google/common/io/PatternFilenameFilter.java,0,0,0,0,1,0,0,0,0,0,0,0,0,NO,0,0,0,0,0,0,0,0,0,0,0,0,0,0,0,0,0,0,0,0,0,0,0,0,0,0,0,0,0,0,0,0,0,0,0,0,0,0,0,0,0,0,0,0,0,0,0,0,0,59
guava,v3.0,v4.0,F:/corpus/guava/guava#2010-06-03-08-26-58#v3.0#a393220/src/com/google/common/io/Resources.java,F:/corpus/guava/guava#2010-06-03-08-26-58#v3.0#a393220/src/com/google/common/io/Resources.java,0,0,0,0,0,1,0,0,0,0,0,0,0,NO,0,0,0,0,0,0,0,0,0,0,0,0,0,0,0,0,0,0,0,0,0,0,0,0,0,0,0,0,0,0,0,0,0,0,0,0,0,0,0,0,0,0,0,0,0,0,0,0,0,166
guava,v3.0,v4.0,F:/corpus/guava/guava#2010-06-03-08-26-58#v3.0#a393220/src/com/google/common/primitives/Booleans.java,F:/corpus/guava/guava#2010-06-03-08-26-58#v3.0#a393220/src/com/google/common/primitives/Booleans.java,0,0,0,0,0,0,0,0,0,0,0,0,0,NO,0,0,0,0,0,0,0,0,0,0,0,0,0,0,0,0,0,0,0,0,0,0,0,0,0,0,0,0,0,0,0,0,0,0,0,0,0,0,0,0,0,0,0,0,0,0,0,0,0,465
guava,v3.0,v4.0,F:/corpus/guava/guava#2010-06-03-08-26-58#v3.0#a393220/src/com/google/common/primitives/Bytes.java,F:/corpus/guava/guava#2010-06-03-08-26-58#v3.0#a393220/src/com/google/common/primitives/Bytes.java,0,0,0,0,0,0,0,0,0,0,0,0,0,NO,0,0,0,0,0,0,0,0,0,0,0,0,0,0,0,0,0,0,0,0,0,0,0,0,0,0,0,0,0,0,0,0,0,0,0,0,0,0,0,0,0,0,0,0,0,0,0,0,0,381
guava,v3.0,v4.0,F:/corpus/guava/guava#2010-06-03-08-26-58#v3.0#a393220/src/com/google/common/primitives/Chars.java,F:/corpus/guava/guava#2010-06-03-08-26-58#v3.0#a393220/src/com/google/common/primitives/Chars.java,0,0,0,0,0,0,0,0,0,0,0,0,0,NO,0,0,0,0,0,0,0,0,0,0,0,0,0,0,0,0,0,0,0,0,0,0,0,0,0,0,0,0,0,0,0,0,0,0,0,0,0,0,0,0,0,0,0,0,0,0,0,0,0,569
guava,v3.0,v4.0,F:/corpus/guava/guava#2010-06-03-08-26-58#v3.0#a393220/src/com/google/common/primitives/Doubles.java,F:/corpus/guava/guava#2010-06-03-08-26-58#v3.0#a393220/src/com/google/common/primitives/Doubles.java,0,0,0,0,0,0,0,0,0,0,0,0,0,NO,0,0,0,0,0,0,0,0,0,0,0,0,0,0,0,0,0,0,0,0,0,0,0,0,0,0,0,0,0,0,0,0,0,0,0,0,0,0,0,0,0,0,0,0,0,0,0,0,0,502
guava,v3.0,v4.0,F:/corpus/guava/guava#2010-06-03-08-26-58#v3.0#a393220/src/com/google/common/primitives/Floats.java,F:/corpus/guava/guava#2010-06-03-08-26-58#v3.0#a393220/src/com/google/common/primitives/Floats.java,0,0,0,0,0,0,0,0,0,0,0,0,0,NO,0,0,0,0,0,0,0,0,0,0,0,0,0,0,0,0,0,0,0,0,0,0,0,0,0,0,0,0,0,0,0,0,0,0,0,0,0,0,0,0,0,0,0,0,0,0,0,0,0,499
guava,v3.0,v4.0,F:/corpus/guava/guava#2010-06-03-08-26-58#v3.0#a393220/src/com/google/common/primitives/Ints.java,F:/corpus/guava/guava#2010-06-03-08-26-58#v3.0#a393220/src/com/google/common/primitives/Ints.java,0,0,0,0,0,0,0,0,0,0,0,0,0,NO,0,0,0,0,0,0,0,0,0,0,0,0,0,0,0,0,0,0,0,0,0,0,0,0,0,0,0,0,0,0,0,0,0,0,0,0,0,0,0,0,0,0,0,0,0,0,0,0,0,573
guava,v3.0,v4.0,F:/corpus/guava/guava#2010-06-03-08-26-58#v3.0#a393220/src/com/google/common/primitives/Longs.java,F:/corpus/guava/guava#2010-06-03-08-26-58#v3.0#a393220/src/com/google/common/primitives/Longs.java,0,0,0,0,0,0,0,0,0,0,0,0,0,NO,0,0,0,0,0,0,0,0,0,0,0,0,0,0,0,0,0,0,0,0,0,0,0,0,0,0,0,0,0,0,0,0,0,0,0,0,0,0,0,0,0,0,0,0,0,0,0,0,0,551
guava,v3.0,v4.0,F:/corpus/guava/guava#2010-06-03-08-26-58#v3.0#a393220/src/com/google/common/primitives/package-info.java,F:/corpus/guava/guava#2010-06-03-08-26-58#v3.0#a393220/src/com/google/common/primitives/package-info.java,0,0,0,0,0,0,0,0,0,0,0,0,0,NO,0,0,0,0,0,0,0,0,0,0,0,0,0,0,0,0,0,0,0,0,0,0,0,0,0,0,0,0,0,0,0,0,0,0,0,0,0,0,0,0,0,0,0,0,0,0,0,0,0,51
guava,v3.0,v4.0,F:/corpus/guava/guava#2010-06-03-08-26-58#v3.0#a393220/src/com/google/common/primitives/Primitives.java,F:/corpus/guava/guava#2010-06-03-08-26-58#v3.0#a393220/src/com/google/common/primitives/Primitives.java,0,0,0,0,0,0,0,0,0,0,0,0,0,NO,0,0,0,0,0,0,0,0,0,0,0,0,0,0,0,0,0,0,0,0,0,0,0,0,0,0,0,0,0,0,0,0,0,0,0,0,0,0,0,0,0,0,0,0,0,0,0,0,0,134
guava,v3.0,v4.0,F:/corpus/guava/guava#2010-06-03-08-26-58#v3.0#a393220/src/com/google/common/primitives/Shorts.java,F:/corpus/guava/guava#2010-06-03-08-26-58#v3.0#a393220/src/com/google/common/primitives/Shorts.java,0,0,0,0,0,0,0,0,0,0,0,0,0,NO,0,0,0,0,0,0,0,0,0,0,0,0,0,0,0,0,0,0,0,0,0,0,0,0,0,0,0,0,0,0,0,0,0,0,0,0,0,0,0,0,0,0,0,0,0,0,0,0,0,566
guava,v3.0,v4.0,F:/corpus/guava/guava#2010-06-03-08-26-58#v3.0#a393220/src/com/google/common/primitives/SignedBytes.java,F:/corpus/guava/guava#2010-06-03-08-26-58#v3.0#a393220/src/com/google/common/primitives/SignedBytes.java,0,0,0,0,0,0,0,0,0,0,0,0,0,NO,0,0,0,0,0,0,0,0,0,0,0,0,0,0,0,0,0,0,0,0,0,0,0,0,0,0,0,0,0,0,0,0,0,0,0,0,0,0,0,0,0,0,0,0,0,0,0,0,0,180
guava,v3.0,v4.0,F:/corpus/guava/guava#2010-06-03-08-26-58#v3.0#a393220/src/com/google/common/primitives/UnsignedBytes.java,F:/corpus/guava/guava#2010-06-03-08-26-58#v3.0#a393220/src/com/google/common/primitives/UnsignedBytes.java,0,0,0,0,0,0,0,0,0,0,0,0,0,NO,0,0,0,0,0,0,0,0,0,0,0,0,0,0,0,0,0,0,0,0,0,0,0,0,0,0,0,0,0,0,0,0,0,0,0,0,0,0,0,0,0,0,0,0,0,0,0,0,0,183
guava,v3.0,v4.0,F:/corpus/guava/guava#2010-06-03-08-26-58#v3.0#a393220/src/com/google/common/util/concurrent/AbstractCheckedFuture.java,F:/corpus/guava/guava#2010-06-03-08-26-58#v3.0#a393220/src/com/google/common/util/concurrent/AbstractCheckedFuture.java,0,0,0,0,1,0,0,0,0,0,0,0,0,NO,0,0,0,0,0,0,0,0,0,0,0,0,0,0,0,0,0,0,0,0,0,0,0,0,0,0,0,0,0,0,0,0,0,0,0,0,0,0,0,0,0,0,0,0,0,0,0,0,0,118
guava,v3.0,v4.0,F:/corpus/guava/guava#2010-06-03-08-26-58#v3.0#a393220/src/com/google/common/util/concurrent/AbstractExecutionThreadService.java,F:/corpus/guava/guava#2010-06-03-08-26-58#v3.0#a393220/src/com/google/common/util/concurrent/AbstractExecutionThreadService.java,0,0,0,0,1,1,0,0,0,0,0,0,0,NO,0,0,0,0,0,0,0,0,0,0,0,0,0,0,0,0,0,0,0,0,0,0,0,0,0,0,0,0,0,0,0,0,0,0,0,0,0,0,0,0,0,0,0,0,0,0,0,0,0,154
guava,v3.0,v4.0,F:/corpus/guava/guava#2010-06-03-08-26-58#v3.0#a393220/src/com/google/common/util/concurrent/AbstractFuture.java,F:/corpus/guava/guava#2010-06-03-08-26-58#v3.0#a393220/src/com/google/common/util/concurrent/AbstractFuture.java,0,0,0,0,3,0,0,0,0,0,0,0,0,NO,0,0,0,0,0,0,0,0,0,0,0,0,0,0,0,0,0,0,0,0,0,0,0,0,0,0,0,0,0,0,0,0,0,0,0,0,0,0,0,0,0,0,0,0,0,0,0,0,0,325
guava,v3.0,v4.0,F:/corpus/guava/guava#2010-06-03-08-26-58#v3.0#a393220/src/com/google/common/util/concurrent/AbstractIdleService.java,F:/corpus/guava/guava#2010-06-03-08-26-58#v3.0#a393220/src/com/google/common/util/concurrent/AbstractIdleService.java,0,0,0,0,1,1,0,0,0,0,0,0,0,NO,0,0,0,0,0,0,0,0,0,0,0,0,0,0,0,0,0,0,0,0,0,0,0,0,0,0,0,0,0,0,0,0,0,0,0,0,0,0,0,0,0,0,0,0,0,0,0,0,0,129
guava,v3.0,v4.0,F:/corpus/guava/guava#2010-06-03-08-26-58#v3.0#a393220/src/com/google/common/util/concurrent/AbstractListenableFuture.java,F:/corpus/guava/guava#2010-06-03-08-26-58#v3.0#a393220/src/com/google/common/util/concurrent/AbstractListenableFuture.java,0,0,1,0,1,0,0,0,0,0,0,0,0,NO,0,0,0,0,0,0,0,0,0,0,0,0,0,0,0,0,0,0,0,0,0,0,0,0,0,0,0,0,0,0,0,0,0,0,0,0,0,0,0,0,0,0,0,0,0,0,0,0,0,62
guava,v3.0,v4.0,F:/corpus/guava/guava#2010-06-03-08-26-58#v3.0#a393220/src/com/google/common/util/concurrent/AbstractService.java,F:/corpus/guava/guava#2010-06-03-08-26-58#v3.0#a393220/src/com/google/common/util/concurrent/AbstractService.java,0,0,0,0,2,1,0,0,0,0,0,0,0,NO,0,0,0,0,0,0,0,0,0,0,0,0,0,0,0,0,0,0,0,0,0,0,0,0,0,0,0,0,0,0,0,0,0,0,0,0,0,0,0,0,0,0,0,0,0,0,0,0,0,310
guava,v3.0,v4.0,F:/corpus/guava/guava#2010-06-03-08-26-58#v3.0#a393220/src/com/google/common/util/concurrent/Callables.java,F:/corpus/guava/guava#2010-06-03-08-26-58#v3.0#a393220/src/com/google/common/util/concurrent/Callables.java,0,0,0,0,0,0,0,0,0,0,0,0,0,NO,0,0,0,0,0,0,0,0,0,0,0,0,0,0,0,0,0,0,0,0,0,0,0,0,0,0,0,0,0,0,0,0,0,0,0,0,0,0,0,0,0,0,0,0,0,0,0,0,0,46
guava,v3.0,v4.0,F:/corpus/guava/guava#2010-06-03-08-26-58#v3.0#a393220/src/com/google/common/util/concurrent/CheckedFuture.java,F:/corpus/guava/guava#2010-06-03-08-26-58#v3.0#a393220/src/com/google/common/util/concurrent/CheckedFuture.java,0,0,0,0,1,0,0,0,0,0,0,0,0,NO,0,0,0,0,0,0,0,0,0,0,0,0,0,0,0,0,0,0,0,0,0,0,0,0,0,0,0,0,0,0,0,0,0,0,0,0,0,0,0,0,0,0,0,0,0,0,0,0,0,72
guava,v3.0,v4.0,F:/corpus/guava/guava#2010-06-03-08-26-58#v3.0#a393220/src/com/google/common/util/concurrent/ExecutionList.java,F:/corpus/guava/guava#2010-06-03-08-26-58#v3.0#a393220/src/com/google/common/util/concurrent/ExecutionList.java,0,0,0,0,0,0,0,0,0,0,0,0,0,NO,0,0,0,0,0,0,0,0,0,0,0,0,0,0,0,0,0,0,0,0,0,0,0,0,0,0,0,0,0,0,0,0,0,0,0,0,0,0,0,0,0,0,0,0,0,0,0,0,0,129
guava,v3.0,v4.0,F:/corpus/guava/guava#2010-06-03-08-26-58#v3.0#a393220/src/com/google/common/util/concurrent/FakeTimeLimiter.java,F:/corpus/guava/guava#2010-06-03-08-26-58#v3.0#a393220/src/com/google/common/util/concurrent/FakeTimeLimiter.java,0,0,0,0,2,0,0,0,0,0,0,0,0,NO,0,0,0,0,0,0,0,0,0,0,0,0,0,0,0,0,0,0,0,0,0,0,0,0,0,0,0,0,0,0,0,0,0,0,0,0,0,0,0,0,0,0,0,0,0,0,0,0,0,45
guava,v3.0,v4.0,F:/corpus/guava/guava#2010-06-03-08-26-58#v3.0#a393220/src/com/google/common/util/concurrent/Futures.java,F:/corpus/guava/guava#2010-06-03-08-26-58#v3.0#a393220/src/com/google/common/util/concurrent/Futures.java,0,0,0,0,0,0,0,0,0,0,0,0,0,NO,0,0,0,0,0,0,0,0,0,0,0,0,0,0,0,0,0,0,0,0,0,0,0,0,0,0,0,0,0,0,0,0,0,0,0,0,0,0,0,0,0,0,0,0,0,0,0,0,0,569
guava,v3.0,v4.0,F:/corpus/guava/guava#2010-06-03-08-26-58#v3.0#a393220/src/com/google/common/util/concurrent/ListenableFuture.java,F:/corpus/guava/guava#2010-06-03-08-26-58#v3.0#a393220/src/com/google/common/util/concurrent/ListenableFuture.java,0,0,0,0,1,0,0,0,0,0,0,0,0,NO,0,0,0,0,0,0,0,0,0,0,0,0,0,0,0,0,0,0,0,0,0,0,0,0,0,0,0,0,0,0,0,0,0,0,0,0,0,0,0,0,0,0,0,0,0,0,0,0,0,70
guava,v3.0,v4.0,F:/corpus/guava/guava#2010-06-03-08-26-58#v3.0#a393220/src/com/google/common/util/concurrent/ListenableFutureTask.java,F:/corpus/guava/guava#2010-06-03-08-26-58#v3.0#a393220/src/com/google/common/util/concurrent/ListenableFutureTask.java,0,0,0,0,0,0,0,0,0,0,0,0,0,NO,0,0,0,0,0,0,0,0,0,0,0,0,0,0,0,0,0,0,0,0,0,0,0,0,0,0,0,0,0,0,0,0,0,0,0,0,0,0,0,0,0,0,0,0,0,0,0,0,0,77
guava,v3.0,v4.0,F:/corpus/guava/guava#2010-06-03-08-26-58#v3.0#a393220/src/com/google/common/util/concurrent/package-info.java,F:/corpus/guava/guava#2010-06-03-08-26-58#v3.0#a393220/src/com/google/common/util/concurrent/package-info.java,0,0,0,0,0,0,0,0,0,0,0,0,0,NO,0,0,0,0,0,0,0,0,0,0,0,0,0,0,0,0,0,0,0,0,0,0,0,0,0,0,0,0,0,0,0,0,0,0,0,0,0,0,0,0,0,0,0,0,0,0,0,0,0,26
guava,v3.0,v4.0,F:/corpus/guava/guava#2010-06-03-08-26-58#v3.0#a393220/src/com/google/common/util/concurrent/SimpleTimeLimiter.java,F:/corpus/guava/guava#2010-06-03-08-26-58#v3.0#a393220/src/com/google/common/util/concurrent/SimpleTimeLimiter.java,0,0,0,0,0,0,0,0,0,0,0,0,0,NO,0,0,0,0,0,0,0,0,0,0,0,0,0,0,0,0,0,0,0,0,0,0,0,0,0,0,0,0,0,0,0,0,0,0,0,0,0,0,0,0,0,0,0,0,0,0,0,0,0,170
guava,v3.0,v4.0,F:/corpus/guava/guava#2010-06-03-08-26-58#v3.0#a393220/src/com/google/common/util/concurrent/TimeLimiter.java,F:/corpus/guava/guava#2010-06-03-08-26-58#v3.0#a393220/src/com/google/common/util/concurrent/TimeLimiter.java,0,0,0,0,0,0,0,0,0,0,0,0,0,NO,0,0,0,0,0,0,0,0,0,0,0,0,0,0,0,0,0,0,0,0,0,0,0,0,0,0,0,0,0,0,0,0,0,0,0,0,0,0,0,0,0,0,0,0,0,0,0,0,0,106
guava,v3.0,v4.0,F:/corpus/guava/guava#2010-06-03-08-26-58#v3.0#a393220/src/com/google/common/util/concurrent/UninterruptibleFuture.java,F:/corpus/guava/guava#2010-06-03-08-26-58#v3.0#a393220/src/com/google/common/util/concurrent/UninterruptibleFuture.java,0,0,0,0,1,0,0,0,0,0,0,0,0,NO,0,0,0,0,0,0,0,0,0,0,0,0,0,0,0,0,0,0,0,0,0,0,0,0,0,0,0,0,0,0,0,0,0,0,0,0,0,0,0,0,0,0,0,0,0,0,0,0,0,42
guava,v3.0,v4.0,F:/corpus/guava/guava#2010-06-03-08-26-58#v3.0#a393220/src/com/google/common/util/concurrent/ValueFuture.java,F:/corpus/guava/guava#2010-06-03-08-26-58#v3.0#a393220/src/com/google/common/util/concurrent/ValueFuture.java,0,0,0,0,1,0,0,0,0,0,0,0,0,NO,0,0,0,0,0,0,0,0,0,0,0,0,0,0,0,0,0,0,0,0,0,0,0,0,0,0,0,0,0,0,0,0,0,0,0,0,0,0,0,0,0,0,0,0,0,0,0,0,0,80
