projectName,oldVersionTag,newVersionTag,oldPath,newPath,DC,LC,MM,RPB,SG,MCH,DCLP,DIVC,FE,LM,LPL,SS,SC,fromChangeDistiller,adding_attribute_modifiability,adding_class_derivability,adding_method_overridability,additional_class,additional_functionality,additional_object_state,alternative_part_delete,alternative_part_insert,attribute_renaming,attribute_type_change,class_renaming,comment_delete,comment_insert,comment_move,comment_update,condition_expression_change,decreasing_accessibility_change,doc_delete,doc_insert,doc_update,increasing_accessibility_change,method_renaming,parameter_delete,parameter_insert,parameter_ordering_change,parameter_renaming,parameter_type_change,parent_class_change,parent_class_delete,parent_class_insert,parent_interface_change,parent_interface_delete,parent_interface_insert,removed_class,removed_functionality,removed_object_state,removing_attribute_modifiability,removing_class_derivability,removing_method_overridability,return_type_change,return_type_delete,return_type_insert,statement_delete,statement_insert,statement_ordering_change,statement_parent_change,statement_update,unclassified_change,codeChurn,LOC
guava,v2.0,v3.0,F:/corpus/guava/guava#2010-01-12-01-13-23#v2.0#f5ad01f/src/com/google/common/annotations/GwtIncompatible.java,F:/corpus/guava/guava#2010-06-03-08-26-58#v3.0#a393220/src/com/google/common/annotations/GwtIncompatible.java,0,0,0,0,0,0,0,0,0,0,0,0,0,YES,0,0,0,0,0,0,0,0,0,0,0,0,0,0,0,0,0,0,0,0,0,0,0,0,0,0,0,0,0,0,0,0,0,0,0,0,0,0,0,0,0,0,0,0,0,0,0,0,1,51
guava,v2.0,v3.0,F:/corpus/guava/guava#2010-01-12-01-13-23#v2.0#f5ad01f/src/com/google/common/annotations/VisibleForTesting.java,F:/corpus/guava/guava#2010-06-03-08-26-58#v3.0#a393220/src/com/google/common/annotations/VisibleForTesting.java,0,0,0,0,0,0,0,0,0,0,0,0,0,YES,0,0,0,0,0,0,0,0,0,0,0,0,0,0,0,0,0,0,0,0,0,0,0,0,0,0,0,0,0,0,0,0,0,0,0,0,0,0,0,0,0,0,0,0,0,0,0,0,1,26
guava,v2.0,v3.0,F:/corpus/guava/guava#2010-01-12-01-13-23#v2.0#f5ad01f/src/com/google/common/base/CaseFormat.java,F:/corpus/guava/guava#2010-06-03-08-26-58#v3.0#a393220/src/com/google/common/base/CaseFormat.java,0,0,0,0,0,0,0,0,0,0,0,0,0,YES,0,0,0,0,0,0,0,0,0,0,0,0,0,0,0,0,0,0,0,0,0,0,0,0,0,0,0,0,0,0,0,0,0,0,0,0,0,0,0,0,0,0,0,0,0,0,0,0,65,151
guava,v2.0,v3.0,F:/corpus/guava/guava#2010-01-12-01-13-23#v2.0#f5ad01f/src/com/google/common/base/CharMatcher.java,F:/corpus/guava/guava#2010-06-03-08-26-58#v3.0#a393220/src/com/google/common/base/CharMatcher.java,0,1,0,0,0,0,0,0,0,0,0,0,0,YES,0,0,0,0,0,0,0,0,0,0,0,0,0,0,0,0,3,0,0,1,0,0,0,0,0,0,0,0,0,0,0,0,0,0,0,0,0,1,0,0,0,0,0,0,0,0,5,0,33,1112
guava,v2.0,v3.0,F:/corpus/guava/guava#2010-01-12-01-13-23#v2.0#f5ad01f/src/com/google/common/base/Charsets.java,F:/corpus/guava/guava#2010-06-03-08-26-58#v3.0#a393220/src/com/google/common/base/Charsets.java,1,0,0,0,0,0,0,0,0,0,0,0,0,YES,0,0,0,0,0,0,0,0,0,0,0,0,0,0,0,0,0,0,0,0,0,0,0,0,0,0,0,0,0,0,0,0,0,0,0,0,0,0,0,0,0,0,0,0,0,0,0,0,6,71
guava,v2.0,v3.0,F:/corpus/guava/guava#2010-01-12-01-13-23#v2.0#f5ad01f/src/com/google/common/base/FinalizablePhantomReference.java,F:/corpus/guava/guava#2010-06-03-08-26-58#v3.0#a393220/src/com/google/common/base/FinalizablePhantomReference.java,0,0,0,0,1,0,0,0,0,0,0,0,0,YES,0,0,0,0,0,0,0,0,0,0,0,0,0,0,0,0,0,0,0,0,0,0,0,0,0,0,0,0,0,0,0,0,0,0,0,0,0,0,0,0,0,0,0,0,0,0,0,0,1,47
guava,v2.0,v3.0,F:/corpus/guava/guava#2010-01-12-01-13-23#v2.0#f5ad01f/src/com/google/common/base/FinalizableReference.java,F:/corpus/guava/guava#2010-06-03-08-26-58#v3.0#a393220/src/com/google/common/base/FinalizableReference.java,0,0,0,0,0,0,0,0,0,0,0,0,0,YES,0,0,0,0,0,0,0,0,0,0,0,0,0,0,0,0,0,0,0,0,0,0,0,0,0,0,0,0,0,0,0,0,0,0,0,0,0,0,0,0,0,0,0,0,0,0,0,0,1,36
guava,v2.0,v3.0,F:/corpus/guava/guava#2010-01-12-01-13-23#v2.0#f5ad01f/src/com/google/common/base/FinalizableReferenceQueue.java,F:/corpus/guava/guava#2010-06-03-08-26-58#v3.0#a393220/src/com/google/common/base/FinalizableReferenceQueue.java,0,0,0,0,0,1,0,0,0,0,0,0,0,YES,0,0,0,0,0,0,0,0,0,0,0,0,0,0,0,0,0,0,0,0,0,0,0,0,0,0,0,0,0,0,0,0,0,0,0,0,0,0,0,0,0,0,0,0,0,0,0,0,1,314
guava,v2.0,v3.0,F:/corpus/guava/guava#2010-01-12-01-13-23#v2.0#f5ad01f/src/com/google/common/base/FinalizableSoftReference.java,F:/corpus/guava/guava#2010-06-03-08-26-58#v3.0#a393220/src/com/google/common/base/FinalizableSoftReference.java,0,0,0,0,1,0,0,0,0,0,0,0,0,YES,0,0,0,0,0,0,0,0,0,0,0,0,0,0,0,0,0,0,0,0,0,0,0,0,0,0,0,0,0,0,0,0,0,0,0,0,0,0,0,0,0,0,0,0,0,0,0,0,1,43
guava,v2.0,v3.0,F:/corpus/guava/guava#2010-01-12-01-13-23#v2.0#f5ad01f/src/com/google/common/base/FinalizableWeakReference.java,F:/corpus/guava/guava#2010-06-03-08-26-58#v3.0#a393220/src/com/google/common/base/FinalizableWeakReference.java,0,0,0,0,1,0,0,0,0,0,0,0,0,YES,0,0,0,0,0,0,0,0,0,0,0,0,0,0,0,0,0,0,0,0,0,0,0,0,0,0,0,0,0,0,0,0,0,0,0,0,0,0,0,0,0,0,0,0,0,0,0,0,1,43
guava,v2.0,v3.0,F:/corpus/guava/guava#2010-01-12-01-13-23#v2.0#f5ad01f/src/com/google/common/base/Function.java,F:/corpus/guava/guava#2010-06-03-08-26-58#v3.0#a393220/src/com/google/common/base/Function.java,0,0,0,0,1,0,0,0,0,0,0,0,0,YES,0,0,0,0,0,0,0,0,0,0,0,0,0,0,0,0,0,0,0,0,0,0,0,0,0,0,0,0,0,0,0,0,0,0,0,0,0,0,0,0,0,0,0,0,0,0,0,0,1,68
guava,v2.0,v3.0,F:/corpus/guava/guava#2010-01-12-01-13-23#v2.0#f5ad01f/src/com/google/common/base/Functions.java,F:/corpus/guava/guava#2010-06-03-08-26-58#v3.0#a393220/src/com/google/common/base/Functions.java,0,0,0,0,1,0,0,0,0,0,0,0,0,YES,0,0,0,0,0,0,0,0,0,0,0,0,0,0,0,0,0,0,0,1,0,0,0,0,0,0,0,0,0,0,0,0,0,0,0,0,0,0,0,0,0,0,0,0,0,0,0,0,7,286
guava,v2.0,v3.0,F:/corpus/guava/guava#2010-01-12-01-13-23#v2.0#f5ad01f/src/com/google/common/base/Joiner.java,F:/corpus/guava/guava#2010-06-03-08-26-58#v3.0#a393220/src/com/google/common/base/Joiner.java,0,0,0,0,0,0,0,0,0,0,0,0,0,YES,0,0,0,0,0,0,0,0,0,0,0,0,0,0,0,0,0,0,0,0,0,0,0,0,0,0,0,0,0,0,0,0,0,0,0,0,0,0,0,0,0,0,0,0,0,0,0,0,3,342
guava,v2.0,v3.0,F:/corpus/guava/guava#2010-01-12-01-13-23#v2.0#f5ad01f/src/com/google/common/base/Objects.java,F:/corpus/guava/guava#2010-06-03-08-26-58#v3.0#a393220/src/com/google/common/base/Objects.java,0,0,0,0,0,0,0,0,0,0,0,1,0,YES,0,0,0,0,1,0,0,0,0,0,0,0,0,0,0,0,0,0,0,2,0,0,0,0,0,0,0,0,0,0,0,0,0,0,0,0,0,0,0,0,0,0,0,0,0,0,0,0,22,169
guava,v2.0,v3.0,F:/corpus/guava/guava#2010-01-12-01-13-23#v2.0#f5ad01f/src/com/google/common/base/Preconditions.java,F:/corpus/guava/guava#2010-06-03-08-26-58#v3.0#a393220/src/com/google/common/base/Preconditions.java,0,0,0,0,0,0,0,0,0,0,0,9,0,YES,0,0,0,0,0,0,0,0,0,0,0,0,0,0,1,0,0,0,0,1,0,0,0,0,0,0,0,0,0,0,0,0,0,0,0,0,0,0,0,0,0,0,0,1,0,0,0,0,16,434
guava,v2.0,v3.0,F:/corpus/guava/guava#2010-01-12-01-13-23#v2.0#f5ad01f/src/com/google/common/base/Predicate.java,F:/corpus/guava/guava#2010-06-03-08-26-58#v3.0#a393220/src/com/google/common/base/Predicate.java,0,0,0,0,1,0,0,0,0,0,0,0,0,YES,0,0,0,0,0,0,0,0,0,0,0,0,0,0,0,0,0,0,0,0,0,0,0,0,0,0,0,0,0,0,0,0,0,0,0,0,0,0,0,0,0,0,0,0,0,0,0,0,1,63
guava,v2.0,v3.0,F:/corpus/guava/guava#2010-01-12-01-13-23#v2.0#f5ad01f/src/com/google/common/base/Predicates.java,F:/corpus/guava/guava#2010-06-03-08-26-58#v3.0#a393220/src/com/google/common/base/Predicates.java,0,0,0,0,0,0,0,0,0,0,0,0,0,YES,0,0,0,1,2,0,0,0,0,0,0,0,0,0,0,5,0,0,0,1,2,0,0,0,0,0,0,0,0,0,0,0,0,0,0,0,0,0,0,0,0,0,0,0,0,0,0,0,117,555
guava,v2.0,v3.0,F:/corpus/guava/guava#2010-01-12-01-13-23#v2.0#f5ad01f/src/com/google/common/base/Service.java,F:/corpus/guava/guava#2010-06-03-08-26-58#v3.0#a393220/src/com/google/common/base/Service.java,0,0,0,0,0,0,0,0,0,0,0,0,0,YES,0,0,0,0,0,0,0,0,0,0,0,0,0,0,0,0,0,0,0,0,0,0,0,0,0,0,0,0,0,0,0,0,0,0,0,0,0,0,0,0,0,0,0,0,0,0,0,0,4,157
guava,v2.0,v3.0,F:/corpus/guava/guava#2010-01-12-01-13-23#v2.0#f5ad01f/src/com/google/common/base/Splitter.java,F:/corpus/guava/guava#2010-06-03-08-26-58#v3.0#a393220/src/com/google/common/base/Splitter.java,0,0,0,0,3,0,0,0,0,0,0,0,0,YES,0,0,0,0,0,0,0,0,0,0,0,0,0,0,0,0,0,0,0,2,0,0,0,0,0,0,0,0,0,0,0,0,0,0,0,0,0,0,0,0,0,0,0,0,0,0,0,0,13,455
guava,v2.0,v3.0,F:/corpus/guava/guava#2010-01-12-01-13-23#v2.0#f5ad01f/src/com/google/common/base/Supplier.java,F:/corpus/guava/guava#2010-06-03-08-26-58#v3.0#a393220/src/com/google/common/base/Supplier.java,0,0,0,0,1,0,0,0,0,0,0,0,0,YES,0,0,0,0,0,0,0,0,0,0,0,0,0,0,0,0,1,0,0,1,0,0,0,0,0,0,0,0,0,0,0,0,0,0,0,0,0,0,0,0,0,0,0,0,0,0,0,0,2,38
guava,v2.0,v3.0,F:/corpus/guava/guava#2010-01-12-01-13-23#v2.0#f5ad01f/src/com/google/common/base/Suppliers.java,F:/corpus/guava/guava#2010-06-03-08-26-58#v3.0#a393220/src/com/google/common/base/Suppliers.java,0,0,0,0,0,0,1,0,0,0,0,0,0,YES,0,0,0,0,0,1,0,0,0,1,0,0,0,0,0,0,0,0,0,3,0,0,1,1,0,1,1,0,0,0,0,0,0,0,0,1,0,0,0,0,0,0,1,1,0,0,3,0,17,196
guava,v2.0,v3.0,F:/corpus/guava/guava#2010-01-12-01-13-23#v2.0#f5ad01f/src/com/google/common/base/Throwables.java,F:/corpus/guava/guava#2010-06-03-08-26-58#v3.0#a393220/src/com/google/common/base/Throwables.java,0,0,0,0,0,0,0,0,0,0,0,0,0,YES,0,0,0,0,0,0,0,0,0,0,0,0,0,0,0,0,0,0,0,3,0,0,0,0,0,2,0,0,0,0,0,0,0,0,0,0,0,0,0,0,0,0,0,1,0,0,4,0,31,242
guava,v2.0,v3.0,F:/corpus/guava/guava#2010-01-12-01-13-23#v2.0#f5ad01f/src/com/google/common/base/package-info.java,F:/corpus/guava/guava#2010-06-03-08-26-58#v3.0#a393220/src/com/google/common/base/package-info.java,0,0,0,0,0,0,0,0,0,0,0,0,0,YES,0,0,0,0,0,0,0,0,0,0,0,0,0,0,0,0,0,0,0,1,0,0,0,0,0,0,0,0,0,0,0,0,0,0,0,0,0,0,0,0,0,0,0,0,0,0,0,0,4,20
guava,v2.0,v3.0,F:/corpus/guava/guava#2010-01-12-01-13-23#v2.0#f5ad01f/src/com/google/common/collect/AbstractIterator.java,F:/corpus/guava/guava#2010-06-03-08-26-58#v3.0#a393220/src/com/google/common/collect/AbstractIterator.java,0,0,0,0,1,0,0,0,0,0,0,1,0,YES,0,0,0,0,0,0,0,0,0,0,0,0,0,0,0,0,0,0,0,0,0,0,0,0,0,0,0,0,0,0,0,0,0,0,0,0,0,0,0,0,0,0,0,0,0,0,0,0,1,165
guava,v2.0,v3.0,F:/corpus/guava/guava#2010-01-12-01-13-23#v2.0#f5ad01f/src/com/google/common/collect/AbstractListMultimap.java,F:/corpus/guava/guava#2010-06-03-08-26-58#v3.0#a393220/src/com/google/common/collect/AbstractListMultimap.java,0,0,0,0,1,0,0,0,0,0,0,0,0,YES,0,0,0,0,0,0,0,0,0,0,0,0,0,0,0,0,0,0,0,0,0,0,0,0,0,0,0,0,0,0,0,0,0,0,0,0,0,0,0,0,0,0,0,0,0,0,0,0,1,87
guava,v2.0,v3.0,F:/corpus/guava/guava#2010-01-12-01-13-23#v2.0#f5ad01f/src/com/google/common/collect/AbstractMultimap.java,F:/corpus/guava/guava#2010-06-03-08-26-58#v3.0#a393220/src/com/google/common/collect/AbstractMultimap.java,0,1,3,0,2,0,1,0,0,0,0,1,0,YES,0,0,0,0,0,0,0,0,0,0,0,0,0,0,0,0,0,0,0,0,0,0,0,0,0,0,0,0,0,0,0,0,0,0,0,0,0,0,0,0,0,0,0,0,0,0,3,0,12,1492
guava,v2.0,v3.0,F:/corpus/guava/guava#2010-01-12-01-13-23#v2.0#f5ad01f/src/com/google/common/collect/AbstractMultiset.java,F:/corpus/guava/guava#2010-06-03-08-26-58#v3.0#a393220/src/com/google/common/collect/AbstractMultiset.java,0,0,0,0,3,0,0,0,0,0,0,0,0,YES,0,0,0,0,0,0,0,0,0,0,0,0,0,0,0,0,0,0,0,0,0,0,0,0,0,0,0,0,0,0,0,0,0,0,0,0,0,0,0,0,0,0,0,0,0,0,0,0,8,297
guava,v2.0,v3.0,F:/corpus/guava/guava#2010-01-12-01-13-23#v2.0#f5ad01f/src/com/google/common/collect/ArrayListMultimap.java,F:/corpus/guava/guava#2010-06-03-08-26-58#v3.0#a393220/src/com/google/common/collect/ArrayListMultimap.java,0,0,0,0,0,0,0,0,0,0,0,0,0,YES,0,0,0,0,0,0,0,0,0,0,0,0,0,0,0,0,0,0,0,0,0,0,0,0,0,0,0,0,0,0,0,0,0,0,0,0,0,0,0,0,0,0,0,0,0,0,0,0,4,160
guava,v2.0,v3.0,F:/corpus/guava/guava#2010-01-12-01-13-23#v2.0#f5ad01f/src/com/google/common/collect/BiMap.java,F:/corpus/guava/guava#2010-06-03-08-26-58#v3.0#a393220/src/com/google/common/collect/BiMap.java,0,0,0,0,1,0,0,0,0,0,0,0,0,YES,0,0,0,0,0,0,0,0,0,0,0,0,0,0,0,0,0,0,0,0,0,0,0,0,0,0,0,0,0,0,0,0,0,0,0,0,0,0,0,0,0,0,0,0,0,0,0,0,1,103
guava,v2.0,v3.0,F:/corpus/guava/guava#2010-01-12-01-13-23#v2.0#f5ad01f/src/com/google/common/collect/ClassToInstanceMap.java,F:/corpus/guava/guava#2010-06-03-08-26-58#v3.0#a393220/src/com/google/common/collect/ClassToInstanceMap.java,0,0,0,0,1,0,0,0,0,0,0,0,0,YES,0,0,0,0,0,0,0,0,0,0,0,0,0,0,0,0,0,0,0,0,0,0,0,0,0,0,0,0,0,0,0,0,0,0,0,0,0,0,0,0,0,0,0,0,0,0,0,0,1,59
guava,v2.0,v3.0,F:/corpus/guava/guava#2010-01-12-01-13-23#v2.0#f5ad01f/src/com/google/common/collect/Collections2.java,F:/corpus/guava/guava#2010-06-03-08-26-58#v3.0#a393220/src/com/google/common/collect/Collections2.java,0,0,0,0,0,0,0,0,0,0,0,2,0,YES,0,0,0,0,0,0,0,0,0,0,0,0,0,0,0,0,0,0,0,1,0,0,0,0,0,0,0,0,0,0,0,0,0,0,0,0,0,0,0,0,0,0,0,0,0,0,1,0,7,301
guava,v2.0,v3.0,F:/corpus/guava/guava#2010-01-12-01-13-23#v2.0#f5ad01f/src/com/google/common/collect/ComparisonChain.java,F:/corpus/guava/guava#2010-06-03-08-26-58#v3.0#a393220/src/com/google/common/collect/ComparisonChain.java,0,0,0,0,8,0,0,0,0,0,0,0,0,YES,0,0,0,0,0,0,0,0,0,0,0,0,0,0,0,0,0,0,0,0,0,0,0,0,0,0,0,0,0,0,0,0,0,0,0,0,0,0,0,0,0,0,0,0,0,0,0,0,6,191
guava,v2.0,v3.0,F:/corpus/guava/guava#2010-01-12-01-13-23#v2.0#f5ad01f/src/com/google/common/collect/ConcurrentHashMultiset.java,F:/corpus/guava/guava#2010-06-03-08-26-58#v3.0#a393220/src/com/google/common/collect/ConcurrentHashMultiset.java,0,0,0,0,0,0,0,0,0,0,0,0,0,YES,0,0,0,0,0,0,0,0,0,0,0,0,0,0,0,0,0,0,0,0,0,0,0,0,0,0,0,0,0,0,0,0,0,0,0,0,0,0,0,0,0,0,0,0,0,0,0,0,1,486
guava,v2.0,v3.0,F:/corpus/guava/guava#2010-01-12-01-13-23#v2.0#f5ad01f/src/com/google/common/collect/CustomConcurrentHashMap.java,F:/corpus/guava/guava#2010-06-03-08-26-58#v3.0#a393220/src/com/google/common/collect/CustomConcurrentHashMap.java,0,2,0,0,3,0,1,0,0,0,0,0,0,YES,0,0,0,0,0,0,0,0,0,0,0,0,0,0,0,0,0,0,0,0,0,0,0,0,0,0,0,0,0,0,0,0,0,0,0,0,0,0,0,0,0,0,0,0,0,0,0,1,1,2161
guava,v2.0,v3.0,F:/corpus/guava/guava#2010-01-12-01-13-23#v2.0#f5ad01f/src/com/google/common/collect/EmptyImmutableList.java,F:/corpus/guava/guava#2010-06-03-08-26-58#v3.0#a393220/src/com/google/common/collect/EmptyImmutableList.java,0,0,0,0,3,0,0,0,0,0,0,0,0,YES,0,0,0,0,0,0,0,0,0,0,0,0,0,0,0,0,0,0,0,0,0,0,0,0,0,0,0,0,0,0,0,0,0,0,0,0,0,0,0,0,0,0,0,0,0,0,0,0,8,124
guava,v2.0,v3.0,F:/corpus/guava/guava#2010-01-12-01-13-23#v2.0#f5ad01f/src/com/google/common/collect/EmptyImmutableMap.java,F:/corpus/guava/guava#2010-06-03-08-26-58#v3.0#a393220/src/com/google/common/collect/EmptyImmutableMap.java,0,0,0,0,3,0,0,0,0,0,0,0,0,YES,0,0,0,0,0,0,0,0,0,0,0,0,0,0,0,0,0,0,0,0,0,0,0,0,0,0,0,0,0,0,0,0,0,0,0,0,0,0,0,0,0,0,0,0,0,0,0,0,1,90
guava,v2.0,v3.0,F:/corpus/guava/guava#2010-01-12-01-13-23#v2.0#f5ad01f/src/com/google/common/collect/EmptyImmutableSet.java,F:/corpus/guava/guava#2010-06-03-08-26-58#v3.0#a393220/src/com/google/common/collect/EmptyImmutableSet.java,0,0,0,0,1,0,0,0,0,0,0,0,0,YES,0,0,0,0,0,0,0,0,0,0,0,0,0,0,0,0,0,0,0,0,0,0,0,0,0,0,0,0,0,0,0,0,0,0,0,0,0,0,0,0,0,0,0,0,0,0,0,0,1,95
guava,v2.0,v3.0,F:/corpus/guava/guava#2010-01-12-01-13-23#v2.0#f5ad01f/src/com/google/common/collect/EmptyImmutableSortedSet.java,F:/corpus/guava/guava#2010-06-03-08-26-58#v3.0#a393220/src/com/google/common/collect/EmptyImmutableSortedSet.java,0,0,0,0,5,0,0,0,0,0,0,0,0,YES,0,0,0,0,0,0,0,0,0,0,0,0,0,0,0,0,0,0,0,0,0,0,0,0,0,0,0,0,0,0,0,0,0,0,0,0,0,0,0,0,0,0,0,0,0,0,0,0,1,116
guava,v2.0,v3.0,F:/corpus/guava/guava#2010-01-12-01-13-23#v2.0#f5ad01f/src/com/google/common/collect/EnumBiMap.java,F:/corpus/guava/guava#2010-06-03-08-26-58#v3.0#a393220/src/com/google/common/collect/EnumBiMap.java,0,0,0,0,0,0,0,0,0,0,0,0,0,YES,0,0,0,0,0,0,0,0,0,0,0,0,0,0,0,0,0,0,0,0,0,0,0,0,0,0,0,0,0,0,0,0,0,0,0,0,0,0,0,0,0,0,0,0,0,0,0,0,1,126
guava,v2.0,v3.0,F:/corpus/guava/guava#2010-01-12-01-13-23#v2.0#f5ad01f/src/com/google/common/collect/EnumHashBiMap.java,F:/corpus/guava/guava#2010-06-03-08-26-58#v3.0#a393220/src/com/google/common/collect/EnumHashBiMap.java,0,0,0,0,0,0,0,0,0,0,0,0,0,YES,0,0,0,0,0,0,0,0,0,0,0,0,0,0,0,0,0,0,0,0,0,0,0,0,0,0,0,0,0,0,0,0,0,0,0,0,0,0,0,0,0,0,0,0,0,0,0,0,1,110
guava,v2.0,v3.0,F:/corpus/guava/guava#2010-01-12-01-13-23#v2.0#f5ad01f/src/com/google/common/collect/EnumMultiset.java,F:/corpus/guava/guava#2010-06-03-08-26-58#v3.0#a393220/src/com/google/common/collect/EnumMultiset.java,0,0,0,0,0,0,0,0,0,0,0,0,0,YES,0,0,0,0,0,0,0,0,0,0,0,0,0,0,0,0,0,0,0,0,0,0,0,0,0,0,0,0,0,0,0,0,0,0,0,0,0,0,0,0,0,0,0,0,0,0,0,0,1,90
guava,v2.0,v3.0,F:/corpus/guava/guava#2010-01-12-01-13-23#v2.0#f5ad01f/src/com/google/common/collect/ForwardingCollection.java,F:/corpus/guava/guava#2010-06-03-08-26-58#v3.0#a393220/src/com/google/common/collect/ForwardingCollection.java,0,0,0,0,1,0,0,0,0,0,0,0,0,YES,0,0,0,0,0,0,0,0,0,0,0,0,0,0,0,0,0,0,0,0,0,0,0,0,0,0,0,0,0,0,0,0,0,0,0,0,0,0,0,0,0,0,0,0,0,0,0,0,1,91
guava,v2.0,v3.0,F:/corpus/guava/guava#2010-01-12-01-13-23#v2.0#f5ad01f/src/com/google/common/collect/ForwardingConcurrentMap.java,F:/corpus/guava/guava#2010-06-03-08-26-58#v3.0#a393220/src/com/google/common/collect/ForwardingConcurrentMap.java,0,0,0,0,1,0,0,0,0,0,0,0,0,YES,0,0,0,0,0,0,0,0,0,0,0,0,0,0,0,0,0,0,0,0,0,0,0,0,0,0,0,0,0,0,0,0,0,0,0,0,0,0,0,0,0,0,0,0,0,0,0,0,1,55
guava,v2.0,v3.0,F:/corpus/guava/guava#2010-01-12-01-13-23#v2.0#f5ad01f/src/com/google/common/collect/ForwardingIterator.java,F:/corpus/guava/guava#2010-06-03-08-26-58#v3.0#a393220/src/com/google/common/collect/ForwardingIterator.java,0,0,0,0,1,0,0,0,0,0,0,0,0,YES,0,0,0,0,0,0,0,0,0,0,0,0,0,0,0,0,0,0,0,0,0,0,0,0,0,0,0,0,0,0,0,0,0,0,0,0,0,0,0,0,0,0,0,0,0,0,0,0,1,50
guava,v2.0,v3.0,F:/corpus/guava/guava#2010-01-12-01-13-23#v2.0#f5ad01f/src/com/google/common/collect/ForwardingList.java,F:/corpus/guava/guava#2010-06-03-08-26-58#v3.0#a393220/src/com/google/common/collect/ForwardingList.java,0,0,0,0,1,0,0,0,0,0,0,0,0,YES,0,0,0,0,0,0,0,0,0,0,0,0,0,0,0,0,0,0,0,1,0,0,0,0,0,0,0,0,0,0,0,0,0,0,0,0,0,0,0,0,0,0,0,0,0,0,1,0,5,95
guava,v2.0,v3.0,F:/corpus/guava/guava#2010-01-12-01-13-23#v2.0#f5ad01f/src/com/google/common/collect/ForwardingListIterator.java,F:/corpus/guava/guava#2010-06-03-08-26-58#v3.0#a393220/src/com/google/common/collect/ForwardingListIterator.java,0,0,0,0,1,0,0,0,0,0,0,0,0,YES,0,0,0,0,0,0,0,0,0,0,0,0,0,0,0,0,0,0,0,0,0,0,0,0,0,0,0,0,0,0,0,0,0,0,0,0,0,0,0,0,0,0,0,0,0,0,0,0,1,62
guava,v2.0,v3.0,F:/corpus/guava/guava#2010-01-12-01-13-23#v2.0#f5ad01f/src/com/google/common/collect/ForwardingMap.java,F:/corpus/guava/guava#2010-06-03-08-26-58#v3.0#a393220/src/com/google/common/collect/ForwardingMap.java,0,0,0,0,1,0,0,0,0,0,0,0,0,YES,0,0,0,0,0,0,0,0,0,0,0,0,0,0,0,0,0,0,0,0,0,0,0,0,0,0,0,0,0,0,0,0,0,0,0,0,0,0,0,0,0,0,0,0,0,0,0,0,1,99
guava,v2.0,v3.0,F:/corpus/guava/guava#2010-01-12-01-13-23#v2.0#f5ad01f/src/com/google/common/collect/ForwardingMapEntry.java,F:/corpus/guava/guava#2010-06-03-08-26-58#v3.0#a393220/src/com/google/common/collect/ForwardingMapEntry.java,0,0,0,0,1,0,0,0,0,0,0,0,0,YES,0,0,0,0,0,0,0,0,0,0,0,0,0,0,0,0,0,0,0,0,0,0,0,0,0,0,0,0,0,0,0,0,0,0,0,0,0,0,0,0,0,0,0,0,0,0,0,0,1,60
guava,v2.0,v3.0,F:/corpus/guava/guava#2010-01-12-01-13-23#v2.0#f5ad01f/src/com/google/common/collect/ForwardingMultimap.java,F:/corpus/guava/guava#2010-06-03-08-26-58#v3.0#a393220/src/com/google/common/collect/ForwardingMultimap.java,0,0,0,0,1,0,0,0,0,0,0,0,0,YES,0,0,0,0,0,0,0,0,0,0,0,0,0,0,0,0,0,0,0,0,0,0,0,0,0,0,0,0,0,0,0,0,0,0,0,0,0,0,0,0,0,0,0,0,0,0,0,0,1,123
guava,v2.0,v3.0,F:/corpus/guava/guava#2010-01-12-01-13-23#v2.0#f5ad01f/src/com/google/common/collect/ForwardingMultiset.java,F:/corpus/guava/guava#2010-06-03-08-26-58#v3.0#a393220/src/com/google/common/collect/ForwardingMultiset.java,0,0,0,0,1,0,0,0,0,0,0,0,0,YES,0,0,0,0,0,0,0,0,0,0,0,0,0,0,0,0,0,0,0,0,0,0,0,0,0,0,0,0,0,0,0,0,0,0,0,0,0,0,0,0,0,0,0,0,0,0,0,0,1,76
guava,v2.0,v3.0,F:/corpus/guava/guava#2010-01-12-01-13-23#v2.0#f5ad01f/src/com/google/common/collect/ForwardingObject.java,F:/corpus/guava/guava#2010-06-03-08-26-58#v3.0#a393220/src/com/google/common/collect/ForwardingObject.java,0,0,0,0,0,0,0,0,0,0,0,0,0,YES,0,0,0,0,0,0,0,0,0,0,0,0,0,0,0,0,0,0,0,0,0,0,0,0,0,0,0,0,0,0,0,0,0,0,0,0,0,0,0,0,0,0,0,0,0,0,0,0,1,76
guava,v2.0,v3.0,F:/corpus/guava/guava#2010-01-12-01-13-23#v2.0#f5ad01f/src/com/google/common/collect/ForwardingQueue.java,F:/corpus/guava/guava#2010-06-03-08-26-58#v3.0#a393220/src/com/google/common/collect/ForwardingQueue.java,0,0,0,0,1,0,0,0,0,0,0,0,0,YES,0,0,0,0,0,0,0,0,0,0,0,0,0,0,0,0,0,0,0,0,0,0,0,0,0,0,0,0,0,0,0,0,0,0,0,0,0,0,0,0,0,0,0,0,0,0,0,0,1,58
guava,v2.0,v3.0,F:/corpus/guava/guava#2010-01-12-01-13-23#v2.0#f5ad01f/src/com/google/common/collect/ForwardingSet.java,F:/corpus/guava/guava#2010-06-03-08-26-58#v3.0#a393220/src/com/google/common/collect/ForwardingSet.java,0,0,0,0,1,0,0,0,0,0,0,0,0,YES,0,0,0,0,0,0,0,0,0,0,0,0,0,0,0,0,0,0,0,0,0,0,0,0,0,0,0,0,0,0,0,0,0,0,0,0,0,0,0,0,0,0,0,0,0,0,0,0,1,48
guava,v2.0,v3.0,F:/corpus/guava/guava#2010-01-12-01-13-23#v2.0#f5ad01f/src/com/google/common/collect/ForwardingSortedMap.java,F:/corpus/guava/guava#2010-06-03-08-26-58#v3.0#a393220/src/com/google/common/collect/ForwardingSortedMap.java,0,0,0,0,1,0,0,0,0,0,0,0,0,YES,0,0,0,0,0,0,0,0,0,0,0,0,0,0,0,0,0,0,0,0,0,0,0,0,0,0,0,0,0,0,0,0,0,0,0,0,0,0,0,0,0,0,0,0,0,0,0,0,1,63
guava,v2.0,v3.0,F:/corpus/guava/guava#2010-01-12-01-13-23#v2.0#f5ad01f/src/com/google/common/collect/ForwardingSortedSet.java,F:/corpus/guava/guava#2010-06-03-08-26-58#v3.0#a393220/src/com/google/common/collect/ForwardingSortedSet.java,0,0,0,0,1,0,0,0,0,0,0,0,0,YES,0,0,0,0,0,0,0,0,0,0,0,0,0,0,0,0,0,0,0,0,0,0,0,0,0,0,0,0,0,0,0,0,0,0,0,0,0,0,0,0,0,0,0,0,0,0,0,0,1,63
guava,v2.0,v3.0,F:/corpus/guava/guava#2010-01-12-01-13-23#v2.0#f5ad01f/src/com/google/common/collect/HashBiMap.java,F:/corpus/guava/guava#2010-06-03-08-26-58#v3.0#a393220/src/com/google/common/collect/HashBiMap.java,0,0,0,0,0,0,0,0,0,0,0,0,0,YES,0,0,0,0,0,0,0,0,0,0,0,0,0,0,0,0,0,0,0,0,0,0,0,0,0,0,0,0,0,0,0,0,0,0,0,0,0,0,0,0,0,0,0,0,0,0,0,0,1,109
guava,v2.0,v3.0,F:/corpus/guava/guava#2010-01-12-01-13-23#v2.0#f5ad01f/src/com/google/common/collect/HashMultimap.java,F:/corpus/guava/guava#2010-06-03-08-26-58#v3.0#a393220/src/com/google/common/collect/HashMultimap.java,0,0,0,0,0,0,0,0,0,0,0,0,0,YES,0,0,0,0,0,0,0,0,0,0,0,0,0,0,0,0,0,0,0,0,0,0,0,0,0,0,0,0,0,0,0,0,0,0,0,0,0,0,0,0,0,0,0,0,0,0,0,0,1,138
guava,v2.0,v3.0,F:/corpus/guava/guava#2010-01-12-01-13-23#v2.0#f5ad01f/src/com/google/common/collect/HashMultiset.java,F:/corpus/guava/guava#2010-06-03-08-26-58#v3.0#a393220/src/com/google/common/collect/HashMultiset.java,0,0,0,0,0,0,0,0,0,0,0,0,0,YES,0,0,0,0,0,0,0,0,0,0,0,0,0,0,0,0,0,0,0,0,0,0,0,0,0,0,0,0,0,0,0,0,0,0,0,0,0,0,0,0,0,0,0,0,0,0,0,0,1,95
guava,v2.0,v3.0,F:/corpus/guava/guava#2010-01-12-01-13-23#v2.0#f5ad01f/src/com/google/common/collect/ImmutableBiMap.java,F:/corpus/guava/guava#2010-06-03-08-26-58#v3.0#a393220/src/com/google/common/collect/ImmutableBiMap.java,0,0,0,0,2,0,0,0,0,0,2,0,0,YES,0,0,0,0,0,0,0,0,0,0,0,0,0,0,0,0,0,0,0,1,0,0,0,0,0,0,0,0,0,0,0,0,0,0,0,0,0,0,0,0,0,0,0,0,0,0,1,0,3,312
guava,v2.0,v3.0,F:/corpus/guava/guava#2010-01-12-01-13-23#v2.0#f5ad01f/src/com/google/common/collect/ImmutableClassToInstanceMap.java,F:/corpus/guava/guava#2010-06-03-08-26-58#v3.0#a393220/src/com/google/common/collect/ImmutableClassToInstanceMap.java,0,0,0,0,1,0,0,0,0,0,0,0,0,YES,0,0,0,0,1,0,0,0,0,0,0,0,0,0,0,0,0,0,0,1,0,0,0,0,0,0,0,0,0,0,0,0,0,0,0,0,0,0,0,0,0,0,0,0,0,0,0,0,6,144
guava,v2.0,v3.0,F:/corpus/guava/guava#2010-01-12-01-13-23#v2.0#f5ad01f/src/com/google/common/collect/ImmutableCollection.java,F:/corpus/guava/guava#2010-06-03-08-26-58#v3.0#a393220/src/com/google/common/collect/ImmutableCollection.java,0,0,1,0,8,0,0,0,0,0,0,0,0,YES,0,0,0,0,0,0,0,0,0,0,0,3,0,0,0,0,0,0,0,2,0,0,0,0,0,0,0,0,0,0,0,0,0,0,0,0,0,0,0,0,0,0,3,0,0,0,0,0,8,346
guava,v2.0,v3.0,F:/corpus/guava/guava#2010-01-12-01-13-23#v2.0#f5ad01f/src/com/google/common/collect/ImmutableEnumSet.java,F:/corpus/guava/guava#2010-06-03-08-26-58#v3.0#a393220/src/com/google/common/collect/ImmutableEnumSet.java,0,0,0,0,0,0,0,0,0,0,0,0,0,YES,0,0,0,0,0,0,0,0,0,0,0,0,0,0,0,0,0,0,0,0,0,0,0,0,0,0,0,0,0,0,0,0,0,0,0,0,0,0,0,0,0,0,0,0,0,0,0,0,4,121
guava,v2.0,v3.0,F:/corpus/guava/guava#2010-01-12-01-13-23#v2.0#f5ad01f/src/com/google/common/collect/ImmutableList.java,F:/corpus/guava/guava#2010-06-03-08-26-58#v3.0#a393220/src/com/google/common/collect/ImmutableList.java,0,0,0,0,6,0,0,0,0,0,4,1,0,YES,0,0,0,0,3,0,0,0,0,0,0,3,0,0,0,1,0,0,0,13,0,0,1,13,0,0,0,0,0,0,0,0,0,0,0,0,0,0,0,0,0,0,17,6,0,1,3,0,66,480
guava,v2.0,v3.0,F:/corpus/guava/guava#2010-01-12-01-13-23#v2.0#f5ad01f/src/com/google/common/collect/ImmutableListMultimap.java,F:/corpus/guava/guava#2010-06-03-08-26-58#v3.0#a393220/src/com/google/common/collect/ImmutableListMultimap.java,0,0,0,0,2,0,0,0,0,0,2,0,0,YES,0,0,0,0,0,0,0,0,0,0,0,0,0,0,0,0,0,0,0,1,0,0,0,0,0,0,0,0,0,0,0,0,0,0,0,0,0,0,0,0,0,0,0,0,0,0,1,0,2,337
guava,v2.0,v3.0,F:/corpus/guava/guava#2010-01-12-01-13-23#v2.0#f5ad01f/src/com/google/common/collect/ImmutableMap.java,F:/corpus/guava/guava#2010-06-03-08-26-58#v3.0#a393220/src/com/google/common/collect/ImmutableMap.java,0,0,0,0,4,0,0,0,0,0,2,3,0,YES,0,0,0,0,0,0,0,0,0,0,0,0,0,0,0,0,0,0,0,0,0,0,0,0,0,0,0,0,0,0,0,0,0,0,0,0,0,0,0,0,0,0,0,0,0,0,0,0,2,381
guava,v2.0,v3.0,F:/corpus/guava/guava#2010-01-12-01-13-23#v2.0#f5ad01f/src/com/google/common/collect/ImmutableMultimap.java,F:/corpus/guava/guava#2010-06-03-08-26-58#v3.0#a393220/src/com/google/common/collect/ImmutableMultimap.java,0,0,0,0,7,0,0,0,0,0,2,0,0,YES,0,0,0,0,0,0,0,0,0,0,0,0,0,0,0,0,0,0,0,0,0,0,0,0,0,0,0,0,0,0,0,0,0,0,0,0,0,0,0,0,0,0,0,0,0,0,0,0,1,514
guava,v2.0,v3.0,F:/corpus/guava/guava#2010-01-12-01-13-23#v2.0#f5ad01f/src/com/google/common/collect/ImmutableMultiset.java,F:/corpus/guava/guava#2010-06-03-08-26-58#v3.0#a393220/src/com/google/common/collect/ImmutableMultiset.java,0,0,0,0,4,0,0,0,0,0,0,0,0,YES,0,0,0,0,2,0,0,0,0,0,0,0,0,0,0,0,0,0,0,1,0,0,0,0,0,0,0,0,0,0,0,0,0,0,0,0,0,0,0,0,0,0,0,0,0,0,0,0,27,503
guava,v2.0,v3.0,F:/corpus/guava/guava#2010-01-12-01-13-23#v2.0#f5ad01f/src/com/google/common/collect/ImmutableSet.java,F:/corpus/guava/guava#2010-06-03-08-26-58#v3.0#a393220/src/com/google/common/collect/ImmutableSet.java,0,0,0,0,3,0,0,0,0,0,0,0,0,YES,0,0,0,0,2,0,0,0,0,0,0,3,0,0,0,0,0,0,0,2,0,0,1,7,0,0,0,0,0,0,0,0,0,0,0,0,0,0,0,0,0,0,10,5,0,0,3,0,34,541
guava,v2.0,v3.0,F:/corpus/guava/guava#2010-01-12-01-13-23#v2.0#f5ad01f/src/com/google/common/collect/ImmutableSetMultimap.java,F:/corpus/guava/guava#2010-06-03-08-26-58#v3.0#a393220/src/com/google/common/collect/ImmutableSetMultimap.java,0,0,0,0,2,0,0,0,0,0,2,0,0,YES,0,0,0,0,0,0,0,0,0,0,0,0,0,0,0,0,0,0,0,1,0,0,0,0,0,0,0,0,0,0,0,0,0,0,0,0,0,0,0,0,0,0,0,0,0,0,1,0,2,388
guava,v2.0,v3.0,F:/corpus/guava/guava#2010-01-12-01-13-23#v2.0#f5ad01f/src/com/google/common/collect/ImmutableSortedMap.java,F:/corpus/guava/guava#2010-06-03-08-26-58#v3.0#a393220/src/com/google/common/collect/ImmutableSortedMap.java,0,0,0,0,0,0,0,0,0,0,2,0,0,YES,0,0,0,0,0,0,0,0,0,0,0,0,0,0,0,0,0,0,0,0,0,0,0,0,0,0,0,0,0,0,0,0,0,0,0,0,0,0,0,0,0,0,0,0,0,0,0,0,5,696
guava,v2.0,v3.0,F:/corpus/guava/guava#2010-01-12-01-13-23#v2.0#f5ad01f/src/com/google/common/collect/ImmutableSortedSet.java,F:/corpus/guava/guava#2010-06-03-08-26-58#v3.0#a393220/src/com/google/common/collect/ImmutableSortedSet.java,0,0,0,0,2,0,0,0,0,0,0,0,0,YES,0,0,0,0,4,0,0,0,0,0,0,1,1,0,0,0,0,0,0,2,0,0,1,7,0,0,1,0,0,0,0,0,0,0,0,0,0,0,0,0,0,0,3,6,0,0,0,0,73,684
guava,v2.0,v3.0,F:/corpus/guava/guava#2010-01-12-01-13-23#v2.0#f5ad01f/src/com/google/common/collect/ImmutableSortedSetFauxverideShim.java,F:/corpus/guava/guava#2010-06-03-08-26-58#v3.0#a393220/src/com/google/common/collect/ImmutableSortedSetFauxverideShim.java,0,0,0,0,7,0,0,0,0,0,0,0,0,YES,0,0,0,0,2,0,0,0,0,0,0,0,0,0,0,0,0,0,0,1,0,0,1,7,0,0,0,0,0,0,0,0,0,0,0,0,0,0,0,0,0,0,0,0,0,0,0,0,16,152
guava,v2.0,v3.0,F:/corpus/guava/guava#2010-01-12-01-13-23#v2.0#f5ad01f/src/com/google/common/collect/Iterables.java,F:/corpus/guava/guava#2010-06-03-08-26-58#v3.0#a393220/src/com/google/common/collect/Iterables.java,0,0,0,0,1,0,0,0,0,0,0,1,0,YES,0,0,0,0,5,0,1,1,0,0,0,1,2,1,0,0,0,0,0,2,0,0,0,0,0,0,0,0,0,0,0,0,0,0,0,0,0,0,0,0,0,0,10,4,0,0,1,0,175,758
guava,v2.0,v3.0,F:/corpus/guava/guava#2010-01-12-01-13-23#v2.0#f5ad01f/src/com/google/common/collect/Iterators.java,F:/corpus/guava/guava#2010-06-03-08-26-58#v3.0#a393220/src/com/google/common/collect/Iterators.java,0,0,0,0,0,0,0,0,0,0,0,2,0,YES,0,0,0,0,4,0,0,0,0,0,0,0,0,0,0,0,0,0,0,3,0,0,0,0,0,0,0,0,0,0,0,0,0,0,0,0,0,0,0,0,0,0,2,1,0,0,2,0,91,1034
guava,v2.0,v3.0,F:/corpus/guava/guava#2010-01-12-01-13-23#v2.0#f5ad01f/src/com/google/common/collect/LinkedHashMultimap.java,F:/corpus/guava/guava#2010-06-03-08-26-58#v3.0#a393220/src/com/google/common/collect/LinkedHashMultimap.java,0,0,0,0,0,0,0,0,0,0,0,0,0,YES,0,0,0,0,0,0,0,0,0,0,0,0,0,0,0,0,0,0,0,0,0,0,0,0,0,0,0,0,0,0,0,0,0,0,0,0,0,0,0,0,0,0,0,0,0,0,0,0,1,382
guava,v2.0,v3.0,F:/corpus/guava/guava#2010-01-12-01-13-23#v2.0#f5ad01f/src/com/google/common/collect/LinkedHashMultiset.java,F:/corpus/guava/guava#2010-06-03-08-26-58#v3.0#a393220/src/com/google/common/collect/LinkedHashMultiset.java,0,0,0,0,0,0,0,0,0,0,0,0,0,YES,0,0,0,0,0,0,0,0,0,0,0,0,0,0,0,0,0,0,0,0,0,0,0,0,0,0,0,0,0,0,0,0,0,0,0,0,0,0,0,0,0,0,0,0,0,0,0,0,1,103
guava,v2.0,v3.0,F:/corpus/guava/guava#2010-01-12-01-13-23#v2.0#f5ad01f/src/com/google/common/collect/LinkedListMultimap.java,F:/corpus/guava/guava#2010-06-03-08-26-58#v3.0#a393220/src/com/google/common/collect/LinkedListMultimap.java,0,0,1,0,1,0,0,0,0,0,0,0,0,YES,0,0,0,0,0,0,0,0,0,0,0,0,0,0,0,0,0,0,0,0,0,0,0,0,0,0,0,0,0,0,0,0,0,0,0,0,0,0,0,0,0,0,0,0,0,0,0,0,1,952
guava,v2.0,v3.0,F:/corpus/guava/guava#2010-01-12-01-13-23#v2.0#f5ad01f/src/com/google/common/collect/ListMultimap.java,F:/corpus/guava/guava#2010-06-03-08-26-58#v3.0#a393220/src/com/google/common/collect/ListMultimap.java,0,0,0,0,1,0,0,0,0,0,0,0,0,YES,0,0,0,0,0,0,0,0,0,0,0,0,0,0,0,0,0,0,0,0,0,0,0,0,0,0,0,0,0,0,0,0,0,0,0,0,0,0,0,0,0,0,0,0,0,0,0,0,1,83
guava,v2.0,v3.0,F:/corpus/guava/guava#2010-01-12-01-13-23#v2.0#f5ad01f/src/com/google/common/collect/Lists.java,F:/corpus/guava/guava#2010-06-03-08-26-58#v3.0#a393220/src/com/google/common/collect/Lists.java,0,0,0,0,0,0,2,0,0,0,0,2,0,YES,0,0,0,0,0,0,0,0,0,0,0,0,0,0,0,0,0,0,0,1,0,0,0,0,0,0,0,0,0,0,0,0,0,0,0,0,0,0,0,0,0,0,0,0,0,0,1,0,11,505
guava,v2.0,v3.0,F:/corpus/guava/guava#2010-01-12-01-13-23#v2.0#f5ad01f/src/com/google/common/collect/MapConstraint.java,F:/corpus/guava/guava#2010-06-03-08-26-58#v3.0#a393220/src/com/google/common/collect/MapConstraint.java,0,0,0,0,1,0,0,0,0,0,0,0,0,YES,0,0,0,0,0,0,0,0,0,0,0,0,0,0,0,0,0,0,0,0,0,0,0,0,0,0,0,0,0,0,0,0,0,0,0,0,0,0,0,0,0,0,0,0,0,0,0,0,26,38
guava,v2.0,v3.0,F:/corpus/guava/guava#2010-01-12-01-13-23#v2.0#f5ad01f/src/com/google/common/collect/MapDifference.java,F:/corpus/guava/guava#2010-06-03-08-26-58#v3.0#a393220/src/com/google/common/collect/MapDifference.java,0,0,0,0,2,0,0,0,0,0,0,0,0,YES,0,0,0,0,0,0,0,0,0,0,0,0,0,0,0,0,0,0,0,0,0,0,0,0,0,0,0,0,0,0,0,0,0,0,0,0,0,0,0,0,0,0,0,0,0,0,0,0,1,110
guava,v2.0,v3.0,F:/corpus/guava/guava#2010-01-12-01-13-23#v2.0#f5ad01f/src/com/google/common/collect/MapMaker.java,F:/corpus/guava/guava#2010-06-03-08-26-58#v3.0#a393220/src/com/google/common/collect/MapMaker.java,0,1,0,0,5,0,19,0,0,0,0,0,0,YES,0,0,0,0,0,0,0,0,0,0,0,0,0,0,0,0,0,0,0,0,0,0,0,0,0,0,0,0,0,0,0,0,0,0,0,0,0,0,0,0,0,0,0,0,0,0,0,0,1,1119
guava,v2.0,v3.0,F:/corpus/guava/guava#2010-01-12-01-13-23#v2.0#f5ad01f/src/com/google/common/collect/Maps.java,F:/corpus/guava/guava#2010-06-03-08-26-58#v3.0#a393220/src/com/google/common/collect/Maps.java,0,1,0,0,3,0,0,0,0,0,0,3,0,YES,0,0,0,0,1,0,0,0,0,0,0,0,0,0,0,0,0,0,0,1,0,0,0,0,0,0,0,0,0,0,0,0,0,0,0,0,0,0,0,0,0,0,0,0,0,0,0,0,23,1360
guava,v2.0,v3.0,F:/corpus/guava/guava#2010-01-12-01-13-23#v2.0#f5ad01f/src/com/google/common/collect/Multimap.java,F:/corpus/guava/guava#2010-06-03-08-26-58#v3.0#a393220/src/com/google/common/collect/Multimap.java,0,0,0,0,1,0,0,0,0,0,0,0,0,YES,0,0,0,0,0,0,0,0,0,0,0,0,0,0,0,0,0,0,0,0,0,0,0,0,0,0,0,0,0,0,0,0,0,0,0,0,0,0,0,0,0,0,0,0,0,0,0,0,1,263
guava,v2.0,v3.0,F:/corpus/guava/guava#2010-01-12-01-13-23#v2.0#f5ad01f/src/com/google/common/collect/Multimaps.java,F:/corpus/guava/guava#2010-06-03-08-26-58#v3.0#a393220/src/com/google/common/collect/Multimaps.java,0,1,0,0,16,0,0,0,0,0,0,0,0,YES,0,0,0,0,0,0,0,0,0,0,0,0,0,0,0,0,0,0,0,1,0,0,0,0,0,0,0,0,0,0,0,0,0,0,0,0,0,0,0,0,0,0,0,1,0,0,1,0,3,1228
guava,v2.0,v3.0,F:/corpus/guava/guava#2010-01-12-01-13-23#v2.0#f5ad01f/src/com/google/common/collect/Multiset.java,F:/corpus/guava/guava#2010-06-03-08-26-58#v3.0#a393220/src/com/google/common/collect/Multiset.java,0,0,0,0,2,0,0,0,0,0,0,0,0,YES,0,0,0,0,0,0,0,0,0,0,0,0,0,0,0,0,0,0,0,0,0,0,0,0,0,0,0,0,0,0,0,0,0,0,0,0,0,0,0,0,0,0,0,0,0,0,0,0,1,404
guava,v2.0,v3.0,F:/corpus/guava/guava#2010-01-12-01-13-23#v2.0#f5ad01f/src/com/google/common/collect/Multisets.java,F:/corpus/guava/guava#2010-06-03-08-26-58#v3.0#a393220/src/com/google/common/collect/Multisets.java,0,0,0,0,15,0,1,0,0,0,0,0,0,YES,0,0,0,0,0,0,0,0,0,0,0,0,0,0,0,0,0,0,0,1,0,0,0,0,0,0,0,0,0,0,0,0,0,0,0,0,0,0,0,0,0,0,0,0,0,0,1,0,3,471
guava,v2.0,v3.0,F:/corpus/guava/guava#2010-01-12-01-13-23#v2.0#f5ad01f/src/com/google/common/collect/MutableClassToInstanceMap.java,F:/corpus/guava/guava#2010-06-03-08-26-58#v3.0#a393220/src/com/google/common/collect/MutableClassToInstanceMap.java,0,0,0,0,0,0,0,0,0,0,0,0,0,YES,0,0,0,0,0,0,0,0,0,0,0,1,0,0,0,0,1,0,0,1,0,0,0,0,0,0,0,0,0,0,0,0,0,0,1,1,0,0,0,0,0,0,0,0,0,0,1,0,27,97
guava,v2.0,v3.0,F:/corpus/guava/guava#2010-01-12-01-13-23#v2.0#f5ad01f/src/com/google/common/collect/ObjectArrays.java,F:/corpus/guava/guava#2010-06-03-08-26-58#v3.0#a393220/src/com/google/common/collect/ObjectArrays.java,0,0,0,0,0,0,0,0,0,0,0,3,0,YES,0,0,0,0,0,0,0,0,0,0,0,0,0,0,0,0,0,0,0,0,0,0,0,0,0,0,0,0,0,0,0,0,0,0,0,0,0,0,0,0,0,0,0,0,0,0,0,0,1,176
guava,v2.0,v3.0,F:/corpus/guava/guava#2010-01-12-01-13-23#v2.0#f5ad01f/src/com/google/common/collect/Ordering.java,F:/corpus/guava/guava#2010-06-03-08-26-58#v3.0#a393220/src/com/google/common/collect/Ordering.java,0,0,0,0,1,0,0,0,0,0,0,0,0,YES,0,0,0,0,1,0,0,0,0,0,0,0,0,0,0,0,0,0,0,1,0,0,0,0,0,0,0,0,0,0,0,0,0,0,0,0,0,0,0,0,0,0,0,0,0,0,0,0,30,577
guava,v2.0,v3.0,F:/corpus/guava/guava#2010-01-12-01-13-23#v2.0#f5ad01f/src/com/google/common/collect/PeekingIterator.java,F:/corpus/guava/guava#2010-06-03-08-26-58#v3.0#a393220/src/com/google/common/collect/PeekingIterator.java,0,0,0,0,1,0,0,0,0,0,0,0,0,YES,0,0,0,0,0,0,0,0,0,0,0,0,0,0,0,0,0,0,0,0,0,0,0,0,0,0,0,0,0,0,0,0,0,0,0,0,0,0,0,0,0,0,0,0,0,0,0,0,1,63
guava,v2.0,v3.0,F:/corpus/guava/guava#2010-01-12-01-13-23#v2.0#f5ad01f/src/com/google/common/collect/Platform.java,F:/corpus/guava/guava#2010-06-03-08-26-58#v3.0#a393220/src/com/google/common/collect/Platform.java,0,0,0,0,0,1,0,0,0,0,0,2,0,YES,0,0,0,0,0,1,0,0,0,0,0,0,0,0,0,0,0,0,0,0,0,0,0,0,0,0,0,0,0,0,0,0,0,0,1,0,0,0,0,0,0,0,0,0,0,0,0,0,14,120
guava,v2.0,v3.0,F:/corpus/guava/guava#2010-01-12-01-13-23#v2.0#f5ad01f/src/com/google/common/collect/RegularImmutableBiMap.java,F:/corpus/guava/guava#2010-06-03-08-26-58#v3.0#a393220/src/com/google/common/collect/RegularImmutableBiMap.java,0,0,0,0,0,0,0,0,0,0,0,0,0,YES,0,0,0,0,0,0,0,0,0,0,0,0,0,0,0,0,0,0,0,0,0,0,0,0,0,0,0,0,0,0,0,0,0,0,0,0,0,0,0,0,0,0,0,0,0,0,0,0,1,56
guava,v2.0,v3.0,F:/corpus/guava/guava#2010-01-12-01-13-23#v2.0#f5ad01f/src/com/google/common/collect/RegularImmutableList.java,F:/corpus/guava/guava#2010-06-03-08-26-58#v3.0#a393220/src/com/google/common/collect/RegularImmutableList.java,0,0,0,0,0,0,0,0,0,0,0,0,0,YES,0,0,0,0,0,0,0,0,0,0,0,0,0,0,0,0,0,0,0,0,0,0,0,0,0,0,0,0,0,0,0,0,0,0,0,0,0,0,0,0,0,0,0,0,0,0,2,0,3,235
guava,v2.0,v3.0,F:/corpus/guava/guava#2010-01-12-01-13-23#v2.0#f5ad01f/src/com/google/common/collect/RegularImmutableMap.java,F:/corpus/guava/guava#2010-06-03-08-26-58#v3.0#a393220/src/com/google/common/collect/RegularImmutableMap.java,0,0,0,0,0,0,0,0,0,0,0,0,0,YES,0,0,0,0,0,0,0,0,0,0,0,3,0,0,1,0,0,0,0,0,0,0,0,0,0,0,0,0,0,0,0,0,0,0,0,0,0,0,0,0,0,0,1,0,0,0,3,0,9,213
guava,v2.0,v3.0,F:/corpus/guava/guava#2010-01-12-01-13-23#v2.0#f5ad01f/src/com/google/common/collect/RegularImmutableSet.java,F:/corpus/guava/guava#2010-06-03-08-26-58#v3.0#a393220/src/com/google/common/collect/RegularImmutableSet.java,0,0,0,0,0,0,0,0,0,0,0,0,0,YES,0,0,0,0,0,0,0,0,0,0,0,0,0,0,0,0,0,0,0,0,0,0,0,0,0,0,0,0,0,0,0,0,0,0,0,0,0,0,0,0,0,0,0,0,0,0,0,0,1,67
guava,v2.0,v3.0,F:/corpus/guava/guava#2010-01-12-01-13-23#v2.0#f5ad01f/src/com/google/common/collect/RegularImmutableSortedSet.java,F:/corpus/guava/guava#2010-06-03-08-26-58#v3.0#a393220/src/com/google/common/collect/RegularImmutableSortedSet.java,0,0,0,0,0,0,0,0,0,0,0,0,0,YES,0,0,0,0,0,0,0,0,0,0,0,0,0,0,0,0,0,0,0,0,0,0,0,0,0,0,0,0,0,0,0,0,0,0,0,0,0,0,0,0,0,0,0,0,0,0,2,0,3,273
guava,v2.0,v3.0,F:/corpus/guava/guava#2010-01-12-01-13-23#v2.0#f5ad01f/src/com/google/common/collect/Serialization.java,F:/corpus/guava/guava#2010-06-03-08-26-58#v3.0#a393220/src/com/google/common/collect/Serialization.java,0,0,0,0,0,0,0,0,0,0,0,3,0,YES,0,0,0,0,0,0,0,0,0,0,0,0,0,0,0,0,10,0,0,0,0,0,0,0,0,0,0,0,0,0,0,0,0,0,0,0,0,0,0,0,0,0,0,0,0,0,0,0,10,249
guava,v2.0,v3.0,F:/corpus/guava/guava#2010-01-12-01-13-23#v2.0#f5ad01f/src/com/google/common/collect/SetMultimap.java,F:/corpus/guava/guava#2010-06-03-08-26-58#v3.0#a393220/src/com/google/common/collect/SetMultimap.java,0,0,0,0,1,0,0,0,0,0,0,0,0,YES,0,0,0,0,0,0,0,0,0,0,0,0,0,0,0,0,0,0,0,0,0,0,0,0,0,0,0,0,0,0,0,0,0,0,0,0,0,0,0,0,0,0,0,0,0,0,0,0,1,95
guava,v2.0,v3.0,F:/corpus/guava/guava#2010-01-12-01-13-23#v2.0#f5ad01f/src/com/google/common/collect/Sets.java,F:/corpus/guava/guava#2010-06-03-08-26-58#v3.0#a393220/src/com/google/common/collect/Sets.java,0,0,0,0,1,0,0,0,0,0,0,0,0,YES,0,0,0,0,1,0,1,0,0,0,0,0,0,0,0,0,0,0,0,1,0,0,0,0,0,0,0,0,0,0,0,0,0,0,0,0,0,0,0,0,0,0,0,0,0,3,1,0,38,949
guava,v2.0,v3.0,F:/corpus/guava/guava#2010-01-12-01-13-23#v2.0#f5ad01f/src/com/google/common/collect/SingletonImmutableList.java,F:/corpus/guava/guava#2010-06-03-08-26-58#v3.0#a393220/src/com/google/common/collect/SingletonImmutableList.java,0,0,0,0,0,0,0,0,0,0,0,0,0,YES,0,0,0,0,0,0,0,0,0,0,0,0,0,0,0,0,0,0,0,0,0,0,0,0,0,0,0,0,0,0,0,0,0,0,0,0,0,0,0,0,0,0,0,0,0,0,0,0,2,119
guava,v2.0,v3.0,F:/corpus/guava/guava#2010-01-12-01-13-23#v2.0#f5ad01f/src/com/google/common/collect/SingletonImmutableMap.java,F:/corpus/guava/guava#2010-06-03-08-26-58#v3.0#a393220/src/com/google/common/collect/SingletonImmutableMap.java,0,0,0,0,0,0,0,0,0,0,0,0,0,YES,0,0,0,0,0,0,0,0,0,0,0,2,0,0,0,0,0,0,0,0,0,0,0,0,0,0,0,0,0,0,0,0,0,0,0,0,0,0,0,0,0,0,1,1,0,0,2,0,7,153
guava,v2.0,v3.0,F:/corpus/guava/guava#2010-01-12-01-13-23#v2.0#f5ad01f/src/com/google/common/collect/SingletonImmutableSet.java,F:/corpus/guava/guava#2010-06-03-08-26-58#v3.0#a393220/src/com/google/common/collect/SingletonImmutableSet.java,0,0,0,0,0,0,0,0,0,0,0,0,0,YES,0,0,0,0,0,0,0,0,0,0,0,0,0,0,0,0,0,0,0,0,0,0,0,0,0,0,0,0,0,0,0,0,0,0,0,0,0,0,0,0,0,0,0,0,0,0,0,0,2,116
guava,v2.0,v3.0,F:/corpus/guava/guava#2010-01-12-01-13-23#v2.0#f5ad01f/src/com/google/common/collect/SortedSetMultimap.java,F:/corpus/guava/guava#2010-06-03-08-26-58#v3.0#a393220/src/com/google/common/collect/SortedSetMultimap.java,0,0,0,0,1,0,0,0,0,0,0,0,0,YES,0,0,0,0,0,0,0,0,0,0,0,0,0,0,0,0,0,0,0,0,0,0,0,0,0,0,0,0,0,0,0,0,0,0,0,0,0,0,0,0,0,0,0,0,0,0,0,0,1,101
guava,v2.0,v3.0,F:/corpus/guava/guava#2010-01-12-01-13-23#v2.0#f5ad01f/src/com/google/common/collect/Synchronized.java,F:/corpus/guava/guava#2010-06-03-08-26-58#v3.0#a393220/src/com/google/common/collect/Synchronized.java,0,1,0,2,0,0,0,0,0,0,0,0,0,YES,0,0,0,0,0,0,3,0,0,0,0,0,0,0,0,0,43,28,0,0,9,0,0,0,0,0,0,0,0,0,0,0,0,0,0,0,0,0,0,0,0,0,1,1,0,2,1,0,381,1367
guava,v2.0,v3.0,F:/corpus/guava/guava#2010-01-12-01-13-23#v2.0#f5ad01f/src/com/google/common/collect/TreeMultimap.java,F:/corpus/guava/guava#2010-06-03-08-26-58#v3.0#a393220/src/com/google/common/collect/TreeMultimap.java,0,0,0,0,0,0,0,0,0,0,0,0,0,YES,0,0,0,0,0,0,0,0,0,0,0,0,0,0,0,0,0,0,0,0,0,0,0,0,0,0,0,0,0,0,0,0,0,0,0,0,0,0,0,0,0,0,0,0,0,0,0,0,1,207
guava,v2.0,v3.0,F:/corpus/guava/guava#2010-01-12-01-13-23#v2.0#f5ad01f/src/com/google/common/collect/TreeMultiset.java,F:/corpus/guava/guava#2010-06-03-08-26-58#v3.0#a393220/src/com/google/common/collect/TreeMultiset.java,0,0,0,0,0,0,0,0,0,0,0,0,0,YES,0,0,0,0,0,0,0,0,0,0,0,0,0,0,0,0,0,0,0,0,0,0,0,0,0,0,0,0,0,0,0,0,0,0,0,0,0,0,0,0,0,0,0,0,0,0,0,0,3,215
guava,v2.0,v3.0,F:/corpus/guava/guava#2010-01-12-01-13-23#v2.0#f5ad01f/src/com/google/common/collect/UnmodifiableIterator.java,F:/corpus/guava/guava#2010-06-03-08-26-58#v3.0#a393220/src/com/google/common/collect/UnmodifiableIterator.java,0,0,0,0,1,0,0,0,0,0,0,0,0,YES,0,0,0,0,0,0,0,0,0,0,0,0,0,0,0,0,0,0,0,0,0,0,0,0,0,0,0,0,0,0,0,0,0,0,0,0,0,0,0,0,0,0,0,0,0,0,0,0,1,39
guava,v2.0,v3.0,F:/corpus/guava/guava#2010-01-12-01-13-23#v2.0#f5ad01f/src/com/google/common/collect/package-info.java,F:/corpus/guava/guava#2010-06-03-08-26-58#v3.0#a393220/src/com/google/common/collect/package-info.java,0,0,0,0,0,0,0,0,0,0,0,0,0,YES,0,0,0,0,0,0,0,0,0,0,0,0,0,0,0,0,0,0,0,1,0,0,0,0,0,0,0,0,0,0,0,0,0,0,0,0,0,0,0,0,0,0,0,0,0,0,0,0,131,188
guava,v2.0,v3.0,F:/corpus/guava/guava#2010-01-12-01-13-23#v2.0#f5ad01f/src/com/google/common/io/AppendableWriter.java,F:/corpus/guava/guava#2010-06-03-08-26-58#v3.0#a393220/src/com/google/common/io/AppendableWriter.java,0,0,1,0,0,0,0,0,0,0,0,0,0,YES,0,0,0,0,0,0,0,0,0,0,0,0,0,0,0,0,0,0,0,0,0,0,0,0,0,0,0,0,0,0,0,0,0,0,0,0,0,0,0,0,0,0,0,0,0,0,0,0,3,117
guava,v2.0,v3.0,F:/corpus/guava/guava#2010-01-12-01-13-23#v2.0#f5ad01f/src/com/google/common/io/ByteArrayDataInput.java,F:/corpus/guava/guava#2010-06-03-08-26-58#v3.0#a393220/src/com/google/common/io/ByteArrayDataInput.java,0,0,0,0,1,0,0,0,0,0,0,0,0,YES,0,0,0,0,0,0,0,0,0,0,0,0,0,0,0,0,0,0,0,0,0,0,0,0,0,0,0,0,0,0,0,0,0,0,0,0,0,0,0,0,0,0,0,0,0,0,0,0,4,47
guava,v2.0,v3.0,F:/corpus/guava/guava#2010-01-12-01-13-23#v2.0#f5ad01f/src/com/google/common/io/ByteArrayDataOutput.java,F:/corpus/guava/guava#2010-06-03-08-26-58#v3.0#a393220/src/com/google/common/io/ByteArrayDataOutput.java,0,0,0,0,1,0,0,0,0,0,0,0,0,YES,0,0,0,0,0,0,0,0,0,0,0,0,0,0,0,0,0,0,0,0,0,0,0,0,0,0,0,0,0,0,0,0,0,0,0,0,0,0,0,0,0,0,0,0,0,0,0,0,4,55
guava,v2.0,v3.0,F:/corpus/guava/guava#2010-01-12-01-13-23#v2.0#f5ad01f/src/com/google/common/io/ByteProcessor.java,F:/corpus/guava/guava#2010-06-03-08-26-58#v3.0#a393220/src/com/google/common/io/ByteProcessor.java,0,0,0,0,1,0,0,0,0,0,0,0,0,YES,0,0,0,0,0,0,0,0,0,0,0,0,0,0,0,0,0,0,0,0,0,0,0,0,0,0,0,0,0,0,0,0,0,0,0,0,0,0,0,0,0,0,0,0,0,0,0,0,4,46
guava,v2.0,v3.0,F:/corpus/guava/guava#2010-01-12-01-13-23#v2.0#f5ad01f/src/com/google/common/io/ByteStreams.java,F:/corpus/guava/guava#2010-06-03-08-26-58#v3.0#a393220/src/com/google/common/io/ByteStreams.java,0,0,0,0,0,0,1,0,0,0,0,0,0,YES,0,0,0,0,0,0,0,0,0,0,0,0,0,0,0,0,0,0,0,0,0,0,0,0,0,0,0,0,0,0,0,0,0,0,0,0,0,0,0,0,0,0,0,0,0,0,0,0,3,846
guava,v2.0,v3.0,F:/corpus/guava/guava#2010-01-12-01-13-23#v2.0#f5ad01f/src/com/google/common/io/CharStreams.java,F:/corpus/guava/guava#2010-06-03-08-26-58#v3.0#a393220/src/com/google/common/io/CharStreams.java,0,0,0,0,0,0,0,0,0,0,0,0,0,YES,0,0,0,0,0,0,0,0,0,0,0,0,0,0,0,0,0,0,0,0,0,0,0,0,0,0,0,0,0,0,0,0,0,0,0,0,0,0,0,0,0,0,0,0,0,0,0,0,6,434
guava,v2.0,v3.0,F:/corpus/guava/guava#2010-01-12-01-13-23#v2.0#f5ad01f/src/com/google/common/io/Closeables.java,F:/corpus/guava/guava#2010-06-03-08-26-58#v3.0#a393220/src/com/google/common/io/Closeables.java,0,0,0,0,0,0,0,0,0,0,0,0,0,YES,0,0,0,0,0,0,0,0,0,0,0,0,0,0,0,0,0,0,0,0,0,0,0,0,0,0,0,0,0,0,0,0,0,0,0,0,0,0,0,0,0,0,0,0,0,0,0,0,4,100
guava,v2.0,v3.0,F:/corpus/guava/guava#2010-01-12-01-13-23#v2.0#f5ad01f/src/com/google/common/io/CountingInputStream.java,F:/corpus/guava/guava#2010-06-03-08-26-58#v3.0#a393220/src/com/google/common/io/CountingInputStream.java,0,0,0,0,0,0,0,0,0,0,0,0,0,YES,0,0,0,0,0,0,0,0,0,0,0,0,0,0,0,0,0,0,0,0,0,0,0,0,0,0,0,0,0,0,0,0,0,0,0,0,0,0,0,0,0,0,0,0,0,0,0,0,4,87
guava,v2.0,v3.0,F:/corpus/guava/guava#2010-01-12-01-13-23#v2.0#f5ad01f/src/com/google/common/io/CountingOutputStream.java,F:/corpus/guava/guava#2010-06-03-08-26-58#v3.0#a393220/src/com/google/common/io/CountingOutputStream.java,0,0,0,0,0,0,0,0,0,0,0,0,0,YES,0,0,0,0,0,0,0,0,0,0,0,0,0,0,0,0,0,0,0,0,0,0,0,0,0,0,0,0,0,0,0,0,0,0,0,0,0,0,0,0,0,0,0,0,0,0,0,0,4,56
guava,v2.0,v3.0,F:/corpus/guava/guava#2010-01-12-01-13-23#v2.0#f5ad01f/src/com/google/common/io/FileBackedOutputStream.java,F:/corpus/guava/guava#2010-06-03-08-26-58#v3.0#a393220/src/com/google/common/io/FileBackedOutputStream.java,0,0,0,0,0,0,0,0,0,0,0,0,0,YES,0,0,0,0,0,0,0,0,0,0,0,0,0,0,0,0,0,0,0,0,0,0,0,0,0,0,0,0,0,0,0,0,0,0,0,0,0,0,0,0,0,0,0,0,0,0,0,0,6,204
guava,v2.0,v3.0,F:/corpus/guava/guava#2010-01-12-01-13-23#v2.0#f5ad01f/src/com/google/common/io/Files.java,F:/corpus/guava/guava#2010-06-03-08-26-58#v3.0#a393220/src/com/google/common/io/Files.java,0,0,0,0,0,0,0,0,0,0,0,0,0,YES,0,0,0,0,0,0,0,0,0,0,0,0,0,0,0,0,0,0,0,0,0,0,0,0,0,0,0,0,0,0,0,0,0,0,0,0,0,0,0,0,0,0,0,0,0,0,0,0,6,696
guava,v2.0,v3.0,F:/corpus/guava/guava#2010-01-12-01-13-23#v2.0#f5ad01f/src/com/google/common/io/Flushables.java,F:/corpus/guava/guava#2010-06-03-08-26-58#v3.0#a393220/src/com/google/common/io/Flushables.java,0,0,0,0,0,0,0,0,0,0,0,0,0,YES,0,0,0,0,0,0,0,0,0,0,0,0,0,0,0,0,0,0,0,0,0,0,0,0,0,0,0,0,0,0,0,0,0,0,0,0,0,0,0,0,0,0,0,0,0,0,0,0,4,76
guava,v2.0,v3.0,F:/corpus/guava/guava#2010-01-12-01-13-23#v2.0#f5ad01f/src/com/google/common/io/InputSupplier.java,F:/corpus/guava/guava#2010-06-03-08-26-58#v3.0#a393220/src/com/google/common/io/InputSupplier.java,0,0,0,0,1,0,0,0,0,0,0,0,0,YES,0,0,0,0,0,0,0,0,0,0,0,0,0,0,0,0,0,0,0,0,0,0,0,0,0,0,0,0,0,0,0,0,0,0,0,0,0,0,0,0,0,0,0,0,0,0,0,0,4,29
guava,v2.0,v3.0,F:/corpus/guava/guava#2010-01-12-01-13-23#v2.0#f5ad01f/src/com/google/common/io/LimitInputStream.java,F:/corpus/guava/guava#2010-06-03-08-26-58#v3.0#a393220/src/com/google/common/io/LimitInputStream.java,0,0,0,0,0,0,0,0,0,0,0,0,0,YES,0,0,0,0,0,0,0,0,0,0,0,0,0,0,0,0,0,0,0,0,0,0,0,0,0,0,0,0,0,0,0,0,0,0,0,0,0,0,0,0,0,0,0,0,0,0,0,0,6,103
guava,v2.0,v3.0,F:/corpus/guava/guava#2010-01-12-01-13-23#v2.0#f5ad01f/src/com/google/common/io/LineBuffer.java,F:/corpus/guava/guava#2010-06-03-08-26-58#v3.0#a393220/src/com/google/common/io/LineBuffer.java,0,0,0,0,1,0,0,0,0,0,0,0,0,YES,0,0,0,0,0,0,0,0,0,0,0,0,0,0,0,0,0,0,0,0,0,0,0,0,0,0,0,0,0,0,0,0,0,0,0,0,0,0,0,0,0,0,0,0,0,0,0,0,1,118
guava,v2.0,v3.0,F:/corpus/guava/guava#2010-01-12-01-13-23#v2.0#f5ad01f/src/com/google/common/io/LineProcessor.java,F:/corpus/guava/guava#2010-06-03-08-26-58#v3.0#a393220/src/com/google/common/io/LineProcessor.java,0,0,0,0,1,0,0,0,0,0,0,0,0,YES,0,0,0,0,0,0,0,0,0,0,0,0,0,0,0,0,0,0,0,0,0,0,0,0,0,0,0,0,0,0,0,0,0,0,0,0,0,0,0,0,0,0,0,0,0,0,0,0,4,42
guava,v2.0,v3.0,F:/corpus/guava/guava#2010-01-12-01-13-23#v2.0#f5ad01f/src/com/google/common/io/LineReader.java,F:/corpus/guava/guava#2010-06-03-08-26-58#v3.0#a393220/src/com/google/common/io/LineReader.java,0,0,0,0,0,0,0,0,0,0,0,0,0,YES,0,0,0,0,0,0,0,0,0,0,0,0,0,0,0,0,0,0,0,0,0,0,0,0,0,0,0,0,0,0,0,0,0,0,0,0,0,0,0,0,0,0,0,0,0,0,0,0,3,85
guava,v2.0,v3.0,F:/corpus/guava/guava#2010-01-12-01-13-23#v2.0#f5ad01f/src/com/google/common/io/MultiInputStream.java,F:/corpus/guava/guava#2010-06-03-08-26-58#v3.0#a393220/src/com/google/common/io/MultiInputStream.java,0,0,0,0,0,0,0,0,0,0,0,0,0,YES,0,0,0,0,0,0,0,0,0,0,0,0,0,0,0,0,0,0,0,0,0,0,0,0,0,0,0,0,0,0,0,0,0,0,0,0,0,0,0,0,0,0,0,0,0,0,0,0,3,115
guava,v2.0,v3.0,F:/corpus/guava/guava#2010-01-12-01-13-23#v2.0#f5ad01f/src/com/google/common/io/MultiReader.java,F:/corpus/guava/guava#2010-06-03-08-26-58#v3.0#a393220/src/com/google/common/io/MultiReader.java,0,0,0,0,0,0,0,0,0,0,0,0,0,YES,0,0,0,0,0,0,0,0,0,0,0,0,0,0,0,0,0,0,0,0,0,0,0,0,0,0,0,0,0,0,0,0,0,0,0,0,0,0,0,0,0,0,0,0,0,0,0,0,3,90
guava,v2.0,v3.0,F:/corpus/guava/guava#2010-01-12-01-13-23#v2.0#f5ad01f/src/com/google/common/io/NullOutputStream.java,F:/corpus/guava/guava#2010-06-03-08-26-58#v3.0#a393220/src/com/google/common/io/NullOutputStream.java,0,0,0,0,0,0,0,0,0,0,0,0,0,YES,0,0,0,0,0,0,0,0,0,0,0,0,0,0,0,0,0,0,0,0,0,0,0,0,0,0,0,0,0,0,0,0,0,0,0,0,0,0,0,0,0,0,0,0,0,0,0,0,4,35
guava,v2.0,v3.0,F:/corpus/guava/guava#2010-01-12-01-13-23#v2.0#f5ad01f/src/com/google/common/io/OutputSupplier.java,F:/corpus/guava/guava#2010-06-03-08-26-58#v3.0#a393220/src/com/google/common/io/OutputSupplier.java,0,0,0,0,1,0,0,0,0,0,0,0,0,YES,0,0,0,0,0,0,0,0,0,0,0,0,0,0,0,0,0,0,0,0,0,0,0,0,0,0,0,0,0,0,0,0,0,0,0,0,0,0,0,0,0,0,0,0,0,0,0,0,4,29
guava,v2.0,v3.0,F:/corpus/guava/guava#2010-01-12-01-13-23#v2.0#f5ad01f/src/com/google/common/io/PatternFilenameFilter.java,F:/corpus/guava/guava#2010-06-03-08-26-58#v3.0#a393220/src/com/google/common/io/PatternFilenameFilter.java,0,0,0,0,1,0,0,0,0,0,0,0,0,YES,0,0,0,0,0,0,0,0,0,0,0,0,0,0,0,0,0,0,0,0,0,0,0,0,0,0,0,0,0,0,0,0,0,0,0,0,0,0,0,0,0,0,0,0,0,0,0,0,3,57
guava,v2.0,v3.0,F:/corpus/guava/guava#2010-01-12-01-13-23#v2.0#f5ad01f/src/com/google/common/io/Resources.java,F:/corpus/guava/guava#2010-06-03-08-26-58#v3.0#a393220/src/com/google/common/io/Resources.java,0,0,0,0,0,0,0,0,0,0,0,0,0,YES,0,0,0,0,0,0,0,0,0,0,0,0,0,0,0,0,1,0,0,1,0,0,0,0,0,0,0,0,0,0,0,0,0,0,0,0,0,0,0,0,0,0,0,0,0,0,0,0,5,163
guava,v2.0,v3.0,F:/corpus/guava/guava#2010-01-12-01-13-23#v2.0#f5ad01f/src/com/google/common/io/package-info.java,F:/corpus/guava/guava#2010-06-03-08-26-58#v3.0#a393220/src/com/google/common/io/package-info.java,0,0,0,0,0,0,0,0,0,0,0,0,0,YES,0,0,0,0,0,0,0,0,0,0,0,0,0,0,0,0,0,0,1,0,0,0,0,0,0,0,0,0,0,0,0,0,0,0,0,0,0,0,0,0,0,0,0,0,0,0,0,0,9,39
guava,v2.0,v3.0,F:/corpus/guava/guava#2010-01-12-01-13-23#v2.0#f5ad01f/src/com/google/common/primitives/Booleans.java,F:/corpus/guava/guava#2010-06-03-08-26-58#v3.0#a393220/src/com/google/common/primitives/Booleans.java,0,0,0,0,0,0,0,0,0,0,0,0,0,YES,0,0,0,0,0,0,0,0,0,0,0,0,0,0,0,0,0,0,0,0,0,0,0,0,0,0,0,0,0,0,0,0,0,0,0,0,0,0,0,0,0,0,0,0,0,0,0,0,2,465
guava,v2.0,v3.0,F:/corpus/guava/guava#2010-01-12-01-13-23#v2.0#f5ad01f/src/com/google/common/primitives/Bytes.java,F:/corpus/guava/guava#2010-06-03-08-26-58#v3.0#a393220/src/com/google/common/primitives/Bytes.java,0,0,0,0,0,0,0,0,0,0,0,0,0,YES,0,0,0,0,0,0,0,0,0,0,0,0,0,0,0,0,0,0,0,0,0,0,0,0,0,0,0,0,0,0,0,0,0,0,0,0,0,0,0,0,0,0,0,0,0,0,0,0,10,380
guava,v2.0,v3.0,F:/corpus/guava/guava#2010-01-12-01-13-23#v2.0#f5ad01f/src/com/google/common/primitives/Chars.java,F:/corpus/guava/guava#2010-06-03-08-26-58#v3.0#a393220/src/com/google/common/primitives/Chars.java,0,0,0,0,0,0,0,0,0,0,0,0,0,YES,0,0,0,0,0,0,0,0,0,0,0,0,0,0,0,0,0,0,0,0,0,0,0,0,0,0,0,0,0,0,0,0,0,0,0,0,0,0,0,0,0,0,0,0,0,0,0,0,5,566
guava,v2.0,v3.0,F:/corpus/guava/guava#2010-01-12-01-13-23#v2.0#f5ad01f/src/com/google/common/primitives/Doubles.java,F:/corpus/guava/guava#2010-06-03-08-26-58#v3.0#a393220/src/com/google/common/primitives/Doubles.java,0,0,0,0,0,0,0,0,0,0,0,0,0,YES,0,0,0,0,0,0,0,0,0,0,0,0,0,0,0,0,0,0,0,0,0,0,0,0,0,0,0,0,0,0,0,0,0,0,0,0,0,0,0,0,0,0,0,0,0,0,0,0,2,502
guava,v2.0,v3.0,F:/corpus/guava/guava#2010-01-12-01-13-23#v2.0#f5ad01f/src/com/google/common/primitives/Floats.java,F:/corpus/guava/guava#2010-06-03-08-26-58#v3.0#a393220/src/com/google/common/primitives/Floats.java,0,0,0,0,0,0,0,0,0,0,0,0,0,YES,0,0,0,0,0,0,0,0,0,0,0,0,0,0,0,0,0,0,0,0,0,0,0,0,0,0,0,0,0,0,0,0,0,0,0,0,0,0,0,0,0,0,0,0,0,0,0,0,2,499
guava,v2.0,v3.0,F:/corpus/guava/guava#2010-01-12-01-13-23#v2.0#f5ad01f/src/com/google/common/primitives/Ints.java,F:/corpus/guava/guava#2010-06-03-08-26-58#v3.0#a393220/src/com/google/common/primitives/Ints.java,0,0,0,0,0,0,0,0,0,0,0,0,0,YES,0,0,0,0,0,0,0,0,0,0,0,0,0,0,0,0,0,0,0,0,0,0,0,0,0,0,0,0,0,0,0,0,0,0,0,0,0,0,0,0,0,0,0,0,0,0,0,0,2,573
guava,v2.0,v3.0,F:/corpus/guava/guava#2010-01-12-01-13-23#v2.0#f5ad01f/src/com/google/common/primitives/Longs.java,F:/corpus/guava/guava#2010-06-03-08-26-58#v3.0#a393220/src/com/google/common/primitives/Longs.java,0,0,0,0,0,0,0,0,0,0,0,0,0,YES,0,0,0,0,0,0,0,0,0,0,0,0,0,0,0,0,0,0,0,0,0,0,0,0,0,0,0,0,0,0,0,0,0,0,0,0,0,0,0,0,0,0,0,0,0,0,0,0,2,551
guava,v2.0,v3.0,F:/corpus/guava/guava#2010-01-12-01-13-23#v2.0#f5ad01f/src/com/google/common/primitives/Primitives.java,F:/corpus/guava/guava#2010-06-03-08-26-58#v3.0#a393220/src/com/google/common/primitives/Primitives.java,0,0,0,0,0,0,0,0,0,0,0,0,0,YES,0,0,0,0,2,0,0,0,0,0,0,0,0,0,0,0,2,0,0,1,0,0,0,0,0,0,0,0,0,0,0,0,0,0,0,2,0,0,0,0,0,0,0,0,0,0,0,0,9,121
guava,v2.0,v3.0,F:/corpus/guava/guava#2010-01-12-01-13-23#v2.0#f5ad01f/src/com/google/common/primitives/Shorts.java,F:/corpus/guava/guava#2010-06-03-08-26-58#v3.0#a393220/src/com/google/common/primitives/Shorts.java,0,0,0,0,0,0,0,0,0,0,0,0,0,YES,0,0,0,0,0,0,0,0,0,0,0,0,0,0,0,0,0,0,0,0,0,0,0,0,0,0,0,0,0,0,0,0,0,0,0,0,0,0,0,0,0,0,0,0,0,0,0,0,3,565
guava,v2.0,v3.0,F:/corpus/guava/guava#2010-01-12-01-13-23#v2.0#f5ad01f/src/com/google/common/primitives/SignedBytes.java,F:/corpus/guava/guava#2010-06-03-08-26-58#v3.0#a393220/src/com/google/common/primitives/SignedBytes.java,0,0,0,0,0,0,0,0,0,0,0,0,0,YES,0,0,0,0,0,0,0,0,0,0,0,0,0,0,0,0,0,0,0,0,0,0,0,0,0,0,0,0,0,0,0,0,0,0,0,0,0,0,0,0,0,0,0,0,0,0,0,0,2,180
guava,v2.0,v3.0,F:/corpus/guava/guava#2010-01-12-01-13-23#v2.0#f5ad01f/src/com/google/common/primitives/UnsignedBytes.java,F:/corpus/guava/guava#2010-06-03-08-26-58#v3.0#a393220/src/com/google/common/primitives/UnsignedBytes.java,0,0,0,0,0,0,0,0,0,0,0,0,0,YES,0,0,0,0,0,0,0,0,0,0,0,0,0,0,0,0,0,0,0,0,0,0,0,0,0,0,0,0,0,0,0,0,0,0,0,0,0,0,0,0,0,0,0,0,0,0,0,0,2,183
guava,v2.0,v3.0,F:/corpus/guava/guava#2010-01-12-01-13-23#v2.0#f5ad01f/src/com/google/common/util/concurrent/AbstractCheckedFuture.java,F:/corpus/guava/guava#2010-06-03-08-26-58#v3.0#a393220/src/com/google/common/util/concurrent/AbstractCheckedFuture.java,0,0,0,0,1,0,0,0,0,0,0,0,0,YES,0,0,0,0,0,0,0,0,0,0,0,0,0,0,0,0,0,0,0,0,0,0,0,0,0,0,0,0,0,0,0,0,0,0,0,0,0,0,0,0,0,0,0,0,0,0,0,0,4,115
guava,v2.0,v3.0,F:/corpus/guava/guava#2010-01-12-01-13-23#v2.0#f5ad01f/src/com/google/common/util/concurrent/AbstractExecutionThreadService.java,F:/corpus/guava/guava#2010-06-03-08-26-58#v3.0#a393220/src/com/google/common/util/concurrent/AbstractExecutionThreadService.java,0,0,0,0,1,1,0,0,0,0,0,0,0,YES,0,0,0,0,1,0,0,0,0,0,0,0,0,0,0,0,0,0,0,1,0,0,0,0,0,0,0,0,0,0,0,0,0,0,0,0,0,0,0,0,0,0,1,1,0,0,1,0,10,149
guava,v2.0,v3.0,F:/corpus/guava/guava#2010-01-12-01-13-23#v2.0#f5ad01f/src/com/google/common/util/concurrent/AbstractFuture.java,F:/corpus/guava/guava#2010-06-03-08-26-58#v3.0#a393220/src/com/google/common/util/concurrent/AbstractFuture.java,0,0,0,0,3,0,0,0,0,0,0,0,0,YES,0,0,0,0,0,0,0,0,0,0,0,0,0,0,0,0,0,0,0,0,0,0,0,0,0,0,0,0,0,0,0,0,0,0,0,0,0,0,0,0,0,0,0,0,0,0,0,0,4,322
guava,v2.0,v3.0,F:/corpus/guava/guava#2010-01-12-01-13-23#v2.0#f5ad01f/src/com/google/common/util/concurrent/AbstractIdleService.java,F:/corpus/guava/guava#2010-06-03-08-26-58#v3.0#a393220/src/com/google/common/util/concurrent/AbstractIdleService.java,0,0,0,0,1,1,0,0,0,0,0,0,0,YES,0,0,0,0,1,0,0,0,0,0,0,0,0,0,0,0,0,0,0,2,0,0,0,0,0,0,0,0,0,0,0,0,0,0,0,0,0,0,0,0,0,0,1,1,0,0,1,0,12,124
guava,v2.0,v3.0,F:/corpus/guava/guava#2010-01-12-01-13-23#v2.0#f5ad01f/src/com/google/common/util/concurrent/AbstractListenableFuture.java,F:/corpus/guava/guava#2010-06-03-08-26-58#v3.0#a393220/src/com/google/common/util/concurrent/AbstractListenableFuture.java,0,0,1,0,1,0,0,0,0,0,0,0,0,YES,0,0,0,0,0,0,0,0,0,0,0,0,0,0,0,0,0,0,0,0,0,0,0,0,0,0,0,0,0,0,0,0,0,0,0,0,0,0,0,0,0,0,0,0,0,0,0,0,4,59
guava,v2.0,v3.0,F:/corpus/guava/guava#2010-01-12-01-13-23#v2.0#f5ad01f/src/com/google/common/util/concurrent/AbstractService.java,F:/corpus/guava/guava#2010-06-03-08-26-58#v3.0#a393220/src/com/google/common/util/concurrent/AbstractService.java,0,0,1,0,2,0,0,0,0,0,0,0,0,YES,0,0,0,0,1,0,0,0,0,0,0,0,0,0,0,0,0,0,0,1,0,0,0,0,0,0,0,0,0,0,0,0,0,0,0,0,0,0,0,0,0,0,0,0,0,0,1,1,9,304
guava,v2.0,v3.0,F:/corpus/guava/guava#2010-01-12-01-13-23#v2.0#f5ad01f/src/com/google/common/util/concurrent/Callables.java,F:/corpus/guava/guava#2010-06-03-08-26-58#v3.0#a393220/src/com/google/common/util/concurrent/Callables.java,0,0,0,0,0,0,0,0,0,0,0,0,0,YES,0,0,0,0,0,0,0,0,0,0,0,0,0,0,0,0,0,0,0,0,0,0,0,0,0,0,0,0,0,0,0,0,0,0,0,0,0,0,0,0,0,0,0,0,0,0,0,0,4,43
guava,v2.0,v3.0,F:/corpus/guava/guava#2010-01-12-01-13-23#v2.0#f5ad01f/src/com/google/common/util/concurrent/CheckedFuture.java,F:/corpus/guava/guava#2010-06-03-08-26-58#v3.0#a393220/src/com/google/common/util/concurrent/CheckedFuture.java,0,0,0,0,1,0,0,0,0,0,0,0,0,YES,0,0,0,0,0,0,0,0,0,0,0,0,0,0,0,0,2,0,0,1,0,0,0,0,0,0,0,0,0,0,0,0,0,0,0,0,0,0,0,0,0,0,0,0,0,0,0,0,7,70
guava,v2.0,v3.0,F:/corpus/guava/guava#2010-01-12-01-13-23#v2.0#f5ad01f/src/com/google/common/util/concurrent/DaemonThreadFactory.java,F:/corpus/guava/guava#2010-06-03-08-26-58#v3.0#a393220/src/com/google/common/util/concurrent/DaemonThreadFactory.java,0,0,0,0,0,0,0,0,0,0,0,0,0,YES,0,0,0,0,0,0,0,0,0,0,0,0,0,0,0,0,0,0,0,0,0,0,0,0,0,0,0,0,0,0,0,0,0,0,0,0,0,0,0,0,0,0,0,0,0,0,0,0,3,44
guava,v2.0,v3.0,F:/corpus/guava/guava#2010-01-12-01-13-23#v2.0#f5ad01f/src/com/google/common/util/concurrent/ExecutionList.java,F:/corpus/guava/guava#2010-06-03-08-26-58#v3.0#a393220/src/com/google/common/util/concurrent/ExecutionList.java,0,0,0,0,0,0,0,0,0,0,0,0,0,YES,0,0,0,0,0,0,0,0,0,0,0,0,0,0,0,0,0,0,0,0,0,0,0,0,0,0,0,0,0,0,0,0,0,0,0,0,0,0,0,0,0,0,0,0,0,0,0,0,3,127
guava,v2.0,v3.0,F:/corpus/guava/guava#2010-01-12-01-13-23#v2.0#f5ad01f/src/com/google/common/util/concurrent/Executors.java,F:/corpus/guava/guava#2010-06-03-08-26-58#v3.0#a393220/src/com/google/common/util/concurrent/Executors.java,0,0,1,0,0,0,0,0,0,0,0,0,0,YES,0,0,0,0,0,0,0,0,0,0,0,0,0,0,0,0,1,0,0,9,0,0,0,0,0,0,0,0,0,0,0,0,0,1,0,0,0,1,0,0,0,0,9,3,0,0,5,0,278,353
guava,v2.0,v3.0,F:/corpus/guava/guava#2010-01-12-01-13-23#v2.0#f5ad01f/src/com/google/common/util/concurrent/FakeTimeLimiter.java,F:/corpus/guava/guava#2010-06-03-08-26-58#v3.0#a393220/src/com/google/common/util/concurrent/FakeTimeLimiter.java,0,0,0,0,2,0,0,0,0,0,0,0,0,YES,0,0,0,0,0,0,0,0,0,0,0,0,0,0,0,0,0,0,0,0,0,0,0,0,0,0,0,0,0,0,0,0,0,0,0,0,0,0,0,0,0,0,0,0,0,0,0,0,4,42
guava,v2.0,v3.0,F:/corpus/guava/guava#2010-01-12-01-13-23#v2.0#f5ad01f/src/com/google/common/util/concurrent/ForwardingFuture.java,F:/corpus/guava/guava#2010-06-03-08-26-58#v3.0#a393220/src/com/google/common/util/concurrent/ForwardingFuture.java,0,0,0,0,1,0,0,0,0,0,0,0,0,YES,0,0,0,0,0,0,0,0,0,0,0,0,0,0,0,0,0,0,0,0,0,0,0,0,0,0,0,0,0,0,0,0,0,0,0,0,0,0,0,0,0,0,0,0,0,0,0,0,3,66
guava,v2.0,v3.0,F:/corpus/guava/guava#2010-01-12-01-13-23#v2.0#f5ad01f/src/com/google/common/util/concurrent/ForwardingService.java,F:/corpus/guava/guava#2010-06-03-08-26-58#v3.0#a393220/src/com/google/common/util/concurrent/ForwardingService.java,0,0,0,0,1,0,0,0,0,0,0,0,0,YES,0,0,0,0,0,0,0,0,0,0,0,0,0,0,0,0,0,0,0,0,0,0,0,0,0,0,0,0,0,0,0,0,0,0,0,0,0,0,0,0,0,0,0,0,0,0,0,0,3,58
guava,v2.0,v3.0,F:/corpus/guava/guava#2010-01-12-01-13-23#v2.0#f5ad01f/src/com/google/common/util/concurrent/Futures.java,F:/corpus/guava/guava#2010-06-03-08-26-58#v3.0#a393220/src/com/google/common/util/concurrent/Futures.java,0,0,0,0,0,0,0,0,0,0,0,0,0,YES,0,0,0,0,0,0,0,0,0,0,0,1,0,0,0,0,0,0,0,3,0,0,0,0,0,0,0,0,0,0,0,0,0,0,0,0,0,0,0,0,0,0,1,4,0,0,7,0,27,565
guava,v2.0,v3.0,F:/corpus/guava/guava#2010-01-12-01-13-23#v2.0#f5ad01f/src/com/google/common/util/concurrent/ListenableFuture.java,F:/corpus/guava/guava#2010-06-03-08-26-58#v3.0#a393220/src/com/google/common/util/concurrent/ListenableFuture.java,0,0,0,0,1,0,0,0,0,0,0,0,0,YES,0,0,0,0,0,0,0,0,0,0,0,0,0,0,0,0,1,0,0,1,0,0,0,0,0,0,0,0,0,0,0,0,0,0,0,0,0,0,0,0,0,0,0,0,0,0,0,0,6,68
guava,v2.0,v3.0,F:/corpus/guava/guava#2010-01-12-01-13-23#v2.0#f5ad01f/src/com/google/common/util/concurrent/ListenableFutureTask.java,F:/corpus/guava/guava#2010-06-03-08-26-58#v3.0#a393220/src/com/google/common/util/concurrent/ListenableFutureTask.java,0,0,0,0,0,0,0,0,0,0,0,0,0,YES,0,0,0,0,0,0,0,0,0,0,0,0,0,0,0,0,0,0,0,0,0,0,0,0,0,0,0,0,0,0,0,0,0,0,0,0,0,0,0,0,0,0,0,0,0,0,0,0,4,74
guava,v2.0,v3.0,F:/corpus/guava/guava#2010-01-12-01-13-23#v2.0#f5ad01f/src/com/google/common/util/concurrent/NamingThreadFactory.java,F:/corpus/guava/guava#2010-06-03-08-26-58#v3.0#a393220/src/com/google/common/util/concurrent/NamingThreadFactory.java,0,0,0,0,0,0,0,0,0,0,0,0,0,YES,0,0,0,0,0,0,0,0,0,0,0,0,0,0,0,0,0,0,0,0,0,0,0,0,0,0,0,0,0,0,0,0,0,0,0,0,0,0,0,0,0,0,0,0,0,0,0,0,4,77
guava,v2.0,v3.0,F:/corpus/guava/guava#2010-01-12-01-13-23#v2.0#f5ad01f/src/com/google/common/util/concurrent/SimpleTimeLimiter.java,F:/corpus/guava/guava#2010-06-03-08-26-58#v3.0#a393220/src/com/google/common/util/concurrent/SimpleTimeLimiter.java,0,0,0,0,0,0,0,0,0,0,0,0,0,YES,0,0,0,0,0,0,0,0,0,0,0,0,0,0,0,0,0,0,0,0,0,0,0,0,0,0,0,0,0,0,0,0,0,0,0,0,0,0,0,0,0,0,0,0,0,0,0,0,6,168
guava,v2.0,v3.0,F:/corpus/guava/guava#2010-01-12-01-13-23#v2.0#f5ad01f/src/com/google/common/util/concurrent/TimeLimiter.java,F:/corpus/guava/guava#2010-06-03-08-26-58#v3.0#a393220/src/com/google/common/util/concurrent/TimeLimiter.java,0,0,0,0,0,0,0,0,0,0,0,0,0,YES,0,0,0,0,0,0,0,0,0,0,0,0,0,0,0,0,0,0,0,0,0,0,0,0,0,0,0,0,0,0,0,0,0,0,0,0,0,0,0,0,0,0,0,0,0,0,0,0,4,103
guava,v2.0,v3.0,F:/corpus/guava/guava#2010-01-12-01-13-23#v2.0#f5ad01f/src/com/google/common/util/concurrent/UncheckedTimeoutException.java,F:/corpus/guava/guava#2010-06-03-08-26-58#v3.0#a393220/src/com/google/common/util/concurrent/UncheckedTimeoutException.java,0,0,0,0,0,0,0,0,0,0,0,0,0,YES,0,0,0,0,0,0,0,0,0,0,0,0,0,0,0,0,0,0,0,0,0,0,0,0,0,0,0,0,0,0,0,0,0,0,0,0,0,0,0,0,0,0,0,0,0,0,0,0,4,41
guava,v2.0,v3.0,F:/corpus/guava/guava#2010-01-12-01-13-23#v2.0#f5ad01f/src/com/google/common/util/concurrent/UninterruptibleFuture.java,F:/corpus/guava/guava#2010-06-03-08-26-58#v3.0#a393220/src/com/google/common/util/concurrent/UninterruptibleFuture.java,0,0,0,0,1,0,0,0,0,0,0,0,0,YES,0,0,0,0,0,0,0,0,0,0,0,0,0,0,0,0,0,0,0,0,0,0,0,0,0,0,0,0,0,0,0,0,0,0,0,0,0,0,0,0,0,0,0,0,0,0,0,0,4,39
guava,v2.0,v3.0,F:/corpus/guava/guava#2010-01-12-01-13-23#v2.0#f5ad01f/src/com/google/common/util/concurrent/ValueFuture.java,F:/corpus/guava/guava#2010-06-03-08-26-58#v3.0#a393220/src/com/google/common/util/concurrent/ValueFuture.java,0,0,0,0,1,0,0,0,0,0,0,0,0,YES,0,0,0,0,0,0,0,0,0,0,0,0,0,0,0,0,0,0,0,0,0,0,0,0,0,0,0,0,0,0,0,0,0,0,0,0,0,0,0,0,0,0,0,0,0,0,0,0,4,77
guava,v2.0,v3.0,F:/corpus/guava/guava#2010-01-12-01-13-23#v2.0#f5ad01f/src/com/google/common/base/Defaults.java,F:/corpus/guava/guava#2010-01-12-01-13-23#v2.0#f5ad01f/src/com/google/common/base/Defaults.java,0,0,0,0,0,0,0,0,0,0,0,0,0,NO,0,0,0,0,0,0,0,0,0,0,0,0,0,0,0,0,0,0,0,0,0,0,0,0,0,0,0,0,0,0,0,0,0,0,0,0,0,0,0,0,0,0,0,0,0,0,0,0,0,57
guava,v2.0,v3.0,F:/corpus/guava/guava#2010-01-12-01-13-23#v2.0#f5ad01f/src/com/google/common/base/internal/Finalizer.java,F:/corpus/guava/guava#2010-01-12-01-13-23#v2.0#f5ad01f/src/com/google/common/base/internal/Finalizer.java,0,0,0,0,0,0,0,0,0,0,0,0,0,NO,0,0,0,0,0,0,0,0,0,0,0,0,0,0,0,0,0,0,0,0,0,0,0,0,0,0,0,0,0,0,0,0,0,0,0,0,0,0,0,0,0,0,0,0,0,0,0,0,0,207
guava,v2.0,v3.0,F:/corpus/guava/guava#2010-01-12-01-13-23#v2.0#f5ad01f/src/com/google/common/base/Platform.java,F:/corpus/guava/guava#2010-01-12-01-13-23#v2.0#f5ad01f/src/com/google/common/base/Platform.java,0,0,0,0,0,0,0,0,0,0,0,0,0,NO,0,0,0,0,0,0,0,0,0,0,0,0,0,0,0,0,0,0,0,0,0,0,0,0,0,0,0,0,0,0,0,0,0,0,0,0,0,0,0,0,0,0,0,0,0,0,0,0,0,59
guava,v2.0,v3.0,F:/corpus/guava/guava#2010-01-12-01-13-23#v2.0#f5ad01f/src/com/google/common/collect/AbstractBiMap.java,F:/corpus/guava/guava#2010-01-12-01-13-23#v2.0#f5ad01f/src/com/google/common/collect/AbstractBiMap.java,0,0,0,0,1,0,0,0,0,0,0,0,0,NO,0,0,0,0,0,0,0,0,0,0,0,0,0,0,0,0,0,0,0,0,0,0,0,0,0,0,0,0,0,0,0,0,0,0,0,0,0,0,0,0,0,0,0,0,0,0,0,0,0,394
guava,v2.0,v3.0,F:/corpus/guava/guava#2010-01-12-01-13-23#v2.0#f5ad01f/src/com/google/common/collect/AbstractMapBasedMultiset.java,F:/corpus/guava/guava#2010-01-12-01-13-23#v2.0#f5ad01f/src/com/google/common/collect/AbstractMapBasedMultiset.java,0,0,0,0,1,5,0,0,0,0,0,0,0,NO,0,0,0,0,0,0,0,0,0,0,0,0,0,0,0,0,0,0,0,0,0,0,0,0,0,0,0,0,0,0,0,0,0,0,0,0,0,0,0,0,0,0,0,0,0,0,0,0,0,414
guava,v2.0,v3.0,F:/corpus/guava/guava#2010-01-12-01-13-23#v2.0#f5ad01f/src/com/google/common/collect/AbstractMapEntry.java,F:/corpus/guava/guava#2010-01-12-01-13-23#v2.0#f5ad01f/src/com/google/common/collect/AbstractMapEntry.java,0,0,0,0,2,0,0,0,0,0,0,0,0,NO,0,0,0,0,0,0,0,0,0,0,0,0,0,0,0,0,0,0,0,0,0,0,0,0,0,0,0,0,0,0,0,0,0,0,0,0,0,0,0,0,0,0,0,0,0,0,0,0,0,64
guava,v2.0,v3.0,F:/corpus/guava/guava#2010-01-12-01-13-23#v2.0#f5ad01f/src/com/google/common/collect/AbstractSetMultimap.java,F:/corpus/guava/guava#2010-01-12-01-13-23#v2.0#f5ad01f/src/com/google/common/collect/AbstractSetMultimap.java,0,0,0,0,1,0,0,0,0,0,0,0,0,NO,0,0,0,0,0,0,0,0,0,0,0,0,0,0,0,0,0,0,0,0,0,0,0,0,0,0,0,0,0,0,0,0,0,0,0,0,0,0,0,0,0,0,0,0,0,0,0,0,0,95
guava,v2.0,v3.0,F:/corpus/guava/guava#2010-01-12-01-13-23#v2.0#f5ad01f/src/com/google/common/collect/AbstractSortedSetMultimap.java,F:/corpus/guava/guava#2010-01-12-01-13-23#v2.0#f5ad01f/src/com/google/common/collect/AbstractSortedSetMultimap.java,0,0,0,0,1,0,0,0,0,0,0,0,0,NO,0,0,0,0,0,0,0,0,0,0,0,0,0,0,0,0,0,0,0,0,0,0,0,0,0,0,0,0,0,0,0,0,0,0,0,0,0,0,0,0,0,0,0,0,0,0,0,0,0,74
guava,v2.0,v3.0,F:/corpus/guava/guava#2010-01-12-01-13-23#v2.0#f5ad01f/src/com/google/common/collect/AsynchronousComputationException.java,F:/corpus/guava/guava#2010-01-12-01-13-23#v2.0#f5ad01f/src/com/google/common/collect/AsynchronousComputationException.java,0,0,0,0,0,0,0,0,0,0,0,0,0,NO,0,0,0,0,0,0,0,0,0,0,0,0,0,0,0,0,0,0,0,0,0,0,0,0,0,0,0,0,0,0,0,0,0,0,0,0,0,0,0,0,0,0,0,0,0,0,0,0,0,32
guava,v2.0,v3.0,F:/corpus/guava/guava#2010-01-12-01-13-23#v2.0#f5ad01f/src/com/google/common/collect/ByFunctionOrdering.java,F:/corpus/guava/guava#2010-01-12-01-13-23#v2.0#f5ad01f/src/com/google/common/collect/ByFunctionOrdering.java,0,0,0,0,0,0,0,0,0,0,0,0,0,NO,0,0,0,0,0,0,0,0,0,0,0,0,0,0,0,0,0,0,0,0,0,0,0,0,0,0,0,0,0,0,0,0,0,0,0,0,0,0,0,0,0,0,0,0,0,0,0,0,0,69
guava,v2.0,v3.0,F:/corpus/guava/guava#2010-01-12-01-13-23#v2.0#f5ad01f/src/com/google/common/collect/ComparatorOrdering.java,F:/corpus/guava/guava#2010-01-12-01-13-23#v2.0#f5ad01f/src/com/google/common/collect/ComparatorOrdering.java,0,0,0,0,0,0,0,0,0,0,0,0,0,NO,0,0,0,0,0,0,0,0,0,0,0,0,0,0,0,0,0,0,0,0,0,0,0,0,0,0,0,0,0,0,0,0,0,0,0,0,0,0,0,0,0,0,0,0,0,0,0,0,0,74
guava,v2.0,v3.0,F:/corpus/guava/guava#2010-01-12-01-13-23#v2.0#f5ad01f/src/com/google/common/collect/CompoundOrdering.java,F:/corpus/guava/guava#2010-01-12-01-13-23#v2.0#f5ad01f/src/com/google/common/collect/CompoundOrdering.java,0,0,0,0,0,0,0,0,0,0,0,0,0,NO,0,0,0,0,0,0,0,0,0,0,0,0,0,0,0,0,0,0,0,0,0,0,0,0,0,0,0,0,0,0,0,0,0,0,0,0,0,0,0,0,0,0,0,0,0,0,0,0,0,76
guava,v2.0,v3.0,F:/corpus/guava/guava#2010-01-12-01-13-23#v2.0#f5ad01f/src/com/google/common/collect/ComputationException.java,F:/corpus/guava/guava#2010-01-12-01-13-23#v2.0#f5ad01f/src/com/google/common/collect/ComputationException.java,0,0,0,0,0,0,0,0,0,0,0,0,0,NO,0,0,0,0,0,0,0,0,0,0,0,0,0,0,0,0,0,0,0,0,0,0,0,0,0,0,0,0,0,0,0,0,0,0,0,0,0,0,0,0,0,0,0,0,0,0,0,0,0,33
guava,v2.0,v3.0,F:/corpus/guava/guava#2010-01-12-01-13-23#v2.0#f5ad01f/src/com/google/common/collect/EmptyImmutableListMultimap.java,F:/corpus/guava/guava#2010-01-12-01-13-23#v2.0#f5ad01f/src/com/google/common/collect/EmptyImmutableListMultimap.java,0,0,0,0,0,0,0,0,0,0,0,0,0,NO,0,0,0,0,0,0,0,0,0,0,0,0,0,0,0,0,0,0,0,0,0,0,0,0,0,0,0,0,0,0,0,0,0,0,0,0,0,0,0,0,0,0,0,0,0,0,0,0,0,40
guava,v2.0,v3.0,F:/corpus/guava/guava#2010-01-12-01-13-23#v2.0#f5ad01f/src/com/google/common/collect/EmptyImmutableMultiset.java,F:/corpus/guava/guava#2010-01-12-01-13-23#v2.0#f5ad01f/src/com/google/common/collect/EmptyImmutableMultiset.java,0,0,0,0,0,0,0,0,0,0,0,0,0,NO,0,0,0,0,0,0,0,0,0,0,0,0,0,0,0,0,0,0,0,0,0,0,0,0,0,0,0,0,0,0,0,0,0,0,0,0,0,0,0,0,0,0,0,0,0,0,0,0,0,39
guava,v2.0,v3.0,F:/corpus/guava/guava#2010-01-12-01-13-23#v2.0#f5ad01f/src/com/google/common/collect/EmptyImmutableSetMultimap.java,F:/corpus/guava/guava#2010-01-12-01-13-23#v2.0#f5ad01f/src/com/google/common/collect/EmptyImmutableSetMultimap.java,0,0,0,0,0,0,0,0,0,0,0,0,0,NO,0,0,0,0,0,0,0,0,0,0,0,0,0,0,0,0,0,0,0,0,0,0,0,0,0,0,0,0,0,0,0,0,0,0,0,0,0,0,0,0,0,0,0,0,0,0,0,0,0,40
guava,v2.0,v3.0,F:/corpus/guava/guava#2010-01-12-01-13-23#v2.0#f5ad01f/src/com/google/common/collect/ExpirationTimer.java,F:/corpus/guava/guava#2010-01-12-01-13-23#v2.0#f5ad01f/src/com/google/common/collect/ExpirationTimer.java,0,0,0,0,0,0,0,0,0,0,0,0,0,NO,0,0,0,0,0,0,0,0,0,0,0,0,0,0,0,0,0,0,0,0,0,0,0,0,0,0,0,0,0,0,0,0,0,0,0,0,0,0,0,0,0,0,0,0,0,0,0,0,0,26
guava,v2.0,v3.0,F:/corpus/guava/guava#2010-01-12-01-13-23#v2.0#f5ad01f/src/com/google/common/collect/ExplicitOrdering.java,F:/corpus/guava/guava#2010-01-12-01-13-23#v2.0#f5ad01f/src/com/google/common/collect/ExplicitOrdering.java,0,0,0,0,0,0,0,0,0,0,0,0,0,NO,0,0,0,0,0,0,0,0,0,0,0,0,0,0,0,0,0,0,0,0,0,0,0,0,0,0,0,0,0,0,0,0,0,0,0,0,0,0,0,0,0,0,0,0,0,0,0,0,0,78
guava,v2.0,v3.0,F:/corpus/guava/guava#2010-01-12-01-13-23#v2.0#f5ad01f/src/com/google/common/collect/Hashing.java,F:/corpus/guava/guava#2010-01-12-01-13-23#v2.0#f5ad01f/src/com/google/common/collect/Hashing.java,0,0,0,0,0,0,0,0,0,0,0,0,0,NO,0,0,0,0,0,0,0,0,0,0,0,0,0,0,0,0,0,0,0,0,0,0,0,0,0,0,0,0,0,0,0,0,0,0,0,0,0,0,0,0,0,0,0,0,0,0,0,0,0,58
guava,v2.0,v3.0,F:/corpus/guava/guava#2010-01-12-01-13-23#v2.0#f5ad01f/src/com/google/common/collect/ImmutableAsList.java,F:/corpus/guava/guava#2010-01-12-01-13-23#v2.0#f5ad01f/src/com/google/common/collect/ImmutableAsList.java,0,0,0,0,1,0,0,0,0,0,0,0,0,NO,0,0,0,0,0,0,0,0,0,0,0,0,0,0,0,0,0,0,0,0,0,0,0,0,0,0,0,0,0,0,0,0,0,0,0,0,0,0,0,0,0,0,0,0,0,0,0,0,0,66
guava,v2.0,v3.0,F:/corpus/guava/guava#2010-01-12-01-13-23#v2.0#f5ad01f/src/com/google/common/collect/ImmutableEntry.java,F:/corpus/guava/guava#2010-01-12-01-13-23#v2.0#f5ad01f/src/com/google/common/collect/ImmutableEntry.java,0,0,0,0,0,0,0,0,0,0,0,0,0,NO,0,0,0,0,0,0,0,0,0,0,0,0,0,0,0,0,0,0,0,0,0,0,0,0,0,0,0,0,0,0,0,0,0,0,0,0,0,0,0,0,0,0,0,0,0,0,0,0,0,47
guava,v2.0,v3.0,F:/corpus/guava/guava#2010-01-12-01-13-23#v2.0#f5ad01f/src/com/google/common/collect/ImmutableSortedAsList.java,F:/corpus/guava/guava#2010-01-12-01-13-23#v2.0#f5ad01f/src/com/google/common/collect/ImmutableSortedAsList.java,0,0,0,0,0,0,0,0,0,0,0,0,0,NO,0,0,0,0,0,0,0,0,0,0,0,0,0,0,0,0,0,0,0,0,0,0,0,0,0,0,0,0,0,0,0,0,0,0,0,0,0,0,0,0,0,0,0,0,0,0,0,0,0,67
guava,v2.0,v3.0,F:/corpus/guava/guava#2010-01-12-01-13-23#v2.0#f5ad01f/src/com/google/common/collect/ImmutableSortedMapFauxverideShim.java,F:/corpus/guava/guava#2010-01-12-01-13-23#v2.0#f5ad01f/src/com/google/common/collect/ImmutableSortedMapFauxverideShim.java,0,0,0,0,6,0,0,0,0,0,2,0,0,NO,0,0,0,0,0,0,0,0,0,0,0,0,0,0,0,0,0,0,0,0,0,0,0,0,0,0,0,0,0,0,0,0,0,0,0,0,0,0,0,0,0,0,0,0,0,0,0,0,0,117
guava,v2.0,v3.0,F:/corpus/guava/guava#2010-01-12-01-13-23#v2.0#f5ad01f/src/com/google/common/collect/LexicographicalOrdering.java,F:/corpus/guava/guava#2010-01-12-01-13-23#v2.0#f5ad01f/src/com/google/common/collect/LexicographicalOrdering.java,0,0,0,0,0,0,0,0,0,0,0,0,0,NO,0,0,0,0,0,0,0,0,0,0,0,0,0,0,0,0,0,0,0,0,0,0,0,0,0,0,0,0,0,0,0,0,0,0,0,0,0,0,0,0,0,0,0,0,0,0,0,0,0,77
guava,v2.0,v3.0,F:/corpus/guava/guava#2010-01-12-01-13-23#v2.0#f5ad01f/src/com/google/common/collect/NaturalOrdering.java,F:/corpus/guava/guava#2010-01-12-01-13-23#v2.0#f5ad01f/src/com/google/common/collect/NaturalOrdering.java,0,0,0,0,0,0,0,0,0,0,0,0,0,NO,0,0,0,0,0,0,0,0,0,0,0,0,0,0,0,0,0,0,0,0,0,0,0,0,0,0,0,0,0,0,0,0,0,0,0,0,0,0,0,0,0,0,0,0,0,0,0,0,0,76
guava,v2.0,v3.0,F:/corpus/guava/guava#2010-01-12-01-13-23#v2.0#f5ad01f/src/com/google/common/collect/NullOutputException.java,F:/corpus/guava/guava#2010-01-12-01-13-23#v2.0#f5ad01f/src/com/google/common/collect/NullOutputException.java,0,0,0,0,0,0,0,0,0,0,0,0,0,NO,0,0,0,0,0,0,0,0,0,0,0,0,0,0,0,0,0,0,0,0,0,0,0,0,0,0,0,0,0,0,0,0,0,0,0,0,0,0,0,0,0,0,0,0,0,0,0,0,0,31
guava,v2.0,v3.0,F:/corpus/guava/guava#2010-01-12-01-13-23#v2.0#f5ad01f/src/com/google/common/collect/NullsFirstOrdering.java,F:/corpus/guava/guava#2010-01-12-01-13-23#v2.0#f5ad01f/src/com/google/common/collect/NullsFirstOrdering.java,0,0,0,0,0,0,0,0,0,0,0,0,0,NO,0,0,0,0,0,0,0,0,0,0,0,0,0,0,0,0,0,0,0,0,0,0,0,0,0,0,0,0,0,0,0,0,0,0,0,0,0,0,0,0,0,0,0,0,0,0,0,0,0,81
guava,v2.0,v3.0,F:/corpus/guava/guava#2010-01-12-01-13-23#v2.0#f5ad01f/src/com/google/common/collect/NullsLastOrdering.java,F:/corpus/guava/guava#2010-01-12-01-13-23#v2.0#f5ad01f/src/com/google/common/collect/NullsLastOrdering.java,0,0,0,0,0,0,0,0,0,0,0,0,0,NO,0,0,0,0,0,0,0,0,0,0,0,0,0,0,0,0,0,0,0,0,0,0,0,0,0,0,0,0,0,0,0,0,0,0,0,0,0,0,0,0,0,0,0,0,0,0,0,0,0,81
guava,v2.0,v3.0,F:/corpus/guava/guava#2010-01-12-01-13-23#v2.0#f5ad01f/src/com/google/common/collect/ReverseNaturalOrdering.java,F:/corpus/guava/guava#2010-01-12-01-13-23#v2.0#f5ad01f/src/com/google/common/collect/ReverseNaturalOrdering.java,0,0,0,0,0,0,0,0,0,0,0,0,0,NO,0,0,0,0,0,0,0,0,0,0,0,0,0,0,0,0,0,0,0,0,0,0,0,0,0,0,0,0,0,0,0,0,0,0,0,0,0,0,0,0,0,0,0,0,0,0,0,0,0,84
guava,v2.0,v3.0,F:/corpus/guava/guava#2010-01-12-01-13-23#v2.0#f5ad01f/src/com/google/common/collect/ReverseOrdering.java,F:/corpus/guava/guava#2010-01-12-01-13-23#v2.0#f5ad01f/src/com/google/common/collect/ReverseOrdering.java,0,0,0,0,0,0,0,0,0,0,0,0,0,NO,0,0,0,0,0,0,0,0,0,0,0,0,0,0,0,0,0,0,0,0,0,0,0,0,0,0,0,0,0,0,0,0,0,0,0,0,0,0,0,0,0,0,0,0,0,0,0,0,0,90
guava,v2.0,v3.0,F:/corpus/guava/guava#2010-01-12-01-13-23#v2.0#f5ad01f/src/com/google/common/collect/UsingToStringOrdering.java,F:/corpus/guava/guava#2010-01-12-01-13-23#v2.0#f5ad01f/src/com/google/common/collect/UsingToStringOrdering.java,0,0,0,0,0,0,0,0,0,0,0,0,0,NO,0,0,0,0,0,0,0,0,0,0,0,0,0,0,0,0,0,0,0,0,0,0,0,0,0,0,0,0,0,0,0,0,0,0,0,0,0,0,0,0,0,0,0,0,0,0,0,0,0,45
