projectName,oldVersionTag,newVersionTag,oldPath,newPath,DC,LC,MM,RPB,SG,MCH,DCLP,DIVC,FE,LM,LPL,SS,SC,fromChangeDistiller,adding_attribute_modifiability,adding_class_derivability,adding_method_overridability,additional_class,additional_functionality,additional_object_state,alternative_part_delete,alternative_part_insert,attribute_renaming,attribute_type_change,class_renaming,comment_delete,comment_insert,comment_move,comment_update,condition_expression_change,decreasing_accessibility_change,doc_delete,doc_insert,doc_update,increasing_accessibility_change,method_renaming,parameter_delete,parameter_insert,parameter_ordering_change,parameter_renaming,parameter_type_change,parent_class_change,parent_class_delete,parent_class_insert,parent_interface_change,parent_interface_delete,parent_interface_insert,removed_class,removed_functionality,removed_object_state,removing_attribute_modifiability,removing_class_derivability,removing_method_overridability,return_type_change,return_type_delete,return_type_insert,statement_delete,statement_insert,statement_ordering_change,statement_parent_change,statement_update,unclassified_change,codeChurn,LOC
guava,v8.0,v9.0,F:/corpus/guava/guava#2011-02-01-01-56-14#v8.0#0bb8549/gwt-src/com/google/common/collect/ByFunctionOrdering_CustomFieldSerializer.java,F:/corpus/guava/guava#2011-04-08-22-35-37#v9.0#28d17c4/gwt-src/com/google/common/collect/ByFunctionOrdering_CustomFieldSerializer.java,0,0,0,0,0,0,0,0,0,0,0,0,0,YES,0,0,0,0,0,0,0,0,0,0,0,0,0,0,0,0,0,0,0,0,0,0,0,0,0,0,0,0,0,0,0,0,0,0,0,0,0,0,0,0,0,0,0,0,0,0,0,0,1,48
guava,v8.0,v9.0,F:/corpus/guava/guava#2011-02-01-01-56-14#v8.0#0bb8549/gwt-src/com/google/common/collect/ComparatorOrdering_CustomFieldSerializer.java,F:/corpus/guava/guava#2011-04-08-22-35-37#v9.0#28d17c4/gwt-src/com/google/common/collect/ComparatorOrdering_CustomFieldSerializer.java,0,0,0,0,0,0,0,0,0,0,0,0,0,YES,0,0,0,0,0,0,0,0,0,0,0,0,0,0,0,0,0,0,0,0,0,0,0,0,0,0,0,0,0,0,0,0,0,0,0,0,0,0,0,0,0,0,0,0,0,0,0,0,1,47
guava,v8.0,v9.0,F:/corpus/guava/guava#2011-02-01-01-56-14#v8.0#0bb8549/gwt-src/com/google/common/collect/CompoundOrdering_CustomFieldSerializer.java,F:/corpus/guava/guava#2011-04-08-22-35-37#v9.0#28d17c4/gwt-src/com/google/common/collect/CompoundOrdering_CustomFieldSerializer.java,0,0,0,0,0,0,0,0,0,0,0,0,0,YES,0,0,0,0,0,0,0,0,0,0,0,0,0,0,0,0,0,0,0,0,0,0,0,0,0,0,0,0,0,0,0,0,0,0,0,0,0,0,0,0,0,0,0,0,0,0,0,0,1,47
guava,v8.0,v9.0,F:/corpus/guava/guava#2011-02-01-01-56-14#v8.0#0bb8549/gwt-src/com/google/common/collect/EmptyImmutableListMultimap_CustomFieldSerializer.java,F:/corpus/guava/guava#2011-04-08-22-35-37#v9.0#28d17c4/gwt-src/com/google/common/collect/EmptyImmutableListMultimap_CustomFieldSerializer.java,0,0,0,0,1,0,0,0,0,0,0,0,0,YES,0,0,0,0,0,0,0,0,0,0,0,0,0,0,0,0,0,0,0,0,0,0,0,0,0,0,0,0,0,0,0,0,0,0,0,0,0,0,0,0,0,0,0,0,0,0,0,0,1,42
guava,v8.0,v9.0,F:/corpus/guava/guava#2011-02-01-01-56-14#v8.0#0bb8549/gwt-src/com/google/common/collect/EmptyImmutableList_CustomFieldSerializer.java,F:/corpus/guava/guava#2011-04-08-22-35-37#v9.0#28d17c4/gwt-src/com/google/common/collect/EmptyImmutableList_CustomFieldSerializer.java,0,0,0,0,1,0,0,0,0,0,0,0,0,YES,0,0,0,0,0,0,0,0,0,0,0,0,0,0,0,0,0,0,0,0,0,0,0,0,0,0,0,0,0,0,0,0,0,0,0,0,0,0,0,0,0,0,0,0,0,0,0,0,1,41
guava,v8.0,v9.0,F:/corpus/guava/guava#2011-02-01-01-56-14#v8.0#0bb8549/gwt-src/com/google/common/collect/EmptyImmutableMap_CustomFieldSerializer.java,F:/corpus/guava/guava#2011-04-08-22-35-37#v9.0#28d17c4/gwt-src/com/google/common/collect/EmptyImmutableMap_CustomFieldSerializer.java,0,0,0,0,1,0,0,0,0,0,0,0,0,YES,0,0,0,0,0,0,0,0,0,0,0,0,0,0,0,0,0,0,0,0,0,0,0,0,0,0,0,0,0,0,0,0,0,0,0,0,0,0,0,0,0,0,0,0,0,0,0,0,1,42
guava,v8.0,v9.0,F:/corpus/guava/guava#2011-02-01-01-56-14#v8.0#0bb8549/gwt-src/com/google/common/collect/EmptyImmutableMultiset_CustomFieldSerializer.java,F:/corpus/guava/guava#2011-04-08-22-35-37#v9.0#28d17c4/gwt-src/com/google/common/collect/EmptyImmutableMultiset_CustomFieldSerializer.java,0,0,0,0,1,0,0,0,0,0,0,0,0,YES,0,0,0,0,0,0,0,0,0,0,0,0,0,0,0,0,0,0,0,0,0,0,0,0,0,0,0,0,0,0,0,0,0,0,0,0,0,0,0,0,0,0,0,0,0,0,0,0,1,42
guava,v8.0,v9.0,F:/corpus/guava/guava#2011-02-01-01-56-14#v8.0#0bb8549/gwt-src/com/google/common/collect/EmptyImmutableSetMultimap_CustomFieldSerializer.java,F:/corpus/guava/guava#2011-04-08-22-35-37#v9.0#28d17c4/gwt-src/com/google/common/collect/EmptyImmutableSetMultimap_CustomFieldSerializer.java,0,0,0,0,1,0,0,0,0,0,0,0,0,YES,0,0,0,0,0,0,0,0,0,0,0,0,0,0,0,0,0,0,0,0,0,0,0,0,0,0,0,0,0,0,0,0,0,0,0,0,0,0,0,0,0,0,0,0,0,0,0,0,1,42
guava,v8.0,v9.0,F:/corpus/guava/guava#2011-02-01-01-56-14#v8.0#0bb8549/gwt-src/com/google/common/collect/EmptyImmutableSet_CustomFieldSerializer.java,F:/corpus/guava/guava#2011-04-08-22-35-37#v9.0#28d17c4/gwt-src/com/google/common/collect/EmptyImmutableSet_CustomFieldSerializer.java,0,0,0,0,1,0,0,0,0,0,0,0,0,YES,0,0,0,0,0,0,0,0,0,0,0,0,0,0,0,0,0,0,0,0,0,0,0,0,0,0,0,0,0,0,0,0,0,0,0,0,0,0,0,0,0,0,0,0,0,0,0,0,1,41
guava,v8.0,v9.0,F:/corpus/guava/guava#2011-02-01-01-56-14#v8.0#0bb8549/gwt-src/com/google/common/collect/EmptyImmutableSortedSet_CustomFieldSerializer.java,F:/corpus/guava/guava#2011-04-08-22-35-37#v9.0#28d17c4/gwt-src/com/google/common/collect/EmptyImmutableSortedSet_CustomFieldSerializer.java,0,0,0,0,0,0,0,0,0,0,0,0,0,YES,0,0,0,0,0,0,0,0,0,0,0,0,0,0,0,0,0,0,0,0,0,0,0,0,0,0,0,0,0,0,0,0,0,0,0,0,0,0,0,0,0,0,0,0,0,0,0,0,1,59
guava,v8.0,v9.0,F:/corpus/guava/guava#2011-02-01-01-56-14#v8.0#0bb8549/gwt-src/com/google/common/collect/ExplicitOrderedImmutableSortedSet_CustomFieldSerializer.java,F:/corpus/guava/guava#2011-04-08-22-35-37#v9.0#28d17c4/gwt-src/com/google/common/collect/ExplicitOrderedImmutableSortedSet_CustomFieldSerializer.java,0,0,0,0,0,0,0,0,0,0,0,0,0,YES,0,0,0,0,0,0,0,0,0,0,0,0,0,0,0,0,0,0,0,0,0,0,0,0,0,0,0,0,0,0,0,0,0,0,0,0,0,0,0,0,0,0,0,0,0,0,0,0,2,57
guava,v8.0,v9.0,F:/corpus/guava/guava#2011-02-01-01-56-14#v8.0#0bb8549/gwt-src/com/google/common/collect/ExplicitOrdering_CustomFieldSerializer.java,F:/corpus/guava/guava#2011-04-08-22-35-37#v9.0#28d17c4/gwt-src/com/google/common/collect/ExplicitOrdering_CustomFieldSerializer.java,0,0,0,0,0,0,0,0,0,0,0,0,0,YES,0,0,0,0,0,0,0,0,0,0,0,0,0,0,0,0,0,0,0,0,0,0,0,0,0,0,0,0,0,0,0,0,0,0,0,0,0,0,0,0,0,0,0,0,0,0,0,0,1,45
guava,v8.0,v9.0,F:/corpus/guava/guava#2011-02-01-01-56-14#v8.0#0bb8549/gwt-src/com/google/common/collect/GwtSerializationDependencies.java,F:/corpus/guava/guava#2011-04-08-22-35-37#v9.0#28d17c4/gwt-src/com/google/common/collect/GwtSerializationDependencies.java,0,0,0,0,0,0,0,0,0,0,0,0,0,YES,0,0,0,0,0,0,0,0,0,0,0,0,0,0,0,0,0,0,0,0,0,0,0,0,0,0,0,0,0,0,0,0,0,0,0,0,0,0,0,0,0,0,0,0,0,0,0,0,1,126
guava,v8.0,v9.0,F:/corpus/guava/guava#2011-02-01-01-56-14#v8.0#0bb8549/gwt-src/com/google/common/collect/HashBasedTable_CustomFieldSerializer.java,F:/corpus/guava/guava#2011-04-08-22-35-37#v9.0#28d17c4/gwt-src/com/google/common/collect/HashBasedTable_CustomFieldSerializer.java,0,0,0,0,0,0,0,0,0,0,0,0,0,YES,0,0,0,0,0,0,0,0,0,0,0,0,0,0,0,0,0,0,0,0,0,0,0,0,0,0,0,0,0,0,0,0,0,0,0,0,0,0,0,0,0,0,0,0,0,0,0,0,1,58
guava,v8.0,v9.0,F:/corpus/guava/guava#2011-02-01-01-56-14#v8.0#0bb8549/gwt-src/com/google/common/collect/HashMultimap_CustomFieldSerializer.java,F:/corpus/guava/guava#2011-04-08-22-35-37#v9.0#28d17c4/gwt-src/com/google/common/collect/HashMultimap_CustomFieldSerializer.java,0,0,0,0,0,0,0,0,0,0,0,0,0,YES,0,0,0,0,0,0,0,0,0,0,0,0,0,0,0,0,0,0,0,0,0,0,0,0,0,0,0,0,0,0,0,0,0,0,0,0,0,0,0,0,0,0,0,0,0,0,0,0,1,45
guava,v8.0,v9.0,F:/corpus/guava/guava#2011-02-01-01-56-14#v8.0#0bb8549/gwt-src/com/google/common/collect/HashMultiset_CustomFieldSerializer.java,F:/corpus/guava/guava#2011-04-08-22-35-37#v9.0#28d17c4/gwt-src/com/google/common/collect/HashMultiset_CustomFieldSerializer.java,0,0,0,0,0,0,0,0,0,0,0,0,0,YES,0,0,0,0,0,0,0,0,0,0,0,0,0,0,0,0,0,0,0,0,0,0,0,0,0,0,0,0,0,0,0,0,0,0,0,0,0,0,0,0,0,0,0,0,0,0,0,0,1,44
guava,v8.0,v9.0,F:/corpus/guava/guava#2011-02-01-01-56-14#v8.0#0bb8549/gwt-src/com/google/common/collect/ImmutableAsList_CustomFieldSerializer.java,F:/corpus/guava/guava#2011-04-08-22-35-37#v9.0#28d17c4/gwt-src/com/google/common/collect/ImmutableAsList_CustomFieldSerializer.java,0,0,0,0,0,0,0,0,0,0,0,0,0,YES,0,0,0,0,0,0,0,0,0,0,0,0,0,0,0,0,0,0,0,0,0,0,0,0,0,0,0,0,0,0,0,0,0,0,0,0,0,0,0,0,0,0,0,0,0,0,0,0,1,55
guava,v8.0,v9.0,F:/corpus/guava/guava#2011-02-01-01-56-14#v8.0#0bb8549/gwt-src/com/google/common/collect/ImmutableEntry_CustomFieldSerializer.java,F:/corpus/guava/guava#2011-04-08-22-35-37#v9.0#28d17c4/gwt-src/com/google/common/collect/ImmutableEntry_CustomFieldSerializer.java,0,0,0,0,0,0,0,0,0,0,0,0,0,YES,0,0,0,0,0,0,0,0,0,0,0,0,0,0,0,0,0,0,0,0,0,0,0,0,0,0,0,0,0,0,0,0,0,0,0,0,0,0,0,0,0,0,0,0,0,0,0,0,1,47
guava,v8.0,v9.0,F:/corpus/guava/guava#2011-02-01-01-56-14#v8.0#0bb8549/gwt-src/com/google/common/collect/ImmutableEnumSet_CustomFieldSerializer.java,F:/corpus/guava/guava#2011-04-08-22-35-37#v9.0#28d17c4/gwt-src/com/google/common/collect/ImmutableEnumSet_CustomFieldSerializer.java,0,0,0,0,0,0,0,0,0,0,0,0,0,YES,0,0,0,0,0,0,0,0,0,0,0,0,0,0,0,0,0,0,0,0,0,0,0,0,0,0,0,0,0,0,0,0,0,0,0,0,0,0,0,0,0,0,0,0,0,0,0,0,1,54
guava,v8.0,v9.0,F:/corpus/guava/guava#2011-02-01-01-56-14#v8.0#0bb8549/gwt-src/com/google/common/collect/ImmutableListMultimap_CustomFieldSerializer.java,F:/corpus/guava/guava#2011-04-08-22-35-37#v9.0#28d17c4/gwt-src/com/google/common/collect/ImmutableListMultimap_CustomFieldSerializer.java,0,0,0,0,0,0,0,0,0,0,0,0,0,YES,0,0,0,0,0,0,0,0,0,0,0,0,0,0,0,0,0,0,0,0,0,0,0,0,0,0,0,0,0,0,0,0,0,0,0,0,0,0,0,0,0,0,0,0,0,0,0,0,1,45
guava,v8.0,v9.0,F:/corpus/guava/guava#2011-02-01-01-56-14#v8.0#0bb8549/gwt-src/com/google/common/collect/ImmutableList_CustomFieldSerializer.java,F:/corpus/guava/guava#2011-04-08-22-35-37#v9.0#28d17c4/gwt-src/com/google/common/collect/ImmutableList_CustomFieldSerializer.java,0,0,0,0,0,0,0,0,0,0,0,0,0,YES,0,0,0,0,0,0,0,0,0,0,0,0,0,0,0,0,0,0,0,0,0,0,0,0,0,0,0,0,0,0,0,0,0,0,0,0,0,0,0,0,0,0,0,0,0,0,0,0,1,26
guava,v8.0,v9.0,F:/corpus/guava/guava#2011-02-01-01-56-14#v8.0#0bb8549/gwt-src/com/google/common/collect/ImmutableMultiset_CustomFieldSerializer.java,F:/corpus/guava/guava#2011-04-08-22-35-37#v9.0#28d17c4/gwt-src/com/google/common/collect/ImmutableMultiset_CustomFieldSerializer.java,0,0,0,0,0,0,0,0,0,0,0,0,0,YES,0,0,0,0,0,0,0,0,0,0,0,0,0,0,0,0,0,0,0,0,0,0,0,0,0,0,0,0,0,0,0,0,0,0,0,0,0,0,0,0,0,0,0,0,0,0,0,0,1,44
guava,v8.0,v9.0,F:/corpus/guava/guava#2011-02-01-01-56-14#v8.0#0bb8549/gwt-src/com/google/common/collect/ImmutableSetMultimap_CustomFieldSerializer.java,F:/corpus/guava/guava#2011-04-08-22-35-37#v9.0#28d17c4/gwt-src/com/google/common/collect/ImmutableSetMultimap_CustomFieldSerializer.java,0,0,0,0,0,0,0,0,0,0,0,0,0,YES,0,0,0,0,0,0,0,0,0,0,0,0,0,0,0,0,0,0,0,0,0,0,0,0,0,0,0,0,0,0,0,0,0,0,0,0,0,0,0,0,0,0,0,0,0,0,0,0,1,45
guava,v8.0,v9.0,F:/corpus/guava/guava#2011-02-01-01-56-14#v8.0#0bb8549/gwt-src/com/google/common/collect/ImmutableSet_CustomFieldSerializer.java,F:/corpus/guava/guava#2011-04-08-22-35-37#v9.0#28d17c4/gwt-src/com/google/common/collect/ImmutableSet_CustomFieldSerializer.java,0,0,0,0,0,0,0,0,0,0,0,0,0,YES,0,0,0,0,0,0,0,0,0,0,0,0,0,0,0,0,0,0,0,0,0,0,0,0,0,0,0,0,0,0,0,0,0,0,0,0,0,0,0,0,0,0,0,0,0,0,0,0,1,26
guava,v8.0,v9.0,F:/corpus/guava/guava#2011-02-01-01-56-14#v8.0#0bb8549/gwt-src/com/google/common/collect/ImmutableSortedMap_CustomFieldSerializer.java,F:/corpus/guava/guava#2011-04-08-22-35-37#v9.0#28d17c4/gwt-src/com/google/common/collect/ImmutableSortedMap_CustomFieldSerializer.java,0,0,0,0,0,0,0,0,0,0,0,0,0,YES,0,0,0,0,0,0,0,0,0,0,0,0,0,0,0,0,0,0,0,0,0,0,0,0,0,0,0,0,0,0,0,0,0,0,0,0,0,0,0,0,0,0,0,0,0,0,0,0,1,59
guava,v8.0,v9.0,F:/corpus/guava/guava#2011-02-01-01-56-14#v8.0#0bb8549/gwt-src/com/google/common/collect/ImmutableSortedSet_CustomFieldSerializer.java,F:/corpus/guava/guava#2011-04-08-22-35-37#v9.0#28d17c4/gwt-src/com/google/common/collect/ImmutableSortedSet_CustomFieldSerializer.java,0,0,0,0,0,0,0,0,0,0,0,0,0,YES,0,0,0,0,0,0,0,0,0,0,0,0,0,0,0,0,0,0,0,0,0,0,0,0,0,0,0,0,0,0,0,0,0,0,0,0,0,0,0,0,0,0,0,0,0,0,0,0,1,26
guava,v8.0,v9.0,F:/corpus/guava/guava#2011-02-01-01-56-14#v8.0#0bb8549/gwt-src/com/google/common/collect/LexicographicalOrdering_CustomFieldSerializer.java,F:/corpus/guava/guava#2011-04-08-22-35-37#v9.0#28d17c4/gwt-src/com/google/common/collect/LexicographicalOrdering_CustomFieldSerializer.java,0,0,0,0,0,0,0,0,0,0,0,0,0,YES,0,0,0,0,0,0,0,0,0,0,0,0,0,0,0,0,0,0,0,0,0,0,0,0,0,0,0,0,0,0,0,0,0,0,0,0,0,0,0,0,0,0,0,0,0,0,0,0,1,45
guava,v8.0,v9.0,F:/corpus/guava/guava#2011-02-01-01-56-14#v8.0#0bb8549/gwt-src/com/google/common/collect/LinkedHashMultimap_CustomFieldSerializer.java,F:/corpus/guava/guava#2011-04-08-22-35-37#v9.0#28d17c4/gwt-src/com/google/common/collect/LinkedHashMultimap_CustomFieldSerializer.java,0,0,0,0,0,0,0,0,0,0,0,0,0,YES,0,0,0,0,0,0,0,0,0,0,0,0,0,0,0,0,0,0,0,0,0,0,0,0,0,0,0,0,0,0,0,0,0,0,0,0,0,0,0,0,0,0,0,0,0,0,0,0,1,61
guava,v8.0,v9.0,F:/corpus/guava/guava#2011-02-01-01-56-14#v8.0#0bb8549/gwt-src/com/google/common/collect/LinkedHashMultiset_CustomFieldSerializer.java,F:/corpus/guava/guava#2011-04-08-22-35-37#v9.0#28d17c4/gwt-src/com/google/common/collect/LinkedHashMultiset_CustomFieldSerializer.java,0,0,0,0,0,0,0,0,0,0,0,0,0,YES,0,0,0,0,0,0,0,0,0,0,0,0,0,0,0,0,0,0,0,0,0,0,0,0,0,0,0,0,0,0,0,0,0,0,0,0,0,0,0,0,0,0,0,0,0,0,0,0,1,45
guava,v8.0,v9.0,F:/corpus/guava/guava#2011-02-01-01-56-14#v8.0#0bb8549/gwt-src/com/google/common/collect/LinkedListMultimap_CustomFieldSerializer.java,F:/corpus/guava/guava#2011-04-08-22-35-37#v9.0#28d17c4/gwt-src/com/google/common/collect/LinkedListMultimap_CustomFieldSerializer.java,0,0,0,0,0,0,0,0,0,0,0,0,0,YES,0,0,0,0,0,0,0,0,0,0,0,0,0,0,0,0,0,0,0,0,0,0,0,0,0,0,0,0,0,0,0,0,0,0,0,0,0,0,0,0,0,0,0,0,0,0,0,0,1,56
guava,v8.0,v9.0,F:/corpus/guava/guava#2011-02-01-01-56-14#v8.0#0bb8549/gwt-src/com/google/common/collect/Multimap_CustomFieldSerializerBase.java,F:/corpus/guava/guava#2011-04-08-22-35-37#v9.0#28d17c4/gwt-src/com/google/common/collect/Multimap_CustomFieldSerializerBase.java,0,0,0,0,0,0,0,0,0,0,0,1,0,YES,0,0,0,0,0,0,0,0,0,0,0,0,0,0,0,0,0,0,0,0,0,0,0,0,0,0,0,0,0,0,0,0,0,0,0,0,0,0,0,0,0,0,0,0,0,0,0,0,1,82
guava,v8.0,v9.0,F:/corpus/guava/guava#2011-02-01-01-56-14#v8.0#0bb8549/gwt-src/com/google/common/collect/Multiset_CustomFieldSerializerBase.java,F:/corpus/guava/guava#2011-04-08-22-35-37#v9.0#28d17c4/gwt-src/com/google/common/collect/Multiset_CustomFieldSerializerBase.java,0,0,0,0,0,0,0,0,0,0,0,0,0,YES,0,0,0,0,0,0,0,0,0,0,0,0,0,0,0,0,0,0,0,0,0,0,0,0,0,0,0,0,0,0,0,0,0,0,0,0,0,0,0,0,0,0,0,0,0,0,0,0,1,69
guava,v8.0,v9.0,F:/corpus/guava/guava#2011-02-01-01-56-14#v8.0#0bb8549/gwt-src/com/google/common/collect/NaturalOrdering_CustomFieldSerializer.java,F:/corpus/guava/guava#2011-04-08-22-35-37#v9.0#28d17c4/gwt-src/com/google/common/collect/NaturalOrdering_CustomFieldSerializer.java,0,0,0,0,1,0,0,0,0,0,0,0,0,YES,0,0,0,0,0,0,0,0,0,0,0,0,0,0,0,0,0,0,0,0,0,0,0,0,0,0,0,0,0,0,0,0,0,0,0,0,0,0,0,0,0,0,0,0,0,0,0,0,1,41
guava,v8.0,v9.0,F:/corpus/guava/guava#2011-02-01-01-56-14#v8.0#0bb8549/gwt-src/com/google/common/collect/NullsFirstOrdering_CustomFieldSerializer.java,F:/corpus/guava/guava#2011-04-08-22-35-37#v9.0#28d17c4/gwt-src/com/google/common/collect/NullsFirstOrdering_CustomFieldSerializer.java,0,0,0,0,0,0,0,0,0,0,0,0,0,YES,0,0,0,0,0,0,0,0,0,0,0,0,0,0,0,0,0,0,0,0,0,0,0,0,0,0,0,0,0,0,0,0,0,0,0,0,0,0,0,0,0,0,0,0,0,0,0,0,1,45
guava,v8.0,v9.0,F:/corpus/guava/guava#2011-02-01-01-56-14#v8.0#0bb8549/gwt-src/com/google/common/collect/NullsLastOrdering_CustomFieldSerializer.java,F:/corpus/guava/guava#2011-04-08-22-35-37#v9.0#28d17c4/gwt-src/com/google/common/collect/NullsLastOrdering_CustomFieldSerializer.java,0,0,0,0,0,0,0,0,0,0,0,0,0,YES,0,0,0,0,0,0,0,0,0,0,0,0,0,0,0,0,0,0,0,0,0,0,0,0,0,0,0,0,0,0,0,0,0,0,0,0,0,0,0,0,0,0,0,0,0,0,0,0,1,45
guava,v8.0,v9.0,F:/corpus/guava/guava#2011-02-01-01-56-14#v8.0#0bb8549/gwt-src/com/google/common/collect/RegularImmutableBiMap_CustomFieldSerializer.java,F:/corpus/guava/guava#2011-04-08-22-35-37#v9.0#28d17c4/gwt-src/com/google/common/collect/RegularImmutableBiMap_CustomFieldSerializer.java,0,0,0,0,0,0,0,0,0,0,0,0,0,YES,0,0,0,0,0,0,0,0,0,0,0,0,0,0,0,0,0,0,0,0,0,0,0,0,0,0,0,0,0,0,0,0,0,0,0,0,0,0,0,0,0,0,0,0,0,0,0,0,1,56
guava,v8.0,v9.0,F:/corpus/guava/guava#2011-02-01-01-56-14#v8.0#0bb8549/gwt-src/com/google/common/collect/RegularImmutableList_CustomFieldSerializer.java,F:/corpus/guava/guava#2011-04-08-22-35-37#v9.0#28d17c4/gwt-src/com/google/common/collect/RegularImmutableList_CustomFieldSerializer.java,0,0,0,0,0,0,0,0,0,0,0,0,0,YES,0,0,0,0,0,0,0,0,0,0,0,0,0,0,0,0,0,0,0,0,0,0,0,0,0,0,0,0,0,0,0,0,0,0,0,0,0,0,0,0,0,0,0,0,0,0,0,0,1,56
guava,v8.0,v9.0,F:/corpus/guava/guava#2011-02-01-01-56-14#v8.0#0bb8549/gwt-src/com/google/common/collect/RegularImmutableMap_CustomFieldSerializer.java,F:/corpus/guava/guava#2011-04-08-22-35-37#v9.0#28d17c4/gwt-src/com/google/common/collect/RegularImmutableMap_CustomFieldSerializer.java,0,0,0,0,0,0,0,0,0,0,0,0,0,YES,0,0,0,0,0,0,0,0,0,0,0,0,0,0,0,0,0,0,0,0,0,0,0,0,0,0,0,0,0,0,0,0,0,0,0,0,0,0,0,0,0,0,0,0,0,0,0,0,1,55
guava,v8.0,v9.0,F:/corpus/guava/guava#2011-02-01-01-56-14#v8.0#0bb8549/gwt-src/com/google/common/collect/RegularImmutableSet_CustomFieldSerializer.java,F:/corpus/guava/guava#2011-04-08-22-35-37#v9.0#28d17c4/gwt-src/com/google/common/collect/RegularImmutableSet_CustomFieldSerializer.java,0,0,0,0,0,0,0,0,0,0,0,0,0,YES,0,0,0,0,0,0,0,0,0,0,0,0,0,0,0,0,0,0,0,0,0,0,0,0,0,0,0,0,0,0,0,0,0,0,0,0,0,0,0,0,0,0,0,0,0,0,0,0,1,54
guava,v8.0,v9.0,F:/corpus/guava/guava#2011-02-01-01-56-14#v8.0#0bb8549/gwt-src/com/google/common/collect/RegularImmutableSortedSet_CustomFieldSerializer.java,F:/corpus/guava/guava#2011-04-08-22-35-37#v9.0#28d17c4/gwt-src/com/google/common/collect/RegularImmutableSortedSet_CustomFieldSerializer.java,0,0,0,0,0,0,0,0,0,0,0,0,0,YES,0,0,0,0,0,0,0,0,0,0,0,0,0,0,0,0,0,0,0,0,0,0,0,0,0,0,0,0,0,0,0,0,0,0,0,0,0,0,0,0,0,0,0,0,0,0,0,0,1,66
guava,v8.0,v9.0,F:/corpus/guava/guava#2011-02-01-01-56-14#v8.0#0bb8549/gwt-src/com/google/common/collect/ReverseNaturalOrdering_CustomFieldSerializer.java,F:/corpus/guava/guava#2011-04-08-22-35-37#v9.0#28d17c4/gwt-src/com/google/common/collect/ReverseNaturalOrdering_CustomFieldSerializer.java,0,0,0,0,1,0,0,0,0,0,0,0,0,YES,0,0,0,0,0,0,0,0,0,0,0,0,0,0,0,0,0,0,0,0,0,0,0,0,0,0,0,0,0,0,0,0,0,0,0,0,0,0,0,0,0,0,0,0,0,0,0,0,1,42
guava,v8.0,v9.0,F:/corpus/guava/guava#2011-02-01-01-56-14#v8.0#0bb8549/gwt-src/com/google/common/collect/ReverseOrdering_CustomFieldSerializer.java,F:/corpus/guava/guava#2011-04-08-22-35-37#v9.0#28d17c4/gwt-src/com/google/common/collect/ReverseOrdering_CustomFieldSerializer.java,0,0,0,0,0,0,0,0,0,0,0,0,0,YES,0,0,0,0,0,0,0,0,0,0,0,0,0,0,0,0,0,0,0,0,0,0,0,0,0,0,0,0,0,0,0,0,0,0,0,0,0,0,0,0,0,0,0,0,0,0,0,0,1,45
guava,v8.0,v9.0,F:/corpus/guava/guava#2011-02-01-01-56-14#v8.0#0bb8549/gwt-src/com/google/common/collect/SingletonImmutableList_CustomFieldSerializer.java,F:/corpus/guava/guava#2011-04-08-22-35-37#v9.0#28d17c4/gwt-src/com/google/common/collect/SingletonImmutableList_CustomFieldSerializer.java,0,0,0,0,0,0,0,0,0,0,0,0,0,YES,0,0,0,0,0,0,0,0,0,0,0,0,0,0,0,0,0,0,0,0,0,0,0,0,0,0,0,0,0,0,0,0,0,0,0,0,0,0,0,0,0,0,0,0,0,0,0,0,1,45
guava,v8.0,v9.0,F:/corpus/guava/guava#2011-02-01-01-56-14#v8.0#0bb8549/gwt-src/com/google/common/collect/SingletonImmutableMap_CustomFieldSerializer.java,F:/corpus/guava/guava#2011-04-08-22-35-37#v9.0#28d17c4/gwt-src/com/google/common/collect/SingletonImmutableMap_CustomFieldSerializer.java,0,0,0,0,0,0,0,0,0,0,0,0,0,YES,0,0,0,0,0,0,0,0,0,0,0,0,0,0,0,0,0,0,0,0,0,0,0,0,0,0,0,0,0,0,0,0,0,0,0,0,0,0,0,0,0,0,0,0,0,0,0,0,1,48
guava,v8.0,v9.0,F:/corpus/guava/guava#2011-02-01-01-56-14#v8.0#0bb8549/gwt-src/com/google/common/collect/SingletonImmutableSet_CustomFieldSerializer.java,F:/corpus/guava/guava#2011-04-08-22-35-37#v9.0#28d17c4/gwt-src/com/google/common/collect/SingletonImmutableSet_CustomFieldSerializer.java,0,0,0,0,0,0,0,0,0,0,0,0,0,YES,0,0,0,0,0,0,0,0,0,0,0,0,0,0,0,0,0,0,0,0,0,0,0,0,0,0,0,0,0,0,0,0,0,0,0,0,0,0,0,0,0,0,0,0,0,0,0,0,1,44
guava,v8.0,v9.0,F:/corpus/guava/guava#2011-02-01-01-56-14#v8.0#0bb8549/gwt-src/com/google/common/collect/TreeBasedTable_CustomFieldSerializer.java,F:/corpus/guava/guava#2011-04-08-22-35-37#v9.0#28d17c4/gwt-src/com/google/common/collect/TreeBasedTable_CustomFieldSerializer.java,0,0,0,0,0,0,0,0,0,0,0,0,0,YES,0,0,0,0,0,0,0,0,0,0,0,0,0,0,0,0,0,0,0,0,0,0,0,0,0,0,0,0,0,0,0,0,0,0,0,0,0,0,0,0,0,0,0,0,0,0,0,0,1,69
guava,v8.0,v9.0,F:/corpus/guava/guava#2011-02-01-01-56-14#v8.0#0bb8549/gwt-src/com/google/common/collect/TreeMultimap_CustomFieldSerializer.java,F:/corpus/guava/guava#2011-04-08-22-35-37#v9.0#28d17c4/gwt-src/com/google/common/collect/TreeMultimap_CustomFieldSerializer.java,0,0,0,0,0,0,0,0,0,0,0,0,0,YES,0,0,0,0,0,0,0,0,0,0,0,0,0,0,0,0,0,0,0,0,0,0,0,0,0,0,0,0,0,0,0,0,0,0,0,0,0,0,0,0,0,0,0,0,0,0,0,0,1,53
guava,v8.0,v9.0,F:/corpus/guava/guava#2011-02-01-01-56-14#v8.0#0bb8549/gwt-src/com/google/common/collect/UsingToStringOrdering_CustomFieldSerializer.java,F:/corpus/guava/guava#2011-04-08-22-35-37#v9.0#28d17c4/gwt-src/com/google/common/collect/UsingToStringOrdering_CustomFieldSerializer.java,0,0,0,0,1,0,0,0,0,0,0,0,0,YES,0,0,0,0,0,0,0,0,0,0,0,0,0,0,0,0,0,0,0,0,0,0,0,0,0,0,0,0,0,0,0,0,0,0,0,0,0,0,0,0,0,0,0,0,0,0,0,0,1,41
guava,v8.0,v9.0,F:/corpus/guava/guava#2011-02-01-01-56-14#v8.0#0bb8549/gwt-super/com/google/common/base/super/com/google/common/base/Platform.java,F:/corpus/guava/guava#2011-04-08-22-35-37#v9.0#28d17c4/gwt-super/com/google/common/base/super/com/google/common/base/Platform.java,0,0,0,0,1,0,0,0,0,0,0,0,0,YES,0,0,0,0,0,0,0,0,0,0,0,0,0,0,0,0,0,0,0,0,0,0,0,0,0,0,0,0,0,0,0,0,0,0,0,0,0,0,0,0,0,0,0,0,0,0,0,0,1,54
guava,v8.0,v9.0,F:/corpus/guava/guava#2011-02-01-01-56-14#v8.0#0bb8549/gwt-super/com/google/common/base/super/com/google/common/base/Predicates.java,F:/corpus/guava/guava#2011-04-08-22-35-37#v9.0#28d17c4/gwt-super/com/google/common/base/super/com/google/common/base/Predicates.java,0,0,0,0,0,0,0,0,0,0,0,1,0,YES,0,0,0,0,0,0,0,0,0,0,0,0,0,0,0,0,0,0,0,0,0,0,0,0,0,0,0,0,0,0,0,0,0,0,0,0,0,0,0,0,0,0,0,0,0,0,0,0,15,469
guava,v8.0,v9.0,F:/corpus/guava/guava#2011-02-01-01-56-14#v8.0#0bb8549/gwt-super/com/google/common/base/super/com/google/common/base/Splitter.java,F:/corpus/guava/guava#2011-04-08-22-35-37#v9.0#28d17c4/gwt-super/com/google/common/base/super/com/google/common/base/Splitter.java,0,0,0,0,3,0,0,0,0,0,0,0,0,YES,0,0,0,0,1,0,0,0,0,0,0,0,0,0,0,0,0,0,0,0,0,0,0,0,0,0,0,0,0,0,0,0,0,0,0,0,0,0,0,0,0,0,0,0,0,0,0,0,29,421
guava,v8.0,v9.0,F:/corpus/guava/guava#2011-02-01-01-56-14#v8.0#0bb8549/gwt-super/com/google/common/collect/super/com/google/common/collect/AbstractBiMap.java,F:/corpus/guava/guava#2011-04-08-22-35-37#v9.0#28d17c4/gwt-super/com/google/common/collect/super/com/google/common/collect/AbstractBiMap.java,0,0,0,0,1,0,0,0,0,0,0,0,0,YES,0,0,0,0,0,0,0,0,0,0,0,0,0,0,0,0,0,0,0,0,0,0,0,0,0,0,0,0,0,0,0,0,0,0,0,0,0,0,0,0,0,0,0,0,0,0,1,0,6,370
guava,v8.0,v9.0,F:/corpus/guava/guava#2011-02-01-01-56-14#v8.0#0bb8549/gwt-super/com/google/common/collect/super/com/google/common/collect/AbstractMapBasedMultiset.java,F:/corpus/guava/guava#2011-04-08-22-35-37#v9.0#28d17c4/gwt-super/com/google/common/collect/super/com/google/common/collect/AbstractMapBasedMultiset.java,0,0,0,0,1,5,0,0,0,0,0,0,0,YES,0,0,0,0,0,0,0,0,0,0,0,0,0,0,0,0,0,0,0,0,0,0,0,0,0,0,0,0,0,0,0,0,0,0,0,0,0,0,0,0,0,0,0,0,0,0,2,0,12,411
guava,v8.0,v9.0,F:/corpus/guava/guava#2011-02-01-01-56-14#v8.0#0bb8549/gwt-super/com/google/common/collect/super/com/google/common/collect/ArrayListMultimap.java,F:/corpus/guava/guava#2011-04-08-22-35-37#v9.0#28d17c4/gwt-super/com/google/common/collect/super/com/google/common/collect/ArrayListMultimap.java,0,0,0,0,0,0,0,0,0,0,0,0,0,YES,0,0,0,0,0,0,0,0,0,0,0,0,0,0,0,0,0,0,0,0,0,0,0,0,0,0,0,0,0,0,0,0,0,0,0,0,0,0,0,0,0,0,0,0,0,0,0,0,1,134
guava,v8.0,v9.0,F:/corpus/guava/guava#2011-02-01-01-56-14#v8.0#0bb8549/gwt-super/com/google/common/collect/super/com/google/common/collect/EmptyImmutableList.java,F:/corpus/guava/guava#2011-04-08-22-35-37#v9.0#28d17c4/gwt-super/com/google/common/collect/super/com/google/common/collect/EmptyImmutableList.java,0,0,0,0,0,0,0,0,0,0,0,0,0,YES,0,0,0,0,0,0,0,0,0,0,0,0,0,0,0,0,0,0,0,0,0,0,0,0,0,0,0,0,0,0,0,0,0,0,0,0,0,0,0,0,0,0,0,0,0,0,0,0,1,26
guava,v8.0,v9.0,F:/corpus/guava/guava#2011-02-01-01-56-14#v8.0#0bb8549/gwt-super/com/google/common/collect/super/com/google/common/collect/EmptyImmutableMap.java,F:/corpus/guava/guava#2011-04-08-22-35-37#v9.0#28d17c4/gwt-super/com/google/common/collect/super/com/google/common/collect/EmptyImmutableMap.java,0,0,0,0,0,0,0,0,0,0,0,0,0,YES,0,0,0,0,0,0,0,0,0,0,0,0,0,0,0,0,0,0,0,0,0,0,0,0,0,0,0,0,0,0,0,0,0,0,0,0,0,0,0,0,0,0,0,0,0,0,0,0,1,28
guava,v8.0,v9.0,F:/corpus/guava/guava#2011-02-01-01-56-14#v8.0#0bb8549/gwt-super/com/google/common/collect/super/com/google/common/collect/EmptyImmutableSet.java,F:/corpus/guava/guava#2011-04-08-22-35-37#v9.0#28d17c4/gwt-super/com/google/common/collect/super/com/google/common/collect/EmptyImmutableSet.java,0,0,0,0,0,0,0,0,0,0,0,0,0,YES,0,0,0,0,0,0,0,0,0,0,0,0,0,0,0,0,0,0,0,0,0,0,0,0,0,0,0,0,0,0,0,0,0,0,0,0,0,0,0,0,0,0,0,0,0,0,0,0,1,27
guava,v8.0,v9.0,F:/corpus/guava/guava#2011-02-01-01-56-14#v8.0#0bb8549/gwt-super/com/google/common/collect/super/com/google/common/collect/EmptyImmutableSortedSet.java,F:/corpus/guava/guava#2011-04-08-22-35-37#v9.0#28d17c4/gwt-super/com/google/common/collect/super/com/google/common/collect/EmptyImmutableSortedSet.java,0,0,0,0,0,0,0,0,0,0,0,0,0,YES,0,0,0,0,0,0,0,0,0,0,0,0,0,0,0,0,0,0,0,0,0,0,0,0,0,0,0,0,0,0,0,0,0,0,0,0,0,0,0,0,0,0,0,0,0,0,1,0,2,30
guava,v8.0,v9.0,F:/corpus/guava/guava#2011-02-01-01-56-14#v8.0#0bb8549/gwt-super/com/google/common/collect/super/com/google/common/collect/EnumBiMap.java,F:/corpus/guava/guava#2011-04-08-22-35-37#v9.0#28d17c4/gwt-super/com/google/common/collect/super/com/google/common/collect/EnumBiMap.java,0,0,0,0,0,0,0,0,0,0,0,0,0,YES,0,0,0,0,0,0,0,0,0,0,0,0,0,0,0,0,0,0,0,0,0,0,0,0,0,0,0,0,0,0,0,0,0,0,0,0,0,0,0,0,0,0,0,0,0,0,1,0,2,104
guava,v8.0,v9.0,F:/corpus/guava/guava#2011-02-01-01-56-14#v8.0#0bb8549/gwt-super/com/google/common/collect/super/com/google/common/collect/EnumHashBiMap.java,F:/corpus/guava/guava#2011-04-08-22-35-37#v9.0#28d17c4/gwt-super/com/google/common/collect/super/com/google/common/collect/EnumHashBiMap.java,0,0,0,0,0,0,0,0,0,0,0,0,0,YES,0,0,0,0,0,0,0,0,0,0,0,0,0,0,0,0,0,0,0,0,0,0,0,0,0,0,0,0,0,0,0,0,0,0,0,0,0,0,0,0,0,0,0,0,0,0,1,0,3,88
guava,v8.0,v9.0,F:/corpus/guava/guava#2011-02-01-01-56-14#v8.0#0bb8549/gwt-super/com/google/common/collect/super/com/google/common/collect/EnumMultiset.java,F:/corpus/guava/guava#2011-04-08-22-35-37#v9.0#28d17c4/gwt-super/com/google/common/collect/super/com/google/common/collect/EnumMultiset.java,0,0,0,0,0,0,0,0,0,0,0,0,0,YES,0,0,0,0,0,0,0,0,0,0,0,0,0,0,0,0,0,0,0,0,0,0,0,0,0,0,0,0,0,0,0,0,0,0,0,0,0,0,0,0,0,0,0,0,0,0,1,0,10,66
guava,v8.0,v9.0,F:/corpus/guava/guava#2011-02-01-01-56-14#v8.0#0bb8549/gwt-super/com/google/common/collect/super/com/google/common/collect/ExplicitOrderedImmutableSortedSet.java,F:/corpus/guava/guava#2011-04-08-22-35-37#v9.0#28d17c4/gwt-super/com/google/common/collect/super/com/google/common/collect/ExplicitOrderedImmutableSortedSet.java,0,0,0,0,0,0,0,0,0,0,0,0,0,YES,0,0,0,0,0,0,0,0,0,0,0,0,0,0,0,0,0,0,0,0,0,0,0,0,0,0,0,0,0,0,0,0,0,0,0,0,0,0,0,0,0,0,0,0,0,0,0,0,1,31
guava,v8.0,v9.0,F:/corpus/guava/guava#2011-02-01-01-56-14#v8.0#0bb8549/gwt-super/com/google/common/collect/super/com/google/common/collect/ForwardingImmutableCollection.java,F:/corpus/guava/guava#2011-04-08-22-35-37#v9.0#28d17c4/gwt-super/com/google/common/collect/super/com/google/common/collect/ForwardingImmutableCollection.java,0,0,0,0,0,0,0,0,0,0,0,2,0,YES,0,0,0,0,0,0,0,0,0,0,0,0,0,0,0,0,0,0,0,0,0,0,0,0,0,0,0,0,0,0,0,0,0,0,0,0,0,0,0,0,0,0,0,0,0,0,0,0,1,69
guava,v8.0,v9.0,F:/corpus/guava/guava#2011-02-01-01-56-14#v8.0#0bb8549/gwt-super/com/google/common/collect/super/com/google/common/collect/GenericMapMaker.java,F:/corpus/guava/guava#2011-04-08-22-35-37#v9.0#28d17c4/gwt-super/com/google/common/collect/super/com/google/common/collect/GenericMapMaker.java,0,0,0,0,1,0,0,0,0,0,0,0,0,YES,0,0,0,0,1,0,0,0,0,0,0,0,0,0,0,0,0,0,0,0,0,0,0,0,0,0,0,0,0,0,0,0,0,0,0,0,0,0,0,0,0,0,0,0,0,0,0,0,9,82
guava,v8.0,v9.0,F:/corpus/guava/guava#2011-02-01-01-56-14#v8.0#0bb8549/gwt-super/com/google/common/collect/super/com/google/common/collect/GwtPlatform.java,F:/corpus/guava/guava#2011-04-08-22-35-37#v9.0#28d17c4/gwt-super/com/google/common/collect/super/com/google/common/collect/GwtPlatform.java,0,0,0,0,0,0,0,0,0,0,0,0,0,YES,0,0,0,0,0,0,0,0,0,0,0,0,0,0,0,0,0,0,0,0,0,0,0,0,0,0,0,0,0,0,0,0,0,0,0,0,0,0,0,0,0,0,0,0,0,0,0,0,1,44
guava,v8.0,v9.0,F:/corpus/guava/guava#2011-02-01-01-56-14#v8.0#0bb8549/gwt-super/com/google/common/collect/super/com/google/common/collect/HashBiMap.java,F:/corpus/guava/guava#2011-04-08-22-35-37#v9.0#28d17c4/gwt-super/com/google/common/collect/super/com/google/common/collect/HashBiMap.java,0,0,0,0,0,0,0,0,0,0,0,0,0,YES,0,0,0,0,0,0,0,0,0,0,0,0,0,0,0,0,0,0,0,0,0,0,0,0,0,0,0,0,0,0,0,0,0,0,0,0,0,0,0,0,0,0,0,0,0,0,0,0,1,87
guava,v8.0,v9.0,F:/corpus/guava/guava#2011-02-01-01-56-14#v8.0#0bb8549/gwt-super/com/google/common/collect/super/com/google/common/collect/HashMultimap.java,F:/corpus/guava/guava#2011-04-08-22-35-37#v9.0#28d17c4/gwt-super/com/google/common/collect/super/com/google/common/collect/HashMultimap.java,0,0,0,0,0,0,0,0,0,0,0,0,0,YES,0,0,0,0,0,0,0,0,0,0,0,0,0,0,0,0,0,0,0,0,0,0,0,0,0,0,0,0,0,0,0,0,0,0,0,0,0,0,0,0,0,0,0,0,0,0,0,0,1,112
guava,v8.0,v9.0,F:/corpus/guava/guava#2011-02-01-01-56-14#v8.0#0bb8549/gwt-super/com/google/common/collect/super/com/google/common/collect/HashMultiset.java,F:/corpus/guava/guava#2011-04-08-22-35-37#v9.0#28d17c4/gwt-super/com/google/common/collect/super/com/google/common/collect/HashMultiset.java,0,0,0,0,0,0,0,0,0,0,0,0,0,YES,0,0,0,0,0,0,0,0,0,0,0,0,0,0,0,0,0,0,0,0,0,0,0,0,0,0,0,0,0,0,0,0,0,0,0,0,0,0,0,0,0,0,0,0,0,0,0,0,1,73
guava,v8.0,v9.0,F:/corpus/guava/guava#2011-02-01-01-56-14#v8.0#0bb8549/gwt-super/com/google/common/collect/super/com/google/common/collect/ImmutableAsList.java,F:/corpus/guava/guava#2011-04-08-22-35-37#v9.0#28d17c4/gwt-super/com/google/common/collect/super/com/google/common/collect/ImmutableAsList.java,0,0,0,0,0,0,0,0,0,0,0,0,0,YES,0,0,0,0,0,0,0,0,0,0,0,0,0,0,0,0,0,0,0,0,0,0,0,0,0,0,0,0,0,0,0,0,0,0,0,0,0,0,0,0,0,0,0,0,0,0,0,0,1,30
guava,v8.0,v9.0,F:/corpus/guava/guava#2011-02-01-01-56-14#v8.0#0bb8549/gwt-super/com/google/common/collect/super/com/google/common/collect/ImmutableAsList_CustomFieldSerializer.java,F:/corpus/guava/guava#2011-04-08-22-35-37#v9.0#28d17c4/gwt-super/com/google/common/collect/super/com/google/common/collect/ImmutableAsList_CustomFieldSerializer.java,0,0,0,0,0,0,0,0,0,0,0,0,0,YES,0,0,0,0,0,0,0,0,0,0,0,0,0,0,0,0,0,0,0,0,0,0,0,0,0,0,0,0,0,0,0,0,0,0,0,0,0,0,0,0,0,0,0,0,0,0,0,0,1,50
guava,v8.0,v9.0,F:/corpus/guava/guava#2011-02-01-01-56-14#v8.0#0bb8549/gwt-super/com/google/common/collect/super/com/google/common/collect/ImmutableBiMap.java,F:/corpus/guava/guava#2011-04-08-22-35-37#v9.0#28d17c4/gwt-super/com/google/common/collect/super/com/google/common/collect/ImmutableBiMap.java,0,0,0,0,2,0,0,0,0,0,2,0,0,YES,0,0,0,0,0,0,0,0,0,0,0,0,0,0,0,0,0,0,0,0,0,0,0,0,0,0,0,0,0,0,0,0,0,0,0,0,0,0,0,0,0,0,0,0,0,0,0,0,1,131
guava,v8.0,v9.0,F:/corpus/guava/guava#2011-02-01-01-56-14#v8.0#0bb8549/gwt-super/com/google/common/collect/super/com/google/common/collect/ImmutableCollection.java,F:/corpus/guava/guava#2011-04-08-22-35-37#v9.0#28d17c4/gwt-super/com/google/common/collect/super/com/google/common/collect/ImmutableCollection.java,0,0,1,0,7,0,0,0,0,0,0,0,0,YES,0,0,0,0,0,0,0,0,0,0,0,0,0,0,0,0,0,0,0,0,0,0,0,0,0,0,0,0,0,0,0,0,0,0,0,0,0,0,0,0,0,0,0,0,0,0,0,0,1,173
guava,v8.0,v9.0,F:/corpus/guava/guava#2011-02-01-01-56-14#v8.0#0bb8549/gwt-super/com/google/common/collect/super/com/google/common/collect/ImmutableEnumSet.java,F:/corpus/guava/guava#2011-04-08-22-35-37#v9.0#28d17c4/gwt-super/com/google/common/collect/super/com/google/common/collect/ImmutableEnumSet.java,0,0,0,0,0,0,0,0,0,0,0,0,0,YES,0,0,0,0,0,0,0,0,0,0,0,0,0,0,0,0,0,0,0,0,0,0,0,0,0,0,0,0,0,0,0,0,0,0,0,0,0,0,0,0,0,0,0,0,0,0,0,0,1,31
guava,v8.0,v9.0,F:/corpus/guava/guava#2011-02-01-01-56-14#v8.0#0bb8549/gwt-super/com/google/common/collect/super/com/google/common/collect/ImmutableList.java,F:/corpus/guava/guava#2011-04-08-22-35-37#v9.0#28d17c4/gwt-super/com/google/common/collect/super/com/google/common/collect/ImmutableList.java,0,0,0,0,5,0,0,0,0,0,5,1,0,YES,0,0,0,0,0,0,0,0,0,0,0,0,0,0,0,0,0,0,0,0,0,0,0,0,0,0,0,0,0,0,0,0,0,0,0,0,0,0,0,0,0,0,0,0,0,0,0,0,1,318
guava,v8.0,v9.0,F:/corpus/guava/guava#2011-02-01-01-56-14#v8.0#0bb8549/gwt-super/com/google/common/collect/super/com/google/common/collect/ImmutableListMultimap.java,F:/corpus/guava/guava#2011-04-08-22-35-37#v9.0#28d17c4/gwt-super/com/google/common/collect/super/com/google/common/collect/ImmutableListMultimap.java,0,0,0,0,2,0,0,0,0,0,2,0,0,YES,0,0,0,0,0,0,0,0,0,0,0,0,0,0,0,0,0,0,0,0,0,0,0,0,0,0,0,0,0,0,0,0,0,0,0,0,0,0,0,0,0,0,0,0,0,0,0,0,1,288
guava,v8.0,v9.0,F:/corpus/guava/guava#2011-02-01-01-56-14#v8.0#0bb8549/gwt-super/com/google/common/collect/super/com/google/common/collect/ImmutableMap.java,F:/corpus/guava/guava#2011-04-08-22-35-37#v9.0#28d17c4/gwt-super/com/google/common/collect/super/com/google/common/collect/ImmutableMap.java,0,0,0,0,4,0,0,0,0,0,2,4,0,YES,0,0,0,0,0,0,0,0,0,0,0,0,0,0,0,0,0,0,0,0,0,0,0,0,0,0,0,0,0,0,0,0,0,0,0,0,0,0,0,0,0,0,0,0,0,0,0,0,1,278
guava,v8.0,v9.0,F:/corpus/guava/guava#2011-02-01-01-56-14#v8.0#0bb8549/gwt-super/com/google/common/collect/super/com/google/common/collect/ImmutableMultimap.java,F:/corpus/guava/guava#2011-04-08-22-35-37#v9.0#28d17c4/gwt-super/com/google/common/collect/super/com/google/common/collect/ImmutableMultimap.java,0,0,0,0,7,0,0,0,0,0,2,0,0,YES,0,0,0,0,0,0,0,0,0,0,0,0,0,0,0,0,0,0,0,0,0,0,0,0,0,0,0,0,0,0,0,0,0,0,0,0,0,0,0,0,0,0,0,0,0,0,2,0,25,571
guava,v8.0,v9.0,F:/corpus/guava/guava#2011-02-01-01-56-14#v8.0#0bb8549/gwt-super/com/google/common/collect/super/com/google/common/collect/ImmutableMultiset.java,F:/corpus/guava/guava#2011-04-08-22-35-37#v9.0#28d17c4/gwt-super/com/google/common/collect/super/com/google/common/collect/ImmutableMultiset.java,0,0,0,0,4,0,0,0,0,0,0,0,0,YES,0,0,0,0,0,0,0,0,0,0,0,0,0,0,0,0,0,0,0,0,0,0,0,0,0,0,0,0,0,0,0,0,0,0,0,0,0,0,0,0,0,0,0,0,0,0,2,0,14,575
guava,v8.0,v9.0,F:/corpus/guava/guava#2011-02-01-01-56-14#v8.0#0bb8549/gwt-super/com/google/common/collect/super/com/google/common/collect/ImmutableSet.java,F:/corpus/guava/guava#2011-04-08-22-35-37#v9.0#28d17c4/gwt-super/com/google/common/collect/super/com/google/common/collect/ImmutableSet.java,0,0,0,0,1,0,0,0,0,0,0,0,0,YES,0,0,0,0,0,0,0,0,0,0,0,0,0,0,0,0,0,0,0,0,0,0,0,0,0,0,0,0,0,0,0,0,0,0,0,0,0,0,0,0,0,0,1,1,0,0,0,0,8,219
guava,v8.0,v9.0,F:/corpus/guava/guava#2011-02-01-01-56-14#v8.0#0bb8549/gwt-super/com/google/common/collect/super/com/google/common/collect/ImmutableSetMultimap.java,F:/corpus/guava/guava#2011-04-08-22-35-37#v9.0#28d17c4/gwt-super/com/google/common/collect/super/com/google/common/collect/ImmutableSetMultimap.java,0,0,0,0,2,0,0,0,0,0,2,0,0,YES,0,0,0,0,0,0,0,0,0,0,0,0,0,0,0,0,0,0,0,0,0,0,0,0,0,0,0,0,0,0,0,0,0,0,0,0,0,0,0,0,0,0,0,0,0,0,0,0,2,386
guava,v8.0,v9.0,F:/corpus/guava/guava#2011-02-01-01-56-14#v8.0#0bb8549/gwt-super/com/google/common/collect/super/com/google/common/collect/ImmutableSortedMap.java,F:/corpus/guava/guava#2011-04-08-22-35-37#v9.0#28d17c4/gwt-super/com/google/common/collect/super/com/google/common/collect/ImmutableSortedMap.java,0,0,0,0,0,0,0,0,0,0,2,0,0,YES,0,0,0,0,0,0,0,0,0,0,0,0,0,0,0,0,0,0,0,0,0,0,0,0,0,0,0,0,0,0,0,0,0,0,0,0,0,0,0,0,0,0,0,0,0,0,0,0,1,264
guava,v8.0,v9.0,F:/corpus/guava/guava#2011-02-01-01-56-14#v8.0#0bb8549/gwt-super/com/google/common/collect/super/com/google/common/collect/ImmutableSortedSet.java,F:/corpus/guava/guava#2011-04-08-22-35-37#v9.0#28d17c4/gwt-super/com/google/common/collect/super/com/google/common/collect/ImmutableSortedSet.java,0,0,0,0,1,0,0,0,0,0,0,0,0,YES,0,0,0,0,1,0,0,0,0,0,0,0,0,0,0,0,0,0,0,0,0,0,0,0,0,0,0,0,0,0,0,0,0,0,0,0,0,0,0,0,0,0,0,0,0,0,0,0,8,359
guava,v8.0,v9.0,F:/corpus/guava/guava#2011-02-01-01-56-14#v8.0#0bb8549/gwt-super/com/google/common/collect/super/com/google/common/collect/Iterables.java,F:/corpus/guava/guava#2011-04-08-22-35-37#v9.0#28d17c4/gwt-super/com/google/common/collect/super/com/google/common/collect/Iterables.java,0,0,0,0,1,0,0,0,0,0,0,1,0,YES,0,0,0,0,0,0,0,0,0,0,0,0,0,0,0,0,0,0,0,0,0,0,0,0,0,0,0,0,0,0,0,0,0,0,0,0,0,0,0,0,0,0,0,0,0,0,13,0,22,952
guava,v8.0,v9.0,F:/corpus/guava/guava#2011-02-01-01-56-14#v8.0#0bb8549/gwt-super/com/google/common/collect/super/com/google/common/collect/Iterators.java,F:/corpus/guava/guava#2011-04-08-22-35-37#v9.0#28d17c4/gwt-super/com/google/common/collect/super/com/google/common/collect/Iterators.java,0,1,0,0,0,0,0,0,0,0,0,2,0,YES,0,0,0,0,0,0,0,0,0,0,0,0,0,0,0,0,0,0,0,0,0,0,0,0,0,0,0,0,0,0,0,0,0,0,0,0,0,0,0,0,0,0,0,0,0,0,10,0,34,1120
guava,v8.0,v9.0,F:/corpus/guava/guava#2011-02-01-01-56-14#v8.0#0bb8549/gwt-super/com/google/common/collect/super/com/google/common/collect/LinkedHashMultimap.java,F:/corpus/guava/guava#2011-04-08-22-35-37#v9.0#28d17c4/gwt-super/com/google/common/collect/super/com/google/common/collect/LinkedHashMultimap.java,0,0,0,0,0,0,0,0,0,0,0,0,0,YES,0,0,0,0,0,0,0,0,0,0,0,0,0,0,0,0,0,0,0,0,0,0,0,0,0,0,0,0,0,0,0,0,0,0,0,0,0,0,0,0,0,0,0,0,0,0,2,0,7,346
guava,v8.0,v9.0,F:/corpus/guava/guava#2011-02-01-01-56-14#v8.0#0bb8549/gwt-super/com/google/common/collect/super/com/google/common/collect/LinkedHashMultiset.java,F:/corpus/guava/guava#2011-04-08-22-35-37#v9.0#28d17c4/gwt-super/com/google/common/collect/super/com/google/common/collect/LinkedHashMultiset.java,0,0,0,0,0,0,0,0,0,0,0,0,0,YES,0,0,0,0,0,0,0,0,0,0,0,0,0,0,0,0,0,0,0,0,0,0,0,0,0,0,0,0,0,0,0,0,0,0,0,0,0,0,0,0,0,0,0,0,0,0,0,0,1,81
guava,v8.0,v9.0,F:/corpus/guava/guava#2011-02-01-01-56-14#v8.0#0bb8549/gwt-super/com/google/common/collect/super/com/google/common/collect/LinkedListMultimap.java,F:/corpus/guava/guava#2011-04-08-22-35-37#v9.0#28d17c4/gwt-super/com/google/common/collect/super/com/google/common/collect/LinkedListMultimap.java,0,0,1,0,1,0,0,0,0,0,0,0,0,YES,0,0,0,0,0,0,0,0,0,0,0,0,0,0,0,0,0,0,0,0,0,0,0,0,0,0,0,0,0,0,0,0,0,0,0,0,0,0,0,0,0,0,0,0,0,0,5,0,58,923
guava,v8.0,v9.0,F:/corpus/guava/guava#2011-02-01-01-56-14#v8.0#0bb8549/gwt-super/com/google/common/collect/super/com/google/common/collect/MapMaker.java,F:/corpus/guava/guava#2011-04-08-22-35-37#v9.0#28d17c4/gwt-super/com/google/common/collect/super/com/google/common/collect/MapMaker.java,0,0,0,0,0,0,0,0,0,0,0,0,0,YES,0,0,0,0,6,2,0,0,0,0,0,0,0,0,0,0,2,0,0,0,0,0,0,6,0,0,0,0,0,1,1,0,0,0,0,0,1,0,0,0,0,0,2,3,0,0,2,0,73,174
guava,v8.0,v9.0,F:/corpus/guava/guava#2011-02-01-01-56-14#v8.0#0bb8549/gwt-super/com/google/common/collect/super/com/google/common/collect/Maps.java,F:/corpus/guava/guava#2011-04-08-22-35-37#v9.0#28d17c4/gwt-super/com/google/common/collect/super/com/google/common/collect/Maps.java,0,1,0,0,9,0,0,0,0,0,0,3,0,YES,0,0,0,0,0,0,0,0,0,0,0,0,0,0,0,0,0,0,0,0,0,0,0,0,0,0,0,0,0,0,0,0,0,0,0,0,0,0,0,0,0,0,0,0,0,0,7,0,22,1693
guava,v8.0,v9.0,F:/corpus/guava/guava#2011-02-01-01-56-14#v8.0#0bb8549/gwt-super/com/google/common/collect/super/com/google/common/collect/Multimaps.java,F:/corpus/guava/guava#2011-04-08-22-35-37#v9.0#28d17c4/gwt-super/com/google/common/collect/super/com/google/common/collect/Multimaps.java,0,1,0,0,16,0,0,0,0,0,0,0,0,YES,0,0,0,0,0,0,0,0,0,0,0,0,0,0,0,0,0,0,0,0,0,0,0,0,0,0,0,0,0,0,0,0,0,0,0,0,0,0,0,0,0,0,0,0,0,0,3,0,35,1158
guava,v8.0,v9.0,F:/corpus/guava/guava#2011-02-01-01-56-14#v8.0#0bb8549/gwt-super/com/google/common/collect/super/com/google/common/collect/ObjectArrays.java,F:/corpus/guava/guava#2011-04-08-22-35-37#v9.0#28d17c4/gwt-super/com/google/common/collect/super/com/google/common/collect/ObjectArrays.java,0,0,0,0,0,0,0,0,0,0,0,0,0,YES,0,0,0,0,0,0,0,0,0,0,0,0,0,0,0,0,0,0,0,0,0,0,0,0,0,0,0,0,0,0,0,0,0,0,0,0,0,0,0,0,0,0,0,0,0,0,0,0,1,156
guava,v8.0,v9.0,F:/corpus/guava/guava#2011-02-01-01-56-14#v8.0#0bb8549/gwt-super/com/google/common/collect/super/com/google/common/collect/Platform.java,F:/corpus/guava/guava#2011-04-08-22-35-37#v9.0#28d17c4/gwt-super/com/google/common/collect/super/com/google/common/collect/Platform.java,0,0,0,0,1,0,0,0,0,0,0,0,0,YES,0,0,0,0,0,0,0,0,0,0,0,0,0,0,0,0,0,0,0,0,0,0,0,0,0,0,0,0,0,0,0,0,0,0,0,0,0,0,0,0,0,0,0,0,0,0,0,0,1,58
guava,v8.0,v9.0,F:/corpus/guava/guava#2011-02-01-01-56-14#v8.0#0bb8549/gwt-super/com/google/common/collect/super/com/google/common/collect/RegularImmutableBiMap.java,F:/corpus/guava/guava#2011-04-08-22-35-37#v9.0#28d17c4/gwt-super/com/google/common/collect/super/com/google/common/collect/RegularImmutableBiMap.java,0,0,0,0,0,0,0,0,0,0,0,0,0,YES,0,0,0,0,0,0,0,0,0,0,0,0,0,0,0,0,0,0,0,0,0,0,0,0,0,0,0,0,0,0,0,0,0,0,0,0,0,0,0,0,0,0,0,0,0,0,0,0,1,52
guava,v8.0,v9.0,F:/corpus/guava/guava#2011-02-01-01-56-14#v8.0#0bb8549/gwt-super/com/google/common/collect/super/com/google/common/collect/RegularImmutableList.java,F:/corpus/guava/guava#2011-04-08-22-35-37#v9.0#28d17c4/gwt-super/com/google/common/collect/super/com/google/common/collect/RegularImmutableList.java,0,0,0,0,0,0,0,0,0,0,0,0,0,YES,0,0,0,0,0,0,0,0,0,0,0,0,0,0,0,0,0,0,0,0,0,0,0,0,0,0,0,0,0,0,0,0,0,0,0,0,0,0,0,0,0,0,0,0,0,0,0,0,1,30
guava,v8.0,v9.0,F:/corpus/guava/guava#2011-02-01-01-56-14#v8.0#0bb8549/gwt-super/com/google/common/collect/super/com/google/common/collect/RegularImmutableMap.java,F:/corpus/guava/guava#2011-04-08-22-35-37#v9.0#28d17c4/gwt-super/com/google/common/collect/super/com/google/common/collect/RegularImmutableMap.java,0,0,0,0,0,0,0,0,0,0,0,0,0,YES,0,0,0,0,0,0,0,0,0,0,0,0,0,0,0,0,0,0,0,0,0,0,0,0,0,0,0,0,0,0,0,0,0,0,0,0,0,0,0,0,0,0,0,0,0,0,0,0,1,35
guava,v8.0,v9.0,F:/corpus/guava/guava#2011-02-01-01-56-14#v8.0#0bb8549/gwt-super/com/google/common/collect/super/com/google/common/collect/RegularImmutableSet.java,F:/corpus/guava/guava#2011-04-08-22-35-37#v9.0#28d17c4/gwt-super/com/google/common/collect/super/com/google/common/collect/RegularImmutableSet.java,0,0,0,0,0,0,0,0,0,0,0,0,0,YES,0,0,0,0,0,0,0,0,0,0,0,0,1,0,0,0,0,0,0,0,0,0,0,0,0,0,0,0,0,0,0,0,0,0,0,0,0,0,0,0,0,0,0,1,0,0,0,0,7,30
guava,v8.0,v9.0,F:/corpus/guava/guava#2011-02-01-01-56-14#v8.0#0bb8549/gwt-super/com/google/common/collect/super/com/google/common/collect/RegularImmutableSortedSet.java,F:/corpus/guava/guava#2011-04-08-22-35-37#v9.0#28d17c4/gwt-super/com/google/common/collect/super/com/google/common/collect/RegularImmutableSortedSet.java,0,0,0,0,0,0,0,0,0,0,0,0,0,YES,0,0,0,0,0,0,0,0,0,0,0,0,0,0,0,0,0,0,0,0,0,0,0,0,0,0,0,0,0,0,0,0,0,0,0,0,0,0,0,0,0,0,0,0,0,0,0,0,1,35
guava,v8.0,v9.0,F:/corpus/guava/guava#2011-02-01-01-56-14#v8.0#0bb8549/gwt-super/com/google/common/collect/super/com/google/common/collect/Sets.java,F:/corpus/guava/guava#2011-04-08-22-35-37#v9.0#28d17c4/gwt-super/com/google/common/collect/super/com/google/common/collect/Sets.java,0,1,0,0,1,0,0,0,0,0,0,2,0,YES,0,0,0,2,1,0,0,0,0,0,0,0,0,0,0,0,0,0,0,0,0,0,0,0,0,0,0,0,0,0,0,0,0,0,0,0,0,0,0,0,0,0,0,0,0,0,1,0,111,1132
guava,v8.0,v9.0,F:/corpus/guava/guava#2011-02-01-01-56-14#v8.0#0bb8549/gwt-super/com/google/common/collect/super/com/google/common/collect/SingletonImmutableList.java,F:/corpus/guava/guava#2011-04-08-22-35-37#v9.0#28d17c4/gwt-super/com/google/common/collect/super/com/google/common/collect/SingletonImmutableList.java,0,0,0,0,0,0,0,0,0,0,0,0,0,YES,0,0,0,0,0,0,0,0,0,0,0,0,0,0,0,0,0,0,0,0,0,0,0,0,0,0,0,0,0,0,0,0,0,0,0,0,0,0,0,0,0,0,0,0,0,0,0,0,1,39
guava,v8.0,v9.0,F:/corpus/guava/guava#2011-02-01-01-56-14#v8.0#0bb8549/gwt-super/com/google/common/collect/super/com/google/common/collect/SingletonImmutableMap.java,F:/corpus/guava/guava#2011-04-08-22-35-37#v9.0#28d17c4/gwt-super/com/google/common/collect/super/com/google/common/collect/SingletonImmutableMap.java,0,0,0,0,0,0,0,0,0,0,0,0,0,YES,0,0,0,0,0,0,0,0,0,0,0,0,0,0,0,0,0,0,0,0,0,0,0,0,0,0,0,0,0,0,0,0,0,0,0,0,0,0,0,0,0,0,0,0,0,0,0,0,1,44
guava,v8.0,v9.0,F:/corpus/guava/guava#2011-02-01-01-56-14#v8.0#0bb8549/gwt-super/com/google/common/collect/super/com/google/common/collect/SingletonImmutableSet.java,F:/corpus/guava/guava#2011-04-08-22-35-37#v9.0#28d17c4/gwt-super/com/google/common/collect/super/com/google/common/collect/SingletonImmutableSet.java,0,0,0,0,0,0,0,0,0,0,0,0,0,YES,0,0,0,0,0,0,0,0,0,0,0,0,0,0,0,0,0,0,0,0,0,0,0,0,0,0,0,0,0,0,0,0,0,0,0,0,0,0,0,0,0,0,0,0,0,0,0,0,1,41
guava,v8.0,v9.0,F:/corpus/guava/guava#2011-02-01-01-56-14#v8.0#0bb8549/gwt-super/com/google/common/collect/super/com/google/common/collect/Synchronized.java,F:/corpus/guava/guava#2011-04-08-22-35-37#v9.0#28d17c4/gwt-super/com/google/common/collect/super/com/google/common/collect/Synchronized.java,0,1,0,0,0,0,0,0,0,0,0,0,0,YES,0,0,0,0,0,0,0,0,0,0,0,0,0,0,0,0,0,0,0,0,0,0,0,0,0,0,0,0,0,0,0,0,0,0,0,0,0,0,0,0,0,0,0,0,0,0,0,0,70,1114
guava,v8.0,v9.0,F:/corpus/guava/guava#2011-02-01-01-56-14#v8.0#0bb8549/gwt-super/com/google/common/collect/super/com/google/common/collect/TreeMultimap.java,F:/corpus/guava/guava#2011-04-08-22-35-37#v9.0#28d17c4/gwt-super/com/google/common/collect/super/com/google/common/collect/TreeMultimap.java,0,0,0,0,0,0,0,0,0,0,0,0,0,YES,0,0,0,0,0,0,0,0,0,0,0,0,0,0,0,0,0,0,0,0,0,0,0,0,0,0,0,0,0,0,0,0,0,0,0,0,0,0,0,0,0,0,0,0,0,0,0,0,2,168
guava,v8.0,v9.0,F:/corpus/guava/guava#2011-02-01-01-56-14#v8.0#0bb8549/gwt-super/com/google/common/collect/super/com/google/common/collect/TreeMultiset.java,F:/corpus/guava/guava#2011-04-08-22-35-37#v9.0#28d17c4/gwt-super/com/google/common/collect/super/com/google/common/collect/TreeMultiset.java,0,0,0,0,0,0,0,0,0,0,0,0,0,YES,0,0,0,0,0,0,0,0,0,0,0,0,0,0,0,0,0,0,0,0,0,0,0,0,0,0,0,0,0,0,0,0,0,0,0,0,0,0,0,0,0,0,0,0,0,0,0,0,7,190
guava,v8.0,v9.0,F:/corpus/guava/guava#2011-02-01-01-56-14#v8.0#0bb8549/gwt-super/com/google/common/net/super/com/google/common/net/InternetDomainName.java,F:/corpus/guava/guava#2011-04-08-22-35-37#v9.0#28d17c4/gwt-super/com/google/common/net/super/com/google/common/net/InternetDomainName.java,0,0,0,0,0,0,0,0,0,0,0,0,0,YES,0,1,0,0,1,2,0,0,0,0,0,3,4,0,0,1,0,0,0,4,0,0,0,0,0,0,0,0,0,0,0,0,0,0,1,0,0,0,0,0,0,0,2,3,0,1,4,0,118,513
guava,v8.0,v9.0,F:/corpus/guava/guava#2011-02-01-01-56-14#v8.0#0bb8549/gwt-super/com/google/common/primitives/super/com/google/common/primitives/Chars.java,F:/corpus/guava/guava#2011-04-08-22-35-37#v9.0#28d17c4/gwt-super/com/google/common/primitives/super/com/google/common/primitives/Chars.java,0,0,0,0,0,0,0,0,0,0,0,0,0,YES,0,0,0,0,0,0,0,0,0,0,0,0,0,0,0,0,0,0,0,0,0,0,0,0,0,0,0,0,0,0,0,0,0,0,0,0,0,0,0,0,0,0,0,0,0,0,0,0,2,530
guava,v8.0,v9.0,F:/corpus/guava/guava#2011-02-01-01-56-14#v8.0#0bb8549/gwt-super/com/google/common/primitives/super/com/google/common/primitives/Ints.java,F:/corpus/guava/guava#2011-04-08-22-35-37#v9.0#28d17c4/gwt-super/com/google/common/primitives/super/com/google/common/primitives/Ints.java,0,0,0,0,0,0,0,0,0,0,0,1,0,YES,0,0,0,0,0,0,0,0,0,0,0,0,0,0,0,0,0,0,0,0,0,0,0,0,0,0,0,0,0,0,0,0,0,0,0,0,0,0,0,0,0,0,0,0,0,0,0,0,2,525
guava,v8.0,v9.0,F:/corpus/guava/guava#2011-02-01-01-56-14#v8.0#0bb8549/gwt-super/com/google/common/primitives/super/com/google/common/primitives/Longs.java,F:/corpus/guava/guava#2011-04-08-22-35-37#v9.0#28d17c4/gwt-super/com/google/common/primitives/super/com/google/common/primitives/Longs.java,0,0,0,0,0,0,0,0,0,0,0,0,0,YES,0,0,0,0,0,0,0,0,0,0,0,0,0,0,0,0,0,0,0,0,0,0,0,0,0,0,0,0,0,0,0,0,0,0,0,0,0,0,0,0,0,0,0,0,0,0,0,0,2,494
guava,v8.0,v9.0,F:/corpus/guava/guava#2011-02-01-01-56-14#v8.0#0bb8549/gwt-super/com/google/common/primitives/super/com/google/common/primitives/Shorts.java,F:/corpus/guava/guava#2011-04-08-22-35-37#v9.0#28d17c4/gwt-super/com/google/common/primitives/super/com/google/common/primitives/Shorts.java,0,0,0,0,0,0,0,0,0,0,0,0,0,YES,0,0,0,0,0,0,0,0,0,0,0,0,0,0,0,0,0,0,0,0,0,0,0,0,0,0,0,0,0,0,0,0,0,0,0,0,0,0,0,0,0,0,0,0,0,0,0,0,2,527
guava,v8.0,v9.0,F:/corpus/guava/guava#2011-02-01-01-56-14#v8.0#0bb8549/gwt-test/com/google/common/base/TestModuleEntryPoint.java,F:/corpus/guava/guava#2011-04-08-22-35-37#v9.0#28d17c4/gwt-test/com/google/common/base/TestModuleEntryPoint.java,0,0,0,0,0,0,0,0,0,0,0,0,0,YES,0,0,0,0,0,0,0,0,0,0,0,0,0,0,0,0,0,0,0,0,0,0,0,0,0,0,0,0,0,0,0,0,0,0,0,0,0,0,0,0,0,0,0,0,0,0,0,0,1,51
guava,v8.0,v9.0,F:/corpus/guava/guava#2011-02-01-01-56-14#v8.0#0bb8549/gwt-test/com/google/common/collect/TestModuleEntryPoint.java,F:/corpus/guava/guava#2011-04-08-22-35-37#v9.0#28d17c4/gwt-test/com/google/common/collect/TestModuleEntryPoint.java,0,0,0,0,0,0,0,0,0,0,0,0,0,YES,0,0,0,0,0,0,0,0,0,0,0,0,0,0,0,0,0,0,0,0,0,0,0,0,0,0,0,0,0,0,0,0,0,0,0,0,0,0,0,0,0,0,0,0,0,0,0,0,1,132
guava,v8.0,v9.0,F:/corpus/guava/guava#2011-02-01-01-56-14#v8.0#0bb8549/gwt-test/com/google/common/net/TestModuleEntryPoint.java,F:/corpus/guava/guava#2011-04-08-22-35-37#v9.0#28d17c4/gwt-test/com/google/common/net/TestModuleEntryPoint.java,0,0,0,0,0,0,0,0,0,0,0,0,0,YES,0,0,0,0,0,0,0,0,0,0,0,0,0,0,0,0,0,0,0,0,0,0,0,0,0,0,0,0,0,0,0,0,0,0,0,0,0,0,0,0,0,0,0,0,0,0,0,0,1,36
guava,v8.0,v9.0,F:/corpus/guava/guava#2011-02-01-01-56-14#v8.0#0bb8549/gwt-test/com/google/common/primitives/TestModuleEntryPoint.java,F:/corpus/guava/guava#2011-04-08-22-35-37#v9.0#28d17c4/gwt-test/com/google/common/primitives/TestModuleEntryPoint.java,0,0,0,0,0,0,0,0,0,0,0,0,0,YES,0,0,0,0,0,0,0,0,0,0,0,0,0,0,0,0,0,0,0,0,0,0,0,0,0,0,0,0,0,0,0,0,0,0,0,0,0,0,0,0,0,0,0,0,0,0,0,0,1,43
guava,v8.0,v9.0,F:/corpus/guava/guava#2011-02-01-01-56-14#v8.0#0bb8549/src/com/google/common/base/Ascii.java,F:/corpus/guava/guava#2011-04-08-22-35-37#v9.0#28d17c4/src/com/google/common/base/Ascii.java,1,0,0,0,0,0,0,0,0,0,0,0,0,YES,0,0,0,0,0,2,0,0,0,0,0,0,0,0,0,0,0,0,0,1,0,0,0,0,0,0,0,0,0,0,0,0,0,0,0,0,0,0,0,0,0,0,0,0,0,0,0,0,26,440
guava,v8.0,v9.0,F:/corpus/guava/guava#2011-02-01-01-56-14#v8.0#0bb8549/src/com/google/common/base/CaseFormat.java,F:/corpus/guava/guava#2011-04-08-22-35-37#v9.0#28d17c4/src/com/google/common/base/CaseFormat.java,0,0,0,0,0,0,0,0,0,0,0,0,0,YES,0,0,0,0,0,0,0,0,0,0,0,0,0,0,0,0,0,0,0,0,0,0,0,0,0,0,0,0,0,0,0,0,0,0,0,0,0,0,0,0,0,0,0,0,0,0,0,0,6,162
guava,v8.0,v9.0,F:/corpus/guava/guava#2011-02-01-01-56-14#v8.0#0bb8549/src/com/google/common/base/CharMatcher.java,F:/corpus/guava/guava#2011-04-08-22-35-37#v9.0#28d17c4/src/com/google/common/base/CharMatcher.java,0,1,0,0,0,0,0,0,0,0,0,0,0,YES,0,0,0,0,0,0,0,0,0,0,0,0,0,0,0,0,0,0,0,0,0,0,0,0,0,0,0,0,0,0,0,0,0,0,0,0,0,0,0,0,0,0,0,0,0,0,0,0,6,1142
guava,v8.0,v9.0,F:/corpus/guava/guava#2011-02-01-01-56-14#v8.0#0bb8549/src/com/google/common/base/Charsets.java,F:/corpus/guava/guava#2011-04-08-22-35-37#v9.0#28d17c4/src/com/google/common/base/Charsets.java,1,0,0,0,0,0,0,0,0,0,0,0,0,YES,0,0,0,0,0,0,0,0,0,0,0,0,0,0,0,0,0,0,0,0,0,0,0,0,0,0,0,0,0,0,0,0,0,0,0,0,0,0,0,0,0,0,0,0,0,0,0,0,6,67
guava,v8.0,v9.0,F:/corpus/guava/guava#2011-02-01-01-56-14#v8.0#0bb8549/src/com/google/common/base/Defaults.java,F:/corpus/guava/guava#2011-04-08-22-35-37#v9.0#28d17c4/src/com/google/common/base/Defaults.java,0,0,0,0,0,0,0,0,0,0,0,0,0,YES,0,0,0,0,0,0,0,0,0,0,0,0,0,0,0,0,0,0,0,0,0,0,0,0,0,0,0,0,0,0,0,0,0,0,0,0,0,0,0,0,0,0,0,0,0,0,0,0,7,57
guava,v8.0,v9.0,F:/corpus/guava/guava#2011-02-01-01-56-14#v8.0#0bb8549/src/com/google/common/base/Equivalence.java,F:/corpus/guava/guava#2011-04-08-22-35-37#v9.0#28d17c4/src/com/google/common/base/Equivalence.java,0,0,0,0,1,0,0,0,0,0,0,0,0,YES,0,0,0,0,0,0,0,0,0,0,0,0,0,0,0,0,0,0,0,0,0,0,0,0,0,0,0,0,0,0,0,0,0,0,0,0,0,0,0,0,0,0,0,0,0,0,0,0,7,61
guava,v8.0,v9.0,F:/corpus/guava/guava#2011-02-01-01-56-14#v8.0#0bb8549/src/com/google/common/base/Equivalences.java,F:/corpus/guava/guava#2011-04-08-22-35-37#v9.0#28d17c4/src/com/google/common/base/Equivalences.java,0,0,0,0,0,0,0,0,0,0,0,0,0,YES,0,0,0,0,1,0,0,0,0,0,0,0,0,0,0,0,0,0,0,1,0,0,0,0,0,0,0,0,0,0,0,0,0,0,1,0,0,0,0,0,0,0,0,0,0,0,0,0,42,92
guava,v8.0,v9.0,F:/corpus/guava/guava#2011-02-01-01-56-14#v8.0#0bb8549/src/com/google/common/base/FinalizablePhantomReference.java,F:/corpus/guava/guava#2011-04-08-22-35-37#v9.0#28d17c4/src/com/google/common/base/FinalizablePhantomReference.java,0,0,0,0,1,0,0,0,0,0,0,0,0,YES,0,0,0,0,0,0,0,0,0,0,0,0,0,0,0,0,0,0,0,0,0,0,0,0,0,0,0,0,0,0,0,0,0,0,0,0,0,0,0,0,0,0,0,0,0,0,0,0,7,42
guava,v8.0,v9.0,F:/corpus/guava/guava#2011-02-01-01-56-14#v8.0#0bb8549/src/com/google/common/base/FinalizableReference.java,F:/corpus/guava/guava#2011-04-08-22-35-37#v9.0#28d17c4/src/com/google/common/base/FinalizableReference.java,0,0,0,0,0,0,0,0,0,0,0,0,0,YES,0,0,0,0,0,0,0,0,0,0,0,0,0,0,0,0,0,0,0,0,0,0,0,0,0,0,0,0,0,0,0,0,0,0,0,0,0,0,0,0,0,0,0,0,0,0,0,0,7,31
guava,v8.0,v9.0,F:/corpus/guava/guava#2011-02-01-01-56-14#v8.0#0bb8549/src/com/google/common/base/FinalizableReferenceQueue.java,F:/corpus/guava/guava#2011-04-08-22-35-37#v9.0#28d17c4/src/com/google/common/base/FinalizableReferenceQueue.java,0,0,0,0,0,1,0,0,0,0,0,0,0,YES,0,0,0,0,0,0,0,0,0,0,0,0,0,0,0,0,0,0,0,0,0,0,0,0,0,0,0,0,0,0,0,0,0,0,0,0,0,0,0,0,0,0,0,0,0,0,0,0,10,281
guava,v8.0,v9.0,F:/corpus/guava/guava#2011-02-01-01-56-14#v8.0#0bb8549/src/com/google/common/base/FinalizableSoftReference.java,F:/corpus/guava/guava#2011-04-08-22-35-37#v9.0#28d17c4/src/com/google/common/base/FinalizableSoftReference.java,0,0,0,0,1,0,0,0,0,0,0,0,0,YES,0,0,0,0,0,0,0,0,0,0,0,0,0,0,0,0,0,0,0,0,0,0,0,0,0,0,0,0,0,0,0,0,0,0,0,0,0,0,0,0,0,0,0,0,0,0,0,0,7,40
guava,v8.0,v9.0,F:/corpus/guava/guava#2011-02-01-01-56-14#v8.0#0bb8549/src/com/google/common/base/FinalizableWeakReference.java,F:/corpus/guava/guava#2011-04-08-22-35-37#v9.0#28d17c4/src/com/google/common/base/FinalizableWeakReference.java,0,0,0,0,1,0,0,0,0,0,0,0,0,YES,0,0,0,0,0,0,0,0,0,0,0,0,0,0,0,0,0,0,0,0,0,0,0,0,0,0,0,0,0,0,0,0,0,0,0,0,0,0,0,0,0,0,0,0,0,0,0,0,7,40
guava,v8.0,v9.0,F:/corpus/guava/guava#2011-02-01-01-56-14#v8.0#0bb8549/src/com/google/common/base/Function.java,F:/corpus/guava/guava#2011-04-08-22-35-37#v9.0#28d17c4/src/com/google/common/base/Function.java,0,0,0,0,1,0,0,0,0,0,0,0,0,YES,0,0,0,0,0,0,0,0,0,0,0,0,0,0,0,0,0,0,0,1,0,0,0,0,0,0,0,0,0,0,0,0,0,0,0,0,0,0,0,0,0,0,0,0,0,0,0,0,9,56
guava,v8.0,v9.0,F:/corpus/guava/guava#2011-02-01-01-56-14#v8.0#0bb8549/src/com/google/common/base/Functions.java,F:/corpus/guava/guava#2011-04-08-22-35-37#v9.0#28d17c4/src/com/google/common/base/Functions.java,0,0,0,0,1,0,0,0,0,0,0,0,0,YES,0,0,0,0,0,0,0,0,0,0,0,0,0,0,0,0,0,0,0,0,0,0,0,0,0,0,0,0,0,0,0,0,0,0,0,0,0,0,0,0,0,0,0,0,0,0,0,0,14,299
guava,v8.0,v9.0,F:/corpus/guava/guava#2011-02-01-01-56-14#v8.0#0bb8549/src/com/google/common/base/Joiner.java,F:/corpus/guava/guava#2011-04-08-22-35-37#v9.0#28d17c4/src/com/google/common/base/Joiner.java,0,0,0,0,0,0,0,0,0,0,0,0,0,YES,0,0,0,0,0,0,0,0,0,0,0,0,0,0,0,0,0,0,0,0,0,0,0,0,0,0,0,0,0,0,0,0,0,0,0,0,0,0,0,0,0,0,0,0,0,0,0,0,7,338
guava,v8.0,v9.0,F:/corpus/guava/guava#2011-02-01-01-56-14#v8.0#0bb8549/src/com/google/common/base/Objects.java,F:/corpus/guava/guava#2011-04-08-22-35-37#v9.0#28d17c4/src/com/google/common/base/Objects.java,0,0,0,0,0,0,0,0,0,0,0,2,0,YES,0,0,0,0,0,0,0,0,0,0,0,0,0,0,0,0,0,0,0,0,0,0,0,0,0,0,0,0,0,0,0,0,0,0,0,0,0,0,0,0,0,0,0,0,0,0,0,0,2,217
guava,v8.0,v9.0,F:/corpus/guava/guava#2011-02-01-01-56-14#v8.0#0bb8549/src/com/google/common/base/Platform.java,F:/corpus/guava/guava#2011-04-08-22-35-37#v9.0#28d17c4/src/com/google/common/base/Platform.java,0,0,0,0,0,0,0,0,0,0,0,0,0,YES,0,0,0,0,0,0,0,0,0,0,0,0,0,0,0,0,0,0,0,0,0,0,0,0,0,0,0,0,0,0,0,0,0,0,0,0,0,0,0,0,0,0,0,0,0,0,0,0,1,66
guava,v8.0,v9.0,F:/corpus/guava/guava#2011-02-01-01-56-14#v8.0#0bb8549/src/com/google/common/base/Preconditions.java,F:/corpus/guava/guava#2011-04-08-22-35-37#v9.0#28d17c4/src/com/google/common/base/Preconditions.java,0,0,0,0,0,0,0,0,0,0,0,10,0,YES,0,0,0,0,0,0,0,0,0,0,0,0,0,0,0,0,0,0,0,0,0,0,0,0,0,0,0,0,0,0,0,0,0,0,0,0,0,0,0,0,0,0,0,0,0,0,0,0,1,445
guava,v8.0,v9.0,F:/corpus/guava/guava#2011-02-01-01-56-14#v8.0#0bb8549/src/com/google/common/base/Predicate.java,F:/corpus/guava/guava#2011-04-08-22-35-37#v9.0#28d17c4/src/com/google/common/base/Predicate.java,0,0,0,0,1,0,0,0,0,0,0,0,0,YES,0,0,0,0,0,0,0,0,0,0,0,0,0,0,0,0,0,0,0,0,0,0,0,0,0,0,0,0,0,0,0,0,0,0,0,0,0,0,0,0,0,0,0,0,0,0,0,0,2,58
guava,v8.0,v9.0,F:/corpus/guava/guava#2011-02-01-01-56-14#v8.0#0bb8549/src/com/google/common/base/Predicates.java,F:/corpus/guava/guava#2011-04-08-22-35-37#v9.0#28d17c4/src/com/google/common/base/Predicates.java,0,0,0,0,0,0,0,0,0,0,0,1,0,YES,0,0,0,0,0,0,0,0,0,0,0,0,0,0,0,0,0,0,0,0,0,0,0,0,0,0,0,0,0,0,0,0,0,0,0,0,0,0,0,0,0,0,0,0,0,0,0,0,16,567
guava,v8.0,v9.0,F:/corpus/guava/guava#2011-02-01-01-56-14#v8.0#0bb8549/src/com/google/common/base/Splitter.java,F:/corpus/guava/guava#2011-04-08-22-35-37#v9.0#28d17c4/src/com/google/common/base/Splitter.java,0,0,0,0,3,0,0,0,0,0,0,0,0,YES,0,0,0,0,1,0,0,0,0,0,0,0,0,0,0,0,0,0,0,0,0,0,0,0,0,0,0,0,0,0,0,0,0,0,0,0,0,0,0,0,0,0,0,0,0,0,0,0,29,479
guava,v8.0,v9.0,F:/corpus/guava/guava#2011-02-01-01-56-14#v8.0#0bb8549/src/com/google/common/base/Strings.java,F:/corpus/guava/guava#2011-04-08-22-35-37#v9.0#28d17c4/src/com/google/common/base/Strings.java,0,0,0,0,0,0,0,0,0,0,0,0,0,YES,0,0,0,0,0,0,0,0,0,0,0,0,0,0,0,0,0,0,0,0,0,0,0,0,0,0,0,0,0,0,0,0,0,0,0,0,0,0,0,0,0,0,0,0,0,0,0,0,1,165
guava,v8.0,v9.0,F:/corpus/guava/guava#2011-02-01-01-56-14#v8.0#0bb8549/src/com/google/common/base/Supplier.java,F:/corpus/guava/guava#2011-04-08-22-35-37#v9.0#28d17c4/src/com/google/common/base/Supplier.java,0,0,0,0,1,0,0,0,0,0,0,0,0,YES,0,0,0,0,0,0,0,0,0,0,0,0,0,0,0,0,0,0,0,0,0,0,0,0,0,0,0,0,0,0,0,0,0,0,0,0,0,0,0,0,0,0,0,0,0,0,0,0,1,38
guava,v8.0,v9.0,F:/corpus/guava/guava#2011-02-01-01-56-14#v8.0#0bb8549/src/com/google/common/base/Suppliers.java,F:/corpus/guava/guava#2011-04-08-22-35-37#v9.0#28d17c4/src/com/google/common/base/Suppliers.java,0,0,0,0,0,0,1,0,0,0,0,0,0,YES,0,0,0,0,0,0,0,0,0,0,0,0,0,0,0,0,0,0,0,0,0,0,0,0,0,0,0,0,0,0,0,0,0,0,0,0,0,0,0,0,0,0,0,0,0,0,0,0,6,249
guava,v8.0,v9.0,F:/corpus/guava/guava#2011-02-01-01-56-14#v8.0#0bb8549/src/com/google/common/base/Throwables.java,F:/corpus/guava/guava#2011-04-08-22-35-37#v9.0#28d17c4/src/com/google/common/base/Throwables.java,0,0,0,0,0,0,0,0,0,0,0,0,0,YES,0,0,0,0,0,0,0,0,0,0,0,0,0,0,0,0,0,0,0,0,0,0,0,0,0,0,0,0,0,0,0,0,0,0,0,0,0,0,0,0,0,0,0,0,0,0,0,0,1,254
guava,v8.0,v9.0,F:/corpus/guava/guava#2011-02-01-01-56-14#v8.0#0bb8549/src/com/google/common/base/internal/Finalizer.java,F:/corpus/guava/guava#2011-04-08-22-35-37#v9.0#28d17c4/src/com/google/common/base/internal/Finalizer.java,0,0,0,0,0,0,0,0,0,0,0,0,0,YES,0,0,0,0,0,0,0,0,0,0,0,0,0,0,0,0,0,0,0,0,0,0,0,0,0,0,0,0,0,0,0,0,0,0,0,0,0,0,0,0,0,0,0,0,0,0,0,0,1,207
guava,v8.0,v9.0,F:/corpus/guava/guava#2011-02-01-01-56-14#v8.0#0bb8549/src/com/google/common/base/package-info.java,F:/corpus/guava/guava#2011-04-08-22-35-37#v9.0#28d17c4/src/com/google/common/base/package-info.java,0,0,0,0,0,0,0,0,0,0,0,0,0,YES,0,0,0,0,0,0,0,0,0,0,0,0,0,0,0,0,0,0,0,0,0,0,0,0,0,0,0,0,0,0,0,0,0,0,0,0,0,0,0,0,0,0,0,0,0,0,0,0,1,60
guava,v8.0,v9.0,F:/corpus/guava/guava#2011-02-01-01-56-14#v8.0#0bb8549/src/com/google/common/collect/AbstractBiMap.java,F:/corpus/guava/guava#2011-04-08-22-35-37#v9.0#28d17c4/src/com/google/common/collect/AbstractBiMap.java,0,0,0,0,1,0,0,0,0,0,0,0,0,YES,0,0,0,0,0,0,0,0,0,0,0,0,0,0,0,0,0,0,0,0,0,0,0,0,0,0,0,0,0,0,0,0,0,0,0,0,0,0,0,0,0,0,0,0,0,0,1,0,6,401
guava,v8.0,v9.0,F:/corpus/guava/guava#2011-02-01-01-56-14#v8.0#0bb8549/src/com/google/common/collect/AbstractIndexedListIterator.java,F:/corpus/guava/guava#2011-04-08-22-35-37#v9.0#28d17c4/src/com/google/common/collect/AbstractIndexedListIterator.java,0,0,0,0,1,0,0,0,0,0,0,0,0,YES,0,0,0,0,0,0,0,0,0,0,0,0,0,0,0,0,0,0,0,0,0,0,0,0,0,0,0,0,0,0,0,0,0,0,0,0,0,0,0,0,0,0,0,0,0,0,0,0,7,103
guava,v8.0,v9.0,F:/corpus/guava/guava#2011-02-01-01-56-14#v8.0#0bb8549/src/com/google/common/collect/AbstractIterator.java,F:/corpus/guava/guava#2011-04-08-22-35-37#v9.0#28d17c4/src/com/google/common/collect/AbstractIterator.java,0,0,0,0,1,0,0,0,0,0,0,0,0,YES,0,0,0,0,0,0,0,0,0,0,0,0,0,0,0,0,0,0,0,0,0,0,0,0,0,0,0,0,0,0,0,0,0,0,0,0,0,0,0,0,0,0,0,0,0,0,0,0,3,169
guava,v8.0,v9.0,F:/corpus/guava/guava#2011-02-01-01-56-14#v8.0#0bb8549/src/com/google/common/collect/AbstractLinkedIterator.java,F:/corpus/guava/guava#2011-04-08-22-35-37#v9.0#28d17c4/src/com/google/common/collect/AbstractLinkedIterator.java,0,0,0,0,1,0,0,0,0,0,0,0,0,YES,0,0,0,0,0,0,0,0,0,0,0,0,0,0,0,0,0,0,0,0,0,0,0,0,0,0,0,0,0,0,0,0,0,0,0,0,0,0,0,0,0,0,0,0,0,0,0,0,8,73
guava,v8.0,v9.0,F:/corpus/guava/guava#2011-02-01-01-56-14#v8.0#0bb8549/src/com/google/common/collect/AbstractListMultimap.java,F:/corpus/guava/guava#2011-04-08-22-35-37#v9.0#28d17c4/src/com/google/common/collect/AbstractListMultimap.java,0,0,0,0,1,0,0,0,0,0,0,0,0,YES,0,0,0,0,0,0,0,0,0,0,0,0,0,0,0,0,0,0,0,0,0,0,0,0,0,0,0,0,0,0,0,0,0,0,0,0,0,0,0,0,0,0,0,0,0,0,0,0,1,120
guava,v8.0,v9.0,F:/corpus/guava/guava#2011-02-01-01-56-14#v8.0#0bb8549/src/com/google/common/collect/AbstractMapBasedMultiset.java,F:/corpus/guava/guava#2011-04-08-22-35-37#v9.0#28d17c4/src/com/google/common/collect/AbstractMapBasedMultiset.java,0,0,0,0,1,5,0,0,0,0,0,0,0,YES,0,0,0,0,0,0,0,0,0,0,0,0,0,0,0,0,0,0,0,0,0,0,0,0,0,0,0,0,0,0,0,0,0,0,0,0,0,0,0,0,0,0,0,0,0,0,2,0,12,421
guava,v8.0,v9.0,F:/corpus/guava/guava#2011-02-01-01-56-14#v8.0#0bb8549/src/com/google/common/collect/AbstractMapEntry.java,F:/corpus/guava/guava#2011-04-08-22-35-37#v9.0#28d17c4/src/com/google/common/collect/AbstractMapEntry.java,0,0,0,0,2,0,0,0,0,0,0,0,0,YES,0,0,0,0,0,0,0,0,0,0,0,0,0,0,0,0,0,0,0,0,0,0,0,0,0,0,0,0,0,0,0,0,0,0,0,0,0,0,0,0,0,0,0,0,0,0,0,0,4,64
guava,v8.0,v9.0,F:/corpus/guava/guava#2011-02-01-01-56-14#v8.0#0bb8549/src/com/google/common/collect/AbstractMultimap.java,F:/corpus/guava/guava#2011-04-08-22-35-37#v9.0#28d17c4/src/com/google/common/collect/AbstractMultimap.java,0,1,3,0,2,0,1,0,0,0,0,1,0,YES,0,0,0,0,0,0,0,0,0,0,0,0,0,0,0,0,0,0,0,0,0,0,0,0,0,0,0,0,0,0,0,0,0,0,0,0,0,0,0,0,0,0,0,0,0,0,1,0,76,1498
guava,v8.0,v9.0,F:/corpus/guava/guava#2011-02-01-01-56-14#v8.0#0bb8549/src/com/google/common/collect/AbstractMultiset.java,F:/corpus/guava/guava#2011-04-08-22-35-37#v9.0#28d17c4/src/com/google/common/collect/AbstractMultiset.java,0,0,0,0,3,0,0,0,0,0,0,0,0,YES,0,0,0,0,0,0,0,0,0,0,0,0,0,0,0,0,0,0,0,0,0,0,0,0,0,0,0,0,0,0,0,0,0,0,0,0,0,0,0,0,0,0,0,0,0,0,0,0,8,175
guava,v8.0,v9.0,F:/corpus/guava/guava#2011-02-01-01-56-14#v8.0#0bb8549/src/com/google/common/collect/AbstractSetMultimap.java,F:/corpus/guava/guava#2011-04-08-22-35-37#v9.0#28d17c4/src/com/google/common/collect/AbstractSetMultimap.java,0,0,0,0,1,0,0,0,0,0,0,0,0,YES,0,0,0,0,0,0,0,0,0,0,0,0,0,0,0,0,0,0,0,0,0,0,0,0,0,0,0,0,0,0,0,0,0,0,0,0,0,0,0,0,0,0,0,0,0,0,0,0,1,132
guava,v8.0,v9.0,F:/corpus/guava/guava#2011-02-01-01-56-14#v8.0#0bb8549/src/com/google/common/collect/AbstractSortedSetMultimap.java,F:/corpus/guava/guava#2011-04-08-22-35-37#v9.0#28d17c4/src/com/google/common/collect/AbstractSortedSetMultimap.java,0,0,0,0,1,0,0,0,0,0,0,0,0,YES,0,0,0,0,0,0,0,0,0,0,0,0,0,0,0,0,0,0,0,0,0,0,0,0,0,0,0,0,0,0,0,0,0,0,0,0,0,0,0,0,0,0,0,0,0,0,0,0,1,124
guava,v8.0,v9.0,F:/corpus/guava/guava#2011-02-01-01-56-14#v8.0#0bb8549/src/com/google/common/collect/ArrayListMultimap.java,F:/corpus/guava/guava#2011-04-08-22-35-37#v9.0#28d17c4/src/com/google/common/collect/ArrayListMultimap.java,0,0,0,0,0,0,0,0,0,0,0,0,0,YES,0,0,0,0,0,0,0,0,0,0,0,0,0,0,0,0,0,0,0,0,0,0,0,0,0,0,0,0,0,0,0,0,0,0,0,0,0,0,0,0,0,0,0,0,0,0,0,0,1,164
guava,v8.0,v9.0,F:/corpus/guava/guava#2011-02-01-01-56-14#v8.0#0bb8549/src/com/google/common/collect/AsynchronousComputationException.java,F:/corpus/guava/guava#2011-04-08-22-35-37#v9.0#28d17c4/src/com/google/common/collect/AsynchronousComputationException.java,0,0,0,0,0,0,0,0,0,0,0,0,0,YES,0,0,0,0,0,0,0,0,0,0,0,0,0,0,0,0,0,0,0,0,0,0,0,0,0,0,0,0,0,0,0,0,0,0,0,0,0,0,0,0,0,0,0,0,0,0,0,0,1,32
guava,v8.0,v9.0,F:/corpus/guava/guava#2011-02-01-01-56-14#v8.0#0bb8549/src/com/google/common/collect/BiMap.java,F:/corpus/guava/guava#2011-04-08-22-35-37#v9.0#28d17c4/src/com/google/common/collect/BiMap.java,0,0,0,0,1,0,0,0,0,0,0,0,0,YES,0,0,0,0,0,0,0,0,0,0,0,0,0,0,0,0,0,0,0,0,0,0,0,0,0,0,0,0,0,0,0,0,0,0,0,0,0,0,0,0,0,0,0,0,0,0,0,0,4,103
guava,v8.0,v9.0,F:/corpus/guava/guava#2011-02-01-01-56-14#v8.0#0bb8549/src/com/google/common/collect/ByFunctionOrdering.java,F:/corpus/guava/guava#2011-04-08-22-35-37#v9.0#28d17c4/src/com/google/common/collect/ByFunctionOrdering.java,0,0,0,0,0,0,0,0,0,0,0,0,0,YES,0,0,0,0,0,0,0,0,0,0,0,0,0,0,0,0,0,0,0,0,0,0,0,0,0,0,0,0,0,0,0,0,0,0,0,0,0,0,0,0,0,0,0,0,0,0,0,0,1,70
guava,v8.0,v9.0,F:/corpus/guava/guava#2011-02-01-01-56-14#v8.0#0bb8549/src/com/google/common/collect/ClassToInstanceMap.java,F:/corpus/guava/guava#2011-04-08-22-35-37#v9.0#28d17c4/src/com/google/common/collect/ClassToInstanceMap.java,0,0,0,0,1,0,0,0,0,0,0,0,0,YES,0,0,0,0,0,0,0,0,0,0,0,0,0,0,0,0,0,0,0,0,0,0,0,0,0,0,0,0,0,0,0,0,0,0,0,0,0,0,0,0,0,0,0,0,0,0,0,0,1,59
guava,v8.0,v9.0,F:/corpus/guava/guava#2011-02-01-01-56-14#v8.0#0bb8549/src/com/google/common/collect/Collections2.java,F:/corpus/guava/guava#2011-04-08-22-35-37#v9.0#28d17c4/src/com/google/common/collect/Collections2.java,0,0,0,0,0,0,0,0,0,0,0,0,0,YES,0,0,0,0,0,0,0,0,0,0,0,0,0,0,0,0,0,0,0,0,0,0,0,0,0,0,0,0,0,0,0,0,0,0,0,0,0,0,0,0,0,0,0,0,0,0,2,0,22,320
guava,v8.0,v9.0,F:/corpus/guava/guava#2011-02-01-01-56-14#v8.0#0bb8549/src/com/google/common/collect/ComparatorOrdering.java,F:/corpus/guava/guava#2011-04-08-22-35-37#v9.0#28d17c4/src/com/google/common/collect/ComparatorOrdering.java,0,0,0,0,0,0,0,0,0,0,0,0,0,YES,0,0,0,0,0,0,0,0,0,0,0,0,0,0,0,0,0,0,0,0,0,0,0,0,0,0,0,0,0,0,0,0,0,0,0,0,0,0,0,0,0,0,0,0,0,0,0,0,1,75
guava,v8.0,v9.0,F:/corpus/guava/guava#2011-02-01-01-56-14#v8.0#0bb8549/src/com/google/common/collect/ComparisonChain.java,F:/corpus/guava/guava#2011-04-08-22-35-37#v9.0#28d17c4/src/com/google/common/collect/ComparisonChain.java,0,0,0,0,8,0,0,0,0,0,0,0,0,YES,0,0,0,0,0,0,0,0,0,0,0,0,0,0,0,0,0,0,0,0,0,0,0,0,0,0,0,0,0,0,0,0,0,0,0,0,0,0,0,0,0,0,0,0,0,0,0,0,1,192
guava,v8.0,v9.0,F:/corpus/guava/guava#2011-02-01-01-56-14#v8.0#0bb8549/src/com/google/common/collect/CompoundOrdering.java,F:/corpus/guava/guava#2011-04-08-22-35-37#v9.0#28d17c4/src/com/google/common/collect/CompoundOrdering.java,0,0,0,0,0,0,0,0,0,0,0,0,0,YES,0,0,0,0,0,0,0,0,0,0,0,0,0,0,0,0,0,0,0,0,0,0,0,0,0,0,0,0,0,0,0,0,0,0,0,0,0,0,0,0,0,0,0,0,0,0,0,0,1,76
guava,v8.0,v9.0,F:/corpus/guava/guava#2011-02-01-01-56-14#v8.0#0bb8549/src/com/google/common/collect/ComputationException.java,F:/corpus/guava/guava#2011-04-08-22-35-37#v9.0#28d17c4/src/com/google/common/collect/ComputationException.java,0,0,0,0,0,0,0,0,0,0,0,0,0,YES,0,0,0,0,0,0,0,0,0,0,0,0,0,0,0,0,0,0,0,0,0,0,0,0,0,0,0,0,0,0,0,0,0,0,0,0,0,0,0,0,0,0,0,0,0,0,0,0,1,33
guava,v8.0,v9.0,F:/corpus/guava/guava#2011-02-01-01-56-14#v8.0#0bb8549/src/com/google/common/collect/ComputingConcurrentHashMap.java,F:/corpus/guava/guava#2011-04-08-22-35-37#v9.0#28d17c4/src/com/google/common/collect/ComputingConcurrentHashMap.java,0,0,0,1,2,0,0,0,1,0,1,0,0,YES,0,0,0,1,4,0,1,0,0,0,1,5,6,2,0,1,0,1,0,0,0,0,0,0,0,0,0,0,0,0,0,0,0,0,5,0,0,0,0,0,0,0,21,29,0,13,3,0,224,423
guava,v8.0,v9.0,F:/corpus/guava/guava#2011-02-01-01-56-14#v8.0#0bb8549/src/com/google/common/collect/ConcurrentHashMultiset.java,F:/corpus/guava/guava#2011-04-08-22-35-37#v9.0#28d17c4/src/com/google/common/collect/ConcurrentHashMultiset.java,0,0,0,0,0,0,0,0,0,0,0,0,0,YES,0,0,0,0,0,0,0,0,0,0,0,0,0,0,0,0,0,0,0,0,0,0,0,0,0,0,0,0,0,0,0,0,0,0,0,0,0,0,0,0,0,0,0,0,0,0,1,0,4,514
guava,v8.0,v9.0,F:/corpus/guava/guava#2011-02-01-01-56-14#v8.0#0bb8549/src/com/google/common/collect/Constraint.java,F:/corpus/guava/guava#2011-04-08-22-35-37#v9.0#28d17c4/src/com/google/common/collect/Constraint.java,0,0,0,0,1,0,0,0,0,0,0,0,0,YES,0,0,0,0,0,0,0,0,0,0,0,0,0,0,0,0,0,0,0,0,0,0,0,0,0,0,0,0,0,0,0,0,0,0,0,0,0,0,0,0,0,0,0,0,0,0,0,0,2,66
guava,v8.0,v9.0,F:/corpus/guava/guava#2011-02-01-01-56-14#v8.0#0bb8549/src/com/google/common/collect/Constraints.java,F:/corpus/guava/guava#2011-04-08-22-35-37#v9.0#28d17c4/src/com/google/common/collect/Constraints.java,0,0,0,0,0,0,0,0,0,0,0,0,0,YES,0,0,0,0,0,0,0,0,0,0,0,0,0,0,0,0,0,0,0,0,0,0,0,0,0,0,0,0,0,0,0,0,0,0,0,0,0,0,0,0,0,0,0,0,0,0,1,0,3,381
guava,v8.0,v9.0,F:/corpus/guava/guava#2011-02-01-01-56-14#v8.0#0bb8549/src/com/google/common/collect/CustomConcurrentHashMap.java,F:/corpus/guava/guava#2011-04-08-22-35-37#v9.0#28d17c4/src/com/google/common/collect/CustomConcurrentHashMap.java,6,1,0,0,4,0,76,0,0,0,2,0,0,YES,0,0,0,2,96,32,6,6,3,1,0,28,13,5,0,12,1,2,1,6,2,7,4,3,0,2,12,0,0,0,0,12,9,2,30,28,0,0,0,2,0,1,195,100,6,43,31,0,1344,3076
guava,v8.0,v9.0,F:/corpus/guava/guava#2011-02-01-01-56-14#v8.0#0bb8549/src/com/google/common/collect/EmptyImmutableList.java,F:/corpus/guava/guava#2011-04-08-22-35-37#v9.0#28d17c4/src/com/google/common/collect/EmptyImmutableList.java,0,0,0,0,3,0,0,0,0,0,0,0,0,YES,0,0,0,0,0,0,0,0,0,0,0,0,0,0,0,0,0,0,0,0,0,0,0,0,0,0,0,0,0,0,0,0,0,0,0,0,0,0,0,0,0,0,0,0,0,0,0,0,3,159
guava,v8.0,v9.0,F:/corpus/guava/guava#2011-02-01-01-56-14#v8.0#0bb8549/src/com/google/common/collect/EmptyImmutableListMultimap.java,F:/corpus/guava/guava#2011-04-08-22-35-37#v9.0#28d17c4/src/com/google/common/collect/EmptyImmutableListMultimap.java,0,0,0,0,0,0,0,0,0,0,0,0,0,YES,0,0,0,0,0,0,0,0,0,0,0,0,0,0,0,0,0,0,0,0,0,0,0,0,0,0,0,0,0,0,0,0,0,0,0,0,0,0,0,0,0,0,0,0,0,0,0,0,1,40
guava,v8.0,v9.0,F:/corpus/guava/guava#2011-02-01-01-56-14#v8.0#0bb8549/src/com/google/common/collect/EmptyImmutableMap.java,F:/corpus/guava/guava#2011-04-08-22-35-37#v9.0#28d17c4/src/com/google/common/collect/EmptyImmutableMap.java,0,0,0,0,3,0,0,0,0,0,0,0,0,YES,0,0,0,0,0,0,0,0,0,0,0,0,0,0,0,0,0,0,0,0,0,0,0,0,0,0,0,0,0,0,0,0,0,0,0,0,0,0,0,0,0,0,0,0,0,0,0,0,2,94
guava,v8.0,v9.0,F:/corpus/guava/guava#2011-02-01-01-56-14#v8.0#0bb8549/src/com/google/common/collect/EmptyImmutableMultiset.java,F:/corpus/guava/guava#2011-04-08-22-35-37#v9.0#28d17c4/src/com/google/common/collect/EmptyImmutableMultiset.java,0,0,0,0,0,0,0,0,0,0,0,0,0,YES,0,0,0,0,0,0,0,0,0,0,0,0,0,0,0,0,0,0,0,0,0,0,0,0,0,0,0,0,0,0,0,0,0,0,0,0,0,0,0,0,0,0,0,0,0,0,0,0,1,39
guava,v8.0,v9.0,F:/corpus/guava/guava#2011-02-01-01-56-14#v8.0#0bb8549/src/com/google/common/collect/EmptyImmutableSet.java,F:/corpus/guava/guava#2011-04-08-22-35-37#v9.0#28d17c4/src/com/google/common/collect/EmptyImmutableSet.java,0,0,0,0,1,0,0,0,0,0,0,0,0,YES,0,0,0,0,0,0,0,0,0,0,0,0,0,0,0,0,0,0,0,0,0,0,0,0,0,0,0,0,0,0,0,0,0,0,0,0,0,0,0,0,0,0,0,0,0,0,0,0,2,99
guava,v8.0,v9.0,F:/corpus/guava/guava#2011-02-01-01-56-14#v8.0#0bb8549/src/com/google/common/collect/EmptyImmutableSetMultimap.java,F:/corpus/guava/guava#2011-04-08-22-35-37#v9.0#28d17c4/src/com/google/common/collect/EmptyImmutableSetMultimap.java,0,0,0,0,0,0,0,0,0,0,0,0,0,YES,0,0,0,0,0,0,0,0,0,0,0,0,0,0,0,0,0,0,0,0,0,0,0,0,0,0,0,0,0,0,0,0,0,0,0,0,0,0,0,0,0,0,0,0,0,0,0,0,1,40
guava,v8.0,v9.0,F:/corpus/guava/guava#2011-02-01-01-56-14#v8.0#0bb8549/src/com/google/common/collect/EmptyImmutableSortedSet.java,F:/corpus/guava/guava#2011-04-08-22-35-37#v9.0#28d17c4/src/com/google/common/collect/EmptyImmutableSortedSet.java,0,0,0,0,5,0,0,0,0,0,0,0,0,YES,0,0,0,0,0,0,0,0,0,0,0,0,0,0,0,0,0,0,0,0,0,0,0,0,0,0,0,0,0,0,0,0,0,0,0,0,0,0,0,0,0,0,0,0,0,0,0,0,4,116
guava,v8.0,v9.0,F:/corpus/guava/guava#2011-02-01-01-56-14#v8.0#0bb8549/src/com/google/common/collect/EnumBiMap.java,F:/corpus/guava/guava#2011-04-08-22-35-37#v9.0#28d17c4/src/com/google/common/collect/EnumBiMap.java,0,0,0,0,0,0,0,0,0,0,0,0,0,YES,0,0,0,0,0,0,0,0,0,0,0,0,0,0,0,0,0,0,0,0,0,0,0,0,0,0,0,0,0,0,0,0,0,0,0,0,0,0,0,0,0,0,0,0,0,0,2,0,3,133
guava,v8.0,v9.0,F:/corpus/guava/guava#2011-02-01-01-56-14#v8.0#0bb8549/src/com/google/common/collect/EnumHashBiMap.java,F:/corpus/guava/guava#2011-04-08-22-35-37#v9.0#28d17c4/src/com/google/common/collect/EnumHashBiMap.java,0,0,0,0,0,0,0,0,0,0,0,0,0,YES,0,0,0,0,0,0,0,0,0,0,0,0,0,0,0,0,0,0,0,0,0,0,0,0,0,0,0,0,0,0,0,0,0,0,0,0,0,0,0,0,0,0,0,0,0,0,2,0,4,117
guava,v8.0,v9.0,F:/corpus/guava/guava#2011-02-01-01-56-14#v8.0#0bb8549/src/com/google/common/collect/EnumMultiset.java,F:/corpus/guava/guava#2011-04-08-22-35-37#v9.0#28d17c4/src/com/google/common/collect/EnumMultiset.java,0,0,0,0,0,0,0,0,0,0,0,0,0,YES,0,0,0,0,0,0,0,0,0,0,0,0,0,0,0,0,0,0,0,0,0,0,0,0,0,0,0,0,0,0,0,0,0,0,0,0,0,0,0,0,0,0,0,0,0,0,2,0,15,95
guava,v8.0,v9.0,F:/corpus/guava/guava#2011-02-01-01-56-14#v8.0#0bb8549/src/com/google/common/collect/EvictionListeners.java,F:/corpus/guava/guava#2011-04-08-22-35-37#v9.0#28d17c4/src/com/google/common/collect/EvictionListeners.java,0,0,0,0,0,0,0,0,0,0,0,0,0,YES,0,0,0,0,0,0,0,0,0,0,0,0,0,0,0,0,0,0,0,0,0,0,0,0,0,0,0,0,0,0,0,0,0,0,0,0,0,0,0,0,0,0,0,0,0,0,1,0,2,58
guava,v8.0,v9.0,F:/corpus/guava/guava#2011-02-01-01-56-14#v8.0#0bb8549/src/com/google/common/collect/ExplicitOrderedImmutableSortedSet.java,F:/corpus/guava/guava#2011-04-08-22-35-37#v9.0#28d17c4/src/com/google/common/collect/ExplicitOrderedImmutableSortedSet.java,0,0,0,0,1,0,0,0,0,0,0,0,0,YES,0,0,0,0,0,0,0,0,0,0,0,0,0,0,0,0,0,0,0,0,0,0,0,0,0,0,0,0,0,0,0,0,0,0,0,0,0,0,0,0,0,0,1,2,0,0,0,0,6,227
guava,v8.0,v9.0,F:/corpus/guava/guava#2011-02-01-01-56-14#v8.0#0bb8549/src/com/google/common/collect/ExplicitOrdering.java,F:/corpus/guava/guava#2011-04-08-22-35-37#v9.0#28d17c4/src/com/google/common/collect/ExplicitOrdering.java,0,0,0,0,0,0,0,0,0,0,0,0,0,YES,0,0,0,0,0,0,0,0,0,0,0,0,0,0,0,0,0,0,0,0,0,0,0,0,0,0,0,0,0,0,0,0,0,0,0,0,0,0,0,0,0,0,0,0,0,0,0,0,1,78
guava,v8.0,v9.0,F:/corpus/guava/guava#2011-02-01-01-56-14#v8.0#0bb8549/src/com/google/common/collect/ForwardingCollection.java,F:/corpus/guava/guava#2011-04-08-22-35-37#v9.0#28d17c4/src/com/google/common/collect/ForwardingCollection.java,0,0,0,0,1,0,0,0,0,0,0,0,0,YES,0,0,0,0,0,0,0,0,0,0,0,0,0,0,0,0,0,0,0,0,0,0,0,0,0,0,0,0,0,0,0,0,0,0,0,0,0,0,0,0,0,0,0,0,0,0,0,0,14,252
guava,v8.0,v9.0,F:/corpus/guava/guava#2011-02-01-01-56-14#v8.0#0bb8549/src/com/google/common/collect/ForwardingConcurrentMap.java,F:/corpus/guava/guava#2011-04-08-22-35-37#v9.0#28d17c4/src/com/google/common/collect/ForwardingConcurrentMap.java,0,0,0,0,1,0,0,0,0,0,0,0,0,YES,0,0,0,0,0,0,0,0,0,0,0,0,0,0,0,0,0,0,0,0,0,0,0,0,0,0,0,0,0,0,0,0,0,0,0,0,0,0,0,0,0,0,0,0,0,0,0,0,5,57
guava,v8.0,v9.0,F:/corpus/guava/guava#2011-02-01-01-56-14#v8.0#0bb8549/src/com/google/common/collect/ForwardingIterator.java,F:/corpus/guava/guava#2011-04-08-22-35-37#v9.0#28d17c4/src/com/google/common/collect/ForwardingIterator.java,0,0,0,0,1,0,0,0,0,0,0,0,0,YES,0,0,0,0,0,0,0,0,0,0,0,0,0,0,0,0,0,0,0,0,0,0,0,0,0,0,0,0,0,0,0,0,0,0,0,0,0,0,0,0,0,0,0,0,0,0,0,0,4,52
guava,v8.0,v9.0,F:/corpus/guava/guava#2011-02-01-01-56-14#v8.0#0bb8549/src/com/google/common/collect/ForwardingList.java,F:/corpus/guava/guava#2011-04-08-22-35-37#v9.0#28d17c4/src/com/google/common/collect/ForwardingList.java,0,0,0,0,1,0,0,0,0,0,0,0,0,YES,0,0,0,0,0,0,0,0,0,0,0,0,0,0,0,0,0,0,0,0,0,0,0,0,0,0,0,0,0,0,0,0,0,0,0,0,0,0,0,0,0,0,0,0,0,0,0,0,11,228
guava,v8.0,v9.0,F:/corpus/guava/guava#2011-02-01-01-56-14#v8.0#0bb8549/src/com/google/common/collect/ForwardingListIterator.java,F:/corpus/guava/guava#2011-04-08-22-35-37#v9.0#28d17c4/src/com/google/common/collect/ForwardingListIterator.java,0,0,0,0,1,0,0,0,0,0,0,0,0,YES,0,0,0,0,0,0,0,0,0,0,0,0,0,0,0,0,0,0,0,0,0,0,0,0,0,0,0,0,0,0,0,0,0,0,0,0,0,0,0,0,0,0,0,0,0,0,0,0,7,64
guava,v8.0,v9.0,F:/corpus/guava/guava#2011-02-01-01-56-14#v8.0#0bb8549/src/com/google/common/collect/ForwardingListMultimap.java,F:/corpus/guava/guava#2011-04-08-22-35-37#v9.0#28d17c4/src/com/google/common/collect/ForwardingListMultimap.java,0,0,0,0,1,0,0,0,0,0,0,0,0,YES,0,0,0,0,0,0,0,0,0,0,0,0,0,0,0,0,0,0,0,0,0,0,0,0,0,0,0,0,0,0,0,0,0,0,0,0,0,0,0,0,0,0,0,0,0,0,0,0,1,54
guava,v8.0,v9.0,F:/corpus/guava/guava#2011-02-01-01-56-14#v8.0#0bb8549/src/com/google/common/collect/ForwardingMap.java,F:/corpus/guava/guava#2011-04-08-22-35-37#v9.0#28d17c4/src/com/google/common/collect/ForwardingMap.java,0,0,0,0,1,0,0,0,0,0,0,0,0,YES,0,0,0,0,0,0,0,0,0,0,0,0,0,0,0,0,0,0,0,0,0,0,0,0,0,0,0,0,0,0,0,0,0,0,0,0,0,0,0,0,0,0,0,0,0,0,0,0,13,288
guava,v8.0,v9.0,F:/corpus/guava/guava#2011-02-01-01-56-14#v8.0#0bb8549/src/com/google/common/collect/ForwardingMapEntry.java,F:/corpus/guava/guava#2011-04-08-22-35-37#v9.0#28d17c4/src/com/google/common/collect/ForwardingMapEntry.java,0,0,0,0,1,0,0,0,0,0,0,0,0,YES,0,0,0,0,0,0,0,0,0,0,0,0,0,0,0,0,0,0,0,0,0,0,0,0,0,0,0,0,0,0,0,0,0,0,0,0,0,0,0,0,0,0,0,0,0,0,0,0,4,125
guava,v8.0,v9.0,F:/corpus/guava/guava#2011-02-01-01-56-14#v8.0#0bb8549/src/com/google/common/collect/ForwardingMultimap.java,F:/corpus/guava/guava#2011-04-08-22-35-37#v9.0#28d17c4/src/com/google/common/collect/ForwardingMultimap.java,0,0,0,0,1,0,0,0,0,0,0,0,0,YES,0,0,0,0,0,0,0,0,0,0,0,0,0,0,0,0,0,0,0,0,0,0,0,0,0,0,0,0,0,0,0,0,0,0,0,0,0,0,0,0,0,0,0,0,0,0,0,0,19,125
guava,v8.0,v9.0,F:/corpus/guava/guava#2011-02-01-01-56-14#v8.0#0bb8549/src/com/google/common/collect/ForwardingMultiset.java,F:/corpus/guava/guava#2011-04-08-22-35-37#v9.0#28d17c4/src/com/google/common/collect/ForwardingMultiset.java,0,0,0,0,1,0,0,0,0,0,0,0,0,YES,0,0,0,0,0,0,0,0,0,0,0,0,0,0,0,0,0,0,0,0,0,0,0,0,0,0,0,0,0,0,0,0,0,0,0,0,0,0,0,0,0,0,0,0,0,0,0,0,8,296
guava,v8.0,v9.0,F:/corpus/guava/guava#2011-02-01-01-56-14#v8.0#0bb8549/src/com/google/common/collect/ForwardingObject.java,F:/corpus/guava/guava#2011-04-08-22-35-37#v9.0#28d17c4/src/com/google/common/collect/ForwardingObject.java,0,0,0,0,0,0,0,0,0,0,0,0,0,YES,0,0,0,0,0,0,0,0,0,0,0,0,0,0,0,0,0,0,0,0,0,0,0,0,0,0,0,0,0,0,0,0,0,0,0,0,0,0,0,0,0,0,0,0,0,0,0,0,1,76
guava,v8.0,v9.0,F:/corpus/guava/guava#2011-02-01-01-56-14#v8.0#0bb8549/src/com/google/common/collect/ForwardingQueue.java,F:/corpus/guava/guava#2011-04-08-22-35-37#v9.0#28d17c4/src/com/google/common/collect/ForwardingQueue.java,0,0,0,0,1,0,0,0,0,0,0,0,0,YES,0,0,0,0,0,0,0,0,0,0,0,0,0,0,0,0,0,0,0,0,0,0,0,0,0,0,0,0,0,0,0,0,0,0,0,0,0,0,0,0,0,0,0,0,0,0,0,0,6,118
guava,v8.0,v9.0,F:/corpus/guava/guava#2011-02-01-01-56-14#v8.0#0bb8549/src/com/google/common/collect/ForwardingSet.java,F:/corpus/guava/guava#2011-04-08-22-35-37#v9.0#28d17c4/src/com/google/common/collect/ForwardingSet.java,0,0,0,0,1,0,0,0,0,0,0,0,0,YES,0,0,0,0,0,0,0,0,0,0,0,0,0,0,0,0,0,0,0,0,0,0,0,0,0,0,0,0,0,0,0,0,0,0,0,0,0,0,0,0,0,0,0,0,0,0,0,0,1,85
guava,v8.0,v9.0,F:/corpus/guava/guava#2011-02-01-01-56-14#v8.0#0bb8549/src/com/google/common/collect/ForwardingSetMultimap.java,F:/corpus/guava/guava#2011-04-08-22-35-37#v9.0#28d17c4/src/com/google/common/collect/ForwardingSetMultimap.java,0,0,0,0,1,0,0,0,0,0,0,0,0,YES,0,0,0,0,0,0,0,0,0,0,0,0,0,0,0,0,0,0,0,0,0,0,0,0,0,0,0,0,0,0,0,0,0,0,0,0,0,0,0,0,0,0,0,0,0,0,0,0,1,56
guava,v8.0,v9.0,F:/corpus/guava/guava#2011-02-01-01-56-14#v8.0#0bb8549/src/com/google/common/collect/ForwardingSortedMap.java,F:/corpus/guava/guava#2011-04-08-22-35-37#v9.0#28d17c4/src/com/google/common/collect/ForwardingSortedMap.java,0,0,0,0,1,0,0,0,0,0,0,0,0,YES,0,0,0,0,0,0,0,0,0,0,0,0,0,0,0,0,0,0,0,0,0,0,0,0,0,0,0,0,0,0,0,0,0,0,0,0,0,0,0,0,0,0,0,0,0,0,4,0,11,165
guava,v8.0,v9.0,F:/corpus/guava/guava#2011-02-01-01-56-14#v8.0#0bb8549/src/com/google/common/collect/ForwardingSortedSet.java,F:/corpus/guava/guava#2011-04-08-22-35-37#v9.0#28d17c4/src/com/google/common/collect/ForwardingSortedSet.java,0,0,0,0,1,0,0,0,0,0,0,0,0,YES,0,0,0,0,0,0,0,0,0,0,0,0,0,0,0,0,0,0,0,0,0,0,0,0,0,0,0,0,0,0,0,0,0,0,0,0,0,0,0,0,0,0,0,0,0,0,3,0,11,159
guava,v8.0,v9.0,F:/corpus/guava/guava#2011-02-01-01-56-14#v8.0#0bb8549/src/com/google/common/collect/ForwardingSortedSetMultimap.java,F:/corpus/guava/guava#2011-04-08-22-35-37#v9.0#28d17c4/src/com/google/common/collect/ForwardingSortedSetMultimap.java,0,0,0,0,1,0,0,0,0,0,0,0,0,YES,0,0,0,0,0,0,0,0,0,0,0,0,0,0,0,0,0,0,0,0,0,0,0,0,0,0,0,0,0,0,0,0,0,0,0,0,0,0,0,0,0,0,0,0,0,0,0,0,1,60
guava,v8.0,v9.0,F:/corpus/guava/guava#2011-02-01-01-56-14#v8.0#0bb8549/src/com/google/common/collect/ForwardingTable.java,F:/corpus/guava/guava#2011-04-08-22-35-37#v9.0#28d17c4/src/com/google/common/collect/ForwardingTable.java,0,0,0,0,1,0,0,0,0,0,0,0,0,YES,0,0,0,0,0,0,0,0,0,0,0,0,0,0,0,0,0,0,0,0,0,0,0,0,0,0,0,0,0,0,0,0,0,0,0,0,0,0,0,0,0,0,0,0,0,0,0,0,20,127
guava,v8.0,v9.0,F:/corpus/guava/guava#2011-02-01-01-56-14#v8.0#0bb8549/src/com/google/common/collect/GenericMapMaker.java,F:/corpus/guava/guava#2011-04-08-22-35-37#v9.0#28d17c4/src/com/google/common/collect/GenericMapMaker.java,0,0,0,0,1,0,0,0,0,0,0,0,0,YES,0,0,0,0,0,0,0,0,0,0,0,0,0,0,0,0,0,0,0,0,0,0,0,0,0,0,0,0,0,0,0,0,0,0,0,0,0,0,0,0,0,0,0,0,0,0,0,0,2,135
guava,v8.0,v9.0,F:/corpus/guava/guava#2011-02-01-01-56-14#v8.0#0bb8549/src/com/google/common/collect/HashBasedTable.java,F:/corpus/guava/guava#2011-04-08-22-35-37#v9.0#28d17c4/src/com/google/common/collect/HashBasedTable.java,0,0,0,0,0,0,0,0,0,0,0,0,0,YES,0,0,0,0,0,0,0,0,0,0,0,0,0,0,0,0,0,0,0,0,0,0,0,0,0,0,0,0,0,0,0,0,0,0,0,0,0,0,0,0,0,0,0,0,0,0,0,0,2,144
guava,v8.0,v9.0,F:/corpus/guava/guava#2011-02-01-01-56-14#v8.0#0bb8549/src/com/google/common/collect/HashBiMap.java,F:/corpus/guava/guava#2011-04-08-22-35-37#v9.0#28d17c4/src/com/google/common/collect/HashBiMap.java,0,0,0,0,0,0,0,0,0,0,0,0,0,YES,0,0,0,0,0,0,0,0,0,0,0,0,0,0,0,0,0,0,0,0,0,0,0,0,0,0,0,0,0,0,0,0,0,0,0,0,0,0,0,0,0,0,0,0,0,0,0,0,1,113
guava,v8.0,v9.0,F:/corpus/guava/guava#2011-02-01-01-56-14#v8.0#0bb8549/src/com/google/common/collect/HashMultimap.java,F:/corpus/guava/guava#2011-04-08-22-35-37#v9.0#28d17c4/src/com/google/common/collect/HashMultimap.java,0,0,0,0,0,0,0,0,0,0,0,0,0,YES,0,0,0,0,0,0,0,0,0,0,0,0,0,0,0,0,0,0,0,0,0,0,0,0,0,0,0,0,0,0,0,0,0,0,0,0,0,0,0,0,0,0,0,0,0,0,0,0,1,142
guava,v8.0,v9.0,F:/corpus/guava/guava#2011-02-01-01-56-14#v8.0#0bb8549/src/com/google/common/collect/HashMultiset.java,F:/corpus/guava/guava#2011-04-08-22-35-37#v9.0#28d17c4/src/com/google/common/collect/HashMultiset.java,0,0,0,0,0,0,0,0,0,0,0,0,0,YES,0,0,0,0,0,0,0,0,0,0,0,0,0,0,0,0,0,0,0,0,0,0,0,0,0,0,0,0,0,0,0,0,0,0,0,0,0,0,0,0,0,0,0,0,0,0,0,0,1,99
guava,v8.0,v9.0,F:/corpus/guava/guava#2011-02-01-01-56-14#v8.0#0bb8549/src/com/google/common/collect/Hashing.java,F:/corpus/guava/guava#2011-04-08-22-35-37#v9.0#28d17c4/src/com/google/common/collect/Hashing.java,0,0,0,0,0,0,0,0,0,0,0,0,0,YES,0,0,0,0,0,0,0,0,0,0,0,0,0,0,0,0,0,0,0,0,0,0,0,0,0,0,0,0,0,0,0,0,0,0,0,0,0,0,0,0,0,0,0,0,0,0,0,0,1,43
guava,v8.0,v9.0,F:/corpus/guava/guava#2011-02-01-01-56-14#v8.0#0bb8549/src/com/google/common/collect/ImmutableAsList.java,F:/corpus/guava/guava#2011-04-08-22-35-37#v9.0#28d17c4/src/com/google/common/collect/ImmutableAsList.java,0,0,0,0,1,0,0,0,0,0,0,0,0,YES,0,0,0,0,0,0,0,0,0,0,0,0,0,0,0,0,0,0,0,0,0,0,0,0,0,0,0,0,0,0,0,0,0,0,0,0,0,0,0,0,0,0,0,0,0,0,0,0,1,69
guava,v8.0,v9.0,F:/corpus/guava/guava#2011-02-01-01-56-14#v8.0#0bb8549/src/com/google/common/collect/ImmutableBiMap.java,F:/corpus/guava/guava#2011-04-08-22-35-37#v9.0#28d17c4/src/com/google/common/collect/ImmutableBiMap.java,0,0,0,0,2,0,0,0,0,0,2,0,0,YES,0,0,0,0,0,0,0,0,0,0,0,0,0,0,0,0,0,0,0,0,0,0,0,0,0,0,0,0,0,0,0,0,0,0,0,0,0,0,0,0,0,0,0,0,0,0,0,0,4,322
guava,v8.0,v9.0,F:/corpus/guava/guava#2011-02-01-01-56-14#v8.0#0bb8549/src/com/google/common/collect/ImmutableClassToInstanceMap.java,F:/corpus/guava/guava#2011-04-08-22-35-37#v9.0#28d17c4/src/com/google/common/collect/ImmutableClassToInstanceMap.java,0,0,0,0,1,0,0,0,0,0,0,0,0,YES,0,0,0,0,0,0,0,0,0,0,0,0,1,0,0,0,0,0,0,0,0,0,0,0,0,0,0,0,0,0,0,0,0,0,0,0,0,0,0,0,0,0,2,3,0,0,0,0,5,150
guava,v8.0,v9.0,F:/corpus/guava/guava#2011-02-01-01-56-14#v8.0#0bb8549/src/com/google/common/collect/ImmutableCollection.java,F:/corpus/guava/guava#2011-04-08-22-35-37#v9.0#28d17c4/src/com/google/common/collect/ImmutableCollection.java,0,0,0,0,8,0,0,0,0,0,0,0,0,YES,0,0,0,0,0,0,0,0,0,0,0,0,0,0,0,0,0,0,0,0,0,0,0,0,0,0,0,0,0,0,0,0,0,0,0,0,0,0,0,0,0,0,0,0,0,0,0,0,15,337
guava,v8.0,v9.0,F:/corpus/guava/guava#2011-02-01-01-56-14#v8.0#0bb8549/src/com/google/common/collect/ImmutableEntry.java,F:/corpus/guava/guava#2011-04-08-22-35-37#v9.0#28d17c4/src/com/google/common/collect/ImmutableEntry.java,0,0,0,0,1,0,0,0,0,0,0,0,0,YES,0,0,0,0,0,0,0,0,0,0,0,0,0,0,0,0,0,0,0,0,0,0,0,0,0,0,0,0,0,0,0,0,0,0,0,0,0,0,0,0,0,0,0,0,0,0,0,0,1,52
guava,v8.0,v9.0,F:/corpus/guava/guava#2011-02-01-01-56-14#v8.0#0bb8549/src/com/google/common/collect/ImmutableEnumSet.java,F:/corpus/guava/guava#2011-04-08-22-35-37#v9.0#28d17c4/src/com/google/common/collect/ImmutableEnumSet.java,0,0,0,0,0,0,0,0,0,0,0,0,0,YES,0,0,0,0,0,0,0,0,0,0,0,0,0,0,0,0,0,0,0,0,0,0,0,0,0,0,0,0,0,0,0,0,0,0,0,0,0,0,0,0,0,0,0,0,0,0,0,0,2,115
guava,v8.0,v9.0,F:/corpus/guava/guava#2011-02-01-01-56-14#v8.0#0bb8549/src/com/google/common/collect/ImmutableList.java,F:/corpus/guava/guava#2011-04-08-22-35-37#v9.0#28d17c4/src/com/google/common/collect/ImmutableList.java,0,0,0,0,6,0,0,0,0,0,5,1,0,YES,0,0,0,0,0,0,0,0,0,0,0,0,0,0,0,0,0,0,0,0,0,0,0,0,0,0,0,0,0,0,0,0,0,0,0,0,0,0,0,0,0,0,0,0,0,0,0,0,8,633
guava,v8.0,v9.0,F:/corpus/guava/guava#2011-02-01-01-56-14#v8.0#0bb8549/src/com/google/common/collect/ImmutableListMultimap.java,F:/corpus/guava/guava#2011-04-08-22-35-37#v9.0#28d17c4/src/com/google/common/collect/ImmutableListMultimap.java,0,0,0,0,2,0,0,0,0,0,2,0,0,YES,0,0,0,0,0,0,0,0,0,0,0,0,0,0,0,0,0,0,0,0,0,0,0,0,0,0,0,0,0,0,0,0,0,0,0,0,0,0,0,0,0,0,0,0,0,0,0,0,1,345
guava,v8.0,v9.0,F:/corpus/guava/guava#2011-02-01-01-56-14#v8.0#0bb8549/src/com/google/common/collect/ImmutableMap.java,F:/corpus/guava/guava#2011-04-08-22-35-37#v9.0#28d17c4/src/com/google/common/collect/ImmutableMap.java,0,0,0,0,4,0,0,0,0,0,2,3,0,YES,0,0,0,0,0,0,0,0,0,0,0,0,0,0,0,0,0,0,0,0,0,0,0,0,0,0,0,0,0,0,0,0,0,0,0,0,0,0,0,0,0,0,0,0,0,0,0,0,12,396
guava,v8.0,v9.0,F:/corpus/guava/guava#2011-02-01-01-56-14#v8.0#0bb8549/src/com/google/common/collect/ImmutableMultimap.java,F:/corpus/guava/guava#2011-04-08-22-35-37#v9.0#28d17c4/src/com/google/common/collect/ImmutableMultimap.java,0,0,0,0,7,0,0,0,0,0,2,0,0,YES,0,0,0,0,0,0,0,0,0,0,0,0,0,0,0,0,0,0,0,0,0,0,0,0,0,0,0,0,0,0,0,0,0,0,0,0,0,0,0,0,0,0,0,0,0,0,2,0,25,584
guava,v8.0,v9.0,F:/corpus/guava/guava#2011-02-01-01-56-14#v8.0#0bb8549/src/com/google/common/collect/ImmutableMultiset.java,F:/corpus/guava/guava#2011-04-08-22-35-37#v9.0#28d17c4/src/com/google/common/collect/ImmutableMultiset.java,0,0,0,0,4,0,0,0,0,0,0,0,0,YES,0,0,0,0,0,0,0,0,0,0,0,0,0,0,0,0,0,0,0,0,0,0,0,0,0,0,0,0,0,0,0,0,0,0,0,0,0,0,0,0,0,0,0,0,0,0,2,0,14,632
guava,v8.0,v9.0,F:/corpus/guava/guava#2011-02-01-01-56-14#v8.0#0bb8549/src/com/google/common/collect/ImmutableSet.java,F:/corpus/guava/guava#2011-04-08-22-35-37#v9.0#28d17c4/src/com/google/common/collect/ImmutableSet.java,0,0,0,0,3,0,0,0,0,0,0,0,0,YES,0,0,0,0,0,0,0,0,0,0,0,0,0,0,0,0,0,0,0,0,0,0,0,0,0,0,0,0,0,0,0,0,0,0,0,0,0,0,0,0,0,0,0,0,0,0,0,0,3,643
guava,v8.0,v9.0,F:/corpus/guava/guava#2011-02-01-01-56-14#v8.0#0bb8549/src/com/google/common/collect/ImmutableSetMultimap.java,F:/corpus/guava/guava#2011-04-08-22-35-37#v9.0#28d17c4/src/com/google/common/collect/ImmutableSetMultimap.java,0,0,0,0,2,0,0,0,0,0,2,0,0,YES,0,0,0,0,0,0,0,0,0,0,0,0,0,0,0,0,0,0,0,0,0,0,0,0,0,0,0,0,0,0,0,0,0,0,0,0,0,0,0,0,0,0,0,0,0,0,0,0,2,447
guava,v8.0,v9.0,F:/corpus/guava/guava#2011-02-01-01-56-14#v8.0#0bb8549/src/com/google/common/collect/ImmutableSortedAsList.java,F:/corpus/guava/guava#2011-04-08-22-35-37#v9.0#28d17c4/src/com/google/common/collect/ImmutableSortedAsList.java,0,0,0,0,0,0,0,0,0,0,0,0,0,YES,0,0,0,0,0,0,0,0,0,0,0,0,0,0,0,0,0,0,0,0,0,0,0,0,0,0,0,0,0,0,0,0,0,0,0,0,0,0,0,0,0,0,0,0,0,0,0,0,1,102
guava,v8.0,v9.0,F:/corpus/guava/guava#2011-02-01-01-56-14#v8.0#0bb8549/src/com/google/common/collect/ImmutableSortedMap.java,F:/corpus/guava/guava#2011-04-08-22-35-37#v9.0#28d17c4/src/com/google/common/collect/ImmutableSortedMap.java,0,0,0,0,0,3,0,0,0,0,2,0,0,YES,0,0,0,0,0,0,0,0,0,0,0,0,0,0,0,0,0,0,0,0,0,0,0,0,0,0,0,0,0,0,0,0,0,0,0,0,0,0,0,0,0,0,0,0,0,0,2,0,12,720
guava,v8.0,v9.0,F:/corpus/guava/guava#2011-02-01-01-56-14#v8.0#0bb8549/src/com/google/common/collect/ImmutableSortedMapFauxverideShim.java,F:/corpus/guava/guava#2011-04-08-22-35-37#v9.0#28d17c4/src/com/google/common/collect/ImmutableSortedMapFauxverideShim.java,0,0,0,0,6,0,0,0,0,0,2,0,0,YES,0,0,0,0,0,0,0,0,0,0,0,0,0,0,0,0,0,0,0,0,0,0,0,0,0,0,0,0,0,0,0,0,0,0,0,0,0,0,0,0,0,0,0,0,0,0,0,0,1,117
guava,v8.0,v9.0,F:/corpus/guava/guava#2011-02-01-01-56-14#v8.0#0bb8549/src/com/google/common/collect/ImmutableSortedSet.java,F:/corpus/guava/guava#2011-04-08-22-35-37#v9.0#28d17c4/src/com/google/common/collect/ImmutableSortedSet.java,0,0,0,0,2,0,0,0,0,0,0,0,0,YES,0,0,0,0,0,0,0,0,0,2,0,0,0,0,0,0,0,0,0,2,0,0,0,0,0,0,0,0,0,0,0,0,0,0,0,0,0,0,0,0,0,0,0,0,0,0,4,0,32,777
guava,v8.0,v9.0,F:/corpus/guava/guava#2011-02-01-01-56-14#v8.0#0bb8549/src/com/google/common/collect/ImmutableSortedSetFauxverideShim.java,F:/corpus/guava/guava#2011-04-08-22-35-37#v9.0#28d17c4/src/com/google/common/collect/ImmutableSortedSetFauxverideShim.java,0,0,0,0,9,0,0,0,0,0,0,0,0,YES,0,0,0,0,0,0,0,0,0,0,0,0,0,0,0,0,0,0,0,0,0,0,0,0,0,0,0,0,0,0,0,0,0,0,0,0,0,0,0,0,0,0,0,0,0,0,0,0,1,182
guava,v8.0,v9.0,F:/corpus/guava/guava#2011-02-01-01-56-14#v8.0#0bb8549/src/com/google/common/collect/Interner.java,F:/corpus/guava/guava#2011-04-08-22-35-37#v9.0#28d17c4/src/com/google/common/collect/Interner.java,0,0,0,0,1,0,0,0,0,0,0,0,0,YES,0,0,0,0,0,0,0,0,0,0,0,0,0,0,0,0,0,0,0,0,0,0,0,0,0,0,0,0,0,0,0,0,0,0,0,0,0,0,0,0,0,0,0,0,0,0,0,0,7,44
guava,v8.0,v9.0,F:/corpus/guava/guava#2011-02-01-01-56-14#v8.0#0bb8549/src/com/google/common/collect/Interners.java,F:/corpus/guava/guava#2011-04-08-22-35-37#v9.0#28d17c4/src/com/google/common/collect/Interners.java,0,0,0,0,0,0,0,0,0,0,0,0,0,YES,0,0,0,0,0,0,0,0,0,0,0,0,0,0,0,0,0,0,0,0,0,0,0,0,0,0,0,0,0,0,0,0,0,0,0,0,0,0,0,0,0,0,0,0,0,0,1,0,4,213
guava,v8.0,v9.0,F:/corpus/guava/guava#2011-02-01-01-56-14#v8.0#0bb8549/src/com/google/common/collect/Iterables.java,F:/corpus/guava/guava#2011-04-08-22-35-37#v9.0#28d17c4/src/com/google/common/collect/Iterables.java,0,0,0,0,1,0,0,0,0,0,0,1,0,YES,0,0,0,0,0,0,0,0,0,0,0,0,0,0,0,0,0,0,0,0,0,0,0,0,0,0,0,0,0,0,0,0,0,0,0,0,0,0,0,0,0,0,0,0,0,0,14,0,23,992
guava,v8.0,v9.0,F:/corpus/guava/guava#2011-02-01-01-56-14#v8.0#0bb8549/src/com/google/common/collect/Iterators.java,F:/corpus/guava/guava#2011-04-08-22-35-37#v9.0#28d17c4/src/com/google/common/collect/Iterators.java,0,1,0,0,0,0,0,0,0,0,0,2,0,YES,0,0,0,0,0,0,0,0,0,0,0,0,0,0,0,0,0,0,0,0,0,0,0,0,0,0,0,0,0,0,0,0,0,0,0,0,0,0,0,0,0,0,0,0,0,0,10,0,34,1156
guava,v8.0,v9.0,F:/corpus/guava/guava#2011-02-01-01-56-14#v8.0#0bb8549/src/com/google/common/collect/LexicographicalOrdering.java,F:/corpus/guava/guava#2011-04-08-22-35-37#v9.0#28d17c4/src/com/google/common/collect/LexicographicalOrdering.java,0,0,0,0,0,0,0,0,0,0,0,0,0,YES,0,0,0,0,0,0,0,0,0,0,0,0,0,0,0,0,0,0,0,0,0,0,0,0,0,0,0,0,0,0,0,0,0,0,0,0,0,0,0,0,0,0,0,0,0,0,0,0,1,78
guava,v8.0,v9.0,F:/corpus/guava/guava#2011-02-01-01-56-14#v8.0#0bb8549/src/com/google/common/collect/LinkedHashMultimap.java,F:/corpus/guava/guava#2011-04-08-22-35-37#v9.0#28d17c4/src/com/google/common/collect/LinkedHashMultimap.java,0,0,0,0,0,0,0,0,0,0,0,0,0,YES,0,0,0,0,0,0,0,0,0,0,0,0,0,0,0,0,0,0,0,0,0,0,0,0,0,0,0,0,0,0,0,0,0,0,0,0,0,0,0,0,0,0,0,0,0,0,2,0,7,388
guava,v8.0,v9.0,F:/corpus/guava/guava#2011-02-01-01-56-14#v8.0#0bb8549/src/com/google/common/collect/LinkedHashMultiset.java,F:/corpus/guava/guava#2011-04-08-22-35-37#v9.0#28d17c4/src/com/google/common/collect/LinkedHashMultiset.java,0,0,0,0,0,0,0,0,0,0,0,0,0,YES,0,0,0,0,0,0,0,0,0,0,0,0,0,0,0,0,0,0,0,0,0,0,0,0,0,0,0,0,0,0,0,0,0,0,0,0,0,0,0,0,0,0,0,0,0,0,0,0,1,107
guava,v8.0,v9.0,F:/corpus/guava/guava#2011-02-01-01-56-14#v8.0#0bb8549/src/com/google/common/collect/LinkedListMultimap.java,F:/corpus/guava/guava#2011-04-08-22-35-37#v9.0#28d17c4/src/com/google/common/collect/LinkedListMultimap.java,0,0,1,0,1,0,0,0,0,0,0,0,0,YES,0,0,0,0,0,0,0,0,0,0,0,0,0,0,0,0,0,0,0,0,0,0,0,0,0,0,0,0,0,0,0,0,0,0,0,0,0,0,0,0,0,0,0,0,0,0,5,0,58,961
guava,v8.0,v9.0,F:/corpus/guava/guava#2011-02-01-01-56-14#v8.0#0bb8549/src/com/google/common/collect/ListMultimap.java,F:/corpus/guava/guava#2011-04-08-22-35-37#v9.0#28d17c4/src/com/google/common/collect/ListMultimap.java,0,0,0,0,1,0,0,0,0,0,0,0,0,YES,0,0,0,0,0,0,0,0,0,0,0,0,0,0,0,0,0,0,0,0,0,0,0,0,0,0,0,0,0,0,0,0,0,0,0,0,0,0,0,0,0,0,0,0,0,0,0,0,6,83
guava,v8.0,v9.0,F:/corpus/guava/guava#2011-02-01-01-56-14#v8.0#0bb8549/src/com/google/common/collect/Lists.java,F:/corpus/guava/guava#2011-04-08-22-35-37#v9.0#28d17c4/src/com/google/common/collect/Lists.java,0,0,0,0,0,0,2,0,0,0,0,2,0,YES,0,0,0,0,0,0,0,0,0,0,0,0,0,0,0,0,0,0,0,0,0,0,0,0,0,0,0,0,0,0,0,0,0,0,0,0,0,0,0,0,0,0,0,0,0,0,1,0,10,1014
guava,v8.0,v9.0,F:/corpus/guava/guava#2011-02-01-01-56-14#v8.0#0bb8549/src/com/google/common/collect/MapConstraint.java,F:/corpus/guava/guava#2011-04-08-22-35-37#v9.0#28d17c4/src/com/google/common/collect/MapConstraint.java,0,0,0,0,1,0,0,0,0,0,0,0,0,YES,0,0,0,0,0,0,0,0,0,0,0,0,0,0,0,0,0,0,0,0,0,0,0,0,0,0,0,0,0,0,0,0,0,0,0,0,0,0,0,0,0,0,0,0,0,0,0,0,2,64
guava,v8.0,v9.0,F:/corpus/guava/guava#2011-02-01-01-56-14#v8.0#0bb8549/src/com/google/common/collect/MapConstraints.java,F:/corpus/guava/guava#2011-04-08-22-35-37#v9.0#28d17c4/src/com/google/common/collect/MapConstraints.java,0,0,0,0,0,0,0,0,0,0,0,0,0,YES,0,0,0,0,0,0,0,0,0,0,0,0,0,0,0,0,0,0,0,0,0,0,0,0,0,0,0,0,0,0,0,0,0,0,0,0,0,0,0,0,0,0,0,0,0,0,3,0,11,773
guava,v8.0,v9.0,F:/corpus/guava/guava#2011-02-01-01-56-14#v8.0#0bb8549/src/com/google/common/collect/MapDifference.java,F:/corpus/guava/guava#2011-04-08-22-35-37#v9.0#28d17c4/src/com/google/common/collect/MapDifference.java,0,0,0,0,2,0,0,0,0,0,0,0,0,YES,0,0,0,0,0,0,0,0,0,0,0,0,0,0,0,0,0,0,0,0,0,0,0,0,0,0,0,0,0,0,0,0,0,0,0,0,0,0,0,0,0,0,0,0,0,0,0,0,3,112
guava,v8.0,v9.0,F:/corpus/guava/guava#2011-02-01-01-56-14#v8.0#0bb8549/src/com/google/common/collect/MapEvictionListener.java,F:/corpus/guava/guava#2011-04-08-22-35-37#v9.0#28d17c4/src/com/google/common/collect/MapEvictionListener.java,0,0,0,0,1,0,0,0,0,0,0,0,0,YES,0,0,0,0,0,0,0,0,0,0,0,0,0,0,0,0,0,0,0,0,0,0,0,0,0,0,0,0,0,0,0,0,0,0,0,0,0,0,0,0,0,0,0,0,0,0,0,0,1,51
guava,v8.0,v9.0,F:/corpus/guava/guava#2011-02-01-01-56-14#v8.0#0bb8549/src/com/google/common/collect/MapMaker.java,F:/corpus/guava/guava#2011-04-08-22-35-37#v9.0#28d17c4/src/com/google/common/collect/MapMaker.java,0,0,0,0,1,0,0,0,0,0,0,0,0,YES,0,0,0,2,4,5,0,0,0,0,0,0,0,0,0,0,0,0,0,3,0,0,0,0,0,0,0,0,0,0,0,0,0,0,0,0,0,0,0,0,0,0,0,5,0,1,8,0,238,626
guava,v8.0,v9.0,F:/corpus/guava/guava#2011-02-01-01-56-14#v8.0#0bb8549/src/com/google/common/collect/Maps.java,F:/corpus/guava/guava#2011-04-08-22-35-37#v9.0#28d17c4/src/com/google/common/collect/Maps.java,0,1,0,0,9,0,0,0,0,0,0,3,0,YES,0,0,0,0,0,0,0,0,0,0,0,0,0,0,0,0,0,0,0,0,0,0,0,0,0,0,0,0,0,0,0,0,0,0,0,0,0,0,0,0,0,0,0,0,0,0,7,0,22,1722
guava,v8.0,v9.0,F:/corpus/guava/guava#2011-02-01-01-56-14#v8.0#0bb8549/src/com/google/common/collect/MinMaxPriorityQueue.java,F:/corpus/guava/guava#2011-04-08-22-35-37#v9.0#28d17c4/src/com/google/common/collect/MinMaxPriorityQueue.java,0,0,0,0,0,0,0,0,0,0,0,0,0,YES,0,0,0,0,2,0,1,1,0,0,0,3,5,0,0,0,0,0,0,0,0,0,0,0,0,0,0,0,0,0,0,0,0,0,0,0,0,0,0,0,0,0,6,16,0,0,1,0,64,876
guava,v8.0,v9.0,F:/corpus/guava/guava#2011-02-01-01-56-14#v8.0#0bb8549/src/com/google/common/collect/Multimap.java,F:/corpus/guava/guava#2011-04-08-22-35-37#v9.0#28d17c4/src/com/google/common/collect/Multimap.java,0,0,0,0,1,0,0,0,0,0,0,0,0,YES,0,0,0,0,0,0,0,0,0,0,0,0,0,0,0,0,0,0,0,0,0,0,0,0,0,0,0,0,0,0,0,0,0,0,0,0,0,0,0,0,0,0,0,0,0,0,0,0,3,265
guava,v8.0,v9.0,F:/corpus/guava/guava#2011-02-01-01-56-14#v8.0#0bb8549/src/com/google/common/collect/Multimaps.java,F:/corpus/guava/guava#2011-04-08-22-35-37#v9.0#28d17c4/src/com/google/common/collect/Multimaps.java,0,1,0,0,21,0,0,0,0,0,0,0,0,YES,0,0,0,0,0,0,0,0,0,0,0,0,0,0,0,0,0,0,0,0,0,0,0,0,0,0,0,0,0,0,0,0,0,0,0,0,0,0,0,0,0,0,0,0,0,0,5,0,37,1713
guava,v8.0,v9.0,F:/corpus/guava/guava#2011-02-01-01-56-14#v8.0#0bb8549/src/com/google/common/collect/Multiset.java,F:/corpus/guava/guava#2011-04-08-22-35-37#v9.0#28d17c4/src/com/google/common/collect/Multiset.java,0,0,0,0,2,0,0,0,0,0,0,0,0,YES,0,0,0,0,0,0,0,0,0,0,0,0,0,0,0,0,0,0,0,0,0,0,0,0,0,0,0,0,0,0,0,0,0,0,0,0,0,0,0,0,0,0,0,0,0,0,0,0,14,403
guava,v8.0,v9.0,F:/corpus/guava/guava#2011-02-01-01-56-14#v8.0#0bb8549/src/com/google/common/collect/Multisets.java,F:/corpus/guava/guava#2011-04-08-22-35-37#v9.0#28d17c4/src/com/google/common/collect/Multisets.java,0,0,0,0,17,0,1,0,0,0,0,0,0,YES,0,0,0,0,0,0,0,0,0,0,0,0,0,0,0,0,0,0,0,0,0,0,0,0,0,0,0,0,0,0,0,0,0,0,0,0,0,0,0,0,0,0,0,0,0,0,4,0,18,698
guava,v8.0,v9.0,F:/corpus/guava/guava#2011-02-01-01-56-14#v8.0#0bb8549/src/com/google/common/collect/MutableClassToInstanceMap.java,F:/corpus/guava/guava#2011-04-08-22-35-37#v9.0#28d17c4/src/com/google/common/collect/MutableClassToInstanceMap.java,0,0,0,0,0,0,0,0,0,0,0,0,0,YES,0,0,0,0,0,0,0,0,0,0,0,0,0,0,0,0,0,0,0,0,0,0,0,0,0,0,0,0,0,0,0,0,0,0,0,0,0,0,0,0,0,0,0,0,0,0,0,0,4,79
guava,v8.0,v9.0,F:/corpus/guava/guava#2011-02-01-01-56-14#v8.0#0bb8549/src/com/google/common/collect/NaturalOrdering.java,F:/corpus/guava/guava#2011-04-08-22-35-37#v9.0#28d17c4/src/com/google/common/collect/NaturalOrdering.java,0,0,0,0,0,0,0,0,0,0,0,0,0,YES,0,0,0,0,0,0,0,0,0,0,0,0,0,0,0,0,0,0,0,0,0,0,0,0,0,0,0,0,0,0,0,0,0,0,0,0,0,0,0,0,0,0,0,0,0,0,1,0,2,77
guava,v8.0,v9.0,F:/corpus/guava/guava#2011-02-01-01-56-14#v8.0#0bb8549/src/com/google/common/collect/NullsFirstOrdering.java,F:/corpus/guava/guava#2011-04-08-22-35-37#v9.0#28d17c4/src/com/google/common/collect/NullsFirstOrdering.java,0,0,0,0,0,0,0,0,0,0,0,0,0,YES,0,0,0,0,0,0,0,0,0,0,0,0,0,0,0,0,0,0,0,0,0,0,0,0,0,0,0,0,0,0,0,0,0,0,0,0,0,0,0,0,0,0,0,0,0,0,1,0,2,81
guava,v8.0,v9.0,F:/corpus/guava/guava#2011-02-01-01-56-14#v8.0#0bb8549/src/com/google/common/collect/NullsLastOrdering.java,F:/corpus/guava/guava#2011-04-08-22-35-37#v9.0#28d17c4/src/com/google/common/collect/NullsLastOrdering.java,0,0,0,0,0,0,0,0,0,0,0,0,0,YES,0,0,0,0,0,0,0,0,0,0,0,0,0,0,0,0,0,0,0,0,0,0,0,0,0,0,0,0,0,0,0,0,0,0,0,0,0,0,0,0,0,0,0,0,0,0,1,0,2,81
guava,v8.0,v9.0,F:/corpus/guava/guava#2011-02-01-01-56-14#v8.0#0bb8549/src/com/google/common/collect/ObjectArrays.java,F:/corpus/guava/guava#2011-04-08-22-35-37#v9.0#28d17c4/src/com/google/common/collect/ObjectArrays.java,0,0,0,0,0,0,0,0,0,0,0,0,0,YES,0,0,0,0,0,0,0,0,0,0,0,0,0,0,0,0,0,0,0,0,0,0,0,0,0,0,0,0,0,0,0,0,0,0,0,0,0,0,0,0,0,0,0,0,0,0,0,0,1,183
guava,v8.0,v9.0,F:/corpus/guava/guava#2011-02-01-01-56-14#v8.0#0bb8549/src/com/google/common/collect/Ordering.java,F:/corpus/guava/guava#2011-04-08-22-35-37#v9.0#28d17c4/src/com/google/common/collect/Ordering.java,0,0,0,0,1,0,0,0,0,0,0,2,0,YES,0,0,0,0,0,0,0,0,0,0,0,0,0,0,0,0,0,0,0,0,0,0,0,0,0,0,0,0,0,0,0,0,0,0,0,0,0,0,0,0,0,0,0,0,0,0,1,0,3,702
guava,v8.0,v9.0,F:/corpus/guava/guava#2011-02-01-01-56-14#v8.0#0bb8549/src/com/google/common/collect/PeekingIterator.java,F:/corpus/guava/guava#2011-04-08-22-35-37#v9.0#28d17c4/src/com/google/common/collect/PeekingIterator.java,0,0,0,0,1,0,0,0,0,0,0,0,0,YES,0,0,0,0,0,0,0,0,0,0,0,0,0,0,0,0,0,0,0,0,0,0,0,0,0,0,0,0,0,0,0,0,0,0,0,0,0,0,0,0,0,0,0,0,0,0,0,0,3,63
guava,v8.0,v9.0,F:/corpus/guava/guava#2011-02-01-01-56-14#v8.0#0bb8549/src/com/google/common/collect/Platform.java,F:/corpus/guava/guava#2011-04-08-22-35-37#v9.0#28d17c4/src/com/google/common/collect/Platform.java,0,0,0,0,0,1,0,0,0,0,0,0,0,YES,0,0,0,0,0,0,0,0,0,0,0,0,0,0,0,0,0,0,0,0,0,0,0,0,0,0,0,0,0,0,0,0,0,0,0,0,0,0,0,0,0,0,0,0,0,0,0,0,1,100
guava,v8.0,v9.0,F:/corpus/guava/guava#2011-02-01-01-56-14#v8.0#0bb8549/src/com/google/common/collect/RegularImmutableBiMap.java,F:/corpus/guava/guava#2011-04-08-22-35-37#v9.0#28d17c4/src/com/google/common/collect/RegularImmutableBiMap.java,0,0,0,0,0,0,0,0,0,0,0,0,0,YES,0,0,0,0,0,0,0,0,0,0,0,0,0,0,0,0,0,0,0,0,0,0,0,0,0,0,0,0,0,0,0,0,0,0,0,0,0,0,0,0,0,0,0,0,0,0,0,0,1,60
guava,v8.0,v9.0,F:/corpus/guava/guava#2011-02-01-01-56-14#v8.0#0bb8549/src/com/google/common/collect/RegularImmutableList.java,F:/corpus/guava/guava#2011-04-08-22-35-37#v9.0#28d17c4/src/com/google/common/collect/RegularImmutableList.java,0,0,0,0,0,0,0,0,0,0,0,0,0,YES,0,0,0,0,0,0,0,0,0,0,0,0,0,0,0,0,0,0,0,0,0,0,0,0,0,0,0,0,0,0,0,0,0,0,0,0,0,0,0,0,0,0,0,0,0,0,0,0,3,191
guava,v8.0,v9.0,F:/corpus/guava/guava#2011-02-01-01-56-14#v8.0#0bb8549/src/com/google/common/collect/RegularImmutableMap.java,F:/corpus/guava/guava#2011-04-08-22-35-37#v9.0#28d17c4/src/com/google/common/collect/RegularImmutableMap.java,0,0,0,0,1,0,0,0,0,0,0,0,0,YES,0,0,0,0,0,0,0,0,0,0,0,0,0,0,0,0,0,0,0,0,0,0,0,0,0,0,0,0,0,0,0,0,0,0,0,0,0,0,0,0,0,0,0,0,0,0,0,0,5,291
guava,v8.0,v9.0,F:/corpus/guava/guava#2011-02-01-01-56-14#v8.0#0bb8549/src/com/google/common/collect/RegularImmutableSet.java,F:/corpus/guava/guava#2011-04-08-22-35-37#v9.0#28d17c4/src/com/google/common/collect/RegularImmutableSet.java,0,0,0,0,0,0,0,0,0,0,0,0,0,YES,0,0,0,0,0,0,0,0,0,0,0,0,0,0,0,0,0,0,0,0,0,0,0,0,0,0,0,0,0,0,0,0,0,0,0,0,0,0,0,0,0,0,0,0,0,0,0,0,1,67
guava,v8.0,v9.0,F:/corpus/guava/guava#2011-02-01-01-56-14#v8.0#0bb8549/src/com/google/common/collect/RegularImmutableSortedSet.java,F:/corpus/guava/guava#2011-04-08-22-35-37#v9.0#28d17c4/src/com/google/common/collect/RegularImmutableSortedSet.java,0,0,0,0,0,0,0,0,0,0,0,0,0,YES,0,0,0,0,0,0,0,0,0,0,0,0,0,0,0,0,0,0,0,0,0,0,0,0,0,0,0,0,0,0,0,0,0,0,0,0,0,0,0,0,0,0,0,0,0,0,0,0,4,238
guava,v8.0,v9.0,F:/corpus/guava/guava#2011-02-01-01-56-14#v8.0#0bb8549/src/com/google/common/collect/ReverseNaturalOrdering.java,F:/corpus/guava/guava#2011-04-08-22-35-37#v9.0#28d17c4/src/com/google/common/collect/ReverseNaturalOrdering.java,0,0,0,0,0,0,0,0,0,0,0,0,0,YES,0,0,0,0,0,0,0,0,0,0,0,0,0,0,0,0,0,0,0,0,0,0,0,0,0,0,0,0,0,0,0,0,0,0,0,0,0,0,0,0,0,0,0,0,0,0,0,0,1,85
guava,v8.0,v9.0,F:/corpus/guava/guava#2011-02-01-01-56-14#v8.0#0bb8549/src/com/google/common/collect/ReverseOrdering.java,F:/corpus/guava/guava#2011-04-08-22-35-37#v9.0#28d17c4/src/com/google/common/collect/ReverseOrdering.java,0,0,0,0,0,0,0,0,0,0,0,0,0,YES,0,0,0,0,0,0,0,0,0,0,0,0,0,0,0,0,0,0,0,0,0,0,0,0,0,0,0,0,0,0,0,0,0,0,0,0,0,0,0,0,0,0,0,0,0,0,1,0,2,91
guava,v8.0,v9.0,F:/corpus/guava/guava#2011-02-01-01-56-14#v8.0#0bb8549/src/com/google/common/collect/RowSortedTable.java,F:/corpus/guava/guava#2011-04-08-22-35-37#v9.0#28d17c4/src/com/google/common/collect/RowSortedTable.java,0,0,0,0,1,0,0,0,0,0,0,0,0,YES,0,0,0,0,0,0,0,0,0,0,0,0,0,0,0,0,0,0,0,0,0,0,0,0,0,0,0,0,0,0,0,0,0,0,0,0,0,0,0,0,0,0,0,0,0,0,0,0,1,55
guava,v8.0,v9.0,F:/corpus/guava/guava#2011-02-01-01-56-14#v8.0#0bb8549/src/com/google/common/collect/Serialization.java,F:/corpus/guava/guava#2011-04-08-22-35-37#v9.0#28d17c4/src/com/google/common/collect/Serialization.java,0,0,0,0,0,0,0,0,0,0,0,0,0,YES,0,0,0,0,0,0,0,0,0,0,0,0,0,0,0,0,0,0,0,0,0,0,0,0,0,0,0,0,0,0,0,0,0,0,0,0,0,0,0,0,0,0,0,0,0,0,0,0,1,231
guava,v8.0,v9.0,F:/corpus/guava/guava#2011-02-01-01-56-14#v8.0#0bb8549/src/com/google/common/collect/SetMultimap.java,F:/corpus/guava/guava#2011-04-08-22-35-37#v9.0#28d17c4/src/com/google/common/collect/SetMultimap.java,0,0,0,0,1,0,0,0,0,0,0,0,0,YES,0,0,0,0,0,0,0,0,0,0,0,0,0,0,0,0,0,0,0,0,0,0,0,0,0,0,0,0,0,0,0,0,0,0,0,0,0,0,0,0,0,0,0,0,0,0,0,0,7,95
guava,v8.0,v9.0,F:/corpus/guava/guava#2011-02-01-01-56-14#v8.0#0bb8549/src/com/google/common/collect/Sets.java,F:/corpus/guava/guava#2011-04-08-22-35-37#v9.0#28d17c4/src/com/google/common/collect/Sets.java,0,1,0,0,1,1,0,0,0,0,0,2,0,YES,0,0,0,2,1,0,0,0,0,0,0,0,0,0,0,0,0,0,0,0,0,0,0,0,0,0,0,0,0,0,0,0,0,0,0,0,0,0,0,0,0,0,0,0,0,0,1,0,111,1147
guava,v8.0,v9.0,F:/corpus/guava/guava#2011-02-01-01-56-14#v8.0#0bb8549/src/com/google/common/collect/SingletonImmutableList.java,F:/corpus/guava/guava#2011-04-08-22-35-37#v9.0#28d17c4/src/com/google/common/collect/SingletonImmutableList.java,0,0,0,0,0,0,0,0,0,0,0,0,0,YES,0,0,0,0,0,0,0,0,0,0,0,0,0,0,0,0,0,0,0,0,0,0,0,0,0,0,0,0,0,0,0,0,0,0,0,0,0,0,0,0,0,0,0,0,0,0,0,0,3,167
guava,v8.0,v9.0,F:/corpus/guava/guava#2011-02-01-01-56-14#v8.0#0bb8549/src/com/google/common/collect/SingletonImmutableMap.java,F:/corpus/guava/guava#2011-04-08-22-35-37#v9.0#28d17c4/src/com/google/common/collect/SingletonImmutableMap.java,0,0,0,0,0,0,0,0,0,0,0,0,0,YES,0,0,0,0,0,0,0,0,0,0,0,0,0,0,0,0,0,0,0,0,0,0,0,0,0,0,0,0,0,0,0,0,0,0,0,0,0,0,0,0,0,0,0,0,0,0,0,0,3,160
guava,v8.0,v9.0,F:/corpus/guava/guava#2011-02-01-01-56-14#v8.0#0bb8549/src/com/google/common/collect/SingletonImmutableSet.java,F:/corpus/guava/guava#2011-04-08-22-35-37#v9.0#28d17c4/src/com/google/common/collect/SingletonImmutableSet.java,0,0,0,0,0,0,0,0,0,0,0,0,0,YES,0,0,0,0,0,0,0,0,0,0,0,0,0,0,0,0,0,0,0,0,0,0,0,0,0,0,0,0,0,0,0,0,0,0,0,0,0,0,0,0,0,0,0,0,0,0,0,0,2,121
guava,v8.0,v9.0,F:/corpus/guava/guava#2011-02-01-01-56-14#v8.0#0bb8549/src/com/google/common/collect/SortedLists.java,F:/corpus/guava/guava#2011-04-08-22-35-37#v9.0#28d17c4/src/com/google/common/collect/SortedLists.java,0,0,0,0,0,0,0,0,0,0,0,0,0,YES,0,0,0,0,0,0,0,0,0,0,0,0,0,0,0,0,0,0,0,0,0,0,0,0,0,0,0,0,0,0,0,0,0,0,0,0,0,0,0,0,0,0,0,0,0,0,0,0,8,371
guava,v8.0,v9.0,F:/corpus/guava/guava#2011-02-01-01-56-14#v8.0#0bb8549/src/com/google/common/collect/SortedMapDifference.java,F:/corpus/guava/guava#2011-04-08-22-35-37#v9.0#28d17c4/src/com/google/common/collect/SortedMapDifference.java,0,0,0,0,1,0,0,0,0,0,0,0,0,YES,0,0,0,0,0,0,0,0,0,0,0,0,0,0,0,0,0,0,0,0,0,0,0,0,0,0,0,0,0,0,0,0,0,0,0,0,0,0,0,0,0,0,0,0,0,0,0,0,5,41
guava,v8.0,v9.0,F:/corpus/guava/guava#2011-02-01-01-56-14#v8.0#0bb8549/src/com/google/common/collect/SortedMaps.java,F:/corpus/guava/guava#2011-04-08-22-35-37#v9.0#28d17c4/src/com/google/common/collect/SortedMaps.java,0,0,0,0,0,0,0,0,0,0,0,0,0,YES,0,0,0,0,0,0,0,0,0,0,0,0,0,0,0,0,0,0,0,0,0,0,0,0,0,0,0,0,0,0,0,0,0,0,0,0,0,0,0,0,0,0,0,0,0,0,3,0,4,480
guava,v8.0,v9.0,F:/corpus/guava/guava#2011-02-01-01-56-14#v8.0#0bb8549/src/com/google/common/collect/SortedSetMultimap.java,F:/corpus/guava/guava#2011-04-08-22-35-37#v9.0#28d17c4/src/com/google/common/collect/SortedSetMultimap.java,0,0,0,0,1,0,0,0,0,0,0,0,0,YES,0,0,0,0,0,0,0,0,0,0,0,0,0,0,0,0,0,0,0,0,0,0,0,0,0,0,0,0,0,0,0,0,0,0,0,0,0,0,0,0,0,0,0,0,0,0,0,0,5,105
guava,v8.0,v9.0,F:/corpus/guava/guava#2011-02-01-01-56-14#v8.0#0bb8549/src/com/google/common/collect/StandardRowSortedTable.java,F:/corpus/guava/guava#2011-04-08-22-35-37#v9.0#28d17c4/src/com/google/common/collect/StandardRowSortedTable.java,0,0,0,1,0,0,0,0,0,0,0,0,0,YES,0,0,0,0,0,0,0,0,0,0,0,0,0,0,0,0,0,0,0,0,0,0,0,0,0,0,0,0,0,0,0,0,0,0,0,0,0,0,0,0,0,0,0,0,0,0,0,0,13,160
guava,v8.0,v9.0,F:/corpus/guava/guava#2011-02-01-01-56-14#v8.0#0bb8549/src/com/google/common/collect/StandardTable.java,F:/corpus/guava/guava#2011-04-08-22-35-37#v9.0#28d17c4/src/com/google/common/collect/StandardTable.java,0,1,0,0,2,0,0,0,0,0,0,0,0,YES,0,0,0,0,1,0,0,0,0,0,0,0,0,0,0,0,0,0,0,0,0,0,0,0,0,0,0,0,0,0,0,0,0,0,0,0,0,0,0,0,0,0,0,0,0,0,8,0,50,1120
guava,v8.0,v9.0,F:/corpus/guava/guava#2011-02-01-01-56-14#v8.0#0bb8549/src/com/google/common/collect/Synchronized.java,F:/corpus/guava/guava#2011-04-08-22-35-37#v9.0#28d17c4/src/com/google/common/collect/Synchronized.java,0,1,0,0,0,0,0,0,0,0,0,0,0,YES,0,0,0,0,0,0,0,0,0,0,0,0,0,0,0,0,0,0,0,0,0,0,0,0,0,0,0,0,0,0,0,0,0,0,0,0,0,0,0,0,0,0,0,0,0,0,0,0,70,1126
guava,v8.0,v9.0,F:/corpus/guava/guava#2011-02-01-01-56-14#v8.0#0bb8549/src/com/google/common/collect/Table.java,F:/corpus/guava/guava#2011-04-08-22-35-37#v9.0#28d17c4/src/com/google/common/collect/Table.java,0,0,0,0,2,0,0,0,0,0,0,0,0,YES,0,0,0,0,0,0,0,0,0,0,0,0,0,0,0,0,0,0,0,0,0,0,0,0,0,0,0,0,0,0,0,0,0,0,0,0,0,0,0,0,0,0,0,0,0,0,0,0,5,291
guava,v8.0,v9.0,F:/corpus/guava/guava#2011-02-01-01-56-14#v8.0#0bb8549/src/com/google/common/collect/Tables.java,F:/corpus/guava/guava#2011-04-08-22-35-37#v9.0#28d17c4/src/com/google/common/collect/Tables.java,0,0,0,0,1,0,0,0,0,0,0,0,0,YES,0,0,0,0,0,0,0,0,0,1,0,0,0,0,0,0,0,0,0,0,0,0,0,0,0,0,0,0,0,0,0,0,0,0,0,0,0,0,0,0,0,0,0,0,0,0,1,0,31,294
guava,v8.0,v9.0,F:/corpus/guava/guava#2011-02-01-01-56-14#v8.0#0bb8549/src/com/google/common/collect/TransformedImmutableList.java,F:/corpus/guava/guava#2011-04-08-22-35-37#v9.0#28d17c4/src/com/google/common/collect/TransformedImmutableList.java,0,0,0,0,1,0,0,0,0,0,0,0,0,YES,0,0,0,0,0,0,0,0,0,0,0,0,0,0,0,0,0,0,0,0,0,0,0,0,0,0,0,0,0,0,0,0,0,0,0,0,0,0,0,0,0,0,0,0,0,0,0,0,1,128
guava,v8.0,v9.0,F:/corpus/guava/guava#2011-02-01-01-56-14#v8.0#0bb8549/src/com/google/common/collect/TreeBasedTable.java,F:/corpus/guava/guava#2011-04-08-22-35-37#v9.0#28d17c4/src/com/google/common/collect/TreeBasedTable.java,0,0,0,0,0,0,0,0,0,0,0,0,0,YES,0,0,0,1,1,0,0,0,0,0,0,0,0,0,0,0,0,0,0,1,0,0,0,0,0,0,0,0,0,0,0,0,0,0,0,0,0,0,0,0,0,0,0,0,0,0,0,0,95,196
guava,v8.0,v9.0,F:/corpus/guava/guava#2011-02-01-01-56-14#v8.0#0bb8549/src/com/google/common/collect/TreeMultimap.java,F:/corpus/guava/guava#2011-04-08-22-35-37#v9.0#28d17c4/src/com/google/common/collect/TreeMultimap.java,0,0,0,0,0,0,0,0,0,0,0,0,0,YES,0,0,0,0,0,0,0,0,0,0,0,0,0,0,0,0,0,0,0,0,0,0,0,0,0,0,0,0,0,0,0,0,0,0,0,0,0,0,0,0,0,0,0,0,0,0,0,0,2,199
guava,v8.0,v9.0,F:/corpus/guava/guava#2011-02-01-01-56-14#v8.0#0bb8549/src/com/google/common/collect/TreeMultiset.java,F:/corpus/guava/guava#2011-04-08-22-35-37#v9.0#28d17c4/src/com/google/common/collect/TreeMultiset.java,0,0,0,0,0,0,0,0,0,0,0,0,0,YES,0,0,0,0,0,0,0,0,0,0,0,0,0,0,0,0,0,0,0,0,0,0,0,0,0,0,0,0,0,0,0,0,0,0,0,0,0,0,0,0,0,0,0,0,0,0,0,0,7,219
guava,v8.0,v9.0,F:/corpus/guava/guava#2011-02-01-01-56-14#v8.0#0bb8549/src/com/google/common/collect/UnmodifiableIterator.java,F:/corpus/guava/guava#2011-04-08-22-35-37#v9.0#28d17c4/src/com/google/common/collect/UnmodifiableIterator.java,0,0,0,0,1,0,0,0,0,0,0,0,0,YES,0,0,0,0,0,0,0,0,0,0,0,0,0,0,0,0,0,0,0,0,0,0,0,0,0,0,0,0,0,0,0,0,0,0,0,0,0,0,0,0,0,0,0,0,0,0,0,0,2,42
guava,v8.0,v9.0,F:/corpus/guava/guava#2011-02-01-01-56-14#v8.0#0bb8549/src/com/google/common/collect/UnmodifiableListIterator.java,F:/corpus/guava/guava#2011-04-08-22-35-37#v9.0#28d17c4/src/com/google/common/collect/UnmodifiableListIterator.java,0,0,0,0,3,0,0,0,0,0,0,0,0,YES,0,0,0,0,0,0,0,0,0,0,0,0,0,0,0,0,0,0,0,0,0,0,0,0,0,0,0,0,0,0,0,0,0,0,0,0,0,0,0,0,0,0,0,0,0,0,0,0,8,55
guava,v8.0,v9.0,F:/corpus/guava/guava#2011-02-01-01-56-14#v8.0#0bb8549/src/com/google/common/collect/UsingToStringOrdering.java,F:/corpus/guava/guava#2011-04-08-22-35-37#v9.0#28d17c4/src/com/google/common/collect/UsingToStringOrdering.java,0,0,0,0,0,0,0,0,0,0,0,0,0,YES,0,0,0,0,0,0,0,0,0,0,0,0,0,0,0,0,0,0,0,0,0,0,0,0,0,0,0,0,0,0,0,0,0,0,0,0,0,0,0,0,0,0,0,0,0,0,0,0,1,45
guava,v8.0,v9.0,F:/corpus/guava/guava#2011-02-01-01-56-14#v8.0#0bb8549/src/com/google/common/collect/package-info.java,F:/corpus/guava/guava#2011-04-08-22-35-37#v9.0#28d17c4/src/com/google/common/collect/package-info.java,0,0,0,0,0,0,0,0,0,0,0,0,0,YES,0,0,0,0,0,0,0,0,0,0,0,0,0,0,0,0,0,0,0,0,0,0,0,0,0,0,0,0,0,0,0,0,0,0,0,0,0,0,0,0,0,0,0,0,0,0,0,0,1,192
guava,v8.0,v9.0,F:/corpus/guava/guava#2011-02-01-01-56-14#v8.0#0bb8549/src/com/google/common/io/AppendableWriter.java,F:/corpus/guava/guava#2011-04-08-22-35-37#v9.0#28d17c4/src/com/google/common/io/AppendableWriter.java,0,0,1,0,0,0,0,0,0,0,0,0,0,YES,0,0,0,0,0,0,0,0,0,0,0,0,0,0,0,0,0,0,0,0,0,0,0,0,0,0,0,0,0,0,0,0,0,0,0,0,0,0,0,0,0,0,0,0,0,0,0,0,1,117
guava,v8.0,v9.0,F:/corpus/guava/guava#2011-02-01-01-56-14#v8.0#0bb8549/src/com/google/common/io/ByteArrayDataInput.java,F:/corpus/guava/guava#2011-04-08-22-35-37#v9.0#28d17c4/src/com/google/common/io/ByteArrayDataInput.java,0,0,0,0,1,0,0,0,0,0,0,0,0,YES,0,0,0,0,0,0,0,0,0,0,0,0,0,0,0,0,0,0,0,0,0,0,0,0,0,0,0,0,0,0,0,0,0,0,0,0,0,0,0,0,0,0,0,0,0,0,0,0,1,47
guava,v8.0,v9.0,F:/corpus/guava/guava#2011-02-01-01-56-14#v8.0#0bb8549/src/com/google/common/io/ByteArrayDataOutput.java,F:/corpus/guava/guava#2011-04-08-22-35-37#v9.0#28d17c4/src/com/google/common/io/ByteArrayDataOutput.java,0,0,0,0,1,0,0,0,0,0,0,0,0,YES,0,0,0,0,0,0,0,0,0,0,0,0,0,0,0,0,0,0,0,0,0,0,0,0,0,0,0,0,0,0,0,0,0,0,0,0,0,0,0,0,0,0,0,0,0,0,0,0,1,55
guava,v8.0,v9.0,F:/corpus/guava/guava#2011-02-01-01-56-14#v8.0#0bb8549/src/com/google/common/io/ByteProcessor.java,F:/corpus/guava/guava#2011-04-08-22-35-37#v9.0#28d17c4/src/com/google/common/io/ByteProcessor.java,0,0,0,0,1,0,0,0,0,0,0,0,0,YES,0,0,0,0,0,0,0,0,0,0,0,0,0,0,0,0,0,0,0,0,0,0,0,0,0,0,0,0,0,0,0,0,0,0,0,0,0,0,0,0,0,0,0,0,0,0,0,0,1,49
guava,v8.0,v9.0,F:/corpus/guava/guava#2011-02-01-01-56-14#v8.0#0bb8549/src/com/google/common/io/ByteStreams.java,F:/corpus/guava/guava#2011-04-08-22-35-37#v9.0#28d17c4/src/com/google/common/io/ByteStreams.java,0,0,0,0,0,0,1,0,0,0,0,0,0,YES,0,0,0,0,0,0,0,0,0,0,0,0,0,0,0,0,0,0,0,0,0,0,0,0,0,0,0,0,0,0,0,0,0,0,0,0,0,0,0,0,0,0,0,0,0,0,3,0,6,848
guava,v8.0,v9.0,F:/corpus/guava/guava#2011-02-01-01-56-14#v8.0#0bb8549/src/com/google/common/io/CharStreams.java,F:/corpus/guava/guava#2011-04-08-22-35-37#v9.0#28d17c4/src/com/google/common/io/CharStreams.java,0,0,0,0,0,0,0,0,0,0,0,0,0,YES,0,0,0,0,0,0,0,0,0,0,0,0,0,0,0,0,0,0,0,0,0,0,0,0,0,0,0,0,0,0,0,0,0,0,0,0,0,0,0,0,0,0,0,0,0,0,3,0,4,437
guava,v8.0,v9.0,F:/corpus/guava/guava#2011-02-01-01-56-14#v8.0#0bb8549/src/com/google/common/io/Closeables.java,F:/corpus/guava/guava#2011-04-08-22-35-37#v9.0#28d17c4/src/com/google/common/io/Closeables.java,0,0,0,0,0,0,0,0,0,0,0,0,0,YES,0,0,0,0,0,0,0,0,0,0,0,0,0,0,0,0,0,0,0,0,0,0,0,0,0,0,0,0,0,0,0,0,0,0,0,0,0,0,0,0,0,0,0,0,0,0,0,0,1,103
guava,v8.0,v9.0,F:/corpus/guava/guava#2011-02-01-01-56-14#v8.0#0bb8549/src/com/google/common/io/CountingInputStream.java,F:/corpus/guava/guava#2011-04-08-22-35-37#v9.0#28d17c4/src/com/google/common/io/CountingInputStream.java,0,0,0,0,0,0,0,0,0,0,0,0,0,YES,0,0,0,0,0,0,0,0,0,0,0,0,0,0,0,0,0,0,0,0,0,0,0,0,0,0,0,0,0,0,0,0,0,0,0,0,0,0,0,0,0,0,0,0,0,0,0,0,1,90
guava,v8.0,v9.0,F:/corpus/guava/guava#2011-02-01-01-56-14#v8.0#0bb8549/src/com/google/common/io/CountingOutputStream.java,F:/corpus/guava/guava#2011-04-08-22-35-37#v9.0#28d17c4/src/com/google/common/io/CountingOutputStream.java,0,0,0,0,0,0,0,0,0,0,0,0,0,YES,0,0,0,0,0,0,0,0,0,0,0,0,0,0,0,0,0,0,0,0,0,0,0,0,0,0,0,0,0,0,0,0,0,0,0,0,0,0,0,0,0,0,0,0,0,0,0,0,1,59
guava,v8.0,v9.0,F:/corpus/guava/guava#2011-02-01-01-56-14#v8.0#0bb8549/src/com/google/common/io/FileBackedOutputStream.java,F:/corpus/guava/guava#2011-04-08-22-35-37#v9.0#28d17c4/src/com/google/common/io/FileBackedOutputStream.java,0,0,0,0,0,0,0,0,0,0,0,0,0,YES,0,0,0,0,0,0,0,0,0,0,0,0,0,0,0,0,0,0,0,0,0,0,0,0,0,0,0,0,0,0,0,0,0,0,0,0,0,0,0,0,0,0,0,0,0,0,2,0,3,207
guava,v8.0,v9.0,F:/corpus/guava/guava#2011-02-01-01-56-14#v8.0#0bb8549/src/com/google/common/io/Files.java,F:/corpus/guava/guava#2011-04-08-22-35-37#v9.0#28d17c4/src/com/google/common/io/Files.java,0,0,0,0,0,1,0,0,0,0,0,0,0,YES,0,0,0,0,0,0,0,0,0,0,0,0,0,0,0,0,0,0,0,0,0,0,0,0,0,0,0,0,0,0,0,0,0,0,0,0,0,0,0,0,0,0,0,0,0,0,2,0,3,726
guava,v8.0,v9.0,F:/corpus/guava/guava#2011-02-01-01-56-14#v8.0#0bb8549/src/com/google/common/io/Flushables.java,F:/corpus/guava/guava#2011-04-08-22-35-37#v9.0#28d17c4/src/com/google/common/io/Flushables.java,0,0,0,0,0,0,0,0,0,0,0,0,0,YES,0,0,0,0,0,0,0,0,0,0,0,0,0,0,0,0,0,0,0,0,0,0,0,0,0,0,0,0,0,0,0,0,0,0,0,0,0,0,0,0,0,0,0,0,0,0,0,0,1,80
guava,v8.0,v9.0,F:/corpus/guava/guava#2011-02-01-01-56-14#v8.0#0bb8549/src/com/google/common/io/InputSupplier.java,F:/corpus/guava/guava#2011-04-08-22-35-37#v9.0#28d17c4/src/com/google/common/io/InputSupplier.java,0,0,0,0,1,0,0,0,0,0,0,0,0,YES,0,0,0,0,0,0,0,0,0,0,0,0,0,0,0,0,0,0,0,0,0,0,0,0,0,0,0,0,0,0,0,0,0,0,0,0,0,0,0,0,0,0,0,0,0,0,0,0,1,40
guava,v8.0,v9.0,F:/corpus/guava/guava#2011-02-01-01-56-14#v8.0#0bb8549/src/com/google/common/io/LimitInputStream.java,F:/corpus/guava/guava#2011-04-08-22-35-37#v9.0#28d17c4/src/com/google/common/io/LimitInputStream.java,0,0,0,0,0,0,0,0,0,0,0,0,0,YES,0,0,0,0,0,0,0,0,0,0,0,0,0,0,0,0,0,0,0,0,0,0,0,0,0,0,0,0,0,0,0,0,0,0,0,0,0,0,0,0,0,0,0,0,0,0,0,0,1,104
guava,v8.0,v9.0,F:/corpus/guava/guava#2011-02-01-01-56-14#v8.0#0bb8549/src/com/google/common/io/LineBuffer.java,F:/corpus/guava/guava#2011-04-08-22-35-37#v9.0#28d17c4/src/com/google/common/io/LineBuffer.java,0,0,0,0,1,0,0,0,0,0,0,0,0,YES,0,0,0,0,0,0,0,0,0,0,0,0,0,0,0,0,0,0,0,0,0,0,0,0,0,0,0,0,0,0,0,0,0,0,0,0,0,0,0,0,0,0,0,0,0,0,0,0,2,118
guava,v8.0,v9.0,F:/corpus/guava/guava#2011-02-01-01-56-14#v8.0#0bb8549/src/com/google/common/io/LineProcessor.java,F:/corpus/guava/guava#2011-04-08-22-35-37#v9.0#28d17c4/src/com/google/common/io/LineProcessor.java,0,0,0,0,1,0,0,0,0,0,0,0,0,YES,0,0,0,0,0,0,0,0,0,0,0,0,0,0,0,0,0,0,0,0,0,0,0,0,0,0,0,0,0,0,0,0,0,0,0,0,0,0,0,0,0,0,0,0,0,0,0,0,1,45
guava,v8.0,v9.0,F:/corpus/guava/guava#2011-02-01-01-56-14#v8.0#0bb8549/src/com/google/common/io/LineReader.java,F:/corpus/guava/guava#2011-04-08-22-35-37#v9.0#28d17c4/src/com/google/common/io/LineReader.java,0,0,0,0,0,0,0,0,0,0,0,0,0,YES,0,0,0,0,0,0,0,0,0,0,0,0,0,0,0,0,0,0,0,0,0,0,0,0,0,0,0,0,0,0,0,0,0,0,0,0,0,0,0,0,0,0,0,0,0,0,0,0,1,87
guava,v8.0,v9.0,F:/corpus/guava/guava#2011-02-01-01-56-14#v8.0#0bb8549/src/com/google/common/io/LittleEndianDataInputStream.java,F:/corpus/guava/guava#2011-04-08-22-35-37#v9.0#28d17c4/src/com/google/common/io/LittleEndianDataInputStream.java,0,0,0,0,0,0,0,0,0,0,0,0,0,YES,0,0,0,0,0,0,0,0,0,0,0,0,0,0,0,0,0,0,0,0,0,0,0,0,0,0,0,0,0,0,0,0,0,0,0,0,0,0,0,0,0,0,0,0,0,0,0,0,1,232
guava,v8.0,v9.0,F:/corpus/guava/guava#2011-02-01-01-56-14#v8.0#0bb8549/src/com/google/common/io/LittleEndianDataOutputStream.java,F:/corpus/guava/guava#2011-04-08-22-35-37#v9.0#28d17c4/src/com/google/common/io/LittleEndianDataOutputStream.java,0,0,1,0,0,0,0,0,0,0,0,0,0,YES,0,0,0,0,0,0,0,0,0,0,0,0,0,0,0,0,0,0,0,0,0,0,0,0,0,0,0,0,0,0,0,0,0,0,0,0,0,0,0,0,0,0,0,0,0,0,0,0,1,164
guava,v8.0,v9.0,F:/corpus/guava/guava#2011-02-01-01-56-14#v8.0#0bb8549/src/com/google/common/io/MultiInputStream.java,F:/corpus/guava/guava#2011-04-08-22-35-37#v9.0#28d17c4/src/com/google/common/io/MultiInputStream.java,0,0,0,0,0,0,0,0,0,0,0,0,0,YES,0,0,0,0,0,0,0,0,0,0,0,0,0,0,0,0,0,0,0,0,0,0,0,0,0,0,0,0,0,0,0,0,0,0,0,0,0,0,0,0,0,0,0,0,0,0,0,0,1,115
guava,v8.0,v9.0,F:/corpus/guava/guava#2011-02-01-01-56-14#v8.0#0bb8549/src/com/google/common/io/MultiReader.java,F:/corpus/guava/guava#2011-04-08-22-35-37#v9.0#28d17c4/src/com/google/common/io/MultiReader.java,0,0,0,0,0,0,0,0,0,0,0,0,0,YES,0,0,0,0,0,0,0,0,0,0,0,0,0,0,0,0,0,0,0,0,0,0,0,0,0,0,0,0,0,0,0,0,0,0,0,0,0,0,0,0,0,0,0,0,0,0,0,0,1,90
guava,v8.0,v9.0,F:/corpus/guava/guava#2011-02-01-01-56-14#v8.0#0bb8549/src/com/google/common/io/NullOutputStream.java,F:/corpus/guava/guava#2011-04-08-22-35-37#v9.0#28d17c4/src/com/google/common/io/NullOutputStream.java,0,0,0,0,0,0,0,0,0,0,0,0,0,YES,0,0,0,0,0,0,0,0,0,0,0,0,0,0,0,0,0,0,0,0,0,0,0,0,0,0,0,0,0,0,0,0,0,0,0,0,0,0,0,0,0,0,0,0,0,0,0,0,1,38
guava,v8.0,v9.0,F:/corpus/guava/guava#2011-02-01-01-56-14#v8.0#0bb8549/src/com/google/common/io/OutputSupplier.java,F:/corpus/guava/guava#2011-04-08-22-35-37#v9.0#28d17c4/src/com/google/common/io/OutputSupplier.java,0,0,0,0,1,0,0,0,0,0,0,0,0,YES,0,0,0,0,0,0,0,0,0,0,0,0,0,0,0,0,0,0,0,0,0,0,0,0,0,0,0,0,0,0,0,0,0,0,0,0,0,0,0,0,0,0,0,0,0,0,0,0,1,40
guava,v8.0,v9.0,F:/corpus/guava/guava#2011-02-01-01-56-14#v8.0#0bb8549/src/com/google/common/io/PatternFilenameFilter.java,F:/corpus/guava/guava#2011-04-08-22-35-37#v9.0#28d17c4/src/com/google/common/io/PatternFilenameFilter.java,0,0,0,0,1,0,0,0,0,0,0,0,0,YES,0,0,0,0,0,0,0,0,0,0,0,0,0,0,0,0,0,0,0,0,0,0,0,0,0,0,0,0,0,0,0,0,0,0,0,0,0,0,0,0,0,0,0,0,0,0,0,0,1,59
guava,v8.0,v9.0,F:/corpus/guava/guava#2011-02-01-01-56-14#v8.0#0bb8549/src/com/google/common/io/Resources.java,F:/corpus/guava/guava#2011-04-08-22-35-37#v9.0#28d17c4/src/com/google/common/io/Resources.java,0,0,0,0,0,0,0,0,0,0,0,0,0,YES,0,0,0,0,0,0,0,0,0,0,0,0,0,0,0,0,0,0,0,0,0,0,0,0,0,0,0,0,0,0,0,0,0,0,0,0,0,0,0,0,0,0,0,0,0,0,1,0,2,167
guava,v8.0,v9.0,F:/corpus/guava/guava#2011-02-01-01-56-14#v8.0#0bb8549/src/com/google/common/io/package-info.java,F:/corpus/guava/guava#2011-04-08-22-35-37#v9.0#28d17c4/src/com/google/common/io/package-info.java,0,0,0,0,0,0,0,0,0,0,0,0,0,YES,0,0,0,0,0,0,0,0,0,0,0,0,0,0,0,0,0,0,0,0,0,0,0,0,0,0,0,0,0,0,0,0,0,0,0,0,0,0,0,0,0,0,0,0,0,0,0,0,1,40
guava,v8.0,v9.0,F:/corpus/guava/guava#2011-02-01-01-56-14#v8.0#0bb8549/src/com/google/common/net/HostSpecifier.java,F:/corpus/guava/guava#2011-04-08-22-35-37#v9.0#28d17c4/src/com/google/common/net/HostSpecifier.java,0,0,0,0,0,0,0,0,0,0,0,0,0,YES,0,0,0,0,0,0,0,0,0,0,0,0,0,0,0,0,0,0,0,0,0,0,0,0,0,0,0,0,0,0,0,0,0,0,0,0,0,0,0,0,0,0,0,0,0,0,0,0,1,183
guava,v8.0,v9.0,F:/corpus/guava/guava#2011-02-01-01-56-14#v8.0#0bb8549/src/com/google/common/net/InetAddresses.java,F:/corpus/guava/guava#2011-04-08-22-35-37#v9.0#28d17c4/src/com/google/common/net/InetAddresses.java,0,0,0,0,0,0,0,0,0,0,0,0,0,YES,0,0,0,0,0,0,0,0,0,0,0,0,0,0,0,0,0,0,0,0,0,0,0,0,0,0,0,0,0,0,0,0,0,0,0,0,0,0,0,0,0,0,0,0,0,0,0,0,1,930
guava,v8.0,v9.0,F:/corpus/guava/guava#2011-02-01-01-56-14#v8.0#0bb8549/src/com/google/common/net/InternetDomainName.java,F:/corpus/guava/guava#2011-04-08-22-35-37#v9.0#28d17c4/src/com/google/common/net/InternetDomainName.java,0,0,0,0,0,0,0,0,0,0,0,0,0,YES,0,1,0,0,1,2,0,0,0,0,0,3,4,0,0,1,0,0,0,4,0,0,0,0,0,0,0,0,0,0,0,0,0,0,1,0,0,0,0,0,0,0,2,3,0,1,4,0,118,513
guava,v8.0,v9.0,F:/corpus/guava/guava#2011-02-01-01-56-14#v8.0#0bb8549/src/com/google/common/net/TldPatterns.java,F:/corpus/guava/guava#2011-04-08-22-35-37#v9.0#28d17c4/src/com/google/common/net/TldPatterns.java,0,1,0,0,0,0,0,0,0,0,0,0,0,YES,0,0,0,0,0,0,0,0,0,0,0,0,0,0,0,0,0,0,0,0,0,0,0,0,0,0,0,0,0,0,0,0,0,0,0,0,0,0,0,0,0,0,0,0,0,0,0,0,1,3945
guava,v8.0,v9.0,F:/corpus/guava/guava#2011-02-01-01-56-14#v8.0#0bb8549/src/com/google/common/net/package-info.java,F:/corpus/guava/guava#2011-04-08-22-35-37#v9.0#28d17c4/src/com/google/common/net/package-info.java,0,0,0,0,0,0,0,0,0,0,0,0,0,YES,0,0,0,0,0,0,0,0,0,0,0,0,0,0,0,0,0,0,0,0,0,0,0,0,0,0,0,0,0,0,0,0,0,0,0,0,0,0,0,0,0,0,0,0,0,0,0,0,1,29
guava,v8.0,v9.0,F:/corpus/guava/guava#2011-02-01-01-56-14#v8.0#0bb8549/src/com/google/common/primitives/Booleans.java,F:/corpus/guava/guava#2011-04-08-22-35-37#v9.0#28d17c4/src/com/google/common/primitives/Booleans.java,0,0,0,0,0,0,0,0,0,0,0,0,0,YES,0,0,0,0,0,0,0,0,0,0,0,0,0,0,0,0,0,0,0,0,0,0,0,0,0,0,0,0,0,0,0,0,0,0,0,0,0,0,0,0,0,0,0,0,0,0,0,0,2,464
guava,v8.0,v9.0,F:/corpus/guava/guava#2011-02-01-01-56-14#v8.0#0bb8549/src/com/google/common/primitives/Bytes.java,F:/corpus/guava/guava#2011-04-08-22-35-37#v9.0#28d17c4/src/com/google/common/primitives/Bytes.java,0,0,0,0,0,0,0,0,0,0,0,0,0,YES,0,0,0,0,0,0,0,0,0,0,0,0,0,0,0,0,0,0,0,0,0,0,0,0,0,0,0,0,0,0,0,0,0,0,0,0,0,0,0,0,0,0,0,0,0,0,0,0,1,380
guava,v8.0,v9.0,F:/corpus/guava/guava#2011-02-01-01-56-14#v8.0#0bb8549/src/com/google/common/primitives/Chars.java,F:/corpus/guava/guava#2011-04-08-22-35-37#v9.0#28d17c4/src/com/google/common/primitives/Chars.java,0,0,0,0,0,0,0,0,0,0,0,0,0,YES,0,0,0,0,0,0,0,0,0,0,0,0,0,0,0,0,0,0,0,0,0,0,0,0,0,0,0,0,0,0,0,0,0,0,0,0,0,0,0,0,0,0,0,0,0,0,0,0,2,580
guava,v8.0,v9.0,F:/corpus/guava/guava#2011-02-01-01-56-14#v8.0#0bb8549/src/com/google/common/primitives/Doubles.java,F:/corpus/guava/guava#2011-04-08-22-35-37#v9.0#28d17c4/src/com/google/common/primitives/Doubles.java,0,0,0,0,0,0,0,0,0,0,0,0,0,YES,0,0,0,0,0,0,0,0,0,0,0,0,0,0,0,0,0,0,0,0,0,0,0,0,0,0,0,0,0,0,0,0,0,0,0,0,0,0,0,0,0,0,0,0,0,0,0,0,2,501
guava,v8.0,v9.0,F:/corpus/guava/guava#2011-02-01-01-56-14#v8.0#0bb8549/src/com/google/common/primitives/Floats.java,F:/corpus/guava/guava#2011-04-08-22-35-37#v9.0#28d17c4/src/com/google/common/primitives/Floats.java,0,0,0,0,0,0,0,0,0,0,0,0,0,YES,0,0,0,0,0,0,0,0,0,0,0,0,0,0,0,0,0,0,0,0,0,0,0,0,0,0,0,0,0,0,0,0,0,0,0,0,0,0,0,0,0,0,0,0,0,0,0,0,2,498
guava,v8.0,v9.0,F:/corpus/guava/guava#2011-02-01-01-56-14#v8.0#0bb8549/src/com/google/common/primitives/Ints.java,F:/corpus/guava/guava#2011-04-08-22-35-37#v9.0#28d17c4/src/com/google/common/primitives/Ints.java,0,0,0,0,0,0,0,0,0,0,0,1,0,YES,0,0,0,0,0,0,0,0,0,0,0,0,0,0,0,0,0,0,0,0,0,0,0,0,0,0,0,0,0,0,0,0,0,0,0,0,0,0,0,0,0,0,0,0,0,0,0,0,2,577
guava,v8.0,v9.0,F:/corpus/guava/guava#2011-02-01-01-56-14#v8.0#0bb8549/src/com/google/common/primitives/Longs.java,F:/corpus/guava/guava#2011-04-08-22-35-37#v9.0#28d17c4/src/com/google/common/primitives/Longs.java,0,0,0,0,0,0,0,0,0,0,1,0,0,YES,0,0,0,0,0,0,0,0,0,0,0,0,0,0,0,0,0,0,0,0,0,0,0,0,0,0,0,0,0,0,0,0,0,0,0,0,0,0,0,0,0,0,0,0,0,0,0,0,2,560
guava,v8.0,v9.0,F:/corpus/guava/guava#2011-02-01-01-56-14#v8.0#0bb8549/src/com/google/common/primitives/Primitives.java,F:/corpus/guava/guava#2011-04-08-22-35-37#v9.0#28d17c4/src/com/google/common/primitives/Primitives.java,0,0,0,0,0,0,0,0,0,0,0,0,0,YES,0,0,0,0,0,0,0,0,0,0,0,0,0,0,0,0,0,0,0,0,0,0,0,0,0,0,0,0,0,0,0,0,0,0,0,0,0,0,0,0,0,0,0,0,0,0,0,0,1,134
guava,v8.0,v9.0,F:/corpus/guava/guava#2011-02-01-01-56-14#v8.0#0bb8549/src/com/google/common/primitives/Shorts.java,F:/corpus/guava/guava#2011-04-08-22-35-37#v9.0#28d17c4/src/com/google/common/primitives/Shorts.java,0,0,0,0,0,0,0,0,0,0,0,0,0,YES,0,0,0,0,0,0,0,0,0,0,0,0,0,0,0,0,0,0,0,0,0,0,0,0,0,0,0,0,0,0,0,0,0,0,0,0,0,0,0,0,0,0,0,0,0,0,0,0,2,578
guava,v8.0,v9.0,F:/corpus/guava/guava#2011-02-01-01-56-14#v8.0#0bb8549/src/com/google/common/primitives/SignedBytes.java,F:/corpus/guava/guava#2011-04-08-22-35-37#v9.0#28d17c4/src/com/google/common/primitives/SignedBytes.java,0,0,0,0,0,0,0,0,0,0,0,0,0,YES,0,0,0,0,0,0,0,0,0,0,0,0,0,0,0,0,0,0,0,0,0,0,0,0,0,0,0,0,0,0,0,0,0,0,0,0,0,0,0,0,0,0,0,0,0,0,0,0,2,180
guava,v8.0,v9.0,F:/corpus/guava/guava#2011-02-01-01-56-14#v8.0#0bb8549/src/com/google/common/primitives/UnsignedBytes.java,F:/corpus/guava/guava#2011-04-08-22-35-37#v9.0#28d17c4/src/com/google/common/primitives/UnsignedBytes.java,0,0,0,0,0,0,0,0,0,0,0,0,0,YES,0,0,0,0,0,0,0,0,0,0,0,0,0,0,0,0,0,0,0,0,0,0,0,0,0,0,0,0,0,0,0,0,0,0,0,0,0,0,0,0,0,0,0,0,0,0,0,0,2,362
guava,v8.0,v9.0,F:/corpus/guava/guava#2011-02-01-01-56-14#v8.0#0bb8549/src/com/google/common/primitives/package-info.java,F:/corpus/guava/guava#2011-04-08-22-35-37#v9.0#28d17c4/src/com/google/common/primitives/package-info.java,0,0,0,0,0,0,0,0,0,0,0,0,0,YES,0,0,0,0,0,0,0,0,0,0,0,0,0,0,0,0,0,0,0,0,0,0,0,0,0,0,0,0,0,0,0,0,0,0,0,0,0,0,0,0,0,0,0,0,0,0,0,0,1,51
guava,v8.0,v9.0,F:/corpus/guava/guava#2011-02-01-01-56-14#v8.0#0bb8549/src/com/google/common/util/concurrent/AbstractCheckedFuture.java,F:/corpus/guava/guava#2011-04-08-22-35-37#v9.0#28d17c4/src/com/google/common/util/concurrent/AbstractCheckedFuture.java,0,0,0,0,1,0,0,0,0,0,0,0,0,YES,0,0,0,0,0,0,0,0,0,0,0,0,0,0,0,0,0,0,0,0,0,0,0,0,0,0,0,0,0,0,0,0,0,0,0,0,0,0,0,0,0,0,0,0,0,0,0,0,9,142
guava,v8.0,v9.0,F:/corpus/guava/guava#2011-02-01-01-56-14#v8.0#0bb8549/src/com/google/common/util/concurrent/AbstractExecutionThreadService.java,F:/corpus/guava/guava#2011-04-08-22-35-37#v9.0#28d17c4/src/com/google/common/util/concurrent/AbstractExecutionThreadService.java,0,0,0,0,1,1,0,0,0,0,0,0,0,YES,0,0,0,0,0,0,0,0,0,0,0,0,0,0,0,0,0,0,0,0,0,0,0,0,0,0,0,0,0,0,0,0,0,0,0,0,0,0,0,2,0,0,0,0,0,0,1,0,7,154
guava,v8.0,v9.0,F:/corpus/guava/guava#2011-02-01-01-56-14#v8.0#0bb8549/src/com/google/common/util/concurrent/AbstractFuture.java,F:/corpus/guava/guava#2011-04-08-22-35-37#v9.0#28d17c4/src/com/google/common/util/concurrent/AbstractFuture.java,0,0,0,0,3,0,0,0,0,0,0,0,0,YES,0,0,0,0,0,1,0,0,0,0,0,0,0,0,0,0,0,0,0,0,0,0,0,0,0,0,0,0,0,0,0,0,0,0,0,1,0,0,0,0,0,0,2,2,0,0,0,0,9,329
guava,v8.0,v9.0,F:/corpus/guava/guava#2011-02-01-01-56-14#v8.0#0bb8549/src/com/google/common/util/concurrent/AbstractIdleService.java,F:/corpus/guava/guava#2011-04-08-22-35-37#v9.0#28d17c4/src/com/google/common/util/concurrent/AbstractIdleService.java,0,0,0,0,1,1,0,0,0,0,0,0,0,YES,0,0,0,0,0,0,0,0,0,0,0,0,0,0,0,0,0,0,0,1,0,0,0,0,0,0,0,0,0,0,0,0,0,0,0,0,0,0,0,2,0,0,0,0,0,0,1,0,9,129
guava,v8.0,v9.0,F:/corpus/guava/guava#2011-02-01-01-56-14#v8.0#0bb8549/src/com/google/common/util/concurrent/AbstractListenableFuture.java,F:/corpus/guava/guava#2011-04-08-22-35-37#v9.0#28d17c4/src/com/google/common/util/concurrent/AbstractListenableFuture.java,0,0,1,0,1,0,0,0,0,0,0,0,0,YES,0,0,0,0,0,0,0,0,0,0,0,0,0,0,0,0,0,0,0,0,0,0,0,0,0,0,0,0,0,0,0,0,0,0,0,0,0,0,0,0,0,0,0,0,0,0,0,0,2,62
guava,v8.0,v9.0,F:/corpus/guava/guava#2011-02-01-01-56-14#v8.0#0bb8549/src/com/google/common/util/concurrent/AbstractService.java,F:/corpus/guava/guava#2011-04-08-22-35-37#v9.0#28d17c4/src/com/google/common/util/concurrent/AbstractService.java,0,0,0,0,2,1,0,0,0,0,0,0,0,YES,0,0,0,0,0,0,0,0,0,0,0,0,0,0,0,0,0,0,0,1,0,0,0,0,0,0,0,1,0,0,0,0,0,0,7,3,0,0,0,2,0,0,11,6,2,1,7,0,82,311
guava,v8.0,v9.0,F:/corpus/guava/guava#2011-02-01-01-56-14#v8.0#0bb8549/src/com/google/common/util/concurrent/Callables.java,F:/corpus/guava/guava#2011-04-08-22-35-37#v9.0#28d17c4/src/com/google/common/util/concurrent/Callables.java,0,0,0,0,0,0,0,0,0,0,0,0,0,YES,0,0,0,0,0,0,0,0,0,0,0,0,0,0,0,0,0,0,0,0,0,0,0,0,0,0,0,0,0,0,0,0,0,0,0,0,0,0,0,0,0,0,0,0,0,0,0,0,4,46
guava,v8.0,v9.0,F:/corpus/guava/guava#2011-02-01-01-56-14#v8.0#0bb8549/src/com/google/common/util/concurrent/CheckedFuture.java,F:/corpus/guava/guava#2011-04-08-22-35-37#v9.0#28d17c4/src/com/google/common/util/concurrent/CheckedFuture.java,0,0,0,0,1,0,0,0,0,0,0,0,0,YES,0,0,0,0,0,0,0,0,0,0,0,0,0,0,0,0,0,0,0,0,0,0,0,0,0,0,0,0,0,0,0,0,0,0,0,0,0,0,0,0,0,0,0,0,0,0,0,0,5,72
guava,v8.0,v9.0,F:/corpus/guava/guava#2011-02-01-01-56-14#v8.0#0bb8549/src/com/google/common/util/concurrent/ExecutionList.java,F:/corpus/guava/guava#2011-04-08-22-35-37#v9.0#28d17c4/src/com/google/common/util/concurrent/ExecutionList.java,0,0,0,0,0,0,0,0,0,0,0,0,0,YES,0,0,0,0,0,0,0,0,0,0,0,0,0,0,0,0,0,0,0,0,0,0,0,0,0,0,0,0,0,0,0,0,0,0,0,0,0,0,0,0,0,0,0,0,0,0,0,0,2,128
guava,v8.0,v9.0,F:/corpus/guava/guava#2011-02-01-01-56-14#v8.0#0bb8549/src/com/google/common/util/concurrent/FakeTimeLimiter.java,F:/corpus/guava/guava#2011-04-08-22-35-37#v9.0#28d17c4/src/com/google/common/util/concurrent/FakeTimeLimiter.java,0,0,0,0,2,0,0,0,0,0,0,0,0,YES,0,0,0,0,0,0,0,0,0,0,0,0,0,0,0,0,0,0,0,0,0,0,0,0,0,0,0,0,0,0,0,0,0,0,0,0,0,0,0,0,0,0,0,0,0,0,0,0,3,45
guava,v8.0,v9.0,F:/corpus/guava/guava#2011-02-01-01-56-14#v8.0#0bb8549/src/com/google/common/util/concurrent/ForwardingBlockingQueue.java,F:/corpus/guava/guava#2011-04-08-22-35-37#v9.0#28d17c4/src/com/google/common/util/concurrent/ForwardingBlockingQueue.java,0,0,0,0,1,0,0,0,0,0,0,0,0,YES,0,0,0,0,0,0,0,0,0,0,0,0,0,0,0,0,0,0,0,0,0,0,0,0,0,0,0,0,0,0,0,0,0,0,0,0,0,0,0,0,0,0,0,0,0,0,0,0,1,74
guava,v8.0,v9.0,F:/corpus/guava/guava#2011-02-01-01-56-14#v8.0#0bb8549/src/com/google/common/util/concurrent/ForwardingFuture.java,F:/corpus/guava/guava#2011-04-08-22-35-37#v9.0#28d17c4/src/com/google/common/util/concurrent/ForwardingFuture.java,0,0,0,0,1,0,0,0,0,0,0,0,0,YES,0,0,0,1,0,0,0,0,0,0,0,0,0,0,0,0,0,0,0,1,0,0,0,0,0,0,0,0,0,0,0,0,0,0,0,0,0,0,0,0,0,0,0,0,0,0,0,0,29,68
guava,v8.0,v9.0,F:/corpus/guava/guava#2011-02-01-01-56-14#v8.0#0bb8549/src/com/google/common/util/concurrent/ForwardingListenableFuture.java,F:/corpus/guava/guava#2011-04-08-22-35-37#v9.0#28d17c4/src/com/google/common/util/concurrent/ForwardingListenableFuture.java,0,0,0,0,1,0,0,0,0,0,0,0,0,YES,0,0,0,1,0,0,0,0,0,0,0,0,0,0,0,0,0,0,0,1,0,0,0,0,0,0,0,0,0,0,0,0,0,0,0,0,0,0,0,0,0,0,0,0,0,0,0,0,31,47
guava,v8.0,v9.0,F:/corpus/guava/guava#2011-02-01-01-56-14#v8.0#0bb8549/src/com/google/common/util/concurrent/ForwardingService.java,F:/corpus/guava/guava#2011-04-08-22-35-37#v9.0#28d17c4/src/com/google/common/util/concurrent/ForwardingService.java,0,0,0,0,1,0,0,0,0,0,0,0,0,YES,0,0,0,0,2,0,0,0,0,0,0,0,0,0,0,0,0,0,0,0,0,0,0,0,0,0,0,0,0,0,0,0,0,0,0,0,0,0,0,2,0,0,0,0,0,0,0,0,33,63
guava,v8.0,v9.0,F:/corpus/guava/guava#2011-02-01-01-56-14#v8.0#0bb8549/src/com/google/common/util/concurrent/Futures.java,F:/corpus/guava/guava#2011-04-08-22-35-37#v9.0#28d17c4/src/com/google/common/util/concurrent/Futures.java,0,0,0,0,0,0,0,0,0,1,0,0,0,YES,0,0,0,0,1,0,0,0,0,0,0,0,0,0,0,0,0,1,0,6,0,3,0,0,0,0,0,0,0,0,0,0,0,0,0,0,0,0,0,0,0,0,0,0,0,0,9,0,73,787
guava,v8.0,v9.0,F:/corpus/guava/guava#2011-02-01-01-56-14#v8.0#0bb8549/src/com/google/common/util/concurrent/ListenableFuture.java,F:/corpus/guava/guava#2011-04-08-22-35-37#v9.0#28d17c4/src/com/google/common/util/concurrent/ListenableFuture.java,0,0,0,0,1,0,0,0,0,0,0,0,0,YES,0,0,0,0,0,0,0,0,0,0,0,0,0,0,0,0,0,0,0,2,0,0,0,0,0,1,0,0,0,0,0,0,0,0,0,0,0,0,0,0,0,0,0,0,0,0,0,0,20,70
guava,v8.0,v9.0,F:/corpus/guava/guava#2011-02-01-01-56-14#v8.0#0bb8549/src/com/google/common/util/concurrent/ListenableFutureTask.java,F:/corpus/guava/guava#2011-04-08-22-35-37#v9.0#28d17c4/src/com/google/common/util/concurrent/ListenableFutureTask.java,0,0,0,0,0,0,0,0,0,0,0,0,0,YES,0,0,0,0,0,0,0,0,0,0,0,0,0,0,0,0,0,0,0,0,0,0,0,0,0,0,0,0,0,0,0,0,0,0,0,0,0,0,0,0,0,0,0,0,0,0,0,0,2,77
guava,v8.0,v9.0,F:/corpus/guava/guava#2011-02-01-01-56-14#v8.0#0bb8549/src/com/google/common/util/concurrent/MoreExecutors.java,F:/corpus/guava/guava#2011-04-08-22-35-37#v9.0#28d17c4/src/com/google/common/util/concurrent/MoreExecutors.java,0,0,1,0,0,0,0,0,0,0,0,0,0,YES,0,0,0,0,0,0,0,0,0,0,0,0,0,0,0,0,0,0,0,0,0,0,0,0,0,0,0,0,0,0,0,0,0,0,0,0,0,0,0,0,0,0,0,0,0,0,1,0,2,343
guava,v8.0,v9.0,F:/corpus/guava/guava#2011-02-01-01-56-14#v8.0#0bb8549/src/com/google/common/base/Service.java,F:/corpus/guava/guava#2011-04-08-22-35-37#v9.0#28d17c4/src/com/google/common/util/concurrent/Service.java,0,0,0,0,0,0,0,0,0,0,0,0,0,YES,0,0,0,0,0,0,0,0,0,0,0,0,0,0,0,0,0,0,0,5,0,0,0,0,0,0,0,0,0,0,0,0,0,0,0,0,0,0,0,4,0,0,0,0,0,0,0,0,35,162
guava,v8.0,v9.0,F:/corpus/guava/guava#2011-02-01-01-56-14#v8.0#0bb8549/src/com/google/common/util/concurrent/ValueFuture.java,F:/corpus/guava/guava#2011-04-08-22-35-37#v9.0#28d17c4/src/com/google/common/util/concurrent/SettableFuture.java,0,0,0,0,1,0,0,0,0,0,0,0,0,YES,0,0,0,0,0,0,0,0,0,0,1,0,0,0,0,0,0,0,0,0,0,0,0,0,0,0,0,0,0,0,0,0,0,0,0,0,0,0,0,0,0,0,0,0,0,0,0,0,9,83
guava,v8.0,v9.0,F:/corpus/guava/guava#2011-02-01-01-56-14#v8.0#0bb8549/src/com/google/common/util/concurrent/SimpleTimeLimiter.java,F:/corpus/guava/guava#2011-04-08-22-35-37#v9.0#28d17c4/src/com/google/common/util/concurrent/SimpleTimeLimiter.java,0,0,0,0,0,0,0,0,0,0,0,0,0,YES,0,0,0,0,0,0,0,0,0,0,0,0,0,0,0,0,0,0,0,0,0,0,0,0,0,0,0,0,0,0,0,0,0,0,0,0,0,0,0,0,0,0,0,0,0,0,1,0,5,170
guava,v8.0,v9.0,F:/corpus/guava/guava#2011-02-01-01-56-14#v8.0#0bb8549/src/com/google/common/util/concurrent/ThreadFactoryBuilder.java,F:/corpus/guava/guava#2011-04-08-22-35-37#v9.0#28d17c4/src/com/google/common/util/concurrent/ThreadFactoryBuilder.java,0,0,0,0,0,0,0,0,0,0,0,0,0,YES,0,0,0,0,0,0,0,0,0,0,0,0,0,0,0,0,0,0,0,0,0,0,0,0,0,0,0,0,0,0,0,0,0,0,0,0,0,0,0,0,0,0,0,0,0,0,0,0,4,179
guava,v8.0,v9.0,F:/corpus/guava/guava#2011-02-01-01-56-14#v8.0#0bb8549/src/com/google/common/util/concurrent/TimeLimiter.java,F:/corpus/guava/guava#2011-04-08-22-35-37#v9.0#28d17c4/src/com/google/common/util/concurrent/TimeLimiter.java,0,0,0,0,0,0,0,0,0,0,0,0,0,YES,0,0,0,0,0,0,0,0,0,0,0,0,0,0,0,0,0,0,0,0,0,0,0,0,0,0,0,0,0,0,0,0,0,0,0,0,0,0,0,0,0,0,0,0,0,0,0,0,1,106
guava,v8.0,v9.0,F:/corpus/guava/guava#2011-02-01-01-56-14#v8.0#0bb8549/src/com/google/common/util/concurrent/UncaughtExceptionHandlers.java,F:/corpus/guava/guava#2011-04-08-22-35-37#v9.0#28d17c4/src/com/google/common/util/concurrent/UncaughtExceptionHandlers.java,0,0,0,0,0,0,0,0,0,0,0,0,0,YES,0,0,0,0,0,0,0,0,0,0,0,0,0,0,0,0,0,0,0,0,0,0,0,0,0,0,0,0,0,0,0,0,0,0,0,0,0,0,0,0,0,0,0,0,0,0,0,0,3,53
guava,v8.0,v9.0,F:/corpus/guava/guava#2011-02-01-01-56-14#v8.0#0bb8549/src/com/google/common/util/concurrent/UncheckedTimeoutException.java,F:/corpus/guava/guava#2011-04-08-22-35-37#v9.0#28d17c4/src/com/google/common/util/concurrent/UncheckedTimeoutException.java,0,0,0,0,0,0,0,0,0,0,0,0,0,YES,0,0,0,0,0,0,0,0,0,0,0,0,0,0,0,0,0,0,0,0,0,0,0,0,0,0,0,0,0,0,0,0,0,0,0,0,0,0,0,0,0,0,0,0,0,0,0,0,1,41
guava,v8.0,v9.0,F:/corpus/guava/guava#2011-02-01-01-56-14#v8.0#0bb8549/src/com/google/common/util/concurrent/UninterruptibleFuture.java,F:/corpus/guava/guava#2011-04-08-22-35-37#v9.0#28d17c4/src/com/google/common/util/concurrent/UninterruptibleFuture.java,0,0,0,0,1,0,0,0,0,0,0,0,0,YES,0,0,0,0,0,0,0,0,0,0,0,0,0,0,0,0,0,0,0,0,0,0,0,0,0,0,0,0,0,0,0,0,0,0,0,0,0,0,0,0,0,0,0,0,0,0,0,0,1,42
guava,v8.0,v9.0,F:/corpus/guava/guava#2011-02-01-01-56-14#v8.0#0bb8549/src/com/google/common/util/concurrent/package-info.java,F:/corpus/guava/guava#2011-04-08-22-35-37#v9.0#28d17c4/src/com/google/common/util/concurrent/package-info.java,0,0,0,0,0,0,0,0,0,0,0,0,0,YES,0,0,0,0,0,0,0,0,0,0,0,0,0,0,0,0,0,0,0,0,0,0,0,0,0,0,0,0,0,0,0,0,0,0,0,0,0,0,0,0,0,0,0,0,0,0,0,0,1,26
guava,v8.0,v9.0,F:/corpus/guava/guava#2011-02-01-01-56-14#v8.0#0bb8549/gwt-super/java/util/super/java/util/concurrent/atomic/AtomicInteger.java,F:/corpus/guava/guava#2011-02-01-01-56-14#v8.0#0bb8549/gwt-super/java/util/super/java/util/concurrent/atomic/AtomicInteger.java,0,0,0,0,0,0,0,0,0,0,0,0,0,NO,0,0,0,0,0,0,0,0,0,0,0,0,0,0,0,0,0,0,0,0,0,0,0,0,0,0,0,0,0,0,0,0,0,0,0,0,0,0,0,0,0,0,0,0,0,0,0,0,0,109
guava,v8.0,v9.0,F:/corpus/guava/guava#2011-02-01-01-56-14#v8.0#0bb8549/gwt-super/java/util/super/java/util/concurrent/ConcurrentHashMap.java,F:/corpus/guava/guava#2011-02-01-01-56-14#v8.0#0bb8549/gwt-super/java/util/super/java/util/concurrent/ConcurrentHashMap.java,0,0,0,0,0,0,0,0,0,0,0,0,0,NO,0,0,0,0,0,0,0,0,0,0,0,0,0,0,0,0,0,0,0,0,0,0,0,0,0,0,0,0,0,0,0,0,0,0,0,0,0,0,0,0,0,0,0,0,0,0,0,0,0,144
guava,v8.0,v9.0,F:/corpus/guava/guava#2011-02-01-01-56-14#v8.0#0bb8549/gwt-super/java/util/super/java/util/concurrent/ConcurrentMap.java,F:/corpus/guava/guava#2011-02-01-01-56-14#v8.0#0bb8549/gwt-super/java/util/super/java/util/concurrent/ConcurrentMap.java,0,0,0,0,1,0,0,0,0,0,0,0,0,NO,0,0,0,0,0,0,0,0,0,0,0,0,0,0,0,0,0,0,0,0,0,0,0,0,0,0,0,0,0,0,0,0,0,0,0,0,0,0,0,0,0,0,0,0,0,0,0,0,0,35
guava,v8.0,v9.0,F:/corpus/guava/guava#2011-02-01-01-56-14#v8.0#0bb8549/gwt-super/java/util/super/java/util/concurrent/TimeUnit.java,F:/corpus/guava/guava#2011-02-01-01-56-14#v8.0#0bb8549/gwt-super/java/util/super/java/util/concurrent/TimeUnit.java,0,0,0,0,0,0,0,0,0,0,0,0,0,NO,0,0,0,0,0,0,0,0,0,0,0,0,0,0,0,0,0,0,0,0,0,0,0,0,0,0,0,0,0,0,0,0,0,0,0,0,0,0,0,0,0,0,0,0,0,0,0,0,0,141
guava,v8.0,v9.0,F:/corpus/guava/guava#2011-02-01-01-56-14#v8.0#0bb8549/src/com/google/common/annotations/Beta.java,F:/corpus/guava/guava#2011-02-01-01-56-14#v8.0#0bb8549/src/com/google/common/annotations/Beta.java,0,0,0,0,0,0,0,0,0,0,0,0,0,NO,0,0,0,0,0,0,0,0,0,0,0,0,0,0,0,0,0,0,0,0,0,0,0,0,0,0,0,0,0,0,0,0,0,0,0,0,0,0,0,0,0,0,0,0,0,0,0,0,0,44
guava,v8.0,v9.0,F:/corpus/guava/guava#2011-02-01-01-56-14#v8.0#0bb8549/src/com/google/common/annotations/GwtCompatible.java,F:/corpus/guava/guava#2011-02-01-01-56-14#v8.0#0bb8549/src/com/google/common/annotations/GwtCompatible.java,0,0,0,0,0,0,0,0,0,0,0,0,0,NO,0,0,0,0,0,0,0,0,0,0,0,0,0,0,0,0,0,0,0,0,0,0,0,0,0,0,0,0,0,0,0,0,0,0,0,0,0,0,0,0,0,0,0,0,0,0,0,0,0,88
guava,v8.0,v9.0,F:/corpus/guava/guava#2011-02-01-01-56-14#v8.0#0bb8549/src/com/google/common/annotations/GwtIncompatible.java,F:/corpus/guava/guava#2011-02-01-01-56-14#v8.0#0bb8549/src/com/google/common/annotations/GwtIncompatible.java,0,0,0,0,0,0,0,0,0,0,0,0,0,NO,0,0,0,0,0,0,0,0,0,0,0,0,0,0,0,0,0,0,0,0,0,0,0,0,0,0,0,0,0,0,0,0,0,0,0,0,0,0,0,0,0,0,0,0,0,0,0,0,0,52
guava,v8.0,v9.0,F:/corpus/guava/guava#2011-02-01-01-56-14#v8.0#0bb8549/src/com/google/common/annotations/package-info.java,F:/corpus/guava/guava#2011-02-01-01-56-14#v8.0#0bb8549/src/com/google/common/annotations/package-info.java,0,0,0,0,0,0,0,0,0,0,0,0,0,NO,0,0,0,0,0,0,0,0,0,0,0,0,0,0,0,0,0,0,0,0,0,0,0,0,0,0,0,0,0,0,0,0,0,0,0,0,0,0,0,0,0,0,0,0,0,0,0,0,0,21
guava,v8.0,v9.0,F:/corpus/guava/guava#2011-02-01-01-56-14#v8.0#0bb8549/src/com/google/common/annotations/VisibleForTesting.java,F:/corpus/guava/guava#2011-02-01-01-56-14#v8.0#0bb8549/src/com/google/common/annotations/VisibleForTesting.java,0,0,0,0,0,0,0,0,0,0,0,0,0,NO,0,0,0,0,0,0,0,0,0,0,0,0,0,0,0,0,0,0,0,0,0,0,0,0,0,0,0,0,0,0,0,0,0,0,0,0,0,0,0,0,0,0,0,0,0,0,0,0,0,27
