projectName,oldVersionTag,newVersionTag,oldPath,newPath,DC,LC,MM,RPB,SG,MCH,DCLP,DIVC,FE,LM,LPL,SS,SC,fromChangeDistiller,adding_attribute_modifiability,adding_class_derivability,adding_method_overridability,additional_class,additional_functionality,additional_object_state,alternative_part_delete,alternative_part_insert,attribute_renaming,attribute_type_change,class_renaming,comment_delete,comment_insert,comment_move,comment_update,condition_expression_change,decreasing_accessibility_change,doc_delete,doc_insert,doc_update,increasing_accessibility_change,method_renaming,parameter_delete,parameter_insert,parameter_ordering_change,parameter_renaming,parameter_type_change,parent_class_change,parent_class_delete,parent_class_insert,parent_interface_change,parent_interface_delete,parent_interface_insert,removed_class,removed_functionality,removed_object_state,removing_attribute_modifiability,removing_class_derivability,removing_method_overridability,return_type_change,return_type_delete,return_type_insert,statement_delete,statement_insert,statement_ordering_change,statement_parent_change,statement_update,unclassified_change,codeChurn,LOC
guava,v12.0,v13.0,F:/corpus/guava/guava#2012-05-01-02-04-06#v12.0#72d2812/guava-gwt/src-super/com/google/common/base/super/com/google/common/base/Splitter.java,F:/corpus/guava/guava#2012-08-03-04-19-28#v13.0#c851167/guava-gwt/src-super/com/google/common/base/super/com/google/common/base/Splitter.java,0,0,0,0,2,0,0,0,0,0,0,1,0,YES,0,0,0,0,0,0,0,0,0,0,0,0,0,0,0,0,0,0,0,0,0,0,0,0,0,0,0,0,0,0,0,0,0,0,0,0,0,0,0,0,0,0,0,0,0,0,1,0,8,508
guava,v12.0,v13.0,F:/corpus/guava/guava#2012-05-01-02-04-06#v12.0#72d2812/guava-gwt/src-super/com/google/common/cache/super/com/google/common/cache/CacheLoader.java,F:/corpus/guava/guava#2012-08-03-04-19-28#v13.0#c851167/guava-gwt/src-super/com/google/common/cache/super/com/google/common/cache/CacheLoader.java,0,0,0,0,3,0,0,0,0,0,0,0,0,YES,0,0,0,0,0,0,0,0,0,0,0,0,0,0,0,0,0,0,0,0,0,0,0,0,0,0,0,0,0,0,0,0,0,0,0,0,0,0,0,0,0,0,0,0,0,0,0,0,9,157
guava,v12.0,v13.0,F:/corpus/guava/guava#2012-05-01-02-04-06#v12.0#72d2812/guava-gwt/src-super/com/google/common/collect/super/com/google/common/collect/AbstractMapBasedMultiset.java,F:/corpus/guava/guava#2012-08-03-04-19-28#v13.0#c851167/guava-gwt/src-super/com/google/common/collect/super/com/google/common/collect/AbstractMapBasedMultiset.java,0,0,0,0,1,4,0,0,0,0,0,0,0,YES,0,0,0,0,0,0,0,0,0,0,0,0,0,0,0,0,0,0,0,1,0,0,0,0,0,0,0,0,0,0,0,0,0,0,0,0,0,0,0,0,0,0,0,0,0,0,0,0,2,315
guava,v12.0,v13.0,F:/corpus/guava/guava#2012-05-01-02-04-06#v12.0#72d2812/guava-gwt/src-super/com/google/common/collect/super/com/google/common/collect/ContiguousSet.java,F:/corpus/guava/guava#2012-08-03-04-19-28#v13.0#c851167/guava-gwt/src-super/com/google/common/collect/super/com/google/common/collect/ContiguousSet.java,0,0,0,0,1,0,0,0,0,0,0,0,0,YES,0,0,0,0,1,0,0,0,0,0,0,0,0,0,0,0,0,0,0,1,0,0,0,0,0,0,0,0,0,0,0,0,0,0,0,0,0,0,0,0,0,0,0,0,0,0,0,0,44,99
guava,v12.0,v13.0,F:/corpus/guava/guava#2012-05-01-02-04-06#v12.0#72d2812/guava-gwt/src-super/com/google/common/collect/super/com/google/common/collect/EmptyImmutableList.java,F:/corpus/guava/guava#2012-08-03-04-19-28#v13.0#c851167/guava-gwt/src-super/com/google/common/collect/super/com/google/common/collect/EmptyImmutableList.java,0,0,0,0,0,0,0,0,0,0,0,0,0,YES,0,0,0,0,1,0,0,0,0,0,0,0,0,0,0,0,1,0,0,0,0,0,0,0,0,0,0,0,0,0,0,0,0,0,0,0,0,0,0,0,0,0,1,1,0,0,0,0,4,32
guava,v12.0,v13.0,F:/corpus/guava/guava#2012-05-01-02-04-06#v12.0#72d2812/guava-gwt/src-super/com/google/common/collect/super/com/google/common/collect/EmptyImmutableMap.java,F:/corpus/guava/guava#2012-08-03-04-19-28#v13.0#c851167/guava-gwt/src-super/com/google/common/collect/super/com/google/common/collect/EmptyImmutableMap.java,0,0,0,0,0,0,0,0,0,0,0,0,0,YES,0,0,0,0,0,0,0,0,0,0,0,0,0,0,0,0,0,0,0,0,0,0,0,0,0,0,0,1,0,0,0,0,0,0,0,0,0,0,0,0,0,0,1,1,0,0,0,0,3,28
guava,v12.0,v13.0,F:/corpus/guava/guava#2012-05-01-02-04-06#v12.0#72d2812/guava-gwt/src-super/com/google/common/collect/super/com/google/common/collect/EmptyImmutableSet.java,F:/corpus/guava/guava#2012-08-03-04-19-28#v13.0#c851167/guava-gwt/src-super/com/google/common/collect/super/com/google/common/collect/EmptyImmutableSet.java,0,0,0,0,0,0,0,0,0,0,0,0,0,YES,0,0,0,0,0,0,0,0,0,0,0,0,0,0,0,0,1,0,0,0,0,0,0,0,0,0,0,1,0,0,0,0,0,0,0,0,0,0,0,0,0,0,1,1,0,0,0,0,3,27
guava,v12.0,v13.0,F:/corpus/guava/guava#2012-05-01-02-04-06#v12.0#72d2812/guava-gwt/src-super/com/google/common/collect/super/com/google/common/collect/EnumHashBiMap.java,F:/corpus/guava/guava#2012-08-03-04-19-28#v13.0#c851167/guava-gwt/src-super/com/google/common/collect/super/com/google/common/collect/EnumHashBiMap.java,0,0,0,0,0,0,0,0,0,0,0,0,0,YES,0,0,0,0,0,0,0,0,0,0,0,0,0,0,0,0,0,0,0,0,0,0,0,0,0,0,0,0,0,0,0,0,0,0,0,0,0,0,0,0,0,0,0,0,0,0,0,0,1,101
guava,v12.0,v13.0,F:/corpus/guava/guava#2012-05-01-02-04-06#v12.0#72d2812/guava-gwt/src-super/com/google/common/collect/super/com/google/common/collect/FluentIterable.java,F:/corpus/guava/guava#2012-08-03-04-19-28#v13.0#c851167/guava-gwt/src-super/com/google/common/collect/super/com/google/common/collect/FluentIterable.java,0,0,0,0,1,0,0,0,0,0,0,0,0,YES,0,0,0,0,2,0,0,0,0,0,0,0,0,0,0,0,0,0,0,1,0,0,0,0,0,0,0,0,0,0,0,0,0,0,0,0,0,0,0,0,0,0,0,0,0,0,2,0,36,344
guava,v12.0,v13.0,F:/corpus/guava/guava#2012-05-01-02-04-06#v12.0#72d2812/guava-gwt/src-super/com/google/common/collect/super/com/google/common/collect/ForwardingImmutableList.java,F:/corpus/guava/guava#2012-08-03-04-19-28#v13.0#c851167/guava-gwt/src-super/com/google/common/collect/super/com/google/common/collect/ForwardingImmutableList.java,0,0,0,0,1,0,0,0,0,0,0,0,0,YES,0,0,0,0,1,0,0,0,0,0,0,0,0,0,0,0,1,0,0,0,0,0,1,0,0,0,0,0,0,0,0,0,0,0,0,1,0,0,0,0,0,0,1,0,0,0,16,0,25,105
guava,v12.0,v13.0,F:/corpus/guava/guava#2012-05-01-02-04-06#v12.0#72d2812/guava-gwt/src-super/com/google/common/collect/super/com/google/common/collect/GenericMapMaker.java,F:/corpus/guava/guava#2012-08-03-04-19-28#v13.0#c851167/guava-gwt/src-super/com/google/common/collect/super/com/google/common/collect/GenericMapMaker.java,0,0,0,0,1,0,0,0,0,0,0,0,0,YES,0,0,0,0,0,0,0,0,0,0,0,0,0,0,0,0,0,0,0,0,0,0,0,0,0,0,0,0,0,0,0,0,0,0,3,0,0,0,0,0,0,0,0,0,0,0,0,0,17,97
guava,v12.0,v13.0,F:/corpus/guava/guava#2012-05-01-02-04-06#v12.0#72d2812/guava-gwt/src-super/com/google/common/collect/super/com/google/common/collect/ImmutableAsList.java,F:/corpus/guava/guava#2012-08-03-04-19-28#v13.0#c851167/guava-gwt/src-super/com/google/common/collect/super/com/google/common/collect/ImmutableAsList.java,0,0,0,0,0,0,0,0,0,0,0,0,0,YES,0,1,0,0,5,0,0,0,0,0,0,0,0,0,0,0,0,0,0,1,0,0,1,0,0,0,0,1,0,0,0,0,0,0,0,0,0,0,0,0,0,0,1,1,0,0,0,0,8,30
guava,v12.0,v13.0,F:/corpus/guava/guava#2012-05-01-02-04-06#v12.0#72d2812/guava-gwt/src-super/com/google/common/collect/super/com/google/common/collect/ImmutableBiMap.java,F:/corpus/guava/guava#2012-08-03-04-19-28#v13.0#c851167/guava-gwt/src-super/com/google/common/collect/super/com/google/common/collect/ImmutableBiMap.java,0,0,0,0,2,0,0,0,0,0,2,0,0,YES,0,0,0,0,0,0,0,0,0,0,0,0,0,0,0,0,0,0,0,0,0,0,0,0,0,0,0,1,0,0,0,0,0,1,0,1,0,0,0,0,0,0,1,1,0,0,0,0,16,131
guava,v12.0,v13.0,F:/corpus/guava/guava#2012-05-01-02-04-06#v12.0#72d2812/guava-gwt/src-super/com/google/common/collect/super/com/google/common/collect/ImmutableCollection.java,F:/corpus/guava/guava#2012-08-03-04-19-28#v13.0#c851167/guava-gwt/src-super/com/google/common/collect/super/com/google/common/collect/ImmutableCollection.java,0,0,1,0,7,0,0,0,0,0,0,6,0,YES,0,0,0,0,0,0,0,0,0,0,0,0,0,0,0,0,0,0,0,0,0,0,0,0,0,0,0,0,0,0,0,0,0,0,0,0,0,0,0,0,0,0,1,0,0,0,1,0,4,177
guava,v12.0,v13.0,F:/corpus/guava/guava#2012-05-01-02-04-06#v12.0#72d2812/guava-gwt/src-super/com/google/common/collect/super/com/google/common/collect/ImmutableEnumSet.java,F:/corpus/guava/guava#2012-08-03-04-19-28#v13.0#c851167/guava-gwt/src-super/com/google/common/collect/super/com/google/common/collect/ImmutableEnumSet.java,0,0,0,0,0,0,0,0,0,0,0,0,0,YES,0,0,0,0,0,0,0,0,0,0,0,0,0,0,0,0,0,0,0,0,0,0,0,0,0,0,0,0,0,0,0,0,0,0,0,0,0,0,0,0,0,0,0,0,0,0,0,0,1,31
guava,v12.0,v13.0,F:/corpus/guava/guava#2012-05-01-02-04-06#v12.0#72d2812/guava-gwt/src-super/com/google/common/collect/super/com/google/common/collect/ImmutableList.java,F:/corpus/guava/guava#2012-08-03-04-19-28#v13.0#c851167/guava-gwt/src-super/com/google/common/collect/super/com/google/common/collect/ImmutableList.java,0,0,0,0,5,0,0,0,0,0,5,16,0,YES,0,0,0,0,1,0,0,0,0,0,0,0,0,0,0,0,0,0,0,0,0,0,0,0,0,0,0,0,0,0,0,0,0,0,1,0,0,0,0,0,0,0,0,1,0,0,0,1,3,299
guava,v12.0,v13.0,F:/corpus/guava/guava#2012-05-01-02-04-06#v12.0#72d2812/guava-gwt/src-super/com/google/common/collect/super/com/google/common/collect/ImmutableListMultimap.java,F:/corpus/guava/guava#2012-08-03-04-19-28#v13.0#c851167/guava-gwt/src-super/com/google/common/collect/super/com/google/common/collect/ImmutableListMultimap.java,0,0,0,0,2,0,0,0,0,0,2,4,0,YES,0,0,0,0,0,0,0,0,0,0,0,0,0,0,0,0,0,0,0,0,0,0,0,0,0,0,0,0,0,0,0,0,0,0,0,0,0,0,0,0,0,0,0,0,0,0,0,0,3,330
guava,v12.0,v13.0,F:/corpus/guava/guava#2012-05-01-02-04-06#v12.0#72d2812/guava-gwt/src-super/com/google/common/collect/super/com/google/common/collect/ImmutableMap.java,F:/corpus/guava/guava#2012-08-03-04-19-28#v13.0#c851167/guava-gwt/src-super/com/google/common/collect/super/com/google/common/collect/ImmutableMap.java,0,0,0,0,4,0,0,0,0,0,2,15,0,YES,0,0,3,0,3,0,0,0,0,0,0,0,1,0,0,1,0,0,0,0,0,0,0,0,0,0,0,0,0,0,0,0,0,0,4,1,0,0,0,0,0,0,11,9,0,0,0,0,73,291
guava,v12.0,v13.0,F:/corpus/guava/guava#2012-05-01-02-04-06#v12.0#72d2812/guava-gwt/src-super/com/google/common/collect/super/com/google/common/collect/ImmutableMultimap.java,F:/corpus/guava/guava#2012-08-03-04-19-28#v13.0#c851167/guava-gwt/src-super/com/google/common/collect/super/com/google/common/collect/ImmutableMultimap.java,0,0,0,0,7,0,0,0,0,0,2,1,0,YES,0,0,0,1,0,0,0,0,0,0,0,0,0,0,0,0,0,0,0,0,0,0,0,0,0,0,0,0,0,0,0,0,0,0,0,0,0,0,0,0,0,0,4,1,0,0,0,0,10,613
guava,v12.0,v13.0,F:/corpus/guava/guava#2012-05-01-02-04-06#v12.0#72d2812/guava-gwt/src-super/com/google/common/collect/super/com/google/common/collect/ImmutableSet.java,F:/corpus/guava/guava#2012-08-03-04-19-28#v13.0#c851167/guava-gwt/src-super/com/google/common/collect/super/com/google/common/collect/ImmutableSet.java,0,0,0,0,1,0,0,0,0,0,0,11,0,YES,0,0,0,0,0,0,0,0,0,0,0,0,0,0,0,0,0,0,0,0,0,0,0,0,0,0,0,1,0,0,0,0,0,0,1,0,0,0,0,0,0,0,2,2,0,0,0,0,15,221
guava,v12.0,v13.0,F:/corpus/guava/guava#2012-05-01-02-04-06#v12.0#72d2812/guava-gwt/src-super/com/google/common/collect/super/com/google/common/collect/ImmutableSetMultimap.java,F:/corpus/guava/guava#2012-08-03-04-19-28#v13.0#c851167/guava-gwt/src-super/com/google/common/collect/super/com/google/common/collect/ImmutableSetMultimap.java,0,0,0,0,2,0,0,0,0,0,2,0,0,YES,0,0,0,0,0,0,0,0,0,0,0,0,0,0,0,0,0,0,0,0,0,0,0,0,0,0,0,0,0,0,0,0,0,0,0,0,0,0,0,0,0,0,0,0,0,0,0,0,4,448
guava,v12.0,v13.0,F:/corpus/guava/guava#2012-05-01-02-04-06#v12.0#72d2812/guava-gwt/src-super/com/google/common/collect/super/com/google/common/collect/ImmutableSortedMap.java,F:/corpus/guava/guava#2012-08-03-04-19-28#v13.0#c851167/guava-gwt/src-super/com/google/common/collect/super/com/google/common/collect/ImmutableSortedMap.java,0,0,0,0,0,0,0,0,0,0,2,1,0,YES,0,0,0,0,0,0,0,0,0,0,0,0,0,0,0,0,1,0,0,0,2,1,0,1,0,0,0,1,0,0,0,0,0,0,0,1,0,0,0,0,0,0,4,4,0,0,5,0,29,342
guava,v12.0,v13.0,F:/corpus/guava/guava#2012-05-01-02-04-06#v12.0#72d2812/guava-gwt/src-super/com/google/common/collect/super/com/google/common/collect/ImmutableSortedSet.java,F:/corpus/guava/guava#2012-08-03-04-19-28#v13.0#c851167/guava-gwt/src-super/com/google/common/collect/super/com/google/common/collect/ImmutableSortedSet.java,0,0,0,0,1,0,0,0,0,0,0,3,0,YES,0,0,0,0,0,0,0,0,0,0,0,0,0,0,0,0,0,0,0,0,0,0,0,0,0,0,0,0,0,0,0,0,0,0,0,0,0,0,0,0,0,0,0,0,0,0,0,0,1,426
guava,v12.0,v13.0,F:/corpus/guava/guava#2012-05-01-02-04-06#v12.0#72d2812/guava-gwt/src-super/com/google/common/collect/super/com/google/common/collect/Iterables.java,F:/corpus/guava/guava#2012-08-03-04-19-28#v13.0#c851167/guava-gwt/src-super/com/google/common/collect/super/com/google/common/collect/Iterables.java,0,1,0,0,0,0,0,0,0,0,0,3,0,YES,0,0,0,0,0,0,0,0,0,0,0,0,0,0,0,0,0,0,0,0,0,0,0,0,0,0,0,0,0,0,0,0,0,0,2,0,0,0,0,0,0,0,0,0,0,0,1,0,57,1086
guava,v12.0,v13.0,F:/corpus/guava/guava#2012-05-01-02-04-06#v12.0#72d2812/guava-gwt/src-super/com/google/common/collect/super/com/google/common/collect/Iterators.java,F:/corpus/guava/guava#2012-08-03-04-19-28#v13.0#c851167/guava-gwt/src-super/com/google/common/collect/super/com/google/common/collect/Iterators.java,0,1,0,0,0,0,0,0,0,0,0,8,0,YES,0,0,0,0,2,1,0,0,0,0,0,0,0,0,0,0,0,0,0,1,0,0,0,0,0,0,0,0,0,0,0,0,0,0,1,1,0,0,0,0,0,0,16,3,0,0,0,0,100,1348
guava,v12.0,v13.0,F:/corpus/guava/guava#2012-05-01-02-04-06#v12.0#72d2812/guava-gwt/src-super/com/google/common/collect/super/com/google/common/collect/LinkedHashMultimap.java,F:/corpus/guava/guava#2012-08-03-04-19-28#v13.0#c851167/guava-gwt/src-super/com/google/common/collect/super/com/google/common/collect/LinkedHashMultimap.java,0,0,0,0,0,0,0,0,0,0,0,1,0,YES,0,0,0,3,5,3,0,0,2,0,0,0,0,0,0,0,0,1,0,2,0,0,2,2,0,0,0,0,0,0,0,0,0,1,2,1,0,0,0,0,0,0,5,7,0,0,6,0,194,358
guava,v12.0,v13.0,F:/corpus/guava/guava#2012-05-01-02-04-06#v12.0#72d2812/guava-gwt/src-super/com/google/common/collect/super/com/google/common/collect/LinkedListMultimap.java,F:/corpus/guava/guava#2012-08-03-04-19-28#v13.0#c851167/guava-gwt/src-super/com/google/common/collect/super/com/google/common/collect/LinkedListMultimap.java,0,0,0,0,2,0,1,0,0,0,0,1,0,YES,0,0,0,0,0,0,0,0,0,0,0,1,0,0,0,0,0,0,0,0,0,0,0,0,0,0,0,0,0,0,0,0,0,0,0,0,0,0,0,0,0,0,0,0,0,0,1,0,7,963
guava,v12.0,v13.0,F:/corpus/guava/guava#2012-05-01-02-04-06#v12.0#72d2812/guava-gwt/src-super/com/google/common/collect/super/com/google/common/collect/Lists.java,F:/corpus/guava/guava#2012-08-03-04-19-28#v13.0#c851167/guava-gwt/src-super/com/google/common/collect/super/com/google/common/collect/Lists.java,0,0,0,0,0,0,2,0,0,0,0,8,0,YES,0,0,0,0,0,0,0,0,0,0,0,0,0,0,0,0,0,0,0,1,0,0,0,0,0,0,0,0,0,0,0,0,0,0,0,0,0,0,0,0,0,0,0,0,0,0,0,0,12,1032
guava,v12.0,v13.0,F:/corpus/guava/guava#2012-05-01-02-04-06#v12.0#72d2812/guava-gwt/src-super/com/google/common/collect/super/com/google/common/collect/MapMaker.java,F:/corpus/guava/guava#2012-08-03-04-19-28#v13.0#c851167/guava-gwt/src-super/com/google/common/collect/super/com/google/common/collect/MapMaker.java,0,0,0,0,1,0,0,0,0,0,0,1,0,YES,0,0,0,0,0,0,0,0,0,0,0,0,0,0,0,0,0,0,0,0,0,0,0,0,0,0,0,0,0,0,0,0,0,0,3,0,0,0,0,0,0,0,0,0,0,0,0,0,22,252
guava,v12.0,v13.0,F:/corpus/guava/guava#2012-05-01-02-04-06#v12.0#72d2812/guava-gwt/src-super/com/google/common/collect/super/com/google/common/collect/Maps.java,F:/corpus/guava/guava#2012-08-03-04-19-28#v13.0#c851167/guava-gwt/src-super/com/google/common/collect/super/com/google/common/collect/Maps.java,0,1,0,0,12,0,0,0,0,0,0,6,0,YES,0,0,0,2,4,0,0,0,0,0,0,0,0,0,0,2,0,0,0,0,0,0,0,0,0,0,0,2,0,2,0,0,0,0,3,0,0,0,0,0,0,0,4,0,0,0,4,1,282,2286
guava,v12.0,v13.0,F:/corpus/guava/guava#2012-05-01-02-04-06#v12.0#72d2812/guava-gwt/src-super/com/google/common/collect/super/com/google/common/collect/Multimaps.java,F:/corpus/guava/guava#2012-08-03-04-19-28#v13.0#c851167/guava-gwt/src-super/com/google/common/collect/super/com/google/common/collect/Multimaps.java,0,1,0,0,26,0,0,0,0,0,0,0,0,YES,0,0,0,0,0,0,0,0,0,0,0,0,0,0,0,5,0,0,0,0,0,0,0,0,0,0,0,0,0,0,0,0,0,0,0,0,0,0,0,0,0,0,0,0,0,0,1,0,12,2483
guava,v12.0,v13.0,F:/corpus/guava/guava#2012-05-01-02-04-06#v12.0#72d2812/guava-gwt/src-super/com/google/common/collect/super/com/google/common/collect/ObjectArrays.java,F:/corpus/guava/guava#2012-08-03-04-19-28#v13.0#c851167/guava-gwt/src-super/com/google/common/collect/super/com/google/common/collect/ObjectArrays.java,0,0,0,0,0,0,0,0,0,0,0,2,0,YES,0,0,0,0,1,1,0,0,0,0,0,0,0,0,0,0,0,0,0,0,0,0,0,0,0,0,0,0,0,0,0,0,0,0,0,0,0,0,0,0,0,0,0,0,0,0,0,0,11,156
guava,v12.0,v13.0,F:/corpus/guava/guava#2012-05-01-02-04-06#v12.0#72d2812/guava-gwt/src-super/com/google/common/collect/super/com/google/common/collect/Platform.java,F:/corpus/guava/guava#2012-08-03-04-19-28#v13.0#c851167/guava-gwt/src-super/com/google/common/collect/super/com/google/common/collect/Platform.java,0,0,0,0,1,0,0,0,0,0,0,0,0,YES,0,0,0,0,1,0,0,0,0,0,0,0,0,0,0,0,0,0,0,0,0,0,0,0,0,0,0,0,0,0,0,0,0,0,1,0,0,0,0,0,0,0,0,0,0,0,0,0,15,44
guava,v12.0,v13.0,F:/corpus/guava/guava#2012-05-01-02-04-06#v12.0#72d2812/guava-gwt/src-super/com/google/common/collect/super/com/google/common/collect/RegularContiguousSet.java,F:/corpus/guava/guava#2012-08-03-04-19-28#v13.0#c851167/guava-gwt/src-super/com/google/common/collect/super/com/google/common/collect/RegularContiguousSet.java,0,0,0,0,0,0,0,0,0,0,0,0,0,YES,0,0,0,0,0,0,0,0,0,0,0,0,0,0,0,1,0,0,0,0,0,0,0,0,0,0,0,0,0,0,0,0,0,0,0,0,0,0,0,0,0,0,0,0,0,0,0,0,1,171
guava,v12.0,v13.0,F:/corpus/guava/guava#2012-05-01-02-04-06#v12.0#72d2812/guava-gwt/src-super/com/google/common/collect/super/com/google/common/collect/RegularImmutableList.java,F:/corpus/guava/guava#2012-08-03-04-19-28#v13.0#c851167/guava-gwt/src-super/com/google/common/collect/super/com/google/common/collect/RegularImmutableList.java,0,0,0,0,0,0,0,0,0,0,0,0,0,YES,0,0,0,0,1,1,0,0,0,0,0,0,1,0,0,0,0,0,0,0,0,0,0,0,0,0,0,0,0,0,0,0,0,0,0,0,0,0,0,0,0,0,1,2,0,0,0,0,5,30
guava,v12.0,v13.0,F:/corpus/guava/guava#2012-05-01-02-04-06#v12.0#72d2812/guava-gwt/src-super/com/google/common/collect/super/com/google/common/collect/RegularImmutableMap.java,F:/corpus/guava/guava#2012-08-03-04-19-28#v13.0#c851167/guava-gwt/src-super/com/google/common/collect/super/com/google/common/collect/RegularImmutableMap.java,0,0,0,0,0,0,0,0,0,0,0,0,0,YES,0,0,0,0,0,0,0,0,0,0,0,0,0,0,0,0,0,0,0,0,0,0,0,0,0,0,0,0,0,0,0,0,0,0,0,0,0,0,0,0,0,0,0,0,0,0,0,0,2,35
guava,v12.0,v13.0,F:/corpus/guava/guava#2012-05-01-02-04-06#v12.0#72d2812/guava-gwt/src-super/com/google/common/collect/super/com/google/common/collect/RegularImmutableSet.java,F:/corpus/guava/guava#2012-08-03-04-19-28#v13.0#c851167/guava-gwt/src-super/com/google/common/collect/super/com/google/common/collect/RegularImmutableSet.java,0,0,0,0,0,0,0,0,0,0,0,0,0,YES,0,0,0,0,0,0,0,0,0,0,0,0,0,0,0,0,0,0,0,0,0,0,0,0,0,0,0,0,0,0,0,0,0,0,0,0,0,0,0,0,0,0,0,0,0,0,0,0,1,36
guava,v12.0,v13.0,F:/corpus/guava/guava#2012-05-01-02-04-06#v12.0#72d2812/guava-gwt/src-super/com/google/common/collect/super/com/google/common/collect/RegularImmutableSortedSet.java,F:/corpus/guava/guava#2012-08-03-04-19-28#v13.0#c851167/guava-gwt/src-super/com/google/common/collect/super/com/google/common/collect/RegularImmutableSortedSet.java,0,0,0,0,0,0,0,0,0,0,0,0,0,YES,0,0,0,0,1,0,0,0,0,0,0,0,0,0,0,0,0,0,0,0,0,0,0,0,0,0,0,0,0,0,0,0,0,0,0,0,0,0,0,0,0,0,0,0,0,0,0,0,4,35
guava,v12.0,v13.0,F:/corpus/guava/guava#2012-05-01-02-04-06#v12.0#72d2812/guava-gwt/src-super/com/google/common/collect/super/com/google/common/collect/Sets.java,F:/corpus/guava/guava#2012-08-03-04-19-28#v13.0#c851167/guava-gwt/src-super/com/google/common/collect/super/com/google/common/collect/Sets.java,0,1,0,0,1,1,0,0,0,0,0,12,0,YES,0,0,0,1,0,0,1,1,0,0,0,0,2,0,0,2,0,0,0,0,0,0,0,0,0,0,0,0,0,0,0,0,0,0,0,0,0,0,0,0,0,0,1,8,0,1,0,0,28,1285
guava,v12.0,v13.0,F:/corpus/guava/guava#2012-05-01-02-04-06#v12.0#72d2812/guava-gwt/src-super/com/google/common/collect/super/com/google/common/collect/SingletonImmutableList.java,F:/corpus/guava/guava#2012-08-03-04-19-28#v13.0#c851167/guava-gwt/src-super/com/google/common/collect/super/com/google/common/collect/SingletonImmutableList.java,0,0,0,0,0,0,0,0,0,0,0,0,0,YES,0,0,0,0,1,1,0,0,0,0,0,0,0,0,0,0,0,0,0,0,0,0,0,0,0,0,0,0,0,0,0,0,0,0,0,0,0,0,0,0,0,0,1,2,0,0,0,0,8,39
guava,v12.0,v13.0,F:/corpus/guava/guava#2012-05-01-02-04-06#v12.0#72d2812/guava-gwt/src-super/com/google/common/collect/super/com/google/common/collect/SingletonImmutableMap.java,F:/corpus/guava/guava#2012-08-03-04-19-28#v13.0#c851167/guava-gwt/src-super/com/google/common/collect/super/com/google/common/collect/SingletonImmutableMap.java,0,0,0,0,0,0,0,0,0,0,0,0,0,YES,0,0,0,0,0,0,0,0,0,0,0,0,0,0,0,0,0,0,0,0,0,0,0,0,0,0,0,0,0,0,0,0,0,0,0,0,0,0,0,0,0,0,0,0,0,0,0,0,1,44
guava,v12.0,v13.0,F:/corpus/guava/guava#2012-05-01-02-04-06#v12.0#72d2812/guava-gwt/src-super/com/google/common/collect/super/com/google/common/collect/SingletonImmutableSet.java,F:/corpus/guava/guava#2012-08-03-04-19-28#v13.0#c851167/guava-gwt/src-super/com/google/common/collect/super/com/google/common/collect/SingletonImmutableSet.java,0,0,0,0,0,0,0,0,0,0,0,0,0,YES,0,0,0,0,0,0,0,0,0,0,0,0,0,0,0,0,0,0,0,0,0,0,0,0,0,0,0,0,0,0,0,0,0,0,0,0,0,0,0,0,0,0,0,0,0,0,0,0,2,41
guava,v12.0,v13.0,F:/corpus/guava/guava#2012-05-01-02-04-06#v12.0#72d2812/guava-gwt/src-super/com/google/common/collect/super/com/google/common/collect/Synchronized.java,F:/corpus/guava/guava#2012-08-03-04-19-28#v13.0#c851167/guava-gwt/src-super/com/google/common/collect/super/com/google/common/collect/Synchronized.java,0,1,0,0,0,0,0,0,0,0,0,0,0,YES,0,0,0,0,0,0,0,0,0,0,0,0,0,0,0,0,0,0,0,0,0,0,0,0,0,0,0,0,0,0,0,0,0,0,0,0,0,0,0,0,0,0,0,0,0,0,0,0,1,1206
guava,v12.0,v13.0,F:/corpus/guava/guava#2012-05-01-02-04-06#v12.0#72d2812/guava-gwt/src-super/com/google/common/collect/super/com/google/common/collect/TreeMultiset.java,F:/corpus/guava/guava#2012-08-03-04-19-28#v13.0#c851167/guava-gwt/src-super/com/google/common/collect/super/com/google/common/collect/TreeMultiset.java,0,0,0,0,1,0,0,0,0,0,0,1,0,YES,0,0,0,1,9,1,0,1,0,1,0,0,4,0,0,0,3,0,0,0,2,1,0,1,1,1,1,0,0,0,0,0,0,8,13,3,0,0,0,0,1,0,28,61,1,4,6,0,416,562
guava,v12.0,v13.0,F:/corpus/guava/guava#2012-05-01-02-04-06#v12.0#72d2812/guava-gwt/src-super/com/google/common/math/super/com/google/common/math/BigIntegerMath.java,F:/corpus/guava/guava#2012-08-03-04-19-28#v13.0#c851167/guava-gwt/src-super/com/google/common/math/super/com/google/common/math/BigIntegerMath.java,0,0,0,0,0,0,0,0,0,0,0,0,1,YES,0,0,0,0,0,2,0,1,0,0,0,0,3,0,0,0,0,0,0,0,0,0,0,0,0,0,0,0,0,0,0,0,0,0,0,0,0,0,0,0,0,0,2,14,0,1,3,0,8,236
guava,v12.0,v13.0,F:/corpus/guava/guava#2012-05-01-02-04-06#v12.0#72d2812/guava-gwt/src-super/com/google/common/math/super/com/google/common/math/IntMath.java,F:/corpus/guava/guava#2012-08-03-04-19-28#v13.0#c851167/guava-gwt/src-super/com/google/common/math/super/com/google/common/math/IntMath.java,0,0,0,0,0,0,0,0,0,0,0,0,2,YES,0,0,0,0,1,1,0,1,0,0,0,1,14,0,0,0,0,0,0,0,0,0,0,0,0,0,0,0,0,0,0,0,0,0,0,0,0,0,0,0,0,0,10,17,0,1,0,0,59,319
guava,v12.0,v13.0,F:/corpus/guava/guava#2012-05-01-02-04-06#v12.0#72d2812/guava-gwt/src-super/com/google/common/math/super/com/google/common/math/LongMath.java,F:/corpus/guava/guava#2012-08-03-04-19-28#v13.0#c851167/guava-gwt/src-super/com/google/common/math/super/com/google/common/math/LongMath.java,0,0,0,0,0,0,0,0,0,0,0,0,1,YES,0,0,0,0,0,1,0,0,0,0,0,0,0,0,0,0,0,0,0,0,0,0,0,0,0,0,0,0,0,0,0,0,0,0,0,0,0,0,0,0,0,0,0,0,0,0,0,0,6,183
guava,v12.0,v13.0,F:/corpus/guava/guava#2012-05-01-02-04-06#v12.0#72d2812/guava-gwt/src-super/com/google/common/primitives/super/com/google/common/primitives/Chars.java,F:/corpus/guava/guava#2012-08-03-04-19-28#v13.0#c851167/guava-gwt/src-super/com/google/common/primitives/super/com/google/common/primitives/Chars.java,0,0,0,0,0,0,0,0,0,0,0,0,0,YES,0,0,0,0,0,0,0,0,0,0,0,0,0,0,0,0,0,0,0,0,0,0,0,0,0,0,0,0,0,0,0,0,0,0,0,0,0,0,0,0,0,0,0,0,0,0,0,0,3,536
guava,v12.0,v13.0,F:/corpus/guava/guava#2012-05-01-02-04-06#v12.0#72d2812/guava-gwt/src-super/com/google/common/primitives/super/com/google/common/primitives/Ints.java,F:/corpus/guava/guava#2012-08-03-04-19-28#v13.0#c851167/guava-gwt/src-super/com/google/common/primitives/super/com/google/common/primitives/Ints.java,0,0,0,0,0,0,0,0,0,0,0,1,0,YES,0,0,0,0,0,0,0,0,0,0,0,0,0,0,0,0,0,0,0,0,0,0,0,0,0,0,0,0,0,0,0,0,0,0,0,0,0,0,0,0,0,0,0,0,0,0,0,0,2,538
guava,v12.0,v13.0,F:/corpus/guava/guava#2012-05-01-02-04-06#v12.0#72d2812/guava-gwt/src-super/com/google/common/primitives/super/com/google/common/primitives/Shorts.java,F:/corpus/guava/guava#2012-08-03-04-19-28#v13.0#c851167/guava-gwt/src-super/com/google/common/primitives/super/com/google/common/primitives/Shorts.java,0,0,0,0,0,0,0,0,0,0,0,0,0,YES,0,0,0,0,0,0,0,0,0,0,0,0,0,0,0,0,0,0,0,0,0,0,0,0,0,0,0,0,0,0,0,0,0,0,0,0,0,0,0,0,0,0,0,0,0,0,0,0,2,540
guava,v12.0,v13.0,F:/corpus/guava/guava#2012-05-01-02-04-06#v12.0#72d2812/guava-gwt/src-super/java/nio/charset/Charset.java,F:/corpus/guava/guava#2012-08-03-04-19-28#v13.0#c851167/guava-gwt/src-super/java/nio/charset/Charset.java,0,0,0,0,1,0,0,0,0,0,0,0,0,YES,0,0,0,0,0,0,0,0,0,0,0,0,0,0,0,0,0,0,0,0,0,0,0,0,0,0,0,0,0,0,0,0,0,0,0,0,0,0,0,0,0,0,0,0,0,0,0,0,2,87
guava,v12.0,v13.0,F:/corpus/guava/guava#2012-05-01-02-04-06#v12.0#72d2812/guava-gwt/src-super/java/nio/charset/IllegalCharsetNameException.java,F:/corpus/guava/guava#2012-08-03-04-19-28#v13.0#c851167/guava-gwt/src-super/java/nio/charset/IllegalCharsetNameException.java,0,0,0,0,0,0,0,0,0,0,0,0,0,YES,0,0,0,0,0,0,0,0,0,0,0,0,0,0,0,0,0,0,0,0,0,0,0,0,0,0,0,0,0,0,0,0,0,0,0,0,0,0,0,0,0,0,0,0,0,0,0,0,2,21
guava,v12.0,v13.0,F:/corpus/guava/guava#2012-05-01-02-04-06#v12.0#72d2812/guava-gwt/src-super/java/nio/charset/UnsupportedCharsetException.java,F:/corpus/guava/guava#2012-08-03-04-19-28#v13.0#c851167/guava-gwt/src-super/java/nio/charset/UnsupportedCharsetException.java,0,0,0,0,0,0,0,0,0,0,0,0,0,YES,0,0,0,0,0,0,0,0,0,0,0,0,0,0,0,0,0,0,0,0,0,0,0,0,0,0,0,0,0,0,0,0,0,0,0,0,0,0,0,0,0,0,0,0,0,0,0,0,5,21
guava,v12.0,v13.0,F:/corpus/guava/guava#2012-05-01-02-04-06#v12.0#72d2812/guava-gwt/src-super/java/util/super/java/util/concurrent/Callable.java,F:/corpus/guava/guava#2012-08-03-04-19-28#v13.0#c851167/guava-gwt/src-super/java/util/super/java/util/concurrent/Callable.java,0,0,0,0,0,0,0,0,0,0,0,0,0,YES,0,0,0,0,0,0,0,0,0,0,0,0,0,0,0,0,0,0,0,0,0,0,0,0,0,0,0,0,0,0,0,0,0,0,0,0,0,0,0,0,0,0,0,0,0,0,0,0,1,26
guava,v12.0,v13.0,F:/corpus/guava/guava#2012-05-01-02-04-06#v12.0#72d2812/guava-gwt/src-super/java/util/super/java/util/concurrent/ConcurrentHashMap.java,F:/corpus/guava/guava#2012-08-03-04-19-28#v13.0#c851167/guava-gwt/src-super/java/util/super/java/util/concurrent/ConcurrentHashMap.java,0,0,0,0,0,0,0,0,0,0,0,0,0,YES,0,0,0,0,0,0,0,0,0,0,0,0,0,0,0,0,0,0,0,0,0,0,0,0,0,0,0,0,0,0,0,0,0,0,0,0,0,0,0,0,0,0,0,0,0,0,0,0,1,144
guava,v12.0,v13.0,F:/corpus/guava/guava#2012-05-01-02-04-06#v12.0#72d2812/guava-gwt/src-super/java/util/super/java/util/concurrent/ConcurrentMap.java,F:/corpus/guava/guava#2012-08-03-04-19-28#v13.0#c851167/guava-gwt/src-super/java/util/super/java/util/concurrent/ConcurrentMap.java,0,0,0,0,1,0,0,0,0,0,0,0,0,YES,0,0,0,0,0,0,0,0,0,0,0,0,0,0,0,0,0,0,0,0,0,0,0,0,0,0,0,0,0,0,0,0,0,0,0,0,0,0,0,0,0,0,0,0,0,0,0,0,1,35
guava,v12.0,v13.0,F:/corpus/guava/guava#2012-05-01-02-04-06#v12.0#72d2812/guava-gwt/src-super/java/util/super/java/util/concurrent/ExecutionException.java,F:/corpus/guava/guava#2012-08-03-04-19-28#v13.0#c851167/guava-gwt/src-super/java/util/super/java/util/concurrent/ExecutionException.java,0,0,0,0,0,0,0,0,0,0,0,0,0,YES,0,0,0,0,0,0,0,0,0,0,0,0,0,0,0,0,0,0,0,0,0,0,0,0,0,0,0,0,0,0,0,0,0,0,0,0,0,0,0,0,0,0,0,0,0,0,0,0,2,38
guava,v12.0,v13.0,F:/corpus/guava/guava#2012-05-01-02-04-06#v12.0#72d2812/guava-gwt/src-super/java/util/super/java/util/concurrent/TimeUnit.java,F:/corpus/guava/guava#2012-08-03-04-19-28#v13.0#c851167/guava-gwt/src-super/java/util/super/java/util/concurrent/TimeUnit.java,0,0,0,0,0,0,0,0,0,0,0,0,0,YES,0,0,0,0,0,0,0,0,0,0,0,0,0,0,0,0,0,0,0,0,0,0,0,0,0,0,0,0,0,0,0,0,0,0,0,0,0,0,0,0,0,0,0,0,0,0,0,0,4,144
guava,v12.0,v13.0,F:/corpus/guava/guava#2012-05-01-02-04-06#v12.0#72d2812/guava-gwt/src-super/java/util/super/java/util/concurrent/atomic/AtomicInteger.java,F:/corpus/guava/guava#2012-08-03-04-19-28#v13.0#c851167/guava-gwt/src-super/java/util/super/java/util/concurrent/atomic/AtomicInteger.java,0,0,0,0,0,0,0,0,0,0,0,2,0,YES,0,0,0,0,0,0,0,0,0,0,0,0,0,0,0,0,0,0,0,0,0,0,0,0,0,0,0,0,0,0,0,0,0,0,0,0,0,0,0,0,0,0,0,0,0,0,0,0,1,109
guava,v12.0,v13.0,F:/corpus/guava/guava#2012-05-01-02-04-06#v12.0#72d2812/guava-gwt/src-super/java/util/super/java/util/concurrent/atomic/AtomicLong.java,F:/corpus/guava/guava#2012-08-03-04-19-28#v13.0#c851167/guava-gwt/src-super/java/util/super/java/util/concurrent/atomic/AtomicLong.java,0,0,0,0,0,0,0,0,0,0,0,0,0,YES,0,0,0,0,0,0,0,0,0,0,0,0,0,0,0,0,0,0,0,0,0,0,0,0,0,0,0,0,0,0,0,0,0,0,0,0,0,0,0,0,0,0,0,0,0,0,0,0,1,109
guava,v12.0,v13.0,F:/corpus/guava/guava#2012-05-01-02-04-06#v12.0#72d2812/guava-gwt/src/com/google/common/base/GwtSerializationDependencies.java,F:/corpus/guava/guava#2012-08-03-04-19-28#v13.0#c851167/guava-gwt/src/com/google/common/base/GwtSerializationDependencies.java,0,0,0,0,5,0,0,0,0,0,0,0,0,YES,0,0,0,0,0,0,0,0,0,0,0,0,0,0,0,0,0,0,0,0,0,0,0,0,0,0,0,0,0,0,0,0,0,0,0,0,0,0,0,0,0,0,0,0,0,0,0,0,1,91
guava,v12.0,v13.0,F:/corpus/guava/guava#2012-05-01-02-04-06#v12.0#72d2812/guava-gwt/src/com/google/common/base/PairwiseEquivalence_CustomFieldSerializer.java,F:/corpus/guava/guava#2012-08-03-04-19-28#v13.0#c851167/guava-gwt/src/com/google/common/base/PairwiseEquivalence_CustomFieldSerializer.java,0,0,0,0,0,0,0,0,0,0,0,0,0,YES,0,0,0,0,0,0,0,0,0,0,0,0,0,0,0,0,0,0,0,0,0,0,0,0,0,0,0,0,0,0,0,0,0,0,0,0,0,0,0,0,0,0,0,0,0,0,0,0,1,48
guava,v12.0,v13.0,F:/corpus/guava/guava#2012-05-01-02-04-06#v12.0#72d2812/guava-gwt/src/com/google/common/collect/ImmutableAsList_CustomFieldSerializer.java,F:/corpus/guava/guava#2012-08-03-04-19-28#v13.0#c851167/guava-gwt/src/com/google/common/collect/ImmutableAsList_CustomFieldSerializer.java,0,0,0,0,0,0,0,0,0,0,0,0,0,YES,0,0,0,0,0,0,0,0,0,0,0,0,0,0,0,0,0,0,0,1,0,0,0,0,0,0,0,0,0,0,0,0,0,0,3,0,0,1,0,0,0,0,0,0,0,0,0,0,34,55
guava,v12.0,v13.0,F:/corpus/guava/guava#2012-05-01-02-04-06#v12.0#72d2812/guava-gwt/src/com/google/common/collect/ImmutableEntry_CustomFieldSerializer.java,F:/corpus/guava/guava#2012-08-03-04-19-28#v13.0#c851167/guava-gwt/src/com/google/common/collect/ImmutableEntry_CustomFieldSerializer.java,0,0,0,0,0,0,0,0,0,0,0,0,0,YES,0,0,0,0,0,0,0,0,0,0,0,0,0,0,0,0,0,0,0,0,0,0,0,0,0,0,0,0,0,0,0,0,0,0,0,0,0,0,0,0,0,0,0,0,0,0,0,0,1,47
guava,v12.0,v13.0,F:/corpus/guava/guava#2012-05-01-02-04-06#v12.0#72d2812/guava-gwt/src/com/google/common/collect/ImmutableSortedMap_CustomFieldSerializer.java,F:/corpus/guava/guava#2012-08-03-04-19-28#v13.0#c851167/guava-gwt/src/com/google/common/collect/ImmutableSortedMap_CustomFieldSerializer.java,0,0,0,0,0,0,0,0,0,0,0,0,0,YES,0,0,0,0,0,0,0,0,0,0,0,0,0,0,0,0,0,0,0,1,0,0,0,0,0,0,0,0,0,0,0,0,0,0,3,0,0,1,0,0,0,0,0,0,0,0,0,0,37,59
guava,v12.0,v13.0,F:/corpus/guava/guava#2012-05-01-02-04-06#v12.0#72d2812/guava-gwt/src/com/google/common/collect/LexicographicalOrdering_CustomFieldSerializer.java,F:/corpus/guava/guava#2012-08-03-04-19-28#v13.0#c851167/guava-gwt/src/com/google/common/collect/LexicographicalOrdering_CustomFieldSerializer.java,0,0,0,0,0,0,0,0,0,0,0,0,0,YES,0,0,0,0,0,0,0,0,0,0,0,0,0,0,0,0,0,0,0,0,0,0,0,0,0,0,0,0,0,0,0,0,0,0,0,0,0,0,0,0,0,0,0,0,0,0,0,0,1,45
guava,v12.0,v13.0,F:/corpus/guava/guava#2012-05-01-02-04-06#v12.0#72d2812/guava-gwt/src/com/google/common/collect/LinkedHashMultimap_CustomFieldSerializer.java,F:/corpus/guava/guava#2012-08-03-04-19-28#v13.0#c851167/guava-gwt/src/com/google/common/collect/LinkedHashMultimap_CustomFieldSerializer.java,0,0,0,0,0,0,0,0,0,0,0,0,0,YES,0,0,0,0,0,0,0,0,0,0,0,1,0,0,0,0,0,0,0,0,0,0,0,0,0,2,0,0,0,0,0,0,0,0,0,0,0,0,0,0,0,0,4,17,0,2,5,0,24,61
guava,v12.0,v13.0,F:/corpus/guava/guava#2012-05-01-02-04-06#v12.0#72d2812/guava/src/com/google/common/annotations/Beta.java,F:/corpus/guava/guava#2012-08-03-04-19-28#v13.0#c851167/guava/src/com/google/common/annotations/Beta.java,0,0,0,0,0,0,0,0,0,0,0,0,0,YES,0,0,0,0,0,0,0,0,0,0,0,0,0,0,0,0,0,0,0,0,0,0,0,0,0,0,0,0,0,0,0,0,0,0,0,0,0,0,0,0,0,0,0,0,0,0,0,0,1,51
guava,v12.0,v13.0,F:/corpus/guava/guava#2012-05-01-02-04-06#v12.0#72d2812/guava/src/com/google/common/annotations/GwtIncompatible.java,F:/corpus/guava/guava#2012-08-03-04-19-28#v13.0#c851167/guava/src/com/google/common/annotations/GwtIncompatible.java,0,0,0,0,0,0,0,0,0,0,0,0,0,YES,0,0,0,0,0,0,0,0,0,0,0,0,0,0,0,0,0,0,0,0,0,0,0,0,0,0,0,0,0,0,0,0,0,0,0,0,0,0,0,0,0,0,0,0,0,0,0,0,3,52
guava,v12.0,v13.0,F:/corpus/guava/guava#2012-05-01-02-04-06#v12.0#72d2812/guava/src/com/google/common/annotations/VisibleForTesting.java,F:/corpus/guava/guava#2012-08-03-04-19-28#v13.0#c851167/guava/src/com/google/common/annotations/VisibleForTesting.java,0,0,0,0,0,0,0,0,0,0,0,0,0,YES,0,0,0,0,0,0,0,0,0,0,0,0,0,0,0,0,0,0,0,0,0,0,0,0,0,0,0,0,0,0,0,0,0,0,0,0,0,0,0,0,0,0,0,0,0,0,0,0,2,27
guava,v12.0,v13.0,F:/corpus/guava/guava#2012-05-01-02-04-06#v12.0#72d2812/guava/src/com/google/common/base/Ascii.java,F:/corpus/guava/guava#2012-08-03-04-19-28#v13.0#c851167/guava/src/com/google/common/base/Ascii.java,1,0,0,0,0,0,0,0,0,0,0,1,0,YES,0,0,0,0,0,0,0,0,0,0,0,0,0,0,0,0,0,0,0,7,0,0,0,0,0,0,0,0,0,0,0,0,0,0,0,0,0,0,0,0,0,0,0,0,0,0,0,0,13,466
guava,v12.0,v13.0,F:/corpus/guava/guava#2012-05-01-02-04-06#v12.0#72d2812/guava/src/com/google/common/base/CharMatcher.java,F:/corpus/guava/guava#2012-08-03-04-19-28#v13.0#c851167/guava/src/com/google/common/base/CharMatcher.java,0,1,0,0,0,0,0,0,0,0,0,0,0,YES,0,0,0,0,5,5,0,3,0,0,0,1,1,0,0,0,2,0,1,2,0,2,3,7,0,0,0,0,0,0,0,0,0,0,1,2,0,0,0,2,0,0,28,26,0,0,9,0,205,1297
guava,v12.0,v13.0,F:/corpus/guava/guava#2012-05-01-02-04-06#v12.0#72d2812/guava/src/com/google/common/base/Equivalence.java,F:/corpus/guava/guava#2012-08-03-04-19-28#v13.0#c851167/guava/src/com/google/common/base/Equivalence.java,0,0,0,0,1,0,0,0,0,0,0,2,0,YES,0,0,0,2,2,0,0,0,0,0,0,0,0,0,0,0,0,0,0,0,0,0,0,0,0,0,0,0,0,0,0,0,0,0,0,0,0,0,0,0,0,0,0,0,0,0,0,0,66,296
guava,v12.0,v13.0,F:/corpus/guava/guava#2012-05-01-02-04-06#v12.0#72d2812/guava/src/com/google/common/base/Equivalences.java,F:/corpus/guava/guava#2012-08-03-04-19-28#v13.0#c851167/guava/src/com/google/common/base/Equivalences.java,0,0,0,0,1,0,0,0,0,0,0,1,0,YES,0,0,0,0,0,0,0,0,0,0,0,0,0,0,0,0,0,0,0,2,0,0,0,0,0,0,0,0,0,0,0,0,0,2,0,0,0,0,0,0,0,0,0,0,0,0,2,0,48,97
guava,v12.0,v13.0,F:/corpus/guava/guava#2012-05-01-02-04-06#v12.0#72d2812/guava/src/com/google/common/base/Joiner.java,F:/corpus/guava/guava#2012-08-03-04-19-28#v13.0#c851167/guava/src/com/google/common/base/Joiner.java,0,0,0,0,0,0,0,0,0,0,0,1,0,YES,0,0,0,0,0,0,0,0,0,0,0,0,0,0,0,0,0,0,0,0,0,0,0,0,0,0,0,0,0,0,0,0,0,0,0,0,0,0,0,0,0,0,0,0,0,0,0,0,3,565
guava,v12.0,v13.0,F:/corpus/guava/guava#2012-05-01-02-04-06#v12.0#72d2812/guava/src/com/google/common/base/Optional.java,F:/corpus/guava/guava#2012-08-03-04-19-28#v13.0#c851167/guava/src/com/google/common/base/Optional.java,0,0,0,0,1,0,0,0,0,0,0,2,0,YES,0,0,0,0,0,0,0,0,0,0,0,0,0,0,0,0,0,0,0,1,0,0,0,0,0,0,1,0,0,0,0,0,0,0,0,0,0,0,0,0,0,0,0,0,0,0,1,0,14,234
guava,v12.0,v13.0,F:/corpus/guava/guava#2012-05-01-02-04-06#v12.0#72d2812/guava/src/com/google/common/base/Predicates.java,F:/corpus/guava/guava#2012-08-03-04-19-28#v13.0#c851167/guava/src/com/google/common/base/Predicates.java,0,0,0,0,0,0,0,0,0,0,0,4,0,YES,0,0,0,0,0,0,0,0,0,0,0,0,0,0,0,0,0,0,0,0,0,0,0,0,0,0,0,0,0,0,0,0,0,0,0,0,0,0,0,0,0,0,0,0,0,0,0,0,11,624
guava,v12.0,v13.0,F:/corpus/guava/guava#2012-05-01-02-04-06#v12.0#72d2812/guava/src/com/google/common/base/Splitter.java,F:/corpus/guava/guava#2012-08-03-04-19-28#v13.0#c851167/guava/src/com/google/common/base/Splitter.java,0,0,0,0,2,0,0,0,0,0,0,1,0,YES,0,0,0,0,0,0,0,0,0,0,0,0,0,0,0,0,0,0,0,0,0,0,0,0,0,0,0,0,0,0,0,0,0,0,0,0,0,0,0,0,0,0,0,0,0,0,1,0,8,566
guava,v12.0,v13.0,F:/corpus/guava/guava#2012-05-01-02-04-06#v12.0#72d2812/guava/src/com/google/common/base/Stopwatch.java,F:/corpus/guava/guava#2012-08-03-04-19-28#v13.0#c851167/guava/src/com/google/common/base/Stopwatch.java,0,0,0,0,0,0,0,0,0,0,0,0,0,YES,0,0,0,0,0,0,0,0,0,0,0,0,0,0,0,0,0,0,0,1,0,0,0,0,0,0,0,0,0,0,0,0,0,0,0,0,0,0,0,0,0,0,0,0,0,0,0,0,6,223
guava,v12.0,v13.0,F:/corpus/guava/guava#2012-05-01-02-04-06#v12.0#72d2812/guava/src/com/google/common/base/Strings.java,F:/corpus/guava/guava#2012-08-03-04-19-28#v13.0#c851167/guava/src/com/google/common/base/Strings.java,0,0,0,0,0,0,0,0,0,0,0,0,0,YES,0,0,0,0,0,0,0,0,0,0,0,0,0,0,0,0,0,0,0,0,0,0,0,0,0,0,0,0,0,0,0,0,0,0,0,0,0,0,0,0,0,0,0,0,0,0,0,0,3,241
guava,v12.0,v13.0,F:/corpus/guava/guava#2012-05-01-02-04-06#v12.0#72d2812/guava/src/com/google/common/base/Suppliers.java,F:/corpus/guava/guava#2012-08-03-04-19-28#v13.0#c851167/guava/src/com/google/common/base/Suppliers.java,0,0,0,0,0,0,1,0,0,0,0,0,0,YES,0,0,0,0,5,0,0,0,0,0,0,0,0,0,0,0,0,0,0,0,0,0,0,0,0,0,0,0,0,0,0,0,0,0,0,0,0,0,0,0,0,0,0,0,0,0,0,0,39,254
guava,v12.0,v13.0,F:/corpus/guava/guava#2012-05-01-02-04-06#v12.0#72d2812/guava/src/com/google/common/base/internal/Finalizer.java,F:/corpus/guava/guava#2012-08-03-04-19-28#v13.0#c851167/guava/src/com/google/common/base/internal/Finalizer.java,0,0,0,0,0,0,0,0,0,0,0,0,0,YES,0,0,0,0,0,0,0,0,0,0,0,0,0,0,0,0,0,0,0,0,0,0,0,0,0,0,0,0,0,0,0,0,0,0,0,0,0,0,0,0,0,0,0,0,0,0,0,0,1,205
guava,v12.0,v13.0,F:/corpus/guava/guava#2012-05-01-02-04-06#v12.0#72d2812/guava/src/com/google/common/cache/AbstractCache.java,F:/corpus/guava/guava#2012-08-03-04-19-28#v13.0#c851167/guava/src/com/google/common/cache/AbstractCache.java,0,0,1,0,5,0,0,0,0,0,0,0,0,YES,0,0,0,0,0,0,0,0,0,6,0,0,0,0,0,0,0,0,1,0,1,0,0,0,0,0,0,0,0,0,0,0,0,0,0,0,0,1,0,0,0,0,0,0,0,0,14,0,27,271
guava,v12.0,v13.0,F:/corpus/guava/guava#2012-05-01-02-04-06#v12.0#72d2812/guava/src/com/google/common/cache/CacheBuilder.java,F:/corpus/guava/guava#2012-08-03-04-19-28#v13.0#c851167/guava/src/com/google/common/cache/CacheBuilder.java,0,0,0,0,0,0,0,0,0,0,0,15,0,YES,0,0,0,0,0,0,0,0,0,1,0,0,0,0,0,0,0,0,0,4,0,0,0,0,0,0,0,0,0,0,0,0,0,0,0,0,0,0,0,0,0,0,0,0,0,0,0,0,14,885
guava,v12.0,v13.0,F:/corpus/guava/guava#2012-05-01-02-04-06#v12.0#72d2812/guava/src/com/google/common/cache/CacheLoader.java,F:/corpus/guava/guava#2012-08-03-04-19-28#v13.0#c851167/guava/src/com/google/common/cache/CacheLoader.java,0,0,0,0,4,0,0,0,0,0,0,0,0,YES,0,0,0,0,0,0,0,0,0,0,0,0,0,0,0,0,0,0,0,0,0,0,0,0,0,0,0,0,0,0,0,0,0,0,0,0,0,0,0,0,0,0,0,0,0,0,0,0,9,185
guava,v12.0,v13.0,F:/corpus/guava/guava#2012-05-01-02-04-06#v12.0#72d2812/guava/src/com/google/common/cache/LoadingCache.java,F:/corpus/guava/guava#2012-08-03-04-19-28#v13.0#c851167/guava/src/com/google/common/cache/LoadingCache.java,0,0,0,0,1,0,0,0,0,0,0,0,0,YES,0,0,0,0,0,0,0,0,0,0,0,0,0,0,0,0,0,0,0,1,0,0,0,0,0,0,0,0,0,0,0,0,0,0,0,0,0,0,0,0,0,0,0,0,0,0,0,0,2,161
guava,v12.0,v13.0,F:/corpus/guava/guava#2012-05-01-02-04-06#v12.0#72d2812/guava/src/com/google/common/cache/LocalCache.java,F:/corpus/guava/guava#2012-08-03-04-19-28#v13.0#c851167/guava/src/com/google/common/cache/LocalCache.java,6,2,1,0,26,0,61,0,0,0,1,0,0,YES,0,0,0,0,0,0,0,0,0,0,0,0,2,0,0,1,0,0,0,1,0,0,0,0,0,0,0,0,0,0,0,0,0,0,0,0,0,0,0,0,0,0,0,3,0,0,0,0,16,4903
guava,v12.0,v13.0,F:/corpus/guava/guava#2012-05-01-02-04-06#v12.0#72d2812/guava/src/com/google/common/cache/Weigher.java,F:/corpus/guava/guava#2012-08-03-04-19-28#v13.0#c851167/guava/src/com/google/common/cache/Weigher.java,0,0,0,0,1,0,0,0,0,0,0,0,0,YES,0,0,0,0,0,0,0,0,0,0,0,0,0,0,0,0,0,0,0,0,0,0,0,0,0,0,0,0,0,0,0,0,0,0,0,0,0,0,0,0,0,0,0,0,0,0,0,0,10,38
guava,v12.0,v13.0,F:/corpus/guava/guava#2012-05-01-02-04-06#v12.0#72d2812/guava/src/com/google/common/collect/AbstractMapBasedMultiset.java,F:/corpus/guava/guava#2012-08-03-04-19-28#v13.0#c851167/guava/src/com/google/common/collect/AbstractMapBasedMultiset.java,0,0,0,0,1,4,0,0,0,0,0,0,0,YES,0,0,0,0,0,0,0,0,0,0,0,0,0,0,0,0,0,0,0,1,0,0,0,0,0,0,0,0,0,0,0,0,0,0,0,0,0,0,0,0,0,0,0,0,0,0,0,0,2,325
guava,v12.0,v13.0,F:/corpus/guava/guava#2012-05-01-02-04-06#v12.0#72d2812/guava/src/com/google/common/collect/AbstractMultimap.java,F:/corpus/guava/guava#2012-08-03-04-19-28#v13.0#c851167/guava/src/com/google/common/collect/AbstractMultimap.java,0,1,3,0,2,0,1,0,0,0,0,2,0,YES,0,0,0,0,1,0,0,0,0,0,0,0,0,0,0,0,0,0,0,0,0,0,0,0,0,0,0,0,0,0,0,0,0,0,0,0,0,0,0,0,0,0,0,0,0,0,0,0,19,1395
guava,v12.0,v13.0,F:/corpus/guava/guava#2012-05-01-02-04-06#v12.0#72d2812/guava/src/com/google/common/collect/AbstractMultiset.java,F:/corpus/guava/guava#2012-08-03-04-19-28#v13.0#c851167/guava/src/com/google/common/collect/AbstractMultiset.java,0,0,0,0,3,0,0,0,0,0,0,0,0,YES,0,0,0,0,0,0,0,0,0,0,0,0,0,0,0,0,0,0,0,0,0,0,0,0,0,0,0,0,0,0,0,0,0,0,0,0,0,0,0,0,0,0,0,0,0,0,0,0,9,221
guava,v12.0,v13.0,F:/corpus/guava/guava#2012-05-01-02-04-06#v12.0#72d2812/guava/src/com/google/common/collect/AbstractSequentialIterator.java,F:/corpus/guava/guava#2012-08-03-04-19-28#v13.0#c851167/guava/src/com/google/common/collect/AbstractSequentialIterator.java,0,0,0,0,1,0,0,0,0,0,0,0,0,YES,0,0,0,0,0,0,0,0,0,0,0,0,0,0,0,0,0,0,0,0,0,0,0,0,0,0,0,0,0,0,0,0,0,0,0,0,0,0,0,0,0,0,0,0,0,0,0,0,5,79
guava,v12.0,v13.0,F:/corpus/guava/guava#2012-05-01-02-04-06#v12.0#72d2812/guava/src/com/google/common/collect/AbstractSortedMultiset.java,F:/corpus/guava/guava#2012-08-03-04-19-28#v13.0#c851167/guava/src/com/google/common/collect/AbstractSortedMultiset.java,0,0,0,0,1,0,0,0,0,0,0,0,0,YES,0,0,0,0,0,0,0,0,0,0,0,0,1,0,0,0,0,0,0,0,0,0,0,0,0,0,0,0,0,0,0,0,0,0,0,0,0,0,0,0,0,0,0,2,0,0,0,0,8,142
guava,v12.0,v13.0,F:/corpus/guava/guava#2012-05-01-02-04-06#v12.0#72d2812/guava/src/com/google/common/collect/ArrayTable.java,F:/corpus/guava/guava#2012-08-03-04-19-28#v13.0#c851167/guava/src/com/google/common/collect/ArrayTable.java,0,0,0,0,3,0,0,0,0,0,0,0,0,YES,0,0,0,1,15,0,0,0,0,0,0,0,0,0,0,0,2,0,0,0,0,0,0,0,0,0,0,4,0,0,0,0,0,4,22,4,0,0,0,0,0,0,16,6,0,0,2,0,304,846
guava,v12.0,v13.0,F:/corpus/guava/guava#2012-05-01-02-04-06#v12.0#72d2812/guava/src/com/google/common/collect/BoundType.java,F:/corpus/guava/guava#2012-08-03-04-19-28#v13.0#c851167/guava/src/com/google/common/collect/BoundType.java,0,0,0,0,0,0,0,0,0,0,0,0,0,YES,0,0,0,0,0,0,0,0,0,0,0,0,0,0,0,0,0,0,0,0,0,0,0,0,0,0,0,0,0,0,0,0,0,0,0,0,0,0,0,0,0,0,0,0,0,0,0,0,5,46
guava,v12.0,v13.0,F:/corpus/guava/guava#2012-05-01-02-04-06#v12.0#72d2812/guava/src/com/google/common/collect/ClassToInstanceMap.java,F:/corpus/guava/guava#2012-08-03-04-19-28#v13.0#c851167/guava/src/com/google/common/collect/ClassToInstanceMap.java,0,0,0,0,1,0,0,0,0,0,0,0,0,YES,0,0,0,0,0,0,0,0,0,0,0,0,0,0,0,0,0,0,0,0,0,0,0,0,0,0,0,0,0,0,0,0,0,0,0,0,0,0,0,0,0,0,0,0,0,0,0,0,3,63
guava,v12.0,v13.0,F:/corpus/guava/guava#2012-05-01-02-04-06#v12.0#72d2812/guava/src/com/google/common/collect/Collections2.java,F:/corpus/guava/guava#2012-08-03-04-19-28#v13.0#c851167/guava/src/com/google/common/collect/Collections2.java,0,0,0,0,0,0,0,0,0,0,0,1,0,YES,0,0,0,0,0,0,0,0,0,0,0,0,0,0,0,2,0,0,0,0,0,0,0,0,0,0,0,0,0,0,0,0,0,0,0,0,0,0,0,0,0,0,0,0,0,0,0,0,2,703
guava,v12.0,v13.0,F:/corpus/guava/guava#2012-05-01-02-04-06#v12.0#72d2812/guava/src/com/google/common/collect/ComparatorOrdering.java,F:/corpus/guava/guava#2012-08-03-04-19-28#v13.0#c851167/guava/src/com/google/common/collect/ComparatorOrdering.java,0,0,0,0,0,0,0,0,0,0,0,0,0,YES,0,0,0,0,1,0,0,0,0,0,0,0,0,0,0,0,0,0,0,0,0,0,0,0,0,0,0,0,0,0,0,0,0,0,0,0,0,0,0,0,0,0,0,0,0,0,0,0,12,75
guava,v12.0,v13.0,F:/corpus/guava/guava#2012-05-01-02-04-06#v12.0#72d2812/guava/src/com/google/common/collect/CompoundOrdering.java,F:/corpus/guava/guava#2012-08-03-04-19-28#v13.0#c851167/guava/src/com/google/common/collect/CompoundOrdering.java,0,0,0,0,0,0,0,0,0,0,0,0,0,YES,0,0,0,0,0,0,0,0,0,0,0,0,1,0,0,0,0,0,0,0,0,0,0,0,0,0,0,0,0,0,0,0,0,0,1,0,0,0,0,0,0,0,1,4,0,2,1,0,9,76
guava,v12.0,v13.0,F:/corpus/guava/guava#2012-05-01-02-04-06#v12.0#72d2812/guava/src/com/google/common/collect/ComputingConcurrentHashMap.java,F:/corpus/guava/guava#2012-08-03-04-19-28#v13.0#c851167/guava/src/com/google/common/collect/ComputingConcurrentHashMap.java,0,0,0,1,4,0,0,0,1,0,1,0,0,YES,0,0,0,0,0,0,0,0,0,0,0,0,0,0,0,0,0,0,0,0,0,0,0,0,0,0,0,0,0,0,0,0,0,0,0,0,0,0,0,0,0,0,0,0,0,0,0,0,1,454
guava,v12.0,v13.0,F:/corpus/guava/guava#2012-05-01-02-04-06#v12.0#72d2812/guava/src/com/google/common/collect/ConcurrentHashMultiset.java,F:/corpus/guava/guava#2012-08-03-04-19-28#v13.0#c851167/guava/src/com/google/common/collect/ConcurrentHashMultiset.java,0,0,0,0,0,1,0,0,0,0,0,0,0,YES,0,0,0,0,0,0,0,0,0,0,0,0,0,0,0,0,0,0,0,0,0,0,0,0,0,0,0,0,0,0,0,0,0,0,0,0,0,0,0,0,0,0,0,3,0,0,0,0,15,592
guava,v12.0,v13.0,F:/corpus/guava/guava#2012-05-01-02-04-06#v12.0#72d2812/guava/src/com/google/common/collect/ContiguousSet.java,F:/corpus/guava/guava#2012-08-03-04-19-28#v13.0#c851167/guava/src/com/google/common/collect/ContiguousSet.java,0,0,0,0,1,0,0,0,0,0,0,0,0,YES,0,0,0,0,1,0,0,0,0,0,0,0,0,0,0,0,0,0,0,1,0,0,0,0,0,0,0,0,0,0,0,0,0,0,0,0,0,0,0,0,0,0,0,0,0,0,0,0,44,129
guava,v12.0,v13.0,F:/corpus/guava/guava#2012-05-01-02-04-06#v12.0#72d2812/guava/src/com/google/common/collect/DescendingImmutableSortedMultiset.java,F:/corpus/guava/guava#2012-08-03-04-19-28#v13.0#c851167/guava/src/com/google/common/collect/DescendingImmutableSortedMultiset.java,0,0,0,0,0,0,0,0,0,0,0,0,0,YES,0,0,0,0,0,0,0,0,0,0,0,0,0,0,0,0,0,0,0,0,1,1,0,0,0,0,0,0,0,0,0,0,0,0,1,0,0,0,0,0,0,0,1,1,0,0,1,0,8,103
guava,v12.0,v13.0,F:/corpus/guava/guava#2012-05-01-02-04-06#v12.0#72d2812/guava/src/com/google/common/collect/EmptyImmutableList.java,F:/corpus/guava/guava#2012-08-03-04-19-28#v13.0#c851167/guava/src/com/google/common/collect/EmptyImmutableList.java,0,0,0,0,3,0,0,0,0,0,0,0,0,YES,0,0,0,0,0,0,0,0,0,0,0,0,0,0,0,0,0,0,0,0,0,0,0,0,0,0,0,0,0,0,0,0,0,0,0,2,0,0,0,0,0,0,2,2,0,0,2,0,41,161
guava,v12.0,v13.0,F:/corpus/guava/guava#2012-05-01-02-04-06#v12.0#72d2812/guava/src/com/google/common/collect/EmptyImmutableMultiset.java,F:/corpus/guava/guava#2012-08-03-04-19-28#v13.0#c851167/guava/src/com/google/common/collect/EmptyImmutableMultiset.java,0,0,0,0,1,0,0,0,0,0,0,0,0,YES,0,0,0,0,10,0,0,0,0,0,0,0,0,0,0,0,0,0,0,0,0,0,0,0,0,0,0,0,0,0,0,0,0,0,0,0,0,0,0,0,0,0,1,1,0,0,0,0,43,59
guava,v12.0,v13.0,F:/corpus/guava/guava#2012-05-01-02-04-06#v12.0#72d2812/guava/src/com/google/common/collect/EmptyImmutableSet.java,F:/corpus/guava/guava#2012-08-03-04-19-28#v13.0#c851167/guava/src/com/google/common/collect/EmptyImmutableSet.java,0,0,0,0,1,0,0,0,0,0,0,0,0,YES,0,0,0,0,1,0,0,0,0,0,0,0,0,0,0,0,0,0,0,0,0,0,0,0,0,0,0,0,0,0,0,0,0,0,0,1,0,0,0,0,0,0,3,1,0,0,1,0,15,100
guava,v12.0,v13.0,F:/corpus/guava/guava#2012-05-01-02-04-06#v12.0#72d2812/guava/src/com/google/common/collect/EmptyImmutableSortedMultiset.java,F:/corpus/guava/guava#2012-08-03-04-19-28#v13.0#c851167/guava/src/com/google/common/collect/EmptyImmutableSortedMultiset.java,0,0,0,0,1,0,0,0,0,0,0,0,0,YES,0,0,0,0,10,1,0,0,0,0,0,0,0,0,0,0,0,0,0,0,1,1,0,0,0,0,0,0,0,0,0,0,0,0,1,0,0,0,0,0,0,0,3,4,0,0,0,0,58,87
guava,v12.0,v13.0,F:/corpus/guava/guava#2012-05-01-02-04-06#v12.0#72d2812/guava/src/com/google/common/collect/EmptyImmutableSortedSet.java,F:/corpus/guava/guava#2012-08-03-04-19-28#v13.0#c851167/guava/src/com/google/common/collect/EmptyImmutableSortedSet.java,0,0,0,0,5,0,0,0,0,0,0,0,0,YES,0,0,0,0,1,0,0,0,0,0,0,0,0,0,0,0,0,0,0,0,0,0,0,0,0,0,0,0,0,0,0,0,0,0,0,1,0,0,0,0,0,0,3,1,0,0,1,0,14,128
guava,v12.0,v13.0,F:/corpus/guava/guava#2012-05-01-02-04-06#v12.0#72d2812/guava/src/com/google/common/collect/EmptyImmutableTable.java,F:/corpus/guava/guava#2012-08-03-04-19-28#v13.0#c851167/guava/src/com/google/common/collect/EmptyImmutableTable.java,0,0,0,0,5,0,0,0,0,0,0,0,0,YES,0,0,0,0,0,0,0,0,0,0,0,0,0,0,0,1,0,0,0,1,0,0,0,0,0,0,0,0,0,0,0,0,0,0,0,0,0,0,0,0,0,0,0,0,0,0,0,0,3,128
guava,v12.0,v13.0,F:/corpus/guava/guava#2012-05-01-02-04-06#v12.0#72d2812/guava/src/com/google/common/collect/EnumHashBiMap.java,F:/corpus/guava/guava#2012-08-03-04-19-28#v13.0#c851167/guava/src/com/google/common/collect/EnumHashBiMap.java,0,0,0,0,0,0,0,0,0,0,0,0,0,YES,0,0,0,0,0,0,0,0,0,0,0,0,0,0,0,0,0,0,0,0,0,0,0,0,0,0,0,0,0,0,0,0,0,0,0,0,0,0,0,0,0,0,0,0,0,0,0,0,1,130
guava,v12.0,v13.0,F:/corpus/guava/guava#2012-05-01-02-04-06#v12.0#72d2812/guava/src/com/google/common/collect/FluentIterable.java,F:/corpus/guava/guava#2012-08-03-04-19-28#v13.0#c851167/guava/src/com/google/common/collect/FluentIterable.java,0,0,0,0,1,0,0,0,0,0,0,0,0,YES,0,0,0,0,2,0,0,0,0,0,0,0,0,0,0,0,0,0,0,1,0,0,0,0,0,0,0,0,0,0,0,0,0,0,0,0,0,0,0,0,0,0,0,0,0,0,2,0,36,367
guava,v12.0,v13.0,F:/corpus/guava/guava#2012-05-01-02-04-06#v12.0#72d2812/guava/src/com/google/common/collect/ForwardingImmutableList.java,F:/corpus/guava/guava#2012-08-03-04-19-28#v13.0#c851167/guava/src/com/google/common/collect/ForwardingImmutableList.java,0,0,0,0,1,0,0,0,0,0,0,0,0,YES,0,0,0,0,0,0,0,0,0,0,0,0,0,0,0,0,0,0,0,0,0,0,0,0,0,0,0,0,0,0,0,0,0,0,0,0,0,0,0,0,0,0,0,0,0,0,0,0,1,29
guava,v12.0,v13.0,F:/corpus/guava/guava#2012-05-01-02-04-06#v12.0#72d2812/guava/src/com/google/common/collect/ForwardingList.java,F:/corpus/guava/guava#2012-08-03-04-19-28#v13.0#c851167/guava/src/com/google/common/collect/ForwardingList.java,0,0,0,0,1,0,0,0,0,0,0,0,0,YES,0,0,0,0,0,0,0,0,0,0,0,0,0,0,0,0,0,0,0,0,0,0,0,0,0,0,0,0,0,0,0,0,0,0,0,0,0,0,0,0,0,0,0,0,0,0,0,0,1,239
guava,v12.0,v13.0,F:/corpus/guava/guava#2012-05-01-02-04-06#v12.0#72d2812/guava/src/com/google/common/collect/ForwardingSet.java,F:/corpus/guava/guava#2012-08-03-04-19-28#v13.0#c851167/guava/src/com/google/common/collect/ForwardingSet.java,0,0,0,0,1,0,0,0,0,0,0,2,0,YES,0,0,0,0,0,0,0,0,0,0,0,0,0,0,0,0,0,0,0,0,0,0,0,0,0,0,0,0,0,0,0,0,0,0,0,0,0,0,0,0,0,0,0,0,0,0,0,0,3,100
guava,v12.0,v13.0,F:/corpus/guava/guava#2012-05-01-02-04-06#v12.0#72d2812/guava/src/com/google/common/collect/GeneralRange.java,F:/corpus/guava/guava#2012-08-03-04-19-28#v13.0#c851167/guava/src/com/google/common/collect/GeneralRange.java,0,0,0,0,0,0,0,0,0,0,0,0,0,YES,0,0,0,0,4,0,0,0,0,0,0,0,0,0,0,2,1,0,0,0,0,0,0,0,0,0,0,0,0,0,0,0,0,0,0,0,0,0,0,0,0,0,0,0,0,0,26,0,57,288
guava,v12.0,v13.0,F:/corpus/guava/guava#2012-05-01-02-04-06#v12.0#72d2812/guava/src/com/google/common/collect/GenericMapMaker.java,F:/corpus/guava/guava#2012-08-03-04-19-28#v13.0#c851167/guava/src/com/google/common/collect/GenericMapMaker.java,0,0,0,0,1,0,0,0,0,0,0,0,0,YES,0,0,0,0,0,0,0,0,0,0,0,0,0,0,0,0,0,0,0,0,0,0,0,0,0,0,0,0,0,0,0,0,0,0,4,0,0,0,0,0,0,0,0,0,0,0,0,0,23,166
guava,v12.0,v13.0,F:/corpus/guava/guava#2012-05-01-02-04-06#v12.0#72d2812/guava/src/com/google/common/collect/ImmutableAsList.java,F:/corpus/guava/guava#2012-08-03-04-19-28#v13.0#c851167/guava/src/com/google/common/collect/ImmutableAsList.java,0,0,0,0,1,0,0,0,0,0,0,0,0,YES,0,1,0,0,5,0,0,0,0,0,0,0,0,0,1,0,0,0,0,1,0,0,0,0,0,0,0,1,0,0,0,0,0,0,1,1,0,0,0,0,0,0,0,0,0,0,2,0,17,69
guava,v12.0,v13.0,F:/corpus/guava/guava#2012-05-01-02-04-06#v12.0#72d2812/guava/src/com/google/common/collect/ImmutableBiMap.java,F:/corpus/guava/guava#2012-08-03-04-19-28#v13.0#c851167/guava/src/com/google/common/collect/ImmutableBiMap.java,0,0,0,0,2,0,0,0,0,0,2,0,0,YES,0,0,0,0,0,0,0,0,0,0,0,0,0,0,0,0,0,0,0,0,0,0,0,0,0,0,0,0,0,0,0,0,0,1,0,1,0,0,0,0,0,0,1,1,0,0,0,0,21,325
guava,v12.0,v13.0,F:/corpus/guava/guava#2012-05-01-02-04-06#v12.0#72d2812/guava/src/com/google/common/collect/ImmutableCollection.java,F:/corpus/guava/guava#2012-08-03-04-19-28#v13.0#c851167/guava/src/com/google/common/collect/ImmutableCollection.java,0,0,0,0,8,0,0,0,0,0,0,5,0,YES,0,0,0,0,1,1,0,0,0,0,0,0,0,0,0,0,0,0,0,0,0,0,0,0,0,0,0,0,0,0,0,0,0,0,0,0,0,0,0,0,0,0,0,0,0,0,2,0,21,357
guava,v12.0,v13.0,F:/corpus/guava/guava#2012-05-01-02-04-06#v12.0#72d2812/guava/src/com/google/common/collect/ImmutableList.java,F:/corpus/guava/guava#2012-08-03-04-19-28#v13.0#c851167/guava/src/com/google/common/collect/ImmutableList.java,0,0,0,0,6,0,0,0,0,0,5,17,0,YES,0,0,0,0,3,2,0,2,0,0,0,2,3,0,0,0,0,0,0,0,0,0,0,0,0,0,0,0,0,0,0,0,0,0,1,1,0,0,0,0,0,0,15,28,0,0,2,0,32,698
guava,v12.0,v13.0,F:/corpus/guava/guava#2012-05-01-02-04-06#v12.0#72d2812/guava/src/com/google/common/collect/ImmutableListMultimap.java,F:/corpus/guava/guava#2012-08-03-04-19-28#v13.0#c851167/guava/src/com/google/common/collect/ImmutableListMultimap.java,0,0,0,0,2,0,0,0,0,0,2,4,0,YES,0,0,0,0,0,0,0,0,0,0,0,0,0,0,0,0,0,0,0,0,0,0,0,0,0,0,0,0,0,0,0,0,0,0,0,0,0,0,0,0,0,0,0,0,0,0,0,0,3,387
guava,v12.0,v13.0,F:/corpus/guava/guava#2012-05-01-02-04-06#v12.0#72d2812/guava/src/com/google/common/collect/ImmutableMap.java,F:/corpus/guava/guava#2012-08-03-04-19-28#v13.0#c851167/guava/src/com/google/common/collect/ImmutableMap.java,0,0,0,0,5,0,0,0,0,0,2,14,0,YES,0,0,0,0,0,0,0,0,0,0,0,0,0,0,0,1,0,0,0,0,0,0,0,0,0,0,0,0,0,0,0,0,0,6,0,0,0,0,0,0,0,0,8,6,0,0,1,1,154,598
guava,v12.0,v13.0,F:/corpus/guava/guava#2012-05-01-02-04-06#v12.0#72d2812/guava/src/com/google/common/collect/ImmutableMultimap.java,F:/corpus/guava/guava#2012-08-03-04-19-28#v13.0#c851167/guava/src/com/google/common/collect/ImmutableMultimap.java,0,0,0,0,7,0,0,0,0,0,2,1,0,YES,0,0,0,1,0,0,0,0,0,0,0,0,0,0,0,0,0,0,0,0,0,0,0,0,0,0,0,0,0,0,0,0,0,0,0,0,0,0,0,0,0,0,4,1,0,0,0,0,9,623
guava,v12.0,v13.0,F:/corpus/guava/guava#2012-05-01-02-04-06#v12.0#72d2812/guava/src/com/google/common/collect/ImmutableMultiset.java,F:/corpus/guava/guava#2012-08-03-04-19-28#v13.0#c851167/guava/src/com/google/common/collect/ImmutableMultiset.java,0,0,0,0,6,0,0,0,0,0,0,0,0,YES,0,0,1,0,0,0,0,0,0,0,0,0,0,0,0,0,0,0,0,0,0,0,0,0,0,0,0,0,0,0,0,0,0,0,0,0,0,0,0,0,0,0,0,0,0,0,0,0,2,595
guava,v12.0,v13.0,F:/corpus/guava/guava#2012-05-01-02-04-06#v12.0#72d2812/guava/src/com/google/common/collect/ImmutableSet.java,F:/corpus/guava/guava#2012-08-03-04-19-28#v13.0#c851167/guava/src/com/google/common/collect/ImmutableSet.java,0,0,0,0,3,0,0,0,0,0,0,10,0,YES,0,0,0,0,2,2,2,2,0,0,0,2,3,0,0,2,0,0,0,1,0,0,0,1,0,0,0,0,0,0,0,0,0,1,0,1,0,0,0,0,0,0,34,35,0,4,12,0,140,659
guava,v12.0,v13.0,F:/corpus/guava/guava#2012-05-01-02-04-06#v12.0#72d2812/guava/src/com/google/common/collect/ImmutableSetMultimap.java,F:/corpus/guava/guava#2012-08-03-04-19-28#v13.0#c851167/guava/src/com/google/common/collect/ImmutableSetMultimap.java,0,0,0,0,2,0,0,0,0,0,2,0,0,YES,0,0,0,0,0,0,0,0,0,0,0,0,0,0,0,0,0,0,0,0,0,0,0,0,0,0,0,0,0,0,0,0,0,0,0,0,0,0,0,0,0,0,0,0,0,0,0,0,4,509
guava,v12.0,v13.0,F:/corpus/guava/guava#2012-05-01-02-04-06#v12.0#72d2812/guava/src/com/google/common/collect/ImmutableSortedAsList.java,F:/corpus/guava/guava#2012-08-03-04-19-28#v13.0#c851167/guava/src/com/google/common/collect/ImmutableSortedAsList.java,0,0,0,0,0,0,0,0,0,0,0,0,0,YES,0,0,0,0,2,0,0,0,0,0,0,0,1,0,0,0,0,0,0,0,0,0,0,0,0,0,0,1,0,0,0,0,0,0,9,2,0,0,0,0,0,0,5,4,0,0,2,0,66,95
guava,v12.0,v13.0,F:/corpus/guava/guava#2012-05-01-02-04-06#v12.0#72d2812/guava/src/com/google/common/collect/ImmutableSortedMap.java,F:/corpus/guava/guava#2012-08-03-04-19-28#v13.0#c851167/guava/src/com/google/common/collect/ImmutableSortedMap.java,0,0,0,0,0,3,0,0,0,0,2,1,0,YES,0,0,0,0,5,0,2,0,0,0,0,0,0,0,0,0,0,0,0,0,1,0,0,0,0,0,0,0,0,0,0,0,0,1,8,2,0,0,0,0,0,0,27,10,0,0,8,0,170,803
guava,v12.0,v13.0,F:/corpus/guava/guava#2012-05-01-02-04-06#v12.0#72d2812/guava/src/com/google/common/collect/ImmutableSortedMultiset.java,F:/corpus/guava/guava#2012-08-03-04-19-28#v13.0#c851167/guava/src/com/google/common/collect/ImmutableSortedMultiset.java,0,0,0,0,1,0,0,0,0,0,0,0,0,YES,0,0,0,0,0,0,0,1,0,0,0,1,2,0,0,0,0,0,0,0,0,1,2,1,0,0,0,0,0,0,0,0,0,0,6,3,0,0,2,0,0,0,17,28,0,0,2,0,89,610
guava,v12.0,v13.0,F:/corpus/guava/guava#2012-05-01-02-04-06#v12.0#72d2812/guava/src/com/google/common/collect/ImmutableSortedSet.java,F:/corpus/guava/guava#2012-08-03-04-19-28#v13.0#c851167/guava/src/com/google/common/collect/ImmutableSortedSet.java,0,0,0,0,2,0,0,0,0,0,0,3,0,YES,0,0,0,0,2,0,0,1,0,0,0,0,3,0,0,0,0,0,0,0,0,0,0,0,0,0,0,0,0,0,0,0,0,0,2,0,0,0,0,0,0,0,7,15,0,0,4,0,34,803
guava,v12.0,v13.0,F:/corpus/guava/guava#2012-05-01-02-04-06#v12.0#72d2812/guava/src/com/google/common/collect/ImmutableTable.java,F:/corpus/guava/guava#2012-08-03-04-19-28#v13.0#c851167/guava/src/com/google/common/collect/ImmutableTable.java,0,0,0,0,4,0,0,0,0,0,0,0,0,YES,0,0,0,0,0,0,0,0,0,0,0,0,0,0,0,2,0,0,0,1,0,0,0,0,0,0,0,0,0,0,0,0,0,0,0,0,0,0,0,0,0,0,0,0,0,0,0,0,4,336
guava,v12.0,v13.0,F:/corpus/guava/guava#2012-05-01-02-04-06#v12.0#72d2812/guava/src/com/google/common/collect/Interners.java,F:/corpus/guava/guava#2012-08-03-04-19-28#v13.0#c851167/guava/src/com/google/common/collect/Interners.java,0,0,0,0,0,0,0,0,0,0,0,0,0,YES,0,0,0,0,0,0,0,0,0,0,0,0,0,0,0,1,0,0,0,0,0,0,0,0,0,0,0,0,0,0,0,0,0,0,0,0,0,0,0,0,0,0,0,0,0,0,0,0,3,136
guava,v12.0,v13.0,F:/corpus/guava/guava#2012-05-01-02-04-06#v12.0#72d2812/guava/src/com/google/common/collect/Iterables.java,F:/corpus/guava/guava#2012-08-03-04-19-28#v13.0#c851167/guava/src/com/google/common/collect/Iterables.java,0,1,0,0,0,0,0,0,0,0,0,3,0,YES,0,0,0,0,0,0,0,0,0,0,0,0,0,0,0,0,0,0,0,0,0,0,0,0,0,0,0,0,0,0,0,0,0,0,2,0,0,0,0,0,0,0,0,0,0,0,1,0,58,1128
guava,v12.0,v13.0,F:/corpus/guava/guava#2012-05-01-02-04-06#v12.0#72d2812/guava/src/com/google/common/collect/Iterators.java,F:/corpus/guava/guava#2012-08-03-04-19-28#v13.0#c851167/guava/src/com/google/common/collect/Iterators.java,0,1,0,0,0,0,0,0,0,0,0,8,0,YES,0,0,0,0,2,1,0,0,0,0,0,0,0,0,0,0,0,0,0,1,0,0,0,0,0,0,0,0,0,0,0,0,0,0,1,1,0,0,0,0,0,0,16,3,0,0,0,0,100,1384
guava,v12.0,v13.0,F:/corpus/guava/guava#2012-05-01-02-04-06#v12.0#72d2812/guava/src/com/google/common/collect/LinkedHashMultimap.java,F:/corpus/guava/guava#2012-08-03-04-19-28#v13.0#c851167/guava/src/com/google/common/collect/LinkedHashMultimap.java,0,0,0,0,0,0,0,0,0,0,0,1,0,YES,0,0,0,3,5,3,0,0,2,0,0,3,0,0,0,1,0,1,0,3,0,0,2,2,0,0,0,0,0,0,0,0,0,1,2,1,0,0,0,0,0,0,13,24,0,2,8,0,222,400
guava,v12.0,v13.0,F:/corpus/guava/guava#2012-05-01-02-04-06#v12.0#72d2812/guava/src/com/google/common/collect/LinkedListMultimap.java,F:/corpus/guava/guava#2012-08-03-04-19-28#v13.0#c851167/guava/src/com/google/common/collect/LinkedListMultimap.java,0,0,0,0,2,0,1,0,0,0,0,1,0,YES,0,0,0,0,0,0,0,0,0,0,0,1,0,0,0,0,0,0,0,0,0,0,0,0,0,0,0,0,0,0,0,0,0,0,0,0,0,0,0,0,0,0,0,0,0,0,1,0,7,1001
guava,v12.0,v13.0,F:/corpus/guava/guava#2012-05-01-02-04-06#v12.0#72d2812/guava/src/com/google/common/collect/ListMultimap.java,F:/corpus/guava/guava#2012-08-03-04-19-28#v13.0#c851167/guava/src/com/google/common/collect/ListMultimap.java,0,0,0,0,1,0,0,0,0,0,0,0,0,YES,0,0,0,0,0,0,0,0,0,0,0,0,0,0,0,0,0,0,0,0,0,0,0,0,0,0,0,0,0,0,0,0,0,0,0,0,0,0,0,0,0,0,0,0,0,0,0,0,1,95
guava,v12.0,v13.0,F:/corpus/guava/guava#2012-05-01-02-04-06#v12.0#72d2812/guava/src/com/google/common/collect/Lists.java,F:/corpus/guava/guava#2012-08-03-04-19-28#v13.0#c851167/guava/src/com/google/common/collect/Lists.java,0,1,0,0,0,0,2,0,0,0,0,9,0,YES,0,0,0,0,0,0,0,0,0,0,0,0,0,0,0,0,0,0,0,1,0,0,0,0,0,0,0,0,0,0,0,0,0,0,0,0,0,0,0,0,0,0,0,0,0,0,0,0,14,1069
guava,v12.0,v13.0,F:/corpus/guava/guava#2012-05-01-02-04-06#v12.0#72d2812/guava/src/com/google/common/collect/MapMaker.java,F:/corpus/guava/guava#2012-08-03-04-19-28#v13.0#c851167/guava/src/com/google/common/collect/MapMaker.java,0,0,0,0,7,0,0,0,0,0,0,2,0,YES,0,0,0,0,0,0,0,0,0,0,0,0,0,0,0,0,0,0,0,2,0,0,0,0,0,0,0,0,0,0,0,0,0,0,6,1,0,0,0,0,0,0,2,0,0,0,1,0,76,959
guava,v12.0,v13.0,F:/corpus/guava/guava#2012-05-01-02-04-06#v12.0#72d2812/guava/src/com/google/common/collect/MapMakerInternalMap.java,F:/corpus/guava/guava#2012-08-03-04-19-28#v13.0#c851167/guava/src/com/google/common/collect/MapMakerInternalMap.java,6,2,0,0,29,0,77,0,0,0,2,0,0,YES,0,0,0,0,0,0,0,0,0,0,0,0,0,0,0,0,0,0,0,1,0,0,0,0,0,0,0,0,0,0,0,0,0,0,0,0,0,0,0,0,0,0,1,1,0,0,1,0,17,4080
guava,v12.0,v13.0,F:/corpus/guava/guava#2012-05-01-02-04-06#v12.0#72d2812/guava/src/com/google/common/collect/Maps.java,F:/corpus/guava/guava#2012-08-03-04-19-28#v13.0#c851167/guava/src/com/google/common/collect/Maps.java,0,1,0,0,14,0,1,0,0,0,0,6,0,YES,0,0,0,3,7,0,0,0,0,0,0,0,0,0,0,2,0,0,0,0,0,0,0,0,0,0,0,2,0,2,0,0,0,0,3,0,0,0,0,0,0,0,4,0,0,0,4,1,447,2774
guava,v12.0,v13.0,F:/corpus/guava/guava#2012-05-01-02-04-06#v12.0#72d2812/guava/src/com/google/common/collect/Multimap.java,F:/corpus/guava/guava#2012-08-03-04-19-28#v13.0#c851167/guava/src/com/google/common/collect/Multimap.java,0,0,0,0,1,0,0,0,0,0,0,0,0,YES,0,0,0,0,0,0,0,0,0,0,0,0,0,0,0,0,0,0,0,0,0,0,0,0,0,0,0,0,0,0,0,0,0,0,0,0,0,0,0,0,0,0,0,0,0,0,0,0,26,271
guava,v12.0,v13.0,F:/corpus/guava/guava#2012-05-01-02-04-06#v12.0#72d2812/guava/src/com/google/common/collect/Multimaps.java,F:/corpus/guava/guava#2012-08-03-04-19-28#v13.0#c851167/guava/src/com/google/common/collect/Multimaps.java,0,1,0,0,26,0,0,0,0,0,0,0,0,YES,0,0,0,0,0,0,0,0,0,0,0,0,0,0,0,5,0,0,0,0,0,0,0,0,0,0,0,0,0,0,0,0,0,0,0,0,0,0,0,0,0,0,0,0,0,0,1,0,19,2700
guava,v12.0,v13.0,F:/corpus/guava/guava#2012-05-01-02-04-06#v12.0#72d2812/guava/src/com/google/common/collect/Multisets.java,F:/corpus/guava/guava#2012-08-03-04-19-28#v13.0#c851167/guava/src/com/google/common/collect/Multisets.java,0,0,0,1,17,0,1,0,0,0,0,1,0,YES,0,0,0,0,0,0,0,0,0,0,0,0,0,0,0,0,0,0,0,0,0,0,0,0,0,0,0,0,0,0,0,0,0,0,0,0,0,0,0,0,0,0,0,1,0,0,0,0,7,973
guava,v12.0,v13.0,F:/corpus/guava/guava#2012-05-01-02-04-06#v12.0#72d2812/guava/src/com/google/common/collect/ObjectArrays.java,F:/corpus/guava/guava#2012-08-03-04-19-28#v13.0#c851167/guava/src/com/google/common/collect/ObjectArrays.java,0,0,0,0,0,0,0,0,0,0,0,2,0,YES,0,0,0,0,1,1,0,0,0,0,0,0,0,0,0,0,0,0,0,0,0,0,0,0,0,0,0,0,0,0,0,0,0,0,0,0,0,0,0,0,0,0,0,0,0,0,1,0,14,182
guava,v12.0,v13.0,F:/corpus/guava/guava#2012-05-01-02-04-06#v12.0#72d2812/guava/src/com/google/common/collect/Ordering.java,F:/corpus/guava/guava#2012-08-03-04-19-28#v13.0#c851167/guava/src/com/google/common/collect/Ordering.java,0,0,0,0,1,0,0,0,0,0,0,8,0,YES,0,0,0,0,1,0,0,2,0,0,0,0,2,0,0,0,0,0,0,1,0,0,0,0,0,0,0,0,0,0,0,0,0,0,0,0,0,0,0,0,0,0,5,13,0,0,0,0,423,742
guava,v12.0,v13.0,F:/corpus/guava/guava#2012-05-01-02-04-06#v12.0#72d2812/guava/src/com/google/common/collect/Platform.java,F:/corpus/guava/guava#2012-08-03-04-19-28#v13.0#c851167/guava/src/com/google/common/collect/Platform.java,0,0,0,0,0,1,0,0,0,0,0,0,0,YES,0,0,0,0,1,0,0,0,0,0,0,0,0,0,0,0,0,0,0,0,0,0,0,0,0,0,0,0,0,0,0,0,0,0,1,0,0,0,0,0,0,0,0,0,0,0,0,0,23,79
guava,v12.0,v13.0,F:/corpus/guava/guava#2012-05-01-02-04-06#v12.0#72d2812/guava/src/com/google/common/collect/Range.java,F:/corpus/guava/guava#2012-08-03-04-19-28#v13.0#c851167/guava/src/com/google/common/collect/Range.java,0,0,0,0,0,0,0,0,0,0,0,1,0,YES,0,0,0,0,0,0,0,0,0,0,0,1,0,0,0,0,0,0,0,1,0,0,0,0,0,0,0,0,0,0,0,0,0,0,0,0,0,0,0,0,0,0,11,1,0,0,0,0,29,459
guava,v12.0,v13.0,F:/corpus/guava/guava#2012-05-01-02-04-06#v12.0#72d2812/guava/src/com/google/common/collect/RegularContiguousSet.java,F:/corpus/guava/guava#2012-08-03-04-19-28#v13.0#c851167/guava/src/com/google/common/collect/RegularContiguousSet.java,0,0,0,0,0,0,0,0,0,0,0,0,0,YES,0,0,0,0,0,0,0,0,0,0,0,0,0,0,0,1,0,0,0,0,0,0,0,0,0,0,0,0,0,0,0,0,0,0,0,0,0,0,0,0,0,0,0,0,0,0,0,0,1,276
guava,v12.0,v13.0,F:/corpus/guava/guava#2012-05-01-02-04-06#v12.0#72d2812/guava/src/com/google/common/collect/RegularImmutableList.java,F:/corpus/guava/guava#2012-08-03-04-19-28#v13.0#c851167/guava/src/com/google/common/collect/RegularImmutableList.java,0,0,0,0,0,0,0,0,0,0,0,0,0,YES,0,0,0,0,0,0,0,0,0,0,0,0,0,0,0,0,0,0,0,0,0,0,0,0,0,0,0,0,0,0,0,0,0,0,0,0,0,0,0,0,0,0,0,0,0,0,0,0,1,138
guava,v12.0,v13.0,F:/corpus/guava/guava#2012-05-01-02-04-06#v12.0#72d2812/guava/src/com/google/common/collect/RegularImmutableMap.java,F:/corpus/guava/guava#2012-08-03-04-19-28#v13.0#c851167/guava/src/com/google/common/collect/RegularImmutableMap.java,0,0,0,0,1,0,0,0,0,0,0,0,0,YES,0,0,0,0,1,1,0,0,0,0,0,2,2,0,0,0,0,0,1,0,0,0,0,0,0,0,0,1,0,0,0,0,0,0,0,0,0,0,0,0,0,0,1,3,0,1,2,0,19,222
guava,v12.0,v13.0,F:/corpus/guava/guava#2012-05-01-02-04-06#v12.0#72d2812/guava/src/com/google/common/collect/RegularImmutableMultiset.java,F:/corpus/guava/guava#2012-08-03-04-19-28#v13.0#c851167/guava/src/com/google/common/collect/RegularImmutableMultiset.java,0,0,0,0,0,0,0,0,0,0,0,0,0,YES,0,0,0,1,0,0,0,0,0,0,0,0,0,0,0,0,0,0,0,0,0,0,0,0,0,0,0,0,0,0,0,0,0,0,0,0,0,0,0,0,0,0,1,1,0,0,0,0,21,104
guava,v12.0,v13.0,F:/corpus/guava/guava#2012-05-01-02-04-06#v12.0#72d2812/guava/src/com/google/common/collect/RegularImmutableSortedMultiset.java,F:/corpus/guava/guava#2012-08-03-04-19-28#v13.0#c851167/guava/src/com/google/common/collect/RegularImmutableSortedMultiset.java,0,0,0,0,0,0,0,0,0,0,0,0,0,YES,0,0,0,1,2,5,2,2,0,0,0,0,0,0,0,0,0,0,0,0,2,2,2,2,0,0,0,0,0,0,0,0,0,1,4,1,0,0,0,2,0,0,39,15,0,1,1,0,180,204
guava,v12.0,v13.0,F:/corpus/guava/guava#2012-05-01-02-04-06#v12.0#72d2812/guava/src/com/google/common/collect/RegularImmutableSortedSet.java,F:/corpus/guava/guava#2012-08-03-04-19-28#v13.0#c851167/guava/src/com/google/common/collect/RegularImmutableSortedSet.java,0,0,0,0,0,0,0,0,0,0,0,0,0,YES,0,0,0,0,2,0,2,0,0,0,0,2,0,0,0,0,0,0,0,0,1,2,0,0,0,0,0,0,0,0,0,0,0,0,0,0,0,0,0,0,0,0,11,2,0,0,4,0,41,281
guava,v12.0,v13.0,F:/corpus/guava/guava#2012-05-01-02-04-06#v12.0#72d2812/guava/src/com/google/common/collect/RegularImmutableTable.java,F:/corpus/guava/guava#2012-08-03-04-19-28#v13.0#c851167/guava/src/com/google/common/collect/RegularImmutableTable.java,0,0,0,0,1,0,0,0,0,0,0,0,0,YES,0,0,0,5,0,2,0,0,0,2,0,1,0,0,0,1,0,0,0,1,0,0,0,0,0,0,0,0,0,0,0,0,0,0,2,0,2,0,0,1,0,0,27,10,0,0,2,4,263,433
guava,v12.0,v13.0,F:/corpus/guava/guava#2012-05-01-02-04-06#v12.0#72d2812/guava/src/com/google/common/collect/SetMultimap.java,F:/corpus/guava/guava#2012-08-03-04-19-28#v13.0#c851167/guava/src/com/google/common/collect/SetMultimap.java,0,0,0,0,1,0,0,0,0,0,0,0,0,YES,0,0,0,0,0,0,0,0,0,0,0,0,0,0,0,0,0,0,0,0,0,0,0,0,0,0,0,0,0,0,0,0,0,0,0,0,0,0,0,0,0,0,0,0,0,0,0,0,2,108
guava,v12.0,v13.0,F:/corpus/guava/guava#2012-05-01-02-04-06#v12.0#72d2812/guava/src/com/google/common/collect/Sets.java,F:/corpus/guava/guava#2012-08-03-04-19-28#v13.0#c851167/guava/src/com/google/common/collect/Sets.java,0,1,0,0,1,0,1,0,0,0,0,13,0,YES,0,0,0,1,1,0,1,1,0,0,0,0,2,0,0,2,0,0,0,0,0,0,0,0,0,0,0,0,0,0,0,0,0,0,0,0,0,0,0,0,0,0,1,8,0,1,0,0,79,1582
guava,v12.0,v13.0,F:/corpus/guava/guava#2012-05-01-02-04-06#v12.0#72d2812/guava/src/com/google/common/collect/SingletonImmutableMap.java,F:/corpus/guava/guava#2012-08-03-04-19-28#v13.0#c851167/guava/src/com/google/common/collect/SingletonImmutableMap.java,0,0,0,0,0,0,0,0,0,0,0,0,0,YES,0,0,0,0,0,0,0,0,0,0,0,0,0,0,0,0,0,0,0,0,0,0,0,0,0,0,0,0,0,0,0,0,0,0,2,1,0,0,0,0,0,0,7,3,0,3,0,0,27,126
guava,v12.0,v13.0,F:/corpus/guava/guava#2012-05-01-02-04-06#v12.0#72d2812/guava/src/com/google/common/collect/SingletonImmutableTable.java,F:/corpus/guava/guava#2012-08-03-04-19-28#v13.0#c851167/guava/src/com/google/common/collect/SingletonImmutableTable.java,0,0,0,0,0,0,0,0,0,0,0,0,0,YES,0,0,0,0,0,0,0,0,0,0,0,0,0,0,0,1,0,0,0,1,0,0,0,0,0,0,0,0,0,0,0,0,0,0,0,0,0,0,0,0,0,0,0,0,0,0,0,0,3,149
guava,v12.0,v13.0,F:/corpus/guava/guava#2012-05-01-02-04-06#v12.0#72d2812/guava/src/com/google/common/collect/SortedIterables.java,F:/corpus/guava/guava#2012-08-03-04-19-28#v13.0#c851167/guava/src/com/google/common/collect/SortedIterables.java,0,0,0,0,0,0,0,0,0,0,0,0,0,YES,0,0,0,0,1,0,1,1,0,0,0,0,0,0,0,0,0,0,0,0,0,0,0,0,0,0,0,0,0,0,0,0,0,0,6,0,0,0,0,0,0,0,4,1,1,0,1,0,143,195
guava,v12.0,v13.0,F:/corpus/guava/guava#2012-05-01-02-04-06#v12.0#72d2812/guava/src/com/google/common/collect/SortedSetMultimap.java,F:/corpus/guava/guava#2012-08-03-04-19-28#v13.0#c851167/guava/src/com/google/common/collect/SortedSetMultimap.java,0,0,0,0,1,0,0,0,0,0,0,0,0,YES,0,0,0,0,0,0,0,0,0,0,0,0,0,0,0,0,0,0,0,0,0,0,0,0,0,0,0,0,0,0,0,0,0,0,0,0,0,0,0,0,0,0,0,0,0,0,0,0,1,113
guava,v12.0,v13.0,F:/corpus/guava/guava#2012-05-01-02-04-06#v12.0#72d2812/guava/src/com/google/common/collect/StandardTable.java,F:/corpus/guava/guava#2012-08-03-04-19-28#v13.0#c851167/guava/src/com/google/common/collect/StandardTable.java,0,1,0,0,2,0,0,0,0,0,0,0,0,YES,0,0,0,0,0,0,0,0,0,0,0,0,0,0,0,0,0,0,0,0,0,0,0,0,0,0,0,2,0,2,0,0,0,0,2,0,0,0,0,0,0,0,0,0,0,0,0,0,20,1136
guava,v12.0,v13.0,F:/corpus/guava/guava#2012-05-01-02-04-06#v12.0#72d2812/guava/src/com/google/common/collect/Synchronized.java,F:/corpus/guava/guava#2012-08-03-04-19-28#v13.0#c851167/guava/src/com/google/common/collect/Synchronized.java,0,1,0,0,0,0,0,0,0,0,0,0,0,YES,0,0,0,3,5,0,0,0,0,0,0,0,0,0,0,0,0,0,0,0,0,0,0,0,0,0,0,0,0,0,0,0,0,0,0,0,0,0,0,0,0,0,0,0,0,0,0,0,347,1218
guava,v12.0,v13.0,F:/corpus/guava/guava#2012-05-01-02-04-06#v12.0#72d2812/guava/src/com/google/common/collect/Tables.java,F:/corpus/guava/guava#2012-08-03-04-19-28#v13.0#c851167/guava/src/com/google/common/collect/Tables.java,0,0,0,0,6,0,1,0,0,0,0,1,0,YES,0,0,0,0,0,0,0,0,0,0,0,0,0,0,0,0,0,0,0,0,0,0,0,0,0,0,0,0,0,0,0,0,0,0,0,0,0,0,0,0,0,0,0,0,0,0,0,0,4,751
guava,v12.0,v13.0,F:/corpus/guava/guava#2012-05-01-02-04-06#v12.0#72d2812/guava/src/com/google/common/collect/TransformedIterator.java,F:/corpus/guava/guava#2012-08-03-04-19-28#v13.0#c851167/guava/src/com/google/common/collect/TransformedIterator.java,0,0,0,0,1,0,0,0,0,0,0,0,0,YES,0,0,0,0,0,0,0,0,0,0,0,0,0,0,0,0,0,0,0,0,0,0,0,0,0,0,0,0,0,0,0,0,0,0,0,0,0,0,0,0,0,0,0,0,0,0,0,0,2,55
guava,v12.0,v13.0,F:/corpus/guava/guava#2012-05-01-02-04-06#v12.0#72d2812/guava/src/com/google/common/collect/TransformedListIterator.java,F:/corpus/guava/guava#2012-08-03-04-19-28#v13.0#c851167/guava/src/com/google/common/collect/TransformedListIterator.java,0,0,0,0,3,0,0,0,0,0,0,0,0,YES,0,0,0,0,0,0,0,0,0,0,0,0,0,0,0,0,0,0,0,0,0,0,0,0,0,0,0,0,0,0,0,0,0,0,0,0,0,0,0,0,0,0,0,0,0,0,0,0,2,70
guava,v12.0,v13.0,F:/corpus/guava/guava#2012-05-01-02-04-06#v12.0#72d2812/guava/src/com/google/common/collect/TreeMultiset.java,F:/corpus/guava/guava#2012-08-03-04-19-28#v13.0#c851167/guava/src/com/google/common/collect/TreeMultiset.java,0,0,0,0,1,0,0,0,0,0,0,1,0,YES,0,0,0,1,9,1,0,1,0,1,0,0,4,0,0,0,3,0,0,0,2,1,0,1,1,1,1,0,0,0,0,0,0,8,13,3,0,0,0,0,1,0,28,64,1,4,7,0,425,594
guava,v12.0,v13.0,F:/corpus/guava/guava#2012-05-01-02-04-06#v12.0#72d2812/guava/src/com/google/common/eventbus/AnnotatedHandlerFinder.java,F:/corpus/guava/guava#2012-08-03-04-19-28#v13.0#c851167/guava/src/com/google/common/eventbus/AnnotatedHandlerFinder.java,0,0,0,0,0,0,0,0,0,0,0,0,0,YES,0,0,0,0,0,0,0,0,0,0,0,0,2,0,0,1,0,0,0,1,0,0,0,0,0,0,0,0,0,0,0,0,0,0,0,0,0,0,0,0,0,0,3,6,0,2,2,0,26,98
guava,v12.0,v13.0,F:/corpus/guava/guava#2012-05-01-02-04-06#v12.0#72d2812/guava/src/com/google/common/eventbus/AsyncEventBus.java,F:/corpus/guava/guava#2012-08-03-04-19-28#v13.0#c851167/guava/src/com/google/common/eventbus/AsyncEventBus.java,0,0,0,0,0,0,0,0,0,0,0,0,0,YES,0,0,0,0,0,0,0,0,0,0,0,0,0,0,0,0,2,0,0,0,0,0,0,0,0,0,0,0,0,0,0,0,0,0,0,0,0,0,0,0,0,0,0,0,0,0,0,0,3,100
guava,v12.0,v13.0,F:/corpus/guava/guava#2012-05-01-02-04-06#v12.0#72d2812/guava/src/com/google/common/eventbus/EventBus.java,F:/corpus/guava/guava#2012-08-03-04-19-28#v13.0#c851167/guava/src/com/google/common/eventbus/EventBus.java,0,0,0,0,0,0,0,0,0,0,0,0,0,YES,0,0,0,0,0,0,0,0,0,0,0,0,0,0,0,0,3,0,0,2,0,0,0,0,0,0,0,0,0,0,0,0,0,0,0,0,1,0,0,0,0,0,0,0,0,0,0,0,35,373
guava,v12.0,v13.0,F:/corpus/guava/guava#2012-05-01-02-04-06#v12.0#72d2812/guava/src/com/google/common/eventbus/package-info.java,F:/corpus/guava/guava#2012-08-03-04-19-28#v13.0#c851167/guava/src/com/google/common/eventbus/package-info.java,0,0,0,0,0,0,0,0,0,0,0,0,0,YES,0,0,0,0,0,0,0,0,0,0,0,0,0,0,0,0,0,0,0,0,0,0,0,0,0,0,0,0,0,0,0,0,0,0,0,0,0,0,0,0,0,0,0,0,0,0,0,0,14,268
guava,v12.0,v13.0,F:/corpus/guava/guava#2012-05-01-02-04-06#v12.0#72d2812/guava/src/com/google/common/hash/AbstractCompositeHashFunction.java,F:/corpus/guava/guava#2012-08-03-04-19-28#v13.0#c851167/guava/src/com/google/common/hash/AbstractCompositeHashFunction.java,0,0,0,0,1,0,0,0,0,1,0,0,0,YES,0,0,0,0,0,0,0,0,0,0,0,0,0,0,0,0,0,0,0,0,0,0,0,0,0,0,0,0,0,0,0,0,0,0,0,0,0,0,0,0,0,0,0,0,0,0,0,0,7,134
guava,v12.0,v13.0,F:/corpus/guava/guava#2012-05-01-02-04-06#v12.0#72d2812/guava/src/com/google/common/hash/AbstractHasher.java,F:/corpus/guava/guava#2012-08-03-04-19-28#v13.0#c851167/guava/src/com/google/common/hash/AbstractHasher.java,0,0,0,0,0,0,0,0,0,0,0,0,0,YES,0,0,0,0,0,0,0,0,0,0,0,1,0,0,0,0,0,0,0,1,0,0,0,0,0,0,0,0,0,0,0,0,0,0,0,0,0,0,0,0,0,0,1,6,0,0,0,0,5,49
guava,v12.0,v13.0,F:/corpus/guava/guava#2012-05-01-02-04-06#v12.0#72d2812/guava/src/com/google/common/hash/AbstractNonStreamingHashFunction.java,F:/corpus/guava/guava#2012-08-03-04-19-28#v13.0#c851167/guava/src/com/google/common/hash/AbstractNonStreamingHashFunction.java,0,0,0,0,0,0,0,0,0,0,0,0,0,YES,0,0,0,0,5,0,0,0,0,0,0,0,0,0,0,0,0,0,0,1,0,0,0,0,0,0,0,0,0,0,0,0,0,0,0,0,0,0,0,0,0,0,0,0,0,0,0,0,11,118
guava,v12.0,v13.0,F:/corpus/guava/guava#2012-05-01-02-04-06#v12.0#72d2812/guava/src/com/google/common/hash/AbstractStreamingHashFunction.java,F:/corpus/guava/guava#2012-08-03-04-19-28#v13.0#c851167/guava/src/com/google/common/hash/AbstractStreamingHashFunction.java,0,0,0,0,0,0,0,0,0,0,0,0,0,YES,0,0,0,0,0,0,0,0,0,0,0,0,0,0,0,0,0,0,0,0,0,0,0,0,0,0,0,0,0,0,0,0,0,0,0,0,0,0,0,0,0,0,0,0,0,0,0,0,2,253
guava,v12.0,v13.0,F:/corpus/guava/guava#2012-05-01-02-04-06#v12.0#72d2812/guava/src/com/google/common/hash/BloomFilter.java,F:/corpus/guava/guava#2012-08-03-04-19-28#v13.0#c851167/guava/src/com/google/common/hash/BloomFilter.java,0,0,0,0,1,0,0,0,0,0,0,0,0,YES,0,0,0,0,1,0,0,0,0,0,0,0,0,0,0,0,0,0,0,0,0,0,0,0,0,0,0,0,0,0,0,0,0,0,1,0,0,0,0,0,0,0,0,2,0,0,1,0,31,306
guava,v12.0,v13.0,F:/corpus/guava/guava#2012-05-01-02-04-06#v12.0#72d2812/guava/src/com/google/common/hash/BloomFilterStrategies.java,F:/corpus/guava/guava#2012-08-03-04-19-28#v13.0#c851167/guava/src/com/google/common/hash/BloomFilterStrategies.java,0,0,0,0,0,0,0,0,0,0,0,0,0,YES,0,0,0,0,0,0,0,0,0,0,0,0,0,0,0,0,0,0,0,0,0,0,0,0,0,0,0,0,0,0,0,0,0,0,0,0,0,0,0,0,0,0,0,0,0,0,0,0,15,124
guava,v12.0,v13.0,F:/corpus/guava/guava#2012-05-01-02-04-06#v12.0#72d2812/guava/src/com/google/common/hash/Funnels.java,F:/corpus/guava/guava#2012-08-03-04-19-28#v13.0#c851167/guava/src/com/google/common/hash/Funnels.java,0,0,0,0,0,0,0,0,0,0,0,0,0,YES,0,0,0,1,3,0,0,0,0,0,0,0,0,0,0,0,0,0,0,0,0,0,0,0,0,0,0,0,0,0,0,0,0,0,0,0,0,0,0,0,0,0,0,0,0,0,0,0,83,66
guava,v12.0,v13.0,F:/corpus/guava/guava#2012-05-01-02-04-06#v12.0#72d2812/guava/src/com/google/common/hash/HashCodes.java,F:/corpus/guava/guava#2012-08-03-04-19-28#v13.0#c851167/guava/src/com/google/common/hash/HashCodes.java,0,0,0,0,0,0,0,0,0,0,0,1,0,YES,0,0,0,0,0,0,0,0,0,0,0,0,0,0,0,0,0,0,0,0,0,0,0,0,0,0,0,0,0,0,0,0,0,0,0,0,0,0,0,0,0,0,0,0,0,0,0,0,1,171
guava,v12.0,v13.0,F:/corpus/guava/guava#2012-05-01-02-04-06#v12.0#72d2812/guava/src/com/google/common/hash/HashFunction.java,F:/corpus/guava/guava#2012-08-03-04-19-28#v13.0#c851167/guava/src/com/google/common/hash/HashFunction.java,0,0,0,0,0,0,0,0,0,0,0,0,0,YES,0,0,0,0,0,0,0,0,0,0,0,0,0,0,0,0,0,0,0,0,0,0,0,0,0,0,0,0,0,0,0,0,0,0,0,0,0,0,0,0,0,0,0,0,0,0,0,0,1,206
guava,v12.0,v13.0,F:/corpus/guava/guava#2012-05-01-02-04-06#v12.0#72d2812/guava/src/com/google/common/hash/Hasher.java,F:/corpus/guava/guava#2012-08-03-04-19-28#v13.0#c851167/guava/src/com/google/common/hash/Hasher.java,0,0,0,0,0,0,0,0,0,0,0,0,0,YES,0,0,0,0,0,0,0,0,0,0,0,0,0,0,0,0,0,0,0,0,0,0,0,0,0,0,0,0,0,0,0,0,0,0,0,0,0,0,0,0,0,0,0,0,0,0,0,0,8,69
guava,v12.0,v13.0,F:/corpus/guava/guava#2012-05-01-02-04-06#v12.0#72d2812/guava/src/com/google/common/hash/Hashing.java,F:/corpus/guava/guava#2012-08-03-04-19-28#v13.0#c851167/guava/src/com/google/common/hash/Hashing.java,0,0,0,0,0,0,0,0,0,0,0,0,0,YES,0,0,0,1,0,2,2,0,0,0,0,1,0,2,1,0,0,0,0,3,0,0,0,0,0,0,0,0,0,0,0,0,0,0,0,0,0,0,0,0,0,0,5,4,1,6,2,0,66,308
guava,v12.0,v13.0,F:/corpus/guava/guava#2012-05-01-02-04-06#v12.0#72d2812/guava/src/com/google/common/hash/MessageDigestHashFunction.java,F:/corpus/guava/guava#2012-08-03-04-19-28#v13.0#c851167/guava/src/com/google/common/hash/MessageDigestHashFunction.java,0,0,0,0,0,0,0,0,0,0,0,0,0,YES,0,0,0,0,0,0,0,0,0,0,0,0,0,0,0,0,0,0,0,0,0,0,0,0,0,0,0,0,0,0,0,0,0,0,0,0,0,0,0,0,0,0,0,0,0,0,0,0,6,169
guava,v12.0,v13.0,F:/corpus/guava/guava#2012-05-01-02-04-06#v12.0#72d2812/guava/src/com/google/common/hash/Murmur3_128HashFunction.java,F:/corpus/guava/guava#2012-08-03-04-19-28#v13.0#c851167/guava/src/com/google/common/hash/Murmur3_128HashFunction.java,0,0,0,0,0,0,0,0,0,0,0,0,1,YES,0,0,0,0,2,4,0,0,0,0,0,2,0,6,0,0,2,0,0,1,0,0,0,0,0,0,0,0,0,0,0,0,0,0,0,3,0,0,0,0,0,0,23,12,0,0,7,0,58,165
guava,v12.0,v13.0,F:/corpus/guava/guava#2012-05-01-02-04-06#v12.0#72d2812/guava/src/com/google/common/hash/Murmur3_32HashFunction.java,F:/corpus/guava/guava#2012-08-03-04-19-28#v13.0#c851167/guava/src/com/google/common/hash/Murmur3_32HashFunction.java,0,0,0,0,0,0,0,0,0,0,0,0,0,YES,0,0,0,0,6,4,0,0,0,0,0,1,0,0,0,0,1,0,0,1,0,0,0,0,0,0,0,0,0,0,0,0,0,0,0,3,0,0,0,0,0,0,20,9,0,0,2,0,116,103
guava,v12.0,v13.0,F:/corpus/guava/guava#2012-05-01-02-04-06#v12.0#72d2812/guava/src/com/google/common/io/ByteStreams.java,F:/corpus/guava/guava#2012-08-03-04-19-28#v13.0#c851167/guava/src/com/google/common/io/ByteStreams.java,0,0,0,0,0,0,1,0,0,0,0,1,0,YES,0,0,0,0,0,0,0,0,0,0,0,0,0,0,0,0,0,0,0,1,0,0,0,0,0,0,0,0,0,0,0,0,0,0,1,0,0,0,0,0,0,0,1,2,0,0,1,0,49,913
guava,v12.0,v13.0,F:/corpus/guava/guava#2012-05-01-02-04-06#v12.0#72d2812/guava/src/com/google/common/io/CharStreams.java,F:/corpus/guava/guava#2012-08-03-04-19-28#v13.0#c851167/guava/src/com/google/common/io/CharStreams.java,0,0,0,0,0,0,0,0,0,0,0,0,0,YES,0,0,0,0,0,0,0,0,0,0,0,0,0,0,0,0,0,0,0,0,0,0,0,0,0,0,0,0,0,0,0,0,0,0,0,0,0,0,0,0,0,0,5,3,0,2,1,0,7,444
guava,v12.0,v13.0,F:/corpus/guava/guava#2012-05-01-02-04-06#v12.0#72d2812/guava/src/com/google/common/io/Files.java,F:/corpus/guava/guava#2012-08-03-04-19-28#v13.0#c851167/guava/src/com/google/common/io/Files.java,0,0,0,0,0,1,0,0,0,0,0,0,0,YES,0,0,0,0,0,0,0,0,0,0,0,0,0,0,0,0,0,0,0,0,0,0,0,0,0,0,0,0,0,0,0,0,0,0,1,0,0,0,0,0,0,0,0,0,0,0,0,0,20,800
guava,v12.0,v13.0,F:/corpus/guava/guava#2012-05-01-02-04-06#v12.0#72d2812/guava/src/com/google/common/io/PatternFilenameFilter.java,F:/corpus/guava/guava#2012-08-03-04-19-28#v13.0#c851167/guava/src/com/google/common/io/PatternFilenameFilter.java,0,0,0,0,1,0,0,0,0,0,0,0,0,YES,0,0,0,0,0,0,0,0,0,0,0,0,0,0,0,0,0,0,0,0,0,0,0,0,0,0,0,0,0,0,0,0,0,0,0,0,0,0,0,0,0,0,0,0,0,0,0,0,2,62
guava,v12.0,v13.0,F:/corpus/guava/guava#2012-05-01-02-04-06#v12.0#72d2812/guava/src/com/google/common/math/BigIntegerMath.java,F:/corpus/guava/guava#2012-08-03-04-19-28#v13.0#c851167/guava/src/com/google/common/math/BigIntegerMath.java,0,0,0,0,0,0,0,0,0,0,0,0,2,YES,0,0,0,0,0,2,0,2,0,0,0,1,5,0,0,0,0,0,0,0,0,0,0,0,0,0,0,0,0,0,0,0,0,0,0,0,0,0,0,0,0,0,14,29,1,2,8,0,30,401
guava,v12.0,v13.0,F:/corpus/guava/guava#2012-05-01-02-04-06#v12.0#72d2812/guava/src/com/google/common/math/DoubleMath.java,F:/corpus/guava/guava#2012-08-03-04-19-28#v13.0#c851167/guava/src/com/google/common/math/DoubleMath.java,0,0,0,0,0,0,0,0,0,0,0,0,1,YES,0,0,0,0,2,0,2,4,0,0,0,2,0,0,0,2,0,0,0,1,0,0,0,0,0,0,0,0,0,0,0,0,0,0,0,0,0,0,0,0,0,0,9,11,2,4,7,0,96,302
guava,v12.0,v13.0,F:/corpus/guava/guava#2012-05-01-02-04-06#v12.0#72d2812/guava/src/com/google/common/math/DoubleUtils.java,F:/corpus/guava/guava#2012-08-03-04-19-28#v13.0#c851167/guava/src/com/google/common/math/DoubleUtils.java,0,0,0,0,0,0,0,0,0,0,0,0,0,YES,0,0,0,0,0,0,0,0,0,0,0,0,0,0,0,1,0,0,0,1,0,0,0,0,0,0,0,0,0,0,0,0,0,0,0,0,0,0,0,0,0,0,0,0,0,0,10,0,26,142
guava,v12.0,v13.0,F:/corpus/guava/guava#2012-05-01-02-04-06#v12.0#72d2812/guava/src/com/google/common/math/IntMath.java,F:/corpus/guava/guava#2012-08-03-04-19-28#v13.0#c851167/guava/src/com/google/common/math/IntMath.java,0,0,0,0,0,0,0,0,0,0,0,0,2,YES,0,0,0,0,0,1,0,1,0,0,0,1,14,0,0,0,0,0,0,0,0,0,0,0,0,0,0,0,0,0,0,0,0,0,0,0,0,0,0,0,0,0,10,17,0,1,0,0,16,509
guava,v12.0,v13.0,F:/corpus/guava/guava#2012-05-01-02-04-06#v12.0#72d2812/guava/src/com/google/common/math/LongMath.java,F:/corpus/guava/guava#2012-08-03-04-19-28#v13.0#c851167/guava/src/com/google/common/math/LongMath.java,0,0,0,0,0,0,0,0,0,0,0,0,2,YES,0,0,0,0,0,1,0,1,0,0,0,2,9,0,2,0,0,0,0,0,0,0,0,0,0,0,0,0,0,0,0,0,0,0,0,0,0,0,0,0,0,0,13,11,0,0,0,0,21,645
guava,v12.0,v13.0,F:/corpus/guava/guava#2012-05-01-02-04-06#v12.0#72d2812/guava/src/com/google/common/math/MathPreconditions.java,F:/corpus/guava/guava#2012-08-03-04-19-28#v13.0#c851167/guava/src/com/google/common/math/MathPreconditions.java,0,0,0,0,0,0,0,0,0,0,0,0,0,YES,0,0,0,0,1,0,0,0,0,0,0,0,0,0,0,0,0,0,0,0,0,0,0,0,0,0,0,0,0,0,0,0,0,0,0,0,0,0,0,0,0,0,0,0,0,0,0,0,16,93
guava,v12.0,v13.0,F:/corpus/guava/guava#2012-05-01-02-04-06#v12.0#72d2812/guava/src/com/google/common/net/HostAndPort.java,F:/corpus/guava/guava#2012-08-03-04-19-28#v13.0#c851167/guava/src/com/google/common/net/HostAndPort.java,0,0,0,0,0,0,0,0,0,0,0,0,0,YES,0,0,0,0,0,1,0,0,0,0,0,0,0,0,0,0,0,0,0,0,0,0,0,0,0,0,0,0,0,0,0,0,1,0,0,0,0,0,0,0,0,0,0,0,0,0,0,0,4,265
guava,v12.0,v13.0,F:/corpus/guava/guava#2012-05-01-02-04-06#v12.0#72d2812/guava/src/com/google/common/net/InetAddresses.java,F:/corpus/guava/guava#2012-08-03-04-19-28#v13.0#c851167/guava/src/com/google/common/net/InetAddresses.java,0,0,0,0,0,0,0,0,0,0,0,0,0,YES,0,0,0,0,0,0,0,0,0,0,0,0,0,0,0,0,0,0,0,0,0,0,0,0,0,0,0,0,0,0,0,0,0,0,0,0,0,0,0,0,0,0,0,0,0,0,0,0,6,1017
guava,v12.0,v13.0,F:/corpus/guava/guava#2012-05-01-02-04-06#v12.0#72d2812/guava/src/com/google/common/net/InternetDomainName.java,F:/corpus/guava/guava#2012-08-03-04-19-28#v13.0#c851167/guava/src/com/google/common/net/InternetDomainName.java,0,0,0,0,0,0,0,0,0,0,0,0,0,YES,0,0,0,0,0,0,0,0,0,0,0,0,0,0,0,0,0,0,0,0,0,0,0,0,0,0,0,0,0,0,0,0,0,0,0,0,0,0,0,0,0,0,0,0,0,0,0,0,2,578
guava,v12.0,v13.0,F:/corpus/guava/guava#2012-05-01-02-04-06#v12.0#72d2812/guava/src/com/google/common/net/MediaType.java,F:/corpus/guava/guava#2012-08-03-04-19-28#v13.0#c851167/guava/src/com/google/common/net/MediaType.java,1,0,1,0,0,0,0,0,0,0,0,0,0,YES,0,0,0,0,0,5,0,0,0,0,0,0,0,0,0,0,0,0,0,0,0,0,0,0,0,0,0,0,0,0,0,0,0,0,0,0,0,0,0,0,0,0,0,0,0,0,0,0,10,657
guava,v12.0,v13.0,F:/corpus/guava/guava#2012-05-01-02-04-06#v12.0#72d2812/guava/src/com/google/common/net/TldPatterns.java,F:/corpus/guava/guava#2012-08-03-04-19-28#v13.0#c851167/guava/src/com/google/common/net/TldPatterns.java,0,1,0,0,0,0,0,0,0,0,0,0,0,YES,0,0,0,0,0,0,0,0,0,3,0,0,0,0,0,0,0,0,0,0,0,0,0,0,0,0,0,0,0,0,0,0,0,0,0,0,0,1,0,0,0,0,0,0,0,0,0,0,124,4604
guava,v12.0,v13.0,F:/corpus/guava/guava#2012-05-01-02-04-06#v12.0#72d2812/guava/src/com/google/common/primitives/Booleans.java,F:/corpus/guava/guava#2012-08-03-04-19-28#v13.0#c851167/guava/src/com/google/common/primitives/Booleans.java,0,0,0,0,0,0,0,0,0,0,0,0,0,YES,0,0,0,0,0,0,0,0,0,0,0,0,0,0,0,0,0,0,0,0,0,0,0,0,0,0,0,0,0,0,0,0,0,0,0,0,0,0,0,0,0,0,0,0,0,0,0,0,3,470
guava,v12.0,v13.0,F:/corpus/guava/guava#2012-05-01-02-04-06#v12.0#72d2812/guava/src/com/google/common/primitives/Bytes.java,F:/corpus/guava/guava#2012-08-03-04-19-28#v13.0#c851167/guava/src/com/google/common/primitives/Bytes.java,0,0,0,0,0,0,0,0,0,0,0,1,0,YES,0,0,0,0,0,0,0,0,0,0,0,0,0,0,0,0,0,0,0,0,0,0,0,0,0,0,0,0,0,0,0,0,0,0,0,0,0,0,0,0,0,0,0,0,0,0,0,0,3,388
guava,v12.0,v13.0,F:/corpus/guava/guava#2012-05-01-02-04-06#v12.0#72d2812/guava/src/com/google/common/primitives/Chars.java,F:/corpus/guava/guava#2012-08-03-04-19-28#v13.0#c851167/guava/src/com/google/common/primitives/Chars.java,0,0,0,0,0,0,0,0,0,0,0,0,0,YES,0,0,0,0,0,0,0,0,0,0,0,0,0,0,0,0,0,0,0,0,0,0,0,0,0,0,0,0,0,0,0,0,0,0,0,0,0,0,0,0,0,0,0,0,0,0,0,0,3,586
guava,v12.0,v13.0,F:/corpus/guava/guava#2012-05-01-02-04-06#v12.0#72d2812/guava/src/com/google/common/primitives/Doubles.java,F:/corpus/guava/guava#2012-08-03-04-19-28#v13.0#c851167/guava/src/com/google/common/primitives/Doubles.java,0,0,0,0,0,0,0,0,0,0,0,0,0,YES,0,0,0,0,0,0,0,0,0,0,0,0,0,0,0,0,0,0,0,0,0,0,0,0,0,0,0,0,0,0,0,0,0,0,0,0,0,0,0,0,0,0,0,0,0,0,0,0,4,533
guava,v12.0,v13.0,F:/corpus/guava/guava#2012-05-01-02-04-06#v12.0#72d2812/guava/src/com/google/common/primitives/Floats.java,F:/corpus/guava/guava#2012-08-03-04-19-28#v13.0#c851167/guava/src/com/google/common/primitives/Floats.java,0,0,0,0,0,0,0,0,0,0,0,0,0,YES,0,0,0,0,0,0,0,0,0,0,0,0,0,0,0,0,0,0,0,0,0,0,0,0,0,0,0,0,0,0,0,0,0,0,0,0,0,0,0,0,0,0,0,0,0,0,0,0,2,530
guava,v12.0,v13.0,F:/corpus/guava/guava#2012-05-01-02-04-06#v12.0#72d2812/guava/src/com/google/common/primitives/Ints.java,F:/corpus/guava/guava#2012-08-03-04-19-28#v13.0#c851167/guava/src/com/google/common/primitives/Ints.java,0,0,0,0,0,0,0,0,0,0,0,1,0,YES,0,0,0,0,0,0,0,0,0,0,0,0,0,0,0,0,0,0,0,0,0,0,0,0,0,0,0,0,0,0,0,0,0,0,0,0,0,0,0,0,0,0,0,0,0,0,0,0,2,619
guava,v12.0,v13.0,F:/corpus/guava/guava#2012-05-01-02-04-06#v12.0#72d2812/guava/src/com/google/common/primitives/Longs.java,F:/corpus/guava/guava#2012-08-03-04-19-28#v13.0#c851167/guava/src/com/google/common/primitives/Longs.java,0,0,0,0,0,0,0,0,0,0,1,0,0,YES,0,0,0,0,0,0,0,0,0,0,0,0,1,0,0,0,0,0,0,0,0,0,0,0,0,0,0,0,0,0,0,0,0,0,0,0,0,0,0,0,0,0,1,7,0,0,0,0,16,579
guava,v12.0,v13.0,F:/corpus/guava/guava#2012-05-01-02-04-06#v12.0#72d2812/guava/src/com/google/common/primitives/Shorts.java,F:/corpus/guava/guava#2012-08-03-04-19-28#v13.0#c851167/guava/src/com/google/common/primitives/Shorts.java,0,0,0,0,0,0,0,0,0,0,0,0,0,YES,0,0,0,0,0,0,0,0,0,0,0,0,0,0,0,0,0,0,0,0,0,0,0,0,0,0,0,0,0,0,0,0,0,0,0,0,0,0,0,0,0,0,0,0,0,0,0,0,2,592
guava,v12.0,v13.0,F:/corpus/guava/guava#2012-05-01-02-04-06#v12.0#72d2812/guava/src/com/google/common/primitives/UnsignedBytes.java,F:/corpus/guava/guava#2012-08-03-04-19-28#v13.0#c851167/guava/src/com/google/common/primitives/UnsignedBytes.java,0,0,0,0,0,0,0,0,0,0,0,0,0,YES,0,0,0,0,4,2,0,0,0,0,0,0,0,0,0,0,0,0,0,1,0,0,0,0,0,0,0,0,0,0,0,0,0,0,0,0,0,0,0,0,0,0,3,3,0,0,3,0,74,366
guava,v12.0,v13.0,F:/corpus/guava/guava#2012-05-01-02-04-06#v12.0#72d2812/guava/src/com/google/common/primitives/UnsignedInts.java,F:/corpus/guava/guava#2012-08-03-04-19-28#v13.0#c851167/guava/src/com/google/common/primitives/UnsignedInts.java,0,0,0,0,0,0,0,0,0,0,0,0,0,YES,0,0,0,0,1,0,0,0,0,0,0,0,0,0,0,0,0,0,0,0,0,0,0,0,0,0,0,0,0,0,0,0,0,0,0,0,0,0,0,0,0,0,0,0,0,0,0,0,29,246
guava,v12.0,v13.0,F:/corpus/guava/guava#2012-05-01-02-04-06#v12.0#72d2812/guava/src/com/google/common/primitives/UnsignedLongs.java,F:/corpus/guava/guava#2012-08-03-04-19-28#v13.0#c851167/guava/src/com/google/common/primitives/UnsignedLongs.java,0,0,0,0,0,0,0,0,0,0,0,0,0,YES,0,0,0,0,1,0,0,0,0,0,0,0,0,0,0,0,0,0,0,0,0,0,0,0,0,0,0,0,0,0,0,0,0,0,0,0,0,0,0,0,0,0,0,0,0,0,0,0,30,362
guava,v12.0,v13.0,F:/corpus/guava/guava#2012-05-01-02-04-06#v12.0#72d2812/guava/src/com/google/common/reflect/TypeResolver.java,F:/corpus/guava/guava#2012-08-03-04-19-28#v13.0#c851167/guava/src/com/google/common/reflect/TypeResolver.java,0,0,0,0,0,0,0,0,0,0,0,0,0,YES,0,0,0,0,2,0,0,2,0,0,0,0,0,0,0,5,0,0,0,2,3,2,2,2,0,0,0,0,0,0,0,0,0,0,0,0,0,0,0,0,0,0,0,22,0,3,12,0,85,330
guava,v12.0,v13.0,F:/corpus/guava/guava#2012-05-01-02-04-06#v12.0#72d2812/guava/src/com/google/common/reflect/TypeToken.java,F:/corpus/guava/guava#2012-08-03-04-19-28#v13.0#c851167/guava/src/com/google/common/reflect/TypeToken.java,0,0,0,0,1,0,0,0,0,0,0,0,0,YES,2,0,1,1,7,1,5,2,0,0,0,2,2,1,1,0,0,0,0,1,0,0,0,0,0,0,0,0,0,0,0,0,0,0,4,0,0,0,0,0,0,0,19,13,0,0,6,0,256,928
guava,v12.0,v13.0,F:/corpus/guava/guava#2012-05-01-02-04-06#v12.0#72d2812/guava/src/com/google/common/reflect/Types.java,F:/corpus/guava/guava#2012-08-03-04-19-28#v13.0#c851167/guava/src/com/google/common/reflect/Types.java,0,0,0,0,0,0,0,0,0,0,0,1,0,YES,0,0,0,0,2,0,0,0,0,0,0,0,0,0,0,0,0,0,0,0,0,0,0,0,0,0,0,0,0,0,0,0,0,0,0,0,0,0,0,0,0,0,0,0,0,0,0,0,27,491
guava,v12.0,v13.0,F:/corpus/guava/guava#2012-05-01-02-04-06#v12.0#72d2812/guava/src/com/google/common/util/concurrent/AbstractExecutionThreadService.java,F:/corpus/guava/guava#2012-08-03-04-19-28#v13.0#c851167/guava/src/com/google/common/util/concurrent/AbstractExecutionThreadService.java,0,0,0,0,0,1,0,0,0,0,0,0,0,YES,0,0,0,0,1,0,0,0,0,0,0,0,0,0,0,0,0,0,1,0,1,0,0,0,0,0,0,0,0,0,0,0,0,0,0,0,0,0,0,0,0,0,0,0,0,0,0,0,19,178
guava,v12.0,v13.0,F:/corpus/guava/guava#2012-05-01-02-04-06#v12.0#72d2812/guava/src/com/google/common/util/concurrent/AbstractFuture.java,F:/corpus/guava/guava#2012-08-03-04-19-28#v13.0#c851167/guava/src/com/google/common/util/concurrent/AbstractFuture.java,0,0,0,0,2,0,0,0,0,0,0,2,0,YES,0,0,0,0,0,0,0,0,0,0,0,0,0,0,0,0,0,0,1,0,1,0,0,0,0,0,0,0,0,0,0,0,0,0,0,0,0,0,0,0,0,0,0,0,0,0,0,0,5,366
guava,v12.0,v13.0,F:/corpus/guava/guava#2012-05-01-02-04-06#v12.0#72d2812/guava/src/com/google/common/util/concurrent/AbstractIdleService.java,F:/corpus/guava/guava#2012-08-03-04-19-28#v13.0#c851167/guava/src/com/google/common/util/concurrent/AbstractIdleService.java,0,0,0,0,1,1,0,0,0,0,0,0,0,YES,0,0,0,0,1,0,0,0,0,0,0,0,0,0,0,0,0,0,0,0,0,0,0,0,0,0,0,0,0,0,0,0,0,0,0,0,0,0,0,0,0,0,0,0,0,0,0,0,1,128
guava,v12.0,v13.0,F:/corpus/guava/guava#2012-05-01-02-04-06#v12.0#72d2812/guava/src/com/google/common/util/concurrent/AbstractListeningExecutorService.java,F:/corpus/guava/guava#2012-08-03-04-19-28#v13.0#c851167/guava/src/com/google/common/util/concurrent/AbstractListeningExecutorService.java,0,0,0,0,0,0,0,0,0,0,0,0,0,YES,0,0,0,0,0,0,0,0,0,0,0,0,0,0,0,0,0,0,0,0,0,0,0,0,0,0,0,0,0,0,0,0,0,0,1,0,0,0,0,0,0,0,0,0,0,0,2,0,76,236
guava,v12.0,v13.0,F:/corpus/guava/guava#2012-05-01-02-04-06#v12.0#72d2812/guava/src/com/google/common/util/concurrent/AbstractScheduledService.java,F:/corpus/guava/guava#2012-08-03-04-19-28#v13.0#c851167/guava/src/com/google/common/util/concurrent/AbstractScheduledService.java,0,0,1,0,2,1,1,0,0,0,0,0,0,YES,0,0,0,0,1,0,0,0,0,0,0,0,0,0,0,0,0,0,0,0,0,0,0,0,0,0,0,0,0,0,0,0,0,0,0,0,0,0,0,0,0,0,0,0,0,0,0,0,94,441
guava,v12.0,v13.0,F:/corpus/guava/guava#2012-05-01-02-04-06#v12.0#72d2812/guava/src/com/google/common/util/concurrent/AbstractService.java,F:/corpus/guava/guava#2012-08-03-04-19-28#v13.0#c851167/guava/src/com/google/common/util/concurrent/AbstractService.java,0,0,0,0,0,1,0,0,0,0,0,0,0,YES,0,0,0,2,7,4,7,1,0,0,0,2,4,0,0,4,0,0,0,1,1,0,0,0,0,0,0,0,0,0,0,0,0,0,0,2,0,0,0,0,0,0,25,44,0,4,8,0,287,256
guava,v12.0,v13.0,F:/corpus/guava/guava#2012-05-01-02-04-06#v12.0#72d2812/guava/src/com/google/common/util/concurrent/AtomicLongMap.java,F:/corpus/guava/guava#2012-08-03-04-19-28#v13.0#c851167/guava/src/com/google/common/util/concurrent/AtomicLongMap.java,0,0,0,0,0,0,0,0,0,0,0,0,0,YES,0,0,0,0,0,0,0,0,0,0,0,0,0,0,0,0,0,0,0,0,0,0,0,0,0,0,0,0,0,0,0,0,0,0,0,0,0,0,0,0,0,0,0,0,0,0,0,0,1,420
guava,v12.0,v13.0,F:/corpus/guava/guava#2012-05-01-02-04-06#v12.0#72d2812/guava/src/com/google/common/util/concurrent/ForwardingService.java,F:/corpus/guava/guava#2012-08-03-04-19-28#v13.0#c851167/guava/src/com/google/common/util/concurrent/ForwardingService.java,0,0,0,0,1,0,0,0,0,0,0,0,0,YES,0,0,0,0,1,0,0,0,0,0,0,0,0,0,0,0,0,0,0,0,0,0,0,0,0,0,0,0,0,0,0,0,0,0,0,0,0,0,0,0,0,0,0,0,0,0,0,0,6,80
guava,v12.0,v13.0,F:/corpus/guava/guava#2012-05-01-02-04-06#v12.0#72d2812/guava/src/com/google/common/util/concurrent/Futures.java,F:/corpus/guava/guava#2012-08-03-04-19-28#v13.0#c851167/guava/src/com/google/common/util/concurrent/Futures.java,0,1,0,0,0,0,0,0,0,0,0,1,0,YES,0,0,0,0,1,1,0,0,0,0,0,0,0,0,0,0,0,0,0,6,0,0,0,0,0,0,0,0,0,0,0,0,0,0,0,0,0,0,0,0,0,0,0,0,0,0,0,0,120,1218
guava,v12.0,v13.0,F:/corpus/guava/guava#2012-05-01-02-04-06#v12.0#72d2812/guava/src/com/google/common/util/concurrent/JdkFutureAdapters.java,F:/corpus/guava/guava#2012-08-03-04-19-28#v13.0#c851167/guava/src/com/google/common/util/concurrent/JdkFutureAdapters.java,0,0,0,0,0,0,0,0,0,0,0,0,0,YES,0,0,0,0,0,0,0,0,0,0,0,0,0,0,0,2,0,0,0,0,0,0,0,0,0,0,0,0,0,0,0,0,0,0,0,0,0,0,0,0,0,0,0,0,0,0,0,0,2,182
guava,v12.0,v13.0,F:/corpus/guava/guava#2012-05-01-02-04-06#v12.0#72d2812/guava/src/com/google/common/util/concurrent/ListenableFuture.java,F:/corpus/guava/guava#2012-08-03-04-19-28#v13.0#c851167/guava/src/com/google/common/util/concurrent/ListenableFuture.java,0,0,0,0,1,0,0,0,0,0,0,0,0,YES,0,0,0,0,0,0,0,0,0,0,0,0,0,0,0,0,0,0,0,1,0,0,0,0,0,0,0,0,0,0,0,0,0,0,0,0,0,0,0,0,0,0,0,0,0,0,0,0,14,127
guava,v12.0,v13.0,F:/corpus/guava/guava#2012-05-01-02-04-06#v12.0#72d2812/guava/src/com/google/common/util/concurrent/MoreExecutors.java,F:/corpus/guava/guava#2012-08-03-04-19-28#v13.0#c851167/guava/src/com/google/common/util/concurrent/MoreExecutors.java,0,0,1,0,0,0,0,0,0,0,0,1,0,YES,0,0,0,0,2,0,0,0,0,0,0,0,0,0,0,0,0,0,0,0,0,0,0,0,0,0,0,0,0,0,0,0,0,0,0,0,0,0,0,0,0,0,0,0,0,0,1,0,110,478
guava,v12.0,v13.0,F:/corpus/guava/guava#2012-05-01-02-04-06#v12.0#72d2812/guava/src/com/google/common/util/concurrent/Service.java,F:/corpus/guava/guava#2012-08-03-04-19-28#v13.0#c851167/guava/src/com/google/common/util/concurrent/Service.java,0,0,0,0,0,0,0,0,0,0,0,0,0,YES,0,0,0,1,1,0,0,0,0,0,0,0,0,0,0,0,0,0,0,1,0,0,0,0,0,0,0,0,0,0,0,0,0,0,0,0,0,0,0,0,0,0,0,0,0,0,0,0,162,183
guava,v12.0,v13.0,F:/corpus/guava/guava#2012-05-01-02-04-06#v12.0#72d2812/guava/src/com/google/common/annotations/GwtCompatible.java,F:/corpus/guava/guava#2012-05-01-02-04-06#v12.0#72d2812/guava/src/com/google/common/annotations/GwtCompatible.java,0,0,0,0,0,0,0,0,0,0,0,0,0,NO,0,0,0,0,0,0,0,0,0,0,0,0,0,0,0,0,0,0,0,0,0,0,0,0,0,0,0,0,0,0,0,0,0,0,0,0,0,0,0,0,0,0,0,0,0,0,0,0,0,88
guava,v12.0,v13.0,F:/corpus/guava/guava#2012-05-01-02-04-06#v12.0#72d2812/guava/src/com/google/common/annotations/package-info.java,F:/corpus/guava/guava#2012-05-01-02-04-06#v12.0#72d2812/guava/src/com/google/common/annotations/package-info.java,0,0,0,0,0,0,0,0,0,0,0,0,0,NO,0,0,0,0,0,0,0,0,0,0,0,0,0,0,0,0,0,0,0,0,0,0,0,0,0,0,0,0,0,0,0,0,0,0,0,0,0,0,0,0,0,0,0,0,0,0,0,0,0,21
guava,v12.0,v13.0,F:/corpus/guava/guava#2012-05-01-02-04-06#v12.0#72d2812/guava/src/com/google/common/base/Absent.java,F:/corpus/guava/guava#2012-05-01-02-04-06#v12.0#72d2812/guava/src/com/google/common/base/Absent.java,0,0,0,0,0,0,0,0,0,0,0,0,0,NO,0,0,0,0,0,0,0,0,0,0,0,0,0,0,0,0,0,0,0,0,0,0,0,0,0,0,0,0,0,0,0,0,0,0,0,0,0,0,0,0,0,0,0,0,0,0,0,0,0,87
guava,v12.0,v13.0,F:/corpus/guava/guava#2012-05-01-02-04-06#v12.0#72d2812/guava/src/com/google/common/base/AbstractIterator.java,F:/corpus/guava/guava#2012-05-01-02-04-06#v12.0#72d2812/guava/src/com/google/common/base/AbstractIterator.java,0,0,0,0,1,0,0,0,0,0,0,0,0,NO,0,0,0,0,0,0,0,0,0,0,0,0,0,0,0,0,0,0,0,0,0,0,0,0,0,0,0,0,0,0,0,0,0,0,0,0,0,0,0,0,0,0,0,0,0,0,0,0,0,84
guava,v12.0,v13.0,F:/corpus/guava/guava#2012-05-01-02-04-06#v12.0#72d2812/guava/src/com/google/common/base/CaseFormat.java,F:/corpus/guava/guava#2012-05-01-02-04-06#v12.0#72d2812/guava/src/com/google/common/base/CaseFormat.java,0,0,0,0,0,0,0,0,0,0,0,0,0,NO,0,0,0,0,0,0,0,0,0,0,0,0,0,0,0,0,0,0,0,0,0,0,0,0,0,0,0,0,0,0,0,0,0,0,0,0,0,0,0,0,0,0,0,0,0,0,0,0,0,164
guava,v12.0,v13.0,F:/corpus/guava/guava#2012-05-01-02-04-06#v12.0#72d2812/guava/src/com/google/common/base/Charsets.java,F:/corpus/guava/guava#2012-05-01-02-04-06#v12.0#72d2812/guava/src/com/google/common/base/Charsets.java,1,0,0,0,0,0,0,0,0,0,0,0,0,NO,0,0,0,0,0,0,0,0,0,0,0,0,0,0,0,0,0,0,0,0,0,0,0,0,0,0,0,0,0,0,0,0,0,0,0,0,0,0,0,0,0,0,0,0,0,0,0,0,0,83
guava,v12.0,v13.0,F:/corpus/guava/guava#2012-05-01-02-04-06#v12.0#72d2812/guava/src/com/google/common/base/Defaults.java,F:/corpus/guava/guava#2012-05-01-02-04-06#v12.0#72d2812/guava/src/com/google/common/base/Defaults.java,0,0,0,0,0,0,0,0,0,0,0,0,0,NO,0,0,0,0,0,0,0,0,0,0,0,0,0,0,0,0,0,0,0,0,0,0,0,0,0,0,0,0,0,0,0,0,0,0,0,0,0,0,0,0,0,0,0,0,0,0,0,0,0,60
guava,v12.0,v13.0,F:/corpus/guava/guava#2012-05-01-02-04-06#v12.0#72d2812/guava/src/com/google/common/base/Enums.java,F:/corpus/guava/guava#2012-05-01-02-04-06#v12.0#72d2812/guava/src/com/google/common/base/Enums.java,0,0,0,0,0,0,0,0,0,0,0,0,0,NO,0,0,0,0,0,0,0,0,0,0,0,0,0,0,0,0,0,0,0,0,0,0,0,0,0,0,0,0,0,0,0,0,0,0,0,0,0,0,0,0,0,0,0,0,0,0,0,0,0,128
guava,v12.0,v13.0,F:/corpus/guava/guava#2012-05-01-02-04-06#v12.0#72d2812/guava/src/com/google/common/base/FinalizablePhantomReference.java,F:/corpus/guava/guava#2012-05-01-02-04-06#v12.0#72d2812/guava/src/com/google/common/base/FinalizablePhantomReference.java,0,0,0,0,1,0,0,0,0,0,0,0,0,NO,0,0,0,0,0,0,0,0,0,0,0,0,0,0,0,0,0,0,0,0,0,0,0,0,0,0,0,0,0,0,0,0,0,0,0,0,0,0,0,0,0,0,0,0,0,0,0,0,0,44
guava,v12.0,v13.0,F:/corpus/guava/guava#2012-05-01-02-04-06#v12.0#72d2812/guava/src/com/google/common/base/FinalizableReference.java,F:/corpus/guava/guava#2012-05-01-02-04-06#v12.0#72d2812/guava/src/com/google/common/base/FinalizableReference.java,0,0,0,0,0,0,0,0,0,0,0,0,0,NO,0,0,0,0,0,0,0,0,0,0,0,0,0,0,0,0,0,0,0,0,0,0,0,0,0,0,0,0,0,0,0,0,0,0,0,0,0,0,0,0,0,0,0,0,0,0,0,0,0,33
guava,v12.0,v13.0,F:/corpus/guava/guava#2012-05-01-02-04-06#v12.0#72d2812/guava/src/com/google/common/base/FinalizableReferenceQueue.java,F:/corpus/guava/guava#2012-05-01-02-04-06#v12.0#72d2812/guava/src/com/google/common/base/FinalizableReferenceQueue.java,0,0,0,0,0,1,0,0,0,0,0,0,0,NO,0,0,0,0,0,0,0,0,0,0,0,0,0,0,0,0,0,0,0,0,0,0,0,0,0,0,0,0,0,0,0,0,0,0,0,0,0,0,0,0,0,0,0,0,0,0,0,0,0,299
guava,v12.0,v13.0,F:/corpus/guava/guava#2012-05-01-02-04-06#v12.0#72d2812/guava/src/com/google/common/base/FinalizableSoftReference.java,F:/corpus/guava/guava#2012-05-01-02-04-06#v12.0#72d2812/guava/src/com/google/common/base/FinalizableSoftReference.java,0,0,0,0,1,0,0,0,0,0,0,0,0,NO,0,0,0,0,0,0,0,0,0,0,0,0,0,0,0,0,0,0,0,0,0,0,0,0,0,0,0,0,0,0,0,0,0,0,0,0,0,0,0,0,0,0,0,0,0,0,0,0,0,42
guava,v12.0,v13.0,F:/corpus/guava/guava#2012-05-01-02-04-06#v12.0#72d2812/guava/src/com/google/common/base/FinalizableWeakReference.java,F:/corpus/guava/guava#2012-05-01-02-04-06#v12.0#72d2812/guava/src/com/google/common/base/FinalizableWeakReference.java,0,0,0,0,1,0,0,0,0,0,0,0,0,NO,0,0,0,0,0,0,0,0,0,0,0,0,0,0,0,0,0,0,0,0,0,0,0,0,0,0,0,0,0,0,0,0,0,0,0,0,0,0,0,0,0,0,0,0,0,0,0,0,0,42
guava,v12.0,v13.0,F:/corpus/guava/guava#2012-05-01-02-04-06#v12.0#72d2812/guava/src/com/google/common/base/Function.java,F:/corpus/guava/guava#2012-05-01-02-04-06#v12.0#72d2812/guava/src/com/google/common/base/Function.java,0,0,0,0,1,0,0,0,0,0,0,0,0,NO,0,0,0,0,0,0,0,0,0,0,0,0,0,0,0,0,0,0,0,0,0,0,0,0,0,0,0,0,0,0,0,0,0,0,0,0,0,0,0,0,0,0,0,0,0,0,0,0,0,63
guava,v12.0,v13.0,F:/corpus/guava/guava#2012-05-01-02-04-06#v12.0#72d2812/guava/src/com/google/common/base/FunctionalEquivalence.java,F:/corpus/guava/guava#2012-05-01-02-04-06#v12.0#72d2812/guava/src/com/google/common/base/FunctionalEquivalence.java,0,0,0,0,0,0,0,0,0,0,0,0,0,NO,0,0,0,0,0,0,0,0,0,0,0,0,0,0,0,0,0,0,0,0,0,0,0,0,0,0,0,0,0,0,0,0,0,0,0,0,0,0,0,0,0,0,0,0,0,0,0,0,0,77
guava,v12.0,v13.0,F:/corpus/guava/guava#2012-05-01-02-04-06#v12.0#72d2812/guava/src/com/google/common/base/Functions.java,F:/corpus/guava/guava#2012-05-01-02-04-06#v12.0#72d2812/guava/src/com/google/common/base/Functions.java,0,0,0,0,2,0,0,0,0,0,0,3,0,NO,0,0,0,0,0,0,0,0,0,0,0,0,0,0,0,0,0,0,0,0,0,0,0,0,0,0,0,0,0,0,0,0,0,0,0,0,0,0,0,0,0,0,0,0,0,0,0,0,0,356
guava,v12.0,v13.0,F:/corpus/guava/guava#2012-05-01-02-04-06#v12.0#72d2812/guava/src/com/google/common/base/Objects.java,F:/corpus/guava/guava#2012-05-01-02-04-06#v12.0#72d2812/guava/src/com/google/common/base/Objects.java,0,0,1,0,0,0,0,0,0,0,0,6,0,NO,0,0,0,0,0,0,0,0,0,0,0,0,0,0,0,0,0,0,0,0,0,0,0,0,0,0,0,0,0,0,0,0,0,0,0,0,0,0,0,0,0,0,0,0,0,0,0,0,0,440
guava,v12.0,v13.0,F:/corpus/guava/guava#2012-05-01-02-04-06#v12.0#72d2812/guava/src/com/google/common/base/package-info.java,F:/corpus/guava/guava#2012-05-01-02-04-06#v12.0#72d2812/guava/src/com/google/common/base/package-info.java,0,0,0,0,0,0,0,0,0,0,0,0,0,NO,0,0,0,0,0,0,0,0,0,0,0,0,0,0,0,0,0,0,0,0,0,0,0,0,0,0,0,0,0,0,0,0,0,0,0,0,0,0,0,0,0,0,0,0,0,0,0,0,0,66
guava,v12.0,v13.0,F:/corpus/guava/guava#2012-05-01-02-04-06#v12.0#72d2812/guava/src/com/google/common/base/PairwiseEquivalence.java,F:/corpus/guava/guava#2012-05-01-02-04-06#v12.0#72d2812/guava/src/com/google/common/base/PairwiseEquivalence.java,0,0,0,0,0,0,0,0,0,0,0,0,0,NO,0,0,0,0,0,0,0,0,0,0,0,0,0,0,0,0,0,0,0,0,0,0,0,0,0,0,0,0,0,0,0,0,0,0,0,0,0,0,0,0,0,0,0,0,0,0,0,0,0,80
guava,v12.0,v13.0,F:/corpus/guava/guava#2012-05-01-02-04-06#v12.0#72d2812/guava/src/com/google/common/base/Platform.java,F:/corpus/guava/guava#2012-05-01-02-04-06#v12.0#72d2812/guava/src/com/google/common/base/Platform.java,0,0,0,0,0,0,0,0,0,0,0,0,0,NO,0,0,0,0,0,0,0,0,0,0,0,0,0,0,0,0,0,0,0,0,0,0,0,0,0,0,0,0,0,0,0,0,0,0,0,0,0,0,0,0,0,0,0,0,0,0,0,0,0,55
guava,v12.0,v13.0,F:/corpus/guava/guava#2012-05-01-02-04-06#v12.0#72d2812/guava/src/com/google/common/base/Preconditions.java,F:/corpus/guava/guava#2012-05-01-02-04-06#v12.0#72d2812/guava/src/com/google/common/base/Preconditions.java,0,0,0,0,0,0,0,0,0,0,0,11,0,NO,0,0,0,0,0,0,0,0,0,0,0,0,0,0,0,0,0,0,0,0,0,0,0,0,0,0,0,0,0,0,0,0,0,0,0,0,0,0,0,0,0,0,0,0,0,0,0,0,0,449
guava,v12.0,v13.0,F:/corpus/guava/guava#2012-05-01-02-04-06#v12.0#72d2812/guava/src/com/google/common/base/Predicate.java,F:/corpus/guava/guava#2012-05-01-02-04-06#v12.0#72d2812/guava/src/com/google/common/base/Predicate.java,0,0,0,0,1,0,0,0,0,0,0,0,0,NO,0,0,0,0,0,0,0,0,0,0,0,0,0,0,0,0,0,0,0,0,0,0,0,0,0,0,0,0,0,0,0,0,0,0,0,0,0,0,0,0,0,0,0,0,0,0,0,0,0,63
guava,v12.0,v13.0,F:/corpus/guava/guava#2012-05-01-02-04-06#v12.0#72d2812/guava/src/com/google/common/base/Present.java,F:/corpus/guava/guava#2012-05-01-02-04-06#v12.0#72d2812/guava/src/com/google/common/base/Present.java,0,0,0,0,0,0,0,0,0,0,0,0,0,NO,0,0,0,0,0,0,0,0,0,0,0,0,0,0,0,0,0,0,0,0,0,0,0,0,0,0,0,0,0,0,0,0,0,0,0,0,0,0,0,0,0,0,0,0,0,0,0,0,0,92
guava,v12.0,v13.0,F:/corpus/guava/guava#2012-05-01-02-04-06#v12.0#72d2812/guava/src/com/google/common/base/Supplier.java,F:/corpus/guava/guava#2012-05-01-02-04-06#v12.0#72d2812/guava/src/com/google/common/base/Supplier.java,0,0,0,0,1,0,0,0,0,0,0,0,0,NO,0,0,0,0,0,0,0,0,0,0,0,0,0,0,0,0,0,0,0,0,0,0,0,0,0,0,0,0,0,0,0,0,0,0,0,0,0,0,0,0,0,0,0,0,0,0,0,0,0,38
guava,v12.0,v13.0,F:/corpus/guava/guava#2012-05-01-02-04-06#v12.0#72d2812/guava/src/com/google/common/base/Throwables.java,F:/corpus/guava/guava#2012-05-01-02-04-06#v12.0#72d2812/guava/src/com/google/common/base/Throwables.java,0,0,0,0,0,0,0,0,0,0,0,1,0,NO,0,0,0,0,0,0,0,0,0,0,0,0,0,0,0,0,0,0,0,0,0,0,0,0,0,0,0,0,0,0,0,0,0,0,0,0,0,0,0,0,0,0,0,0,0,0,0,0,0,220
guava,v12.0,v13.0,F:/corpus/guava/guava#2012-05-01-02-04-06#v12.0#72d2812/guava/src/com/google/common/base/Ticker.java,F:/corpus/guava/guava#2012-05-01-02-04-06#v12.0#72d2812/guava/src/com/google/common/base/Ticker.java,0,0,0,0,0,0,0,0,0,0,0,1,0,NO,0,0,0,0,0,0,0,0,0,0,0,0,0,0,0,0,0,0,0,0,0,0,0,0,0,0,0,0,0,0,0,0,0,0,0,0,0,0,0,0,0,0,0,0,0,0,0,0,0,63
guava,v12.0,v13.0,F:/corpus/guava/guava#2012-05-01-02-04-06#v12.0#72d2812/guava/src/com/google/common/cache/AbstractLoadingCache.java,F:/corpus/guava/guava#2012-05-01-02-04-06#v12.0#72d2812/guava/src/com/google/common/cache/AbstractLoadingCache.java,0,0,0,0,2,0,0,0,0,0,0,0,0,NO,0,0,0,0,0,0,0,0,0,0,0,0,0,0,0,0,0,0,0,0,0,0,0,0,0,0,0,0,0,0,0,0,0,0,0,0,0,0,0,0,0,0,0,0,0,0,0,0,0,79
guava,v12.0,v13.0,F:/corpus/guava/guava#2012-05-01-02-04-06#v12.0#72d2812/guava/src/com/google/common/cache/Cache.java,F:/corpus/guava/guava#2012-05-01-02-04-06#v12.0#72d2812/guava/src/com/google/common/cache/Cache.java,0,0,0,0,1,0,0,0,0,0,0,0,0,NO,0,0,0,0,0,0,0,0,0,0,0,0,0,0,0,0,0,0,0,0,0,0,0,0,0,0,0,0,0,0,0,0,0,0,0,0,0,0,0,0,0,0,0,0,0,0,0,0,0,147
guava,v12.0,v13.0,F:/corpus/guava/guava#2012-05-01-02-04-06#v12.0#72d2812/guava/src/com/google/common/cache/CacheBuilderSpec.java,F:/corpus/guava/guava#2012-05-01-02-04-06#v12.0#72d2812/guava/src/com/google/common/cache/CacheBuilderSpec.java,0,0,7,0,0,0,0,0,0,0,0,0,0,NO,0,0,0,0,0,0,0,0,0,0,0,0,0,0,0,0,0,0,0,0,0,0,0,0,0,0,0,0,0,0,0,0,0,0,0,0,0,0,0,0,0,0,0,0,0,0,0,0,0,455
guava,v12.0,v13.0,F:/corpus/guava/guava#2012-05-01-02-04-06#v12.0#72d2812/guava/src/com/google/common/cache/CacheStats.java,F:/corpus/guava/guava#2012-05-01-02-04-06#v12.0#72d2812/guava/src/com/google/common/cache/CacheStats.java,0,0,0,0,0,0,0,0,0,0,0,5,0,NO,0,0,0,0,0,0,0,0,0,0,0,0,0,0,0,0,0,0,0,0,0,0,0,0,0,0,0,0,0,0,0,0,0,0,0,0,0,0,0,0,0,0,0,0,0,0,0,0,0,269
guava,v12.0,v13.0,F:/corpus/guava/guava#2012-05-01-02-04-06#v12.0#72d2812/guava/src/com/google/common/cache/ForwardingCache.java,F:/corpus/guava/guava#2012-05-01-02-04-06#v12.0#72d2812/guava/src/com/google/common/cache/ForwardingCache.java,0,0,0,0,2,0,0,0,0,0,0,0,0,NO,0,0,0,0,0,0,0,0,0,0,0,0,0,0,0,0,0,0,0,0,0,0,0,0,0,0,0,0,0,0,0,0,0,0,0,0,0,0,0,0,0,0,0,0,0,0,0,0,0,146
guava,v12.0,v13.0,F:/corpus/guava/guava#2012-05-01-02-04-06#v12.0#72d2812/guava/src/com/google/common/cache/ForwardingLoadingCache.java,F:/corpus/guava/guava#2012-05-01-02-04-06#v12.0#72d2812/guava/src/com/google/common/cache/ForwardingLoadingCache.java,0,0,0,0,2,0,0,0,0,0,0,0,0,NO,0,0,0,0,0,0,0,0,0,0,0,0,0,0,0,0,0,0,0,0,0,0,0,0,0,0,0,0,0,0,0,0,0,0,0,0,0,0,0,0,0,0,0,0,0,0,0,0,0,91
guava,v12.0,v13.0,F:/corpus/guava/guava#2012-05-01-02-04-06#v12.0#72d2812/guava/src/com/google/common/cache/package-info.java,F:/corpus/guava/guava#2012-05-01-02-04-06#v12.0#72d2812/guava/src/com/google/common/cache/package-info.java,0,0,0,0,0,0,0,0,0,0,0,0,0,NO,0,0,0,0,0,0,0,0,0,0,0,0,0,0,0,0,0,0,0,0,0,0,0,0,0,0,0,0,0,0,0,0,0,0,0,0,0,0,0,0,0,0,0,0,0,0,0,0,0,38
guava,v12.0,v13.0,F:/corpus/guava/guava#2012-05-01-02-04-06#v12.0#72d2812/guava/src/com/google/common/cache/RemovalCause.java,F:/corpus/guava/guava#2012-05-01-02-04-06#v12.0#72d2812/guava/src/com/google/common/cache/RemovalCause.java,0,0,0,0,0,0,0,0,0,0,0,0,0,NO,0,0,0,0,0,0,0,0,0,0,0,0,0,0,0,0,0,0,0,0,0,0,0,0,0,0,0,0,0,0,0,0,0,0,0,0,0,0,0,0,0,0,0,0,0,0,0,0,0,97
guava,v12.0,v13.0,F:/corpus/guava/guava#2012-05-01-02-04-06#v12.0#72d2812/guava/src/com/google/common/cache/RemovalListener.java,F:/corpus/guava/guava#2012-05-01-02-04-06#v12.0#72d2812/guava/src/com/google/common/cache/RemovalListener.java,0,0,0,0,1,0,0,0,0,0,0,0,0,NO,0,0,0,0,0,0,0,0,0,0,0,0,0,0,0,0,0,0,0,0,0,0,0,0,0,0,0,0,0,0,0,0,0,0,0,0,0,0,0,0,0,0,0,0,0,0,0,0,0,46
guava,v12.0,v13.0,F:/corpus/guava/guava#2012-05-01-02-04-06#v12.0#72d2812/guava/src/com/google/common/cache/RemovalListeners.java,F:/corpus/guava/guava#2012-05-01-02-04-06#v12.0#72d2812/guava/src/com/google/common/cache/RemovalListeners.java,0,0,0,0,0,0,0,0,0,0,0,0,0,NO,0,0,0,0,0,0,0,0,0,0,0,0,0,0,0,0,0,0,0,0,0,0,0,0,0,0,0,0,0,0,0,0,0,0,0,0,0,0,0,0,0,0,0,0,0,0,0,0,0,57
guava,v12.0,v13.0,F:/corpus/guava/guava#2012-05-01-02-04-06#v12.0#72d2812/guava/src/com/google/common/cache/RemovalNotification.java,F:/corpus/guava/guava#2012-05-01-02-04-06#v12.0#72d2812/guava/src/com/google/common/cache/RemovalNotification.java,0,0,0,0,1,0,0,0,0,0,0,1,0,NO,0,0,0,0,0,0,0,0,0,0,0,0,0,0,0,0,0,0,0,0,0,0,0,0,0,0,0,0,0,0,0,0,0,0,0,0,0,0,0,0,0,0,0,0,0,0,0,0,0,100
guava,v12.0,v13.0,F:/corpus/guava/guava#2012-05-01-02-04-06#v12.0#72d2812/guava/src/com/google/common/collect/AbstractBiMap.java,F:/corpus/guava/guava#2012-05-01-02-04-06#v12.0#72d2812/guava/src/com/google/common/collect/AbstractBiMap.java,0,0,0,0,1,0,0,0,0,0,0,0,0,NO,0,0,0,0,0,0,0,0,0,0,0,0,0,0,0,0,0,0,0,0,0,0,0,0,0,0,0,0,0,0,0,0,0,0,0,0,0,0,0,0,0,0,0,0,0,0,0,0,0,404
guava,v12.0,v13.0,F:/corpus/guava/guava#2012-05-01-02-04-06#v12.0#72d2812/guava/src/com/google/common/collect/AbstractIndexedListIterator.java,F:/corpus/guava/guava#2012-05-01-02-04-06#v12.0#72d2812/guava/src/com/google/common/collect/AbstractIndexedListIterator.java,0,0,0,0,1,0,0,0,0,0,0,0,0,NO,0,0,0,0,0,0,0,0,0,0,0,0,0,0,0,0,0,0,0,0,0,0,0,0,0,0,0,0,0,0,0,0,0,0,0,0,0,0,0,0,0,0,0,0,0,0,0,0,0,109
guava,v12.0,v13.0,F:/corpus/guava/guava#2012-05-01-02-04-06#v12.0#72d2812/guava/src/com/google/common/collect/AbstractIterator.java,F:/corpus/guava/guava#2012-05-01-02-04-06#v12.0#72d2812/guava/src/com/google/common/collect/AbstractIterator.java,0,0,0,0,1,0,0,0,0,0,0,1,0,NO,0,0,0,0,0,0,0,0,0,0,0,0,0,0,0,0,0,0,0,0,0,0,0,0,0,0,0,0,0,0,0,0,0,0,0,0,0,0,0,0,0,0,0,0,0,0,0,0,0,173
guava,v12.0,v13.0,F:/corpus/guava/guava#2012-05-01-02-04-06#v12.0#72d2812/guava/src/com/google/common/collect/AbstractLinkedIterator.java,F:/corpus/guava/guava#2012-05-01-02-04-06#v12.0#72d2812/guava/src/com/google/common/collect/AbstractLinkedIterator.java,0,0,0,0,1,0,0,0,0,0,0,0,0,NO,0,0,0,0,0,0,0,0,0,0,0,0,0,0,0,0,0,0,0,0,0,0,0,0,0,0,0,0,0,0,0,0,0,0,0,0,0,0,0,0,0,0,0,0,0,0,0,0,0,84
guava,v12.0,v13.0,F:/corpus/guava/guava#2012-05-01-02-04-06#v12.0#72d2812/guava/src/com/google/common/collect/AbstractListMultimap.java,F:/corpus/guava/guava#2012-05-01-02-04-06#v12.0#72d2812/guava/src/com/google/common/collect/AbstractListMultimap.java,0,0,0,0,1,0,0,0,0,0,0,0,0,NO,0,0,0,0,0,0,0,0,0,0,0,0,0,0,0,0,0,0,0,0,0,0,0,0,0,0,0,0,0,0,0,0,0,0,0,0,0,0,0,0,0,0,0,0,0,0,0,0,0,120
guava,v12.0,v13.0,F:/corpus/guava/guava#2012-05-01-02-04-06#v12.0#72d2812/guava/src/com/google/common/collect/AbstractMapEntry.java,F:/corpus/guava/guava#2012-05-01-02-04-06#v12.0#72d2812/guava/src/com/google/common/collect/AbstractMapEntry.java,0,0,0,0,2,0,0,0,0,0,0,0,0,NO,0,0,0,0,0,0,0,0,0,0,0,0,0,0,0,0,0,0,0,0,0,0,0,0,0,0,0,0,0,0,0,0,0,0,0,0,0,0,0,0,0,0,0,0,0,0,0,0,0,67
guava,v12.0,v13.0,F:/corpus/guava/guava#2012-05-01-02-04-06#v12.0#72d2812/guava/src/com/google/common/collect/AbstractSetMultimap.java,F:/corpus/guava/guava#2012-05-01-02-04-06#v12.0#72d2812/guava/src/com/google/common/collect/AbstractSetMultimap.java,0,0,0,0,1,0,0,0,0,0,0,1,0,NO,0,0,0,0,0,0,0,0,0,0,0,0,0,0,0,0,0,0,0,0,0,0,0,0,0,0,0,0,0,0,0,0,0,0,0,0,0,0,0,0,0,0,0,0,0,0,0,0,0,132
guava,v12.0,v13.0,F:/corpus/guava/guava#2012-05-01-02-04-06#v12.0#72d2812/guava/src/com/google/common/collect/AbstractSortedSetMultimap.java,F:/corpus/guava/guava#2012-05-01-02-04-06#v12.0#72d2812/guava/src/com/google/common/collect/AbstractSortedSetMultimap.java,0,0,0,0,1,0,0,0,0,0,0,0,0,NO,0,0,0,0,0,0,0,0,0,0,0,0,0,0,0,0,0,0,0,0,0,0,0,0,0,0,0,0,0,0,0,0,0,0,0,0,0,0,0,0,0,0,0,0,0,0,0,0,0,124
guava,v12.0,v13.0,F:/corpus/guava/guava#2012-05-01-02-04-06#v12.0#72d2812/guava/src/com/google/common/collect/ArrayListMultimap.java,F:/corpus/guava/guava#2012-05-01-02-04-06#v12.0#72d2812/guava/src/com/google/common/collect/ArrayListMultimap.java,0,0,0,0,0,0,0,0,0,0,0,1,0,NO,0,0,0,0,0,0,0,0,0,0,0,0,0,0,0,0,0,0,0,0,0,0,0,0,0,0,0,0,0,0,0,0,0,0,0,0,0,0,0,0,0,0,0,0,0,0,0,0,0,168
guava,v12.0,v13.0,F:/corpus/guava/guava#2012-05-01-02-04-06#v12.0#72d2812/guava/src/com/google/common/collect/AsynchronousComputationException.java,F:/corpus/guava/guava#2012-05-01-02-04-06#v12.0#72d2812/guava/src/com/google/common/collect/AsynchronousComputationException.java,0,0,0,0,0,0,0,0,0,0,0,0,0,NO,0,0,0,0,0,0,0,0,0,0,0,0,0,0,0,0,0,0,0,0,0,0,0,0,0,0,0,0,0,0,0,0,0,0,0,0,0,0,0,0,0,0,0,0,0,0,0,0,0,37
guava,v12.0,v13.0,F:/corpus/guava/guava#2012-05-01-02-04-06#v12.0#72d2812/guava/src/com/google/common/collect/BiMap.java,F:/corpus/guava/guava#2012-05-01-02-04-06#v12.0#72d2812/guava/src/com/google/common/collect/BiMap.java,0,0,0,0,1,0,0,0,0,0,0,0,0,NO,0,0,0,0,0,0,0,0,0,0,0,0,0,0,0,0,0,0,0,0,0,0,0,0,0,0,0,0,0,0,0,0,0,0,0,0,0,0,0,0,0,0,0,0,0,0,0,0,0,110
guava,v12.0,v13.0,F:/corpus/guava/guava#2012-05-01-02-04-06#v12.0#72d2812/guava/src/com/google/common/collect/ByFunctionOrdering.java,F:/corpus/guava/guava#2012-05-01-02-04-06#v12.0#72d2812/guava/src/com/google/common/collect/ByFunctionOrdering.java,0,0,0,0,0,0,0,0,0,0,0,0,0,NO,0,0,0,0,0,0,0,0,0,0,0,0,0,0,0,0,0,0,0,0,0,0,0,0,0,0,0,0,0,0,0,0,0,0,0,0,0,0,0,0,0,0,0,0,0,0,0,0,0,70
guava,v12.0,v13.0,F:/corpus/guava/guava#2012-05-01-02-04-06#v12.0#72d2812/guava/src/com/google/common/collect/ComparisonChain.java,F:/corpus/guava/guava#2012-05-01-02-04-06#v12.0#72d2812/guava/src/com/google/common/collect/ComparisonChain.java,0,0,0,0,9,0,0,0,0,0,0,0,0,NO,0,0,0,0,0,0,0,0,0,0,0,0,0,0,0,0,0,0,0,0,0,0,0,0,0,0,0,0,0,0,0,0,0,0,0,0,0,0,0,0,0,0,0,0,0,0,0,0,0,225
guava,v12.0,v13.0,F:/corpus/guava/guava#2012-05-01-02-04-06#v12.0#72d2812/guava/src/com/google/common/collect/ComputationException.java,F:/corpus/guava/guava#2012-05-01-02-04-06#v12.0#72d2812/guava/src/com/google/common/collect/ComputationException.java,0,0,0,0,0,0,0,0,0,0,0,0,0,NO,0,0,0,0,0,0,0,0,0,0,0,0,0,0,0,0,0,0,0,0,0,0,0,0,0,0,0,0,0,0,0,0,0,0,0,0,0,0,0,0,0,0,0,0,0,0,0,0,0,36
guava,v12.0,v13.0,F:/corpus/guava/guava#2012-05-01-02-04-06#v12.0#72d2812/guava/src/com/google/common/collect/Constraint.java,F:/corpus/guava/guava#2012-05-01-02-04-06#v12.0#72d2812/guava/src/com/google/common/collect/Constraint.java,0,0,0,0,1,0,0,0,0,0,0,0,0,NO,0,0,0,0,0,0,0,0,0,0,0,0,0,0,0,0,0,0,0,0,0,0,0,0,0,0,0,0,0,0,0,0,0,0,0,0,0,0,0,0,0,0,0,0,0,0,0,0,0,67
guava,v12.0,v13.0,F:/corpus/guava/guava#2012-05-01-02-04-06#v12.0#72d2812/guava/src/com/google/common/collect/Constraints.java,F:/corpus/guava/guava#2012-05-01-02-04-06#v12.0#72d2812/guava/src/com/google/common/collect/Constraints.java,0,0,0,0,0,0,0,0,0,0,0,0,0,NO,0,0,0,0,0,0,0,0,0,0,0,0,0,0,0,0,0,0,0,0,0,0,0,0,0,0,0,0,0,0,0,0,0,0,0,0,0,0,0,0,0,0,0,0,0,0,0,0,0,382
guava,v12.0,v13.0,F:/corpus/guava/guava#2012-05-01-02-04-06#v12.0#72d2812/guava/src/com/google/common/collect/Count.java,F:/corpus/guava/guava#2012-05-01-02-04-06#v12.0#72d2812/guava/src/com/google/common/collect/Count.java,0,0,0,0,0,0,0,0,0,0,0,0,0,NO,0,0,0,0,0,0,0,0,0,0,0,0,0,0,0,0,0,0,0,0,0,0,0,0,0,0,0,0,0,0,0,0,0,0,0,0,0,0,0,0,0,0,0,0,0,0,0,0,0,74
guava,v12.0,v13.0,F:/corpus/guava/guava#2012-05-01-02-04-06#v12.0#72d2812/guava/src/com/google/common/collect/Cut.java,F:/corpus/guava/guava#2012-05-01-02-04-06#v12.0#72d2812/guava/src/com/google/common/collect/Cut.java,0,0,0,0,14,0,0,0,0,0,0,0,0,NO,0,0,0,0,0,0,0,0,0,0,0,0,0,0,0,0,0,0,0,0,0,0,0,0,0,0,0,0,0,0,0,0,0,0,0,0,0,0,0,0,0,0,0,0,0,0,0,0,0,347
guava,v12.0,v13.0,F:/corpus/guava/guava#2012-05-01-02-04-06#v12.0#72d2812/guava/src/com/google/common/collect/DiscreteDomain.java,F:/corpus/guava/guava#2012-05-01-02-04-06#v12.0#72d2812/guava/src/com/google/common/collect/DiscreteDomain.java,0,0,0,0,1,0,0,0,0,0,0,0,0,NO,0,0,0,0,0,0,0,0,0,0,0,0,0,0,0,0,0,0,0,0,0,0,0,0,0,0,0,0,0,0,0,0,0,0,0,0,0,0,0,0,0,0,0,0,0,0,0,0,0,117
guava,v12.0,v13.0,F:/corpus/guava/guava#2012-05-01-02-04-06#v12.0#72d2812/guava/src/com/google/common/collect/DiscreteDomains.java,F:/corpus/guava/guava#2012-05-01-02-04-06#v12.0#72d2812/guava/src/com/google/common/collect/DiscreteDomains.java,0,0,0,0,0,0,0,0,0,0,0,1,0,NO,0,0,0,0,0,0,0,0,0,0,0,0,0,0,0,0,0,0,0,0,0,0,0,0,0,0,0,0,0,0,0,0,0,0,0,0,0,0,0,0,0,0,0,0,0,0,0,0,0,162
guava,v12.0,v13.0,F:/corpus/guava/guava#2012-05-01-02-04-06#v12.0#72d2812/guava/src/com/google/common/collect/EmptyContiguousSet.java,F:/corpus/guava/guava#2012-05-01-02-04-06#v12.0#72d2812/guava/src/com/google/common/collect/EmptyContiguousSet.java,0,0,0,0,6,0,0,0,0,0,0,0,0,NO,0,0,0,0,0,0,0,0,0,0,0,0,0,0,0,0,0,0,0,0,0,0,0,0,0,0,0,0,0,0,0,0,0,0,0,0,0,0,0,0,0,0,0,0,0,0,0,0,0,136
guava,v12.0,v13.0,F:/corpus/guava/guava#2012-05-01-02-04-06#v12.0#72d2812/guava/src/com/google/common/collect/EmptyImmutableListMultimap.java,F:/corpus/guava/guava#2012-05-01-02-04-06#v12.0#72d2812/guava/src/com/google/common/collect/EmptyImmutableListMultimap.java,0,0,0,0,0,0,0,0,0,0,0,0,0,NO,0,0,0,0,0,0,0,0,0,0,0,0,0,0,0,0,0,0,0,0,0,0,0,0,0,0,0,0,0,0,0,0,0,0,0,0,0,0,0,0,0,0,0,0,0,0,0,0,0,40
guava,v12.0,v13.0,F:/corpus/guava/guava#2012-05-01-02-04-06#v12.0#72d2812/guava/src/com/google/common/collect/EmptyImmutableMap.java,F:/corpus/guava/guava#2012-05-01-02-04-06#v12.0#72d2812/guava/src/com/google/common/collect/EmptyImmutableMap.java,0,0,0,0,3,0,0,0,0,0,0,0,0,NO,0,0,0,0,0,0,0,0,0,0,0,0,0,0,0,0,0,0,0,0,0,0,0,0,0,0,0,0,0,0,0,0,0,0,0,0,0,0,0,0,0,0,0,0,0,0,0,0,0,99
guava,v12.0,v13.0,F:/corpus/guava/guava#2012-05-01-02-04-06#v12.0#72d2812/guava/src/com/google/common/collect/EmptyImmutableSetMultimap.java,F:/corpus/guava/guava#2012-05-01-02-04-06#v12.0#72d2812/guava/src/com/google/common/collect/EmptyImmutableSetMultimap.java,0,0,0,0,0,0,0,0,0,0,0,0,0,NO,0,0,0,0,0,0,0,0,0,0,0,0,0,0,0,0,0,0,0,0,0,0,0,0,0,0,0,0,0,0,0,0,0,0,0,0,0,0,0,0,0,0,0,0,0,0,0,0,0,40
guava,v12.0,v13.0,F:/corpus/guava/guava#2012-05-01-02-04-06#v12.0#72d2812/guava/src/com/google/common/collect/EnumBiMap.java,F:/corpus/guava/guava#2012-05-01-02-04-06#v12.0#72d2812/guava/src/com/google/common/collect/EnumBiMap.java,0,0,0,0,0,0,0,0,0,0,0,0,0,NO,0,0,0,0,0,0,0,0,0,0,0,0,0,0,0,0,0,0,0,0,0,0,0,0,0,0,0,0,0,0,0,0,0,0,0,0,0,0,0,0,0,0,0,0,0,0,0,0,0,151
guava,v12.0,v13.0,F:/corpus/guava/guava#2012-05-01-02-04-06#v12.0#72d2812/guava/src/com/google/common/collect/EnumMultiset.java,F:/corpus/guava/guava#2012-05-01-02-04-06#v12.0#72d2812/guava/src/com/google/common/collect/EnumMultiset.java,0,0,0,0,0,0,0,0,0,0,0,0,0,NO,0,0,0,0,0,0,0,0,0,0,0,0,0,0,0,0,0,0,0,0,0,0,0,0,0,0,0,0,0,0,0,0,0,0,0,0,0,0,0,0,0,0,0,0,0,0,0,0,0,94
guava,v12.0,v13.0,F:/corpus/guava/guava#2012-05-01-02-04-06#v12.0#72d2812/guava/src/com/google/common/collect/ExplicitOrdering.java,F:/corpus/guava/guava#2012-05-01-02-04-06#v12.0#72d2812/guava/src/com/google/common/collect/ExplicitOrdering.java,0,0,0,0,0,0,0,0,0,0,0,0,0,NO,0,0,0,0,0,0,0,0,0,0,0,0,0,0,0,0,0,0,0,0,0,0,0,0,0,0,0,0,0,0,0,0,0,0,0,0,0,0,0,0,0,0,0,0,0,0,0,0,0,78
guava,v12.0,v13.0,F:/corpus/guava/guava#2012-05-01-02-04-06#v12.0#72d2812/guava/src/com/google/common/collect/ForwardingCollection.java,F:/corpus/guava/guava#2012-05-01-02-04-06#v12.0#72d2812/guava/src/com/google/common/collect/ForwardingCollection.java,0,0,0,0,1,0,0,0,0,0,0,9,0,NO,0,0,0,0,0,0,0,0,0,0,0,0,0,0,0,0,0,0,0,0,0,0,0,0,0,0,0,0,0,0,0,0,0,0,0,0,0,0,0,0,0,0,0,0,0,0,0,0,0,265
guava,v12.0,v13.0,F:/corpus/guava/guava#2012-05-01-02-04-06#v12.0#72d2812/guava/src/com/google/common/collect/ForwardingConcurrentMap.java,F:/corpus/guava/guava#2012-05-01-02-04-06#v12.0#72d2812/guava/src/com/google/common/collect/ForwardingConcurrentMap.java,0,0,0,0,1,0,0,0,0,0,0,0,0,NO,0,0,0,0,0,0,0,0,0,0,0,0,0,0,0,0,0,0,0,0,0,0,0,0,0,0,0,0,0,0,0,0,0,0,0,0,0,0,0,0,0,0,0,0,0,0,0,0,0,61
guava,v12.0,v13.0,F:/corpus/guava/guava#2012-05-01-02-04-06#v12.0#72d2812/guava/src/com/google/common/collect/ForwardingDeque.java,F:/corpus/guava/guava#2012-05-01-02-04-06#v12.0#72d2812/guava/src/com/google/common/collect/ForwardingDeque.java,0,0,0,0,1,0,0,0,0,0,0,0,0,NO,0,0,0,0,0,0,0,0,0,0,0,0,0,0,0,0,0,0,0,0,0,0,0,0,0,0,0,0,0,0,0,0,0,0,0,0,0,0,0,0,0,0,0,0,0,0,0,0,0,136
guava,v12.0,v13.0,F:/corpus/guava/guava#2012-05-01-02-04-06#v12.0#72d2812/guava/src/com/google/common/collect/ForwardingIterator.java,F:/corpus/guava/guava#2012-05-01-02-04-06#v12.0#72d2812/guava/src/com/google/common/collect/ForwardingIterator.java,0,0,0,0,1,0,0,0,0,0,0,0,0,NO,0,0,0,0,0,0,0,0,0,0,0,0,0,0,0,0,0,0,0,0,0,0,0,0,0,0,0,0,0,0,0,0,0,0,0,0,0,0,0,0,0,0,0,0,0,0,0,0,0,55
guava,v12.0,v13.0,F:/corpus/guava/guava#2012-05-01-02-04-06#v12.0#72d2812/guava/src/com/google/common/collect/ForwardingListIterator.java,F:/corpus/guava/guava#2012-05-01-02-04-06#v12.0#72d2812/guava/src/com/google/common/collect/ForwardingListIterator.java,0,0,0,0,1,0,0,0,0,0,0,0,0,NO,0,0,0,0,0,0,0,0,0,0,0,0,0,0,0,0,0,0,0,0,0,0,0,0,0,0,0,0,0,0,0,0,0,0,0,0,0,0,0,0,0,0,0,0,0,0,0,0,0,70
guava,v12.0,v13.0,F:/corpus/guava/guava#2012-05-01-02-04-06#v12.0#72d2812/guava/src/com/google/common/collect/ForwardingListMultimap.java,F:/corpus/guava/guava#2012-05-01-02-04-06#v12.0#72d2812/guava/src/com/google/common/collect/ForwardingListMultimap.java,0,0,0,0,1,0,0,0,0,0,0,0,0,NO,0,0,0,0,0,0,0,0,0,0,0,0,0,0,0,0,0,0,0,0,0,0,0,0,0,0,0,0,0,0,0,0,0,0,0,0,0,0,0,0,0,0,0,0,0,0,0,0,0,54
guava,v12.0,v13.0,F:/corpus/guava/guava#2012-05-01-02-04-06#v12.0#72d2812/guava/src/com/google/common/collect/ForwardingMap.java,F:/corpus/guava/guava#2012-05-01-02-04-06#v12.0#72d2812/guava/src/com/google/common/collect/ForwardingMap.java,0,0,0,0,2,0,0,0,0,0,0,1,0,NO,0,0,0,0,0,0,0,0,0,0,0,0,0,0,0,0,0,0,0,0,0,0,0,0,0,0,0,0,0,0,0,0,0,0,0,0,0,0,0,0,0,0,0,0,0,0,0,0,0,319
guava,v12.0,v13.0,F:/corpus/guava/guava#2012-05-01-02-04-06#v12.0#72d2812/guava/src/com/google/common/collect/ForwardingMapEntry.java,F:/corpus/guava/guava#2012-05-01-02-04-06#v12.0#72d2812/guava/src/com/google/common/collect/ForwardingMapEntry.java,0,0,0,0,1,0,0,0,0,0,0,0,0,NO,0,0,0,0,0,0,0,0,0,0,0,0,0,0,0,0,0,0,0,0,0,0,0,0,0,0,0,0,0,0,0,0,0,0,0,0,0,0,0,0,0,0,0,0,0,0,0,0,0,128
guava,v12.0,v13.0,F:/corpus/guava/guava#2012-05-01-02-04-06#v12.0#72d2812/guava/src/com/google/common/collect/ForwardingMultimap.java,F:/corpus/guava/guava#2012-05-01-02-04-06#v12.0#72d2812/guava/src/com/google/common/collect/ForwardingMultimap.java,0,0,0,0,1,0,0,0,0,0,0,0,0,NO,0,0,0,0,0,0,0,0,0,0,0,0,0,0,0,0,0,0,0,0,0,0,0,0,0,0,0,0,0,0,0,0,0,0,0,0,0,0,0,0,0,0,0,0,0,0,0,0,0,143
guava,v12.0,v13.0,F:/corpus/guava/guava#2012-05-01-02-04-06#v12.0#72d2812/guava/src/com/google/common/collect/ForwardingMultiset.java,F:/corpus/guava/guava#2012-05-01-02-04-06#v12.0#72d2812/guava/src/com/google/common/collect/ForwardingMultiset.java,0,0,0,0,1,0,0,0,0,0,0,0,0,NO,0,0,0,0,0,0,0,0,0,0,0,0,0,0,0,0,0,0,0,0,0,0,0,0,0,0,0,0,0,0,0,0,0,0,0,0,0,0,0,0,0,0,0,0,0,0,0,0,0,313
guava,v12.0,v13.0,F:/corpus/guava/guava#2012-05-01-02-04-06#v12.0#72d2812/guava/src/com/google/common/collect/ForwardingNavigableMap.java,F:/corpus/guava/guava#2012-05-01-02-04-06#v12.0#72d2812/guava/src/com/google/common/collect/ForwardingNavigableMap.java,0,0,0,0,1,0,0,0,0,0,0,0,0,NO,0,0,0,0,0,0,0,0,0,0,0,0,0,0,0,0,0,0,0,0,0,0,0,0,0,0,0,0,0,0,0,0,0,0,0,0,0,0,0,0,0,0,0,0,0,0,0,0,0,412
guava,v12.0,v13.0,F:/corpus/guava/guava#2012-05-01-02-04-06#v12.0#72d2812/guava/src/com/google/common/collect/ForwardingNavigableSet.java,F:/corpus/guava/guava#2012-05-01-02-04-06#v12.0#72d2812/guava/src/com/google/common/collect/ForwardingNavigableSet.java,0,0,0,0,1,0,0,0,0,0,0,0,0,NO,0,0,0,0,0,0,0,0,0,0,0,0,0,0,0,0,0,0,0,0,0,0,0,0,0,0,0,0,0,0,0,0,0,0,0,0,0,0,0,0,0,0,0,0,0,0,0,0,0,250
guava,v12.0,v13.0,F:/corpus/guava/guava#2012-05-01-02-04-06#v12.0#72d2812/guava/src/com/google/common/collect/ForwardingObject.java,F:/corpus/guava/guava#2012-05-01-02-04-06#v12.0#72d2812/guava/src/com/google/common/collect/ForwardingObject.java,0,0,0,0,0,0,0,0,0,0,0,0,0,NO,0,0,0,0,0,0,0,0,0,0,0,0,0,0,0,0,0,0,0,0,0,0,0,0,0,0,0,0,0,0,0,0,0,0,0,0,0,0,0,0,0,0,0,0,0,0,0,0,0,76
guava,v12.0,v13.0,F:/corpus/guava/guava#2012-05-01-02-04-06#v12.0#72d2812/guava/src/com/google/common/collect/ForwardingQueue.java,F:/corpus/guava/guava#2012-05-01-02-04-06#v12.0#72d2812/guava/src/com/google/common/collect/ForwardingQueue.java,0,0,0,0,1,0,0,0,0,0,0,0,0,NO,0,0,0,0,0,0,0,0,0,0,0,0,0,0,0,0,0,0,0,0,0,0,0,0,0,0,0,0,0,0,0,0,0,0,0,0,0,0,0,0,0,0,0,0,0,0,0,0,0,123
guava,v12.0,v13.0,F:/corpus/guava/guava#2012-05-01-02-04-06#v12.0#72d2812/guava/src/com/google/common/collect/ForwardingSetMultimap.java,F:/corpus/guava/guava#2012-05-01-02-04-06#v12.0#72d2812/guava/src/com/google/common/collect/ForwardingSetMultimap.java,0,0,0,0,1,0,0,0,0,0,0,0,0,NO,0,0,0,0,0,0,0,0,0,0,0,0,0,0,0,0,0,0,0,0,0,0,0,0,0,0,0,0,0,0,0,0,0,0,0,0,0,0,0,0,0,0,0,0,0,0,0,0,0,56
guava,v12.0,v13.0,F:/corpus/guava/guava#2012-05-01-02-04-06#v12.0#72d2812/guava/src/com/google/common/collect/ForwardingSortedMap.java,F:/corpus/guava/guava#2012-05-01-02-04-06#v12.0#72d2812/guava/src/com/google/common/collect/ForwardingSortedMap.java,0,0,0,0,1,0,0,0,0,0,0,0,0,NO,0,0,0,0,0,0,0,0,0,0,0,0,0,0,0,0,0,0,0,0,0,0,0,0,0,0,0,0,0,0,0,0,0,0,0,0,0,0,0,0,0,0,0,0,0,0,0,0,0,171
guava,v12.0,v13.0,F:/corpus/guava/guava#2012-05-01-02-04-06#v12.0#72d2812/guava/src/com/google/common/collect/ForwardingSortedSet.java,F:/corpus/guava/guava#2012-05-01-02-04-06#v12.0#72d2812/guava/src/com/google/common/collect/ForwardingSortedSet.java,0,0,0,0,1,0,0,0,0,0,0,0,0,NO,0,0,0,0,0,0,0,0,0,0,0,0,0,0,0,0,0,0,0,0,0,0,0,0,0,0,0,0,0,0,0,0,0,0,0,0,0,0,0,0,0,0,0,0,0,0,0,0,0,166
guava,v12.0,v13.0,F:/corpus/guava/guava#2012-05-01-02-04-06#v12.0#72d2812/guava/src/com/google/common/collect/ForwardingSortedSetMultimap.java,F:/corpus/guava/guava#2012-05-01-02-04-06#v12.0#72d2812/guava/src/com/google/common/collect/ForwardingSortedSetMultimap.java,0,0,0,0,1,0,0,0,0,0,0,0,0,NO,0,0,0,0,0,0,0,0,0,0,0,0,0,0,0,0,0,0,0,0,0,0,0,0,0,0,0,0,0,0,0,0,0,0,0,0,0,0,0,0,0,0,0,0,0,0,0,0,0,60
guava,v12.0,v13.0,F:/corpus/guava/guava#2012-05-01-02-04-06#v12.0#72d2812/guava/src/com/google/common/collect/ForwardingTable.java,F:/corpus/guava/guava#2012-05-01-02-04-06#v12.0#72d2812/guava/src/com/google/common/collect/ForwardingTable.java,0,0,0,0,1,0,0,0,0,0,0,0,0,NO,0,0,0,0,0,0,0,0,0,0,0,0,0,0,0,0,0,0,0,0,0,0,0,0,0,0,0,0,0,0,0,0,0,0,0,0,0,0,0,0,0,0,0,0,0,0,0,0,0,144
guava,v12.0,v13.0,F:/corpus/guava/guava#2012-05-01-02-04-06#v12.0#72d2812/guava/src/com/google/common/collect/GwtTransient.java,F:/corpus/guava/guava#2012-05-01-02-04-06#v12.0#72d2812/guava/src/com/google/common/collect/GwtTransient.java,0,0,0,0,0,0,0,0,0,0,0,0,0,NO,0,0,0,0,0,0,0,0,0,0,0,0,0,0,0,0,0,0,0,0,0,0,0,0,0,0,0,0,0,0,0,0,0,0,0,0,0,0,0,0,0,0,0,0,0,0,0,0,0,38
guava,v12.0,v13.0,F:/corpus/guava/guava#2012-05-01-02-04-06#v12.0#72d2812/guava/src/com/google/common/collect/HashBasedTable.java,F:/corpus/guava/guava#2012-05-01-02-04-06#v12.0#72d2812/guava/src/com/google/common/collect/HashBasedTable.java,0,0,0,0,0,0,0,0,0,0,0,1,0,NO,0,0,0,0,0,0,0,0,0,0,0,0,0,0,0,0,0,0,0,0,0,0,0,0,0,0,0,0,0,0,0,0,0,0,0,0,0,0,0,0,0,0,0,0,0,0,0,0,0,148
guava,v12.0,v13.0,F:/corpus/guava/guava#2012-05-01-02-04-06#v12.0#72d2812/guava/src/com/google/common/collect/HashBiMap.java,F:/corpus/guava/guava#2012-05-01-02-04-06#v12.0#72d2812/guava/src/com/google/common/collect/HashBiMap.java,0,0,0,0,0,0,0,0,0,0,0,1,0,NO,0,0,0,0,0,0,0,0,0,0,0,0,0,0,0,0,0,0,0,0,0,0,0,0,0,0,0,0,0,0,0,0,0,0,0,0,0,0,0,0,0,0,0,0,0,0,0,0,0,118
guava,v12.0,v13.0,F:/corpus/guava/guava#2012-05-01-02-04-06#v12.0#72d2812/guava/src/com/google/common/collect/Hashing.java,F:/corpus/guava/guava#2012-05-01-02-04-06#v12.0#72d2812/guava/src/com/google/common/collect/Hashing.java,0,0,0,0,0,0,0,0,0,0,0,0,0,NO,0,0,0,0,0,0,0,0,0,0,0,0,0,0,0,0,0,0,0,0,0,0,0,0,0,0,0,0,0,0,0,0,0,0,0,0,0,0,0,0,0,0,0,0,0,0,0,0,0,43
guava,v12.0,v13.0,F:/corpus/guava/guava#2012-05-01-02-04-06#v12.0#72d2812/guava/src/com/google/common/collect/HashMultimap.java,F:/corpus/guava/guava#2012-05-01-02-04-06#v12.0#72d2812/guava/src/com/google/common/collect/HashMultimap.java,0,0,0,0,0,0,0,0,0,0,0,1,0,NO,0,0,0,0,0,0,0,0,0,0,0,0,0,0,0,0,0,0,0,0,0,0,0,0,0,0,0,0,0,0,0,0,0,0,0,0,0,0,0,0,0,0,0,0,0,0,0,0,0,142
guava,v12.0,v13.0,F:/corpus/guava/guava#2012-05-01-02-04-06#v12.0#72d2812/guava/src/com/google/common/collect/HashMultiset.java,F:/corpus/guava/guava#2012-05-01-02-04-06#v12.0#72d2812/guava/src/com/google/common/collect/HashMultiset.java,0,0,0,0,0,0,0,0,0,0,0,2,0,NO,0,0,0,0,0,0,0,0,0,0,0,0,0,0,0,0,0,0,0,0,0,0,0,0,0,0,0,0,0,0,0,0,0,0,0,0,0,0,0,0,0,0,0,0,0,0,0,0,0,101
guava,v12.0,v13.0,F:/corpus/guava/guava#2012-05-01-02-04-06#v12.0#72d2812/guava/src/com/google/common/collect/ImmutableClassToInstanceMap.java,F:/corpus/guava/guava#2012-05-01-02-04-06#v12.0#72d2812/guava/src/com/google/common/collect/ImmutableClassToInstanceMap.java,0,0,0,0,1,0,0,0,0,0,0,0,0,NO,0,0,0,0,0,0,0,0,0,0,0,0,0,0,0,0,0,0,0,0,0,0,0,0,0,0,0,0,0,0,0,0,0,0,0,0,0,0,0,0,0,0,0,0,0,0,0,0,0,154
guava,v12.0,v13.0,F:/corpus/guava/guava#2012-05-01-02-04-06#v12.0#72d2812/guava/src/com/google/common/collect/ImmutableEntry.java,F:/corpus/guava/guava#2012-05-01-02-04-06#v12.0#72d2812/guava/src/com/google/common/collect/ImmutableEntry.java,0,0,0,0,1,0,0,0,0,0,0,0,0,NO,0,0,0,0,0,0,0,0,0,0,0,0,0,0,0,0,0,0,0,0,0,0,0,0,0,0,0,0,0,0,0,0,0,0,0,0,0,0,0,0,0,0,0,0,0,0,0,0,0,52
guava,v12.0,v13.0,F:/corpus/guava/guava#2012-05-01-02-04-06#v12.0#72d2812/guava/src/com/google/common/collect/ImmutableEnumSet.java,F:/corpus/guava/guava#2012-05-01-02-04-06#v12.0#72d2812/guava/src/com/google/common/collect/ImmutableEnumSet.java,0,0,0,0,0,0,0,0,0,0,0,0,0,NO,0,0,0,0,0,0,0,0,0,0,0,0,0,0,0,0,0,0,0,0,0,0,0,0,0,0,0,0,0,0,0,0,0,0,0,0,0,0,0,0,0,0,0,0,0,0,0,0,0,116
guava,v12.0,v13.0,F:/corpus/guava/guava#2012-05-01-02-04-06#v12.0#72d2812/guava/src/com/google/common/collect/ImmutableSortedMapFauxverideShim.java,F:/corpus/guava/guava#2012-05-01-02-04-06#v12.0#72d2812/guava/src/com/google/common/collect/ImmutableSortedMapFauxverideShim.java,0,0,0,0,6,0,0,0,0,0,2,0,0,NO,0,0,0,0,0,0,0,0,0,0,0,0,0,0,0,0,0,0,0,0,0,0,0,0,0,0,0,0,0,0,0,0,0,0,0,0,0,0,0,0,0,0,0,0,0,0,0,0,0,117
guava,v12.0,v13.0,F:/corpus/guava/guava#2012-05-01-02-04-06#v12.0#72d2812/guava/src/com/google/common/collect/ImmutableSortedMultisetFauxverideShim.java,F:/corpus/guava/guava#2012-05-01-02-04-06#v12.0#72d2812/guava/src/com/google/common/collect/ImmutableSortedMultisetFauxverideShim.java,0,0,0,0,8,0,0,0,0,0,0,0,0,NO,0,0,0,0,0,0,0,0,0,0,0,0,0,0,0,0,0,0,0,0,0,0,0,0,0,0,0,0,0,0,0,0,0,0,0,0,0,0,0,0,0,0,0,0,0,0,0,0,0,170
guava,v12.0,v13.0,F:/corpus/guava/guava#2012-05-01-02-04-06#v12.0#72d2812/guava/src/com/google/common/collect/ImmutableSortedSetFauxverideShim.java,F:/corpus/guava/guava#2012-05-01-02-04-06#v12.0#72d2812/guava/src/com/google/common/collect/ImmutableSortedSetFauxverideShim.java,0,0,0,0,8,0,0,0,0,0,0,0,0,NO,0,0,0,0,0,0,0,0,0,0,0,0,0,0,0,0,0,0,0,0,0,0,0,0,0,0,0,0,0,0,0,0,0,0,0,0,0,0,0,0,0,0,0,0,0,0,0,0,0,167
guava,v12.0,v13.0,F:/corpus/guava/guava#2012-05-01-02-04-06#v12.0#72d2812/guava/src/com/google/common/collect/Interner.java,F:/corpus/guava/guava#2012-05-01-02-04-06#v12.0#72d2812/guava/src/com/google/common/collect/Interner.java,0,0,0,0,1,0,0,0,0,0,0,0,0,NO,0,0,0,0,0,0,0,0,0,0,0,0,0,0,0,0,0,0,0,0,0,0,0,0,0,0,0,0,0,0,0,0,0,0,0,0,0,0,0,0,0,0,0,0,0,0,0,0,0,44
guava,v12.0,v13.0,F:/corpus/guava/guava#2012-05-01-02-04-06#v12.0#72d2812/guava/src/com/google/common/collect/LexicographicalOrdering.java,F:/corpus/guava/guava#2012-05-01-02-04-06#v12.0#72d2812/guava/src/com/google/common/collect/LexicographicalOrdering.java,0,0,0,0,0,0,0,0,0,0,0,0,0,NO,0,0,0,0,0,0,0,0,0,0,0,0,0,0,0,0,0,0,0,0,0,0,0,0,0,0,0,0,0,0,0,0,0,0,0,0,0,0,0,0,0,0,0,0,0,0,0,0,0,78
guava,v12.0,v13.0,F:/corpus/guava/guava#2012-05-01-02-04-06#v12.0#72d2812/guava/src/com/google/common/collect/LinkedHashMultiset.java,F:/corpus/guava/guava#2012-05-01-02-04-06#v12.0#72d2812/guava/src/com/google/common/collect/LinkedHashMultiset.java,0,0,0,0,0,0,0,0,0,0,0,2,0,NO,0,0,0,0,0,0,0,0,0,0,0,0,0,0,0,0,0,0,0,0,0,0,0,0,0,0,0,0,0,0,0,0,0,0,0,0,0,0,0,0,0,0,0,0,0,0,0,0,0,113
guava,v12.0,v13.0,F:/corpus/guava/guava#2012-05-01-02-04-06#v12.0#72d2812/guava/src/com/google/common/collect/MapConstraint.java,F:/corpus/guava/guava#2012-05-01-02-04-06#v12.0#72d2812/guava/src/com/google/common/collect/MapConstraint.java,0,0,0,0,1,0,0,0,0,0,0,0,0,NO,0,0,0,0,0,0,0,0,0,0,0,0,0,0,0,0,0,0,0,0,0,0,0,0,0,0,0,0,0,0,0,0,0,0,0,0,0,0,0,0,0,0,0,0,0,0,0,0,0,65
guava,v12.0,v13.0,F:/corpus/guava/guava#2012-05-01-02-04-06#v12.0#72d2812/guava/src/com/google/common/collect/MapConstraints.java,F:/corpus/guava/guava#2012-05-01-02-04-06#v12.0#72d2812/guava/src/com/google/common/collect/MapConstraints.java,0,0,0,0,0,0,0,0,0,0,0,0,0,NO,0,0,0,0,0,0,0,0,0,0,0,0,0,0,0,0,0,0,0,0,0,0,0,0,0,0,0,0,0,0,0,0,0,0,0,0,0,0,0,0,0,0,0,0,0,0,0,0,0,783
guava,v12.0,v13.0,F:/corpus/guava/guava#2012-05-01-02-04-06#v12.0#72d2812/guava/src/com/google/common/collect/MapDifference.java,F:/corpus/guava/guava#2012-05-01-02-04-06#v12.0#72d2812/guava/src/com/google/common/collect/MapDifference.java,0,0,0,0,2,0,0,0,0,0,0,0,0,NO,0,0,0,0,0,0,0,0,0,0,0,0,0,0,0,0,0,0,0,0,0,0,0,0,0,0,0,0,0,0,0,0,0,0,0,0,0,0,0,0,0,0,0,0,0,0,0,0,0,114
guava,v12.0,v13.0,F:/corpus/guava/guava#2012-05-01-02-04-06#v12.0#72d2812/guava/src/com/google/common/collect/MinMaxPriorityQueue.java,F:/corpus/guava/guava#2012-05-01-02-04-06#v12.0#72d2812/guava/src/com/google/common/collect/MinMaxPriorityQueue.java,0,0,0,0,0,0,0,0,0,0,0,0,0,NO,0,0,0,0,0,0,0,0,0,0,0,0,0,0,0,0,0,0,0,0,0,0,0,0,0,0,0,0,0,0,0,0,0,0,0,0,0,0,0,0,0,0,0,0,0,0,0,0,0,939
guava,v12.0,v13.0,F:/corpus/guava/guava#2012-05-01-02-04-06#v12.0#72d2812/guava/src/com/google/common/collect/Multiset.java,F:/corpus/guava/guava#2012-05-01-02-04-06#v12.0#72d2812/guava/src/com/google/common/collect/Multiset.java,0,0,0,0,2,0,0,0,0,0,0,0,0,NO,0,0,0,0,0,0,0,0,0,0,0,0,0,0,0,0,0,0,0,0,0,0,0,0,0,0,0,0,0,0,0,0,0,0,0,0,0,0,0,0,0,0,0,0,0,0,0,0,0,440
guava,v12.0,v13.0,F:/corpus/guava/guava#2012-05-01-02-04-06#v12.0#72d2812/guava/src/com/google/common/collect/MutableClassToInstanceMap.java,F:/corpus/guava/guava#2012-05-01-02-04-06#v12.0#72d2812/guava/src/com/google/common/collect/MutableClassToInstanceMap.java,0,0,0,0,0,0,0,0,0,0,0,0,0,NO,0,0,0,0,0,0,0,0,0,0,0,0,0,0,0,0,0,0,0,0,0,0,0,0,0,0,0,0,0,0,0,0,0,0,0,0,0,0,0,0,0,0,0,0,0,0,0,0,0,86
guava,v12.0,v13.0,F:/corpus/guava/guava#2012-05-01-02-04-06#v12.0#72d2812/guava/src/com/google/common/collect/NaturalOrdering.java,F:/corpus/guava/guava#2012-05-01-02-04-06#v12.0#72d2812/guava/src/com/google/common/collect/NaturalOrdering.java,0,0,0,0,0,0,0,0,0,0,0,0,0,NO,0,0,0,0,0,0,0,0,0,0,0,0,0,0,0,0,0,0,0,0,0,0,0,0,0,0,0,0,0,0,0,0,0,0,0,0,0,0,0,0,0,0,0,0,0,0,0,0,0,74
guava,v12.0,v13.0,F:/corpus/guava/guava#2012-05-01-02-04-06#v12.0#72d2812/guava/src/com/google/common/collect/NullsFirstOrdering.java,F:/corpus/guava/guava#2012-05-01-02-04-06#v12.0#72d2812/guava/src/com/google/common/collect/NullsFirstOrdering.java,0,0,0,0,0,0,0,0,0,0,0,0,0,NO,0,0,0,0,0,0,0,0,0,0,0,0,0,0,0,0,0,0,0,0,0,0,0,0,0,0,0,0,0,0,0,0,0,0,0,0,0,0,0,0,0,0,0,0,0,0,0,0,0,81
guava,v12.0,v13.0,F:/corpus/guava/guava#2012-05-01-02-04-06#v12.0#72d2812/guava/src/com/google/common/collect/NullsLastOrdering.java,F:/corpus/guava/guava#2012-05-01-02-04-06#v12.0#72d2812/guava/src/com/google/common/collect/NullsLastOrdering.java,0,0,0,0,0,0,0,0,0,0,0,0,0,NO,0,0,0,0,0,0,0,0,0,0,0,0,0,0,0,0,0,0,0,0,0,0,0,0,0,0,0,0,0,0,0,0,0,0,0,0,0,0,0,0,0,0,0,0,0,0,0,0,0,81
guava,v12.0,v13.0,F:/corpus/guava/guava#2012-05-01-02-04-06#v12.0#72d2812/guava/src/com/google/common/collect/package-info.java,F:/corpus/guava/guava#2012-05-01-02-04-06#v12.0#72d2812/guava/src/com/google/common/collect/package-info.java,0,0,0,0,0,0,0,0,0,0,0,0,0,NO,0,0,0,0,0,0,0,0,0,0,0,0,0,0,0,0,0,0,0,0,0,0,0,0,0,0,0,0,0,0,0,0,0,0,0,0,0,0,0,0,0,0,0,0,0,0,0,0,0,226
guava,v12.0,v13.0,F:/corpus/guava/guava#2012-05-01-02-04-06#v12.0#72d2812/guava/src/com/google/common/collect/PeekingIterator.java,F:/corpus/guava/guava#2012-05-01-02-04-06#v12.0#72d2812/guava/src/com/google/common/collect/PeekingIterator.java,0,0,0,0,1,0,0,0,0,0,0,0,0,NO,0,0,0,0,0,0,0,0,0,0,0,0,0,0,0,0,0,0,0,0,0,0,0,0,0,0,0,0,0,0,0,0,0,0,0,0,0,0,0,0,0,0,0,0,0,0,0,0,0,69
guava,v12.0,v13.0,F:/corpus/guava/guava#2012-05-01-02-04-06#v12.0#72d2812/guava/src/com/google/common/collect/Queues.java,F:/corpus/guava/guava#2012-05-01-02-04-06#v12.0#72d2812/guava/src/com/google/common/collect/Queues.java,0,0,0,0,0,0,0,0,0,0,0,0,0,NO,0,0,0,0,0,0,0,0,0,0,0,0,0,0,0,0,0,0,0,0,0,0,0,0,0,0,0,0,0,0,0,0,0,0,0,0,0,0,0,0,0,0,0,0,0,0,0,0,0,341
guava,v12.0,v13.0,F:/corpus/guava/guava#2012-05-01-02-04-06#v12.0#72d2812/guava/src/com/google/common/collect/Ranges.java,F:/corpus/guava/guava#2012-05-01-02-04-06#v12.0#72d2812/guava/src/com/google/common/collect/Ranges.java,0,0,0,0,0,0,0,0,0,0,0,2,0,NO,0,0,0,0,0,0,0,0,0,0,0,0,0,0,0,0,0,0,0,0,0,0,0,0,0,0,0,0,0,0,0,0,0,0,0,0,0,0,0,0,0,0,0,0,0,0,0,0,0,255
guava,v12.0,v13.0,F:/corpus/guava/guava#2012-05-01-02-04-06#v12.0#72d2812/guava/src/com/google/common/collect/RegularImmutableBiMap.java,F:/corpus/guava/guava#2012-05-01-02-04-06#v12.0#72d2812/guava/src/com/google/common/collect/RegularImmutableBiMap.java,0,0,0,0,0,0,0,0,0,0,0,0,0,NO,0,0,0,0,0,0,0,0,0,0,0,0,0,0,0,0,0,0,0,0,0,0,0,0,0,0,0,0,0,0,0,0,0,0,0,0,0,0,0,0,0,0,0,0,0,0,0,0,0,60
guava,v12.0,v13.0,F:/corpus/guava/guava#2012-05-01-02-04-06#v12.0#72d2812/guava/src/com/google/common/collect/RegularImmutableSet.java,F:/corpus/guava/guava#2012-05-01-02-04-06#v12.0#72d2812/guava/src/com/google/common/collect/RegularImmutableSet.java,0,0,0,0,0,0,0,0,0,0,0,0,0,NO,0,0,0,0,0,0,0,0,0,0,0,0,0,0,0,0,0,0,0,0,0,0,0,0,0,0,0,0,0,0,0,0,0,0,0,0,0,0,0,0,0,0,0,0,0,0,0,0,0,67
guava,v12.0,v13.0,F:/corpus/guava/guava#2012-05-01-02-04-06#v12.0#72d2812/guava/src/com/google/common/collect/ReverseNaturalOrdering.java,F:/corpus/guava/guava#2012-05-01-02-04-06#v12.0#72d2812/guava/src/com/google/common/collect/ReverseNaturalOrdering.java,0,0,0,0,0,0,0,0,0,0,0,0,0,NO,0,0,0,0,0,0,0,0,0,0,0,0,0,0,0,0,0,0,0,0,0,0,0,0,0,0,0,0,0,0,0,0,0,0,0,0,0,0,0,0,0,0,0,0,0,0,0,0,0,92
guava,v12.0,v13.0,F:/corpus/guava/guava#2012-05-01-02-04-06#v12.0#72d2812/guava/src/com/google/common/collect/ReverseOrdering.java,F:/corpus/guava/guava#2012-05-01-02-04-06#v12.0#72d2812/guava/src/com/google/common/collect/ReverseOrdering.java,0,0,0,0,0,0,0,0,0,0,0,0,0,NO,0,0,0,0,0,0,0,0,0,0,0,0,0,0,0,0,0,0,0,0,0,0,0,0,0,0,0,0,0,0,0,0,0,0,0,0,0,0,0,0,0,0,0,0,0,0,0,0,0,100
guava,v12.0,v13.0,F:/corpus/guava/guava#2012-05-01-02-04-06#v12.0#72d2812/guava/src/com/google/common/collect/RowSortedTable.java,F:/corpus/guava/guava#2012-05-01-02-04-06#v12.0#72d2812/guava/src/com/google/common/collect/RowSortedTable.java,0,0,0,0,1,0,0,0,0,0,0,0,0,NO,0,0,0,0,0,0,0,0,0,0,0,0,0,0,0,0,0,0,0,0,0,0,0,0,0,0,0,0,0,0,0,0,0,0,0,0,0,0,0,0,0,0,0,0,0,0,0,0,0,55
guava,v12.0,v13.0,F:/corpus/guava/guava#2012-05-01-02-04-06#v12.0#72d2812/guava/src/com/google/common/collect/Serialization.java,F:/corpus/guava/guava#2012-05-01-02-04-06#v12.0#72d2812/guava/src/com/google/common/collect/Serialization.java,0,0,0,0,0,0,0,0,0,0,0,2,0,NO,0,0,0,0,0,0,0,0,0,0,0,0,0,0,0,0,0,0,0,0,0,0,0,0,0,0,0,0,0,0,0,0,0,0,0,0,0,0,0,0,0,0,0,0,0,0,0,0,0,231
guava,v12.0,v13.0,F:/corpus/guava/guava#2012-05-01-02-04-06#v12.0#72d2812/guava/src/com/google/common/collect/SingletonImmutableList.java,F:/corpus/guava/guava#2012-05-01-02-04-06#v12.0#72d2812/guava/src/com/google/common/collect/SingletonImmutableList.java,0,0,0,0,0,0,0,0,0,0,0,0,0,NO,0,0,0,0,0,0,0,0,0,0,0,0,0,0,0,0,0,0,0,0,0,0,0,0,0,0,0,0,0,0,0,0,0,0,0,0,0,0,0,0,0,0,0,0,0,0,0,0,0,128
guava,v12.0,v13.0,F:/corpus/guava/guava#2012-05-01-02-04-06#v12.0#72d2812/guava/src/com/google/common/collect/SingletonImmutableSet.java,F:/corpus/guava/guava#2012-05-01-02-04-06#v12.0#72d2812/guava/src/com/google/common/collect/SingletonImmutableSet.java,0,0,0,0,0,0,0,0,0,0,0,0,0,NO,0,0,0,0,0,0,0,0,0,0,0,0,0,0,0,0,0,0,0,0,0,0,0,0,0,0,0,0,0,0,0,0,0,0,0,0,0,0,0,0,0,0,0,0,0,0,0,0,0,125
guava,v12.0,v13.0,F:/corpus/guava/guava#2012-05-01-02-04-06#v12.0#72d2812/guava/src/com/google/common/collect/SortedIterable.java,F:/corpus/guava/guava#2012-05-01-02-04-06#v12.0#72d2812/guava/src/com/google/common/collect/SortedIterable.java,0,0,0,0,1,0,0,0,0,0,0,0,0,NO,0,0,0,0,0,0,0,0,0,0,0,0,0,0,0,0,0,0,0,0,0,0,0,0,0,0,0,0,0,0,0,0,0,0,0,0,0,0,0,0,0,0,0,0,0,0,0,0,0,42
guava,v12.0,v13.0,F:/corpus/guava/guava#2012-05-01-02-04-06#v12.0#72d2812/guava/src/com/google/common/collect/SortedLists.java,F:/corpus/guava/guava#2012-05-01-02-04-06#v12.0#72d2812/guava/src/com/google/common/collect/SortedLists.java,0,0,0,0,0,0,0,0,0,0,0,0,0,NO,0,0,0,0,0,0,0,0,0,0,0,0,0,0,0,0,0,0,0,0,0,0,0,0,0,0,0,0,0,0,0,0,0,0,0,0,0,0,0,0,0,0,0,0,0,0,0,0,0,284
guava,v12.0,v13.0,F:/corpus/guava/guava#2012-05-01-02-04-06#v12.0#72d2812/guava/src/com/google/common/collect/SortedMapDifference.java,F:/corpus/guava/guava#2012-05-01-02-04-06#v12.0#72d2812/guava/src/com/google/common/collect/SortedMapDifference.java,0,0,0,0,1,0,0,0,0,0,0,0,0,NO,0,0,0,0,0,0,0,0,0,0,0,0,0,0,0,0,0,0,0,0,0,0,0,0,0,0,0,0,0,0,0,0,0,0,0,0,0,0,0,0,0,0,0,0,0,0,0,0,0,45
guava,v12.0,v13.0,F:/corpus/guava/guava#2012-05-01-02-04-06#v12.0#72d2812/guava/src/com/google/common/collect/SortedMultiset.java,F:/corpus/guava/guava#2012-05-01-02-04-06#v12.0#72d2812/guava/src/com/google/common/collect/SortedMultiset.java,0,0,0,0,1,0,0,0,0,0,0,0,0,NO,0,0,0,0,0,0,0,0,0,0,0,0,0,0,0,0,0,0,0,0,0,0,0,0,0,0,0,0,0,0,0,0,0,0,0,0,0,0,0,0,0,0,0,0,0,0,0,0,0,137
guava,v12.0,v13.0,F:/corpus/guava/guava#2012-05-01-02-04-06#v12.0#72d2812/guava/src/com/google/common/collect/SortedMultisets.java,F:/corpus/guava/guava#2012-05-01-02-04-06#v12.0#72d2812/guava/src/com/google/common/collect/SortedMultisets.java,0,0,0,0,2,0,0,0,0,0,0,0,0,NO,0,0,0,0,0,0,0,0,0,0,0,0,0,0,0,0,0,0,0,0,0,0,0,0,0,0,0,0,0,0,0,0,0,0,0,0,0,0,0,0,0,0,0,0,0,0,0,0,0,196
guava,v12.0,v13.0,F:/corpus/guava/guava#2012-05-01-02-04-06#v12.0#72d2812/guava/src/com/google/common/collect/StandardRowSortedTable.java,F:/corpus/guava/guava#2012-05-01-02-04-06#v12.0#72d2812/guava/src/com/google/common/collect/StandardRowSortedTable.java,0,0,0,1,0,0,0,0,0,0,0,0,0,NO,0,0,0,0,0,0,0,0,0,0,0,0,0,0,0,0,0,0,0,0,0,0,0,0,0,0,0,0,0,0,0,0,0,0,0,0,0,0,0,0,0,0,0,0,0,0,0,0,0,172
guava,v12.0,v13.0,F:/corpus/guava/guava#2012-05-01-02-04-06#v12.0#72d2812/guava/src/com/google/common/collect/Table.java,F:/corpus/guava/guava#2012-05-01-02-04-06#v12.0#72d2812/guava/src/com/google/common/collect/Table.java,0,0,0,0,2,0,0,0,0,0,0,0,0,NO,0,0,0,0,0,0,0,0,0,0,0,0,0,0,0,0,0,0,0,0,0,0,0,0,0,0,0,0,0,0,0,0,0,0,0,0,0,0,0,0,0,0,0,0,0,0,0,0,0,296
guava,v12.0,v13.0,F:/corpus/guava/guava#2012-05-01-02-04-06#v12.0#72d2812/guava/src/com/google/common/collect/TreeBasedTable.java,F:/corpus/guava/guava#2012-05-01-02-04-06#v12.0#72d2812/guava/src/com/google/common/collect/TreeBasedTable.java,0,0,0,1,0,0,0,0,0,0,0,0,0,NO,0,0,0,0,0,0,0,0,0,0,0,0,0,0,0,0,0,0,0,0,0,0,0,0,0,0,0,0,0,0,0,0,0,0,0,0,0,0,0,0,0,0,0,0,0,0,0,0,0,380
guava,v12.0,v13.0,F:/corpus/guava/guava#2012-05-01-02-04-06#v12.0#72d2812/guava/src/com/google/common/collect/TreeMultimap.java,F:/corpus/guava/guava#2012-05-01-02-04-06#v12.0#72d2812/guava/src/com/google/common/collect/TreeMultimap.java,0,0,0,0,0,0,0,0,0,0,0,1,0,NO,0,0,0,0,0,0,0,0,0,0,0,0,0,0,0,0,0,0,0,0,0,0,0,0,0,0,0,0,0,0,0,0,0,0,0,0,0,0,0,0,0,0,0,0,0,0,0,0,0,201
guava,v12.0,v13.0,F:/corpus/guava/guava#2012-05-01-02-04-06#v12.0#72d2812/guava/src/com/google/common/collect/UnmodifiableIterator.java,F:/corpus/guava/guava#2012-05-01-02-04-06#v12.0#72d2812/guava/src/com/google/common/collect/UnmodifiableIterator.java,0,0,0,0,1,0,0,0,0,0,0,0,0,NO,0,0,0,0,0,0,0,0,0,0,0,0,0,0,0,0,0,0,0,0,0,0,0,0,0,0,0,0,0,0,0,0,0,0,0,0,0,0,0,0,0,0,0,0,0,0,0,0,0,43
guava,v12.0,v13.0,F:/corpus/guava/guava#2012-05-01-02-04-06#v12.0#72d2812/guava/src/com/google/common/collect/UnmodifiableListIterator.java,F:/corpus/guava/guava#2012-05-01-02-04-06#v12.0#72d2812/guava/src/com/google/common/collect/UnmodifiableListIterator.java,0,0,0,0,3,0,0,0,0,0,0,0,0,NO,0,0,0,0,0,0,0,0,0,0,0,0,0,0,0,0,0,0,0,0,0,0,0,0,0,0,0,0,0,0,0,0,0,0,0,0,0,0,0,0,0,0,0,0,0,0,0,0,0,53
guava,v12.0,v13.0,F:/corpus/guava/guava#2012-05-01-02-04-06#v12.0#72d2812/guava/src/com/google/common/collect/UsingToStringOrdering.java,F:/corpus/guava/guava#2012-05-01-02-04-06#v12.0#72d2812/guava/src/com/google/common/collect/UsingToStringOrdering.java,0,0,0,0,0,0,0,0,0,0,0,0,0,NO,0,0,0,0,0,0,0,0,0,0,0,0,0,0,0,0,0,0,0,0,0,0,0,0,0,0,0,0,0,0,0,0,0,0,0,0,0,0,0,0,0,0,0,0,0,0,0,0,0,45
guava,v12.0,v13.0,F:/corpus/guava/guava#2012-05-01-02-04-06#v12.0#72d2812/guava/src/com/google/common/collect/WellBehavedMap.java,F:/corpus/guava/guava#2012-05-01-02-04-06#v12.0#72d2812/guava/src/com/google/common/collect/WellBehavedMap.java,0,0,0,0,0,0,0,0,0,0,0,0,0,NO,0,0,0,0,0,0,0,0,0,0,0,0,0,0,0,0,0,0,0,0,0,0,0,0,0,0,0,0,0,0,0,0,0,0,0,0,0,0,0,0,0,0,0,0,0,0,0,0,0,98
guava,v12.0,v13.0,F:/corpus/guava/guava#2012-05-01-02-04-06#v12.0#72d2812/guava/src/com/google/common/eventbus/AllowConcurrentEvents.java,F:/corpus/guava/guava#2012-05-01-02-04-06#v12.0#72d2812/guava/src/com/google/common/eventbus/AllowConcurrentEvents.java,0,0,0,0,0,0,0,0,0,0,0,0,0,NO,0,0,0,0,0,0,0,0,0,0,0,0,0,0,0,0,0,0,0,0,0,0,0,0,0,0,0,0,0,0,0,0,0,0,0,0,0,0,0,0,0,0,0,0,0,0,0,0,0,41
guava,v12.0,v13.0,F:/corpus/guava/guava#2012-05-01-02-04-06#v12.0#72d2812/guava/src/com/google/common/eventbus/DeadEvent.java,F:/corpus/guava/guava#2012-05-01-02-04-06#v12.0#72d2812/guava/src/com/google/common/eventbus/DeadEvent.java,0,0,0,0,0,0,0,0,0,0,0,0,0,NO,0,0,0,0,0,0,0,0,0,0,0,0,0,0,0,0,0,0,0,0,0,0,0,0,0,0,0,0,0,0,0,0,0,0,0,0,0,0,0,0,0,0,0,0,0,0,0,0,0,69
guava,v12.0,v13.0,F:/corpus/guava/guava#2012-05-01-02-04-06#v12.0#72d2812/guava/src/com/google/common/eventbus/EventHandler.java,F:/corpus/guava/guava#2012-05-01-02-04-06#v12.0#72d2812/guava/src/com/google/common/eventbus/EventHandler.java,0,0,0,0,0,0,0,0,0,0,0,0,0,NO,0,0,0,0,0,0,0,0,0,0,0,0,0,0,0,0,0,0,0,0,0,0,0,0,0,0,0,0,0,0,0,0,0,0,0,0,0,0,0,0,0,0,0,0,0,0,0,0,0,109
guava,v12.0,v13.0,F:/corpus/guava/guava#2012-05-01-02-04-06#v12.0#72d2812/guava/src/com/google/common/eventbus/HandlerFindingStrategy.java,F:/corpus/guava/guava#2012-05-01-02-04-06#v12.0#72d2812/guava/src/com/google/common/eventbus/HandlerFindingStrategy.java,0,0,0,0,1,0,0,0,0,0,0,0,0,NO,0,0,0,0,0,0,0,0,0,0,0,0,0,0,0,0,0,0,0,0,0,0,0,0,0,0,0,0,0,0,0,0,0,0,0,0,0,0,0,0,0,0,0,0,0,0,0,0,0,42
guava,v12.0,v13.0,F:/corpus/guava/guava#2012-05-01-02-04-06#v12.0#72d2812/guava/src/com/google/common/eventbus/Subscribe.java,F:/corpus/guava/guava#2012-05-01-02-04-06#v12.0#72d2812/guava/src/com/google/common/eventbus/Subscribe.java,0,0,0,0,0,0,0,0,0,0,0,0,0,NO,0,0,0,0,0,0,0,0,0,0,0,0,0,0,0,0,0,0,0,0,0,0,0,0,0,0,0,0,0,0,0,0,0,0,0,0,0,0,0,0,0,0,0,0,0,0,0,0,0,46
guava,v12.0,v13.0,F:/corpus/guava/guava#2012-05-01-02-04-06#v12.0#72d2812/guava/src/com/google/common/eventbus/SynchronizedEventHandler.java,F:/corpus/guava/guava#2012-05-01-02-04-06#v12.0#72d2812/guava/src/com/google/common/eventbus/SynchronizedEventHandler.java,0,0,0,0,0,0,0,0,0,0,0,0,0,NO,0,0,0,0,0,0,0,0,0,0,0,0,0,0,0,0,0,0,0,0,0,0,0,0,0,0,0,0,0,0,0,0,0,0,0,0,0,0,0,0,0,0,0,0,0,0,0,0,0,48
guava,v12.0,v13.0,F:/corpus/guava/guava#2012-05-01-02-04-06#v12.0#72d2812/guava/src/com/google/common/hash/Funnel.java,F:/corpus/guava/guava#2012-05-01-02-04-06#v12.0#72d2812/guava/src/com/google/common/hash/Funnel.java,0,0,0,0,1,0,0,0,0,0,0,0,0,NO,0,0,0,0,0,0,0,0,0,0,0,0,0,0,0,0,0,0,0,0,0,0,0,0,0,0,0,0,0,0,0,0,0,0,0,0,0,0,0,0,0,0,0,0,0,0,0,0,0,38
guava,v12.0,v13.0,F:/corpus/guava/guava#2012-05-01-02-04-06#v12.0#72d2812/guava/src/com/google/common/hash/HashCode.java,F:/corpus/guava/guava#2012-05-01-02-04-06#v12.0#72d2812/guava/src/com/google/common/hash/HashCode.java,0,0,0,0,0,0,0,0,0,0,0,0,0,NO,0,0,0,0,0,0,0,0,0,0,0,0,0,0,0,0,0,0,0,0,0,0,0,0,0,0,0,0,0,0,0,0,0,0,0,0,0,0,0,0,0,0,0,0,0,0,0,0,0,120
guava,v12.0,v13.0,F:/corpus/guava/guava#2012-05-01-02-04-06#v12.0#72d2812/guava/src/com/google/common/hash/package-info.java,F:/corpus/guava/guava#2012-05-01-02-04-06#v12.0#72d2812/guava/src/com/google/common/hash/package-info.java,0,0,0,0,0,0,0,0,0,0,0,0,0,NO,0,0,0,0,0,0,0,0,0,0,0,0,0,0,0,0,0,0,0,0,0,0,0,0,0,0,0,0,0,0,0,0,0,0,0,0,0,0,0,0,0,0,0,0,0,0,0,0,0,26
guava,v12.0,v13.0,F:/corpus/guava/guava#2012-05-01-02-04-06#v12.0#72d2812/guava/src/com/google/common/hash/PrimitiveSink.java,F:/corpus/guava/guava#2012-05-01-02-04-06#v12.0#72d2812/guava/src/com/google/common/hash/PrimitiveSink.java,0,0,0,0,1,0,0,0,0,0,0,0,0,NO,0,0,0,0,0,0,0,0,0,0,0,0,0,0,0,0,0,0,0,0,0,0,0,0,0,0,0,0,0,0,0,0,0,0,0,0,0,0,0,0,0,0,0,0,0,0,0,0,0,102
guava,v12.0,v13.0,F:/corpus/guava/guava#2012-05-01-02-04-06#v12.0#72d2812/guava/src/com/google/common/io/AppendableWriter.java,F:/corpus/guava/guava#2012-05-01-02-04-06#v12.0#72d2812/guava/src/com/google/common/io/AppendableWriter.java,0,0,1,0,0,0,0,0,0,0,0,0,0,NO,0,0,0,0,0,0,0,0,0,0,0,0,0,0,0,0,0,0,0,0,0,0,0,0,0,0,0,0,0,0,0,0,0,0,0,0,0,0,0,0,0,0,0,0,0,0,0,0,0,117
guava,v12.0,v13.0,F:/corpus/guava/guava#2012-05-01-02-04-06#v12.0#72d2812/guava/src/com/google/common/io/ByteArrayDataInput.java,F:/corpus/guava/guava#2012-05-01-02-04-06#v12.0#72d2812/guava/src/com/google/common/io/ByteArrayDataInput.java,0,0,0,0,1,0,0,0,0,0,0,0,0,NO,0,0,0,0,0,0,0,0,0,0,0,0,0,0,0,0,0,0,0,0,0,0,0,0,0,0,0,0,0,0,0,0,0,0,0,0,0,0,0,0,0,0,0,0,0,0,0,0,0,65
guava,v12.0,v13.0,F:/corpus/guava/guava#2012-05-01-02-04-06#v12.0#72d2812/guava/src/com/google/common/io/ByteArrayDataOutput.java,F:/corpus/guava/guava#2012-05-01-02-04-06#v12.0#72d2812/guava/src/com/google/common/io/ByteArrayDataOutput.java,0,0,0,0,1,0,0,0,0,0,0,0,0,NO,0,0,0,0,0,0,0,0,0,0,0,0,0,0,0,0,0,0,0,0,0,0,0,0,0,0,0,0,0,0,0,0,0,0,0,0,0,0,0,0,0,0,0,0,0,0,0,0,0,55
guava,v12.0,v13.0,F:/corpus/guava/guava#2012-05-01-02-04-06#v12.0#72d2812/guava/src/com/google/common/io/ByteProcessor.java,F:/corpus/guava/guava#2012-05-01-02-04-06#v12.0#72d2812/guava/src/com/google/common/io/ByteProcessor.java,0,0,0,0,1,0,0,0,0,0,0,0,0,NO,0,0,0,0,0,0,0,0,0,0,0,0,0,0,0,0,0,0,0,0,0,0,0,0,0,0,0,0,0,0,0,0,0,0,0,0,0,0,0,0,0,0,0,0,0,0,0,0,0,49
guava,v12.0,v13.0,F:/corpus/guava/guava#2012-05-01-02-04-06#v12.0#72d2812/guava/src/com/google/common/io/Closeables.java,F:/corpus/guava/guava#2012-05-01-02-04-06#v12.0#72d2812/guava/src/com/google/common/io/Closeables.java,0,0,0,0,0,0,0,0,0,0,0,0,0,NO,0,0,0,0,0,0,0,0,0,0,0,0,0,0,0,0,0,0,0,0,0,0,0,0,0,0,0,0,0,0,0,0,0,0,0,0,0,0,0,0,0,0,0,0,0,0,0,0,0,104
guava,v12.0,v13.0,F:/corpus/guava/guava#2012-05-01-02-04-06#v12.0#72d2812/guava/src/com/google/common/io/CountingInputStream.java,F:/corpus/guava/guava#2012-05-01-02-04-06#v12.0#72d2812/guava/src/com/google/common/io/CountingInputStream.java,0,0,0,0,0,0,0,0,0,0,0,0,0,NO,0,0,0,0,0,0,0,0,0,0,0,0,0,0,0,0,0,0,0,0,0,0,0,0,0,0,0,0,0,0,0,0,0,0,0,0,0,0,0,0,0,0,0,0,0,0,0,0,0,90
guava,v12.0,v13.0,F:/corpus/guava/guava#2012-05-01-02-04-06#v12.0#72d2812/guava/src/com/google/common/io/CountingOutputStream.java,F:/corpus/guava/guava#2012-05-01-02-04-06#v12.0#72d2812/guava/src/com/google/common/io/CountingOutputStream.java,0,0,0,0,0,0,0,0,0,0,0,0,0,NO,0,0,0,0,0,0,0,0,0,0,0,0,0,0,0,0,0,0,0,0,0,0,0,0,0,0,0,0,0,0,0,0,0,0,0,0,0,0,0,0,0,0,0,0,0,0,0,0,0,59
guava,v12.0,v13.0,F:/corpus/guava/guava#2012-05-01-02-04-06#v12.0#72d2812/guava/src/com/google/common/io/FileBackedOutputStream.java,F:/corpus/guava/guava#2012-05-01-02-04-06#v12.0#72d2812/guava/src/com/google/common/io/FileBackedOutputStream.java,0,0,0,0,0,0,0,0,0,0,0,0,0,NO,0,0,0,0,0,0,0,0,0,0,0,0,0,0,0,0,0,0,0,0,0,0,0,0,0,0,0,0,0,0,0,0,0,0,0,0,0,0,0,0,0,0,0,0,0,0,0,0,0,210
guava,v12.0,v13.0,F:/corpus/guava/guava#2012-05-01-02-04-06#v12.0#72d2812/guava/src/com/google/common/io/Flushables.java,F:/corpus/guava/guava#2012-05-01-02-04-06#v12.0#72d2812/guava/src/com/google/common/io/Flushables.java,0,0,0,0,0,0,0,0,0,0,0,0,0,NO,0,0,0,0,0,0,0,0,0,0,0,0,0,0,0,0,0,0,0,0,0,0,0,0,0,0,0,0,0,0,0,0,0,0,0,0,0,0,0,0,0,0,0,0,0,0,0,0,0,80
guava,v12.0,v13.0,F:/corpus/guava/guava#2012-05-01-02-04-06#v12.0#72d2812/guava/src/com/google/common/io/InputSupplier.java,F:/corpus/guava/guava#2012-05-01-02-04-06#v12.0#72d2812/guava/src/com/google/common/io/InputSupplier.java,0,0,0,0,1,0,0,0,0,0,0,0,0,NO,0,0,0,0,0,0,0,0,0,0,0,0,0,0,0,0,0,0,0,0,0,0,0,0,0,0,0,0,0,0,0,0,0,0,0,0,0,0,0,0,0,0,0,0,0,0,0,0,0,40
guava,v12.0,v13.0,F:/corpus/guava/guava#2012-05-01-02-04-06#v12.0#72d2812/guava/src/com/google/common/io/LimitInputStream.java,F:/corpus/guava/guava#2012-05-01-02-04-06#v12.0#72d2812/guava/src/com/google/common/io/LimitInputStream.java,0,0,0,0,0,0,0,0,0,0,0,0,0,NO,0,0,0,0,0,0,0,0,0,0,0,0,0,0,0,0,0,0,0,0,0,0,0,0,0,0,0,0,0,0,0,0,0,0,0,0,0,0,0,0,0,0,0,0,0,0,0,0,0,104
guava,v12.0,v13.0,F:/corpus/guava/guava#2012-05-01-02-04-06#v12.0#72d2812/guava/src/com/google/common/io/LineBuffer.java,F:/corpus/guava/guava#2012-05-01-02-04-06#v12.0#72d2812/guava/src/com/google/common/io/LineBuffer.java,0,0,0,0,1,0,0,0,0,0,0,0,0,NO,0,0,0,0,0,0,0,0,0,0,0,0,0,0,0,0,0,0,0,0,0,0,0,0,0,0,0,0,0,0,0,0,0,0,0,0,0,0,0,0,0,0,0,0,0,0,0,0,0,117
guava,v12.0,v13.0,F:/corpus/guava/guava#2012-05-01-02-04-06#v12.0#72d2812/guava/src/com/google/common/io/LineProcessor.java,F:/corpus/guava/guava#2012-05-01-02-04-06#v12.0#72d2812/guava/src/com/google/common/io/LineProcessor.java,0,0,0,0,1,0,0,0,0,0,0,0,0,NO,0,0,0,0,0,0,0,0,0,0,0,0,0,0,0,0,0,0,0,0,0,0,0,0,0,0,0,0,0,0,0,0,0,0,0,0,0,0,0,0,0,0,0,0,0,0,0,0,0,45
guava,v12.0,v13.0,F:/corpus/guava/guava#2012-05-01-02-04-06#v12.0#72d2812/guava/src/com/google/common/io/LineReader.java,F:/corpus/guava/guava#2012-05-01-02-04-06#v12.0#72d2812/guava/src/com/google/common/io/LineReader.java,0,0,0,0,0,0,0,0,0,0,0,0,0,NO,0,0,0,0,0,0,0,0,0,0,0,0,0,0,0,0,0,0,0,0,0,0,0,0,0,0,0,0,0,0,0,0,0,0,0,0,0,0,0,0,0,0,0,0,0,0,0,0,0,87
guava,v12.0,v13.0,F:/corpus/guava/guava#2012-05-01-02-04-06#v12.0#72d2812/guava/src/com/google/common/io/LittleEndianDataInputStream.java,F:/corpus/guava/guava#2012-05-01-02-04-06#v12.0#72d2812/guava/src/com/google/common/io/LittleEndianDataInputStream.java,0,0,0,0,0,0,0,0,0,0,0,0,0,NO,0,0,0,0,0,0,0,0,0,0,0,0,0,0,0,0,0,0,0,0,0,0,0,0,0,0,0,0,0,0,0,0,0,0,0,0,0,0,0,0,0,0,0,0,0,0,0,0,0,232
guava,v12.0,v13.0,F:/corpus/guava/guava#2012-05-01-02-04-06#v12.0#72d2812/guava/src/com/google/common/io/LittleEndianDataOutputStream.java,F:/corpus/guava/guava#2012-05-01-02-04-06#v12.0#72d2812/guava/src/com/google/common/io/LittleEndianDataOutputStream.java,0,0,1,0,0,0,0,0,0,0,0,0,0,NO,0,0,0,0,0,0,0,0,0,0,0,0,0,0,0,0,0,0,0,0,0,0,0,0,0,0,0,0,0,0,0,0,0,0,0,0,0,0,0,0,0,0,0,0,0,0,0,0,0,164
guava,v12.0,v13.0,F:/corpus/guava/guava#2012-05-01-02-04-06#v12.0#72d2812/guava/src/com/google/common/io/MultiInputStream.java,F:/corpus/guava/guava#2012-05-01-02-04-06#v12.0#72d2812/guava/src/com/google/common/io/MultiInputStream.java,0,0,0,0,0,0,0,0,0,0,0,0,0,NO,0,0,0,0,0,0,0,0,0,0,0,0,0,0,0,0,0,0,0,0,0,0,0,0,0,0,0,0,0,0,0,0,0,0,0,0,0,0,0,0,0,0,0,0,0,0,0,0,0,115
guava,v12.0,v13.0,F:/corpus/guava/guava#2012-05-01-02-04-06#v12.0#72d2812/guava/src/com/google/common/io/MultiReader.java,F:/corpus/guava/guava#2012-05-01-02-04-06#v12.0#72d2812/guava/src/com/google/common/io/MultiReader.java,0,0,0,0,0,0,0,0,0,0,0,0,0,NO,0,0,0,0,0,0,0,0,0,0,0,0,0,0,0,0,0,0,0,0,0,0,0,0,0,0,0,0,0,0,0,0,0,0,0,0,0,0,0,0,0,0,0,0,0,0,0,0,0,90
guava,v12.0,v13.0,F:/corpus/guava/guava#2012-05-01-02-04-06#v12.0#72d2812/guava/src/com/google/common/io/NullOutputStream.java,F:/corpus/guava/guava#2012-05-01-02-04-06#v12.0#72d2812/guava/src/com/google/common/io/NullOutputStream.java,0,0,0,0,0,0,0,0,0,0,0,0,0,NO,0,0,0,0,0,0,0,0,0,0,0,0,0,0,0,0,0,0,0,0,0,0,0,0,0,0,0,0,0,0,0,0,0,0,0,0,0,0,0,0,0,0,0,0,0,0,0,0,0,38
guava,v12.0,v13.0,F:/corpus/guava/guava#2012-05-01-02-04-06#v12.0#72d2812/guava/src/com/google/common/io/OutputSupplier.java,F:/corpus/guava/guava#2012-05-01-02-04-06#v12.0#72d2812/guava/src/com/google/common/io/OutputSupplier.java,0,0,0,0,1,0,0,0,0,0,0,0,0,NO,0,0,0,0,0,0,0,0,0,0,0,0,0,0,0,0,0,0,0,0,0,0,0,0,0,0,0,0,0,0,0,0,0,0,0,0,0,0,0,0,0,0,0,0,0,0,0,0,0,40
guava,v12.0,v13.0,F:/corpus/guava/guava#2012-05-01-02-04-06#v12.0#72d2812/guava/src/com/google/common/io/package-info.java,F:/corpus/guava/guava#2012-05-01-02-04-06#v12.0#72d2812/guava/src/com/google/common/io/package-info.java,0,0,0,0,0,0,0,0,0,0,0,0,0,NO,0,0,0,0,0,0,0,0,0,0,0,0,0,0,0,0,0,0,0,0,0,0,0,0,0,0,0,0,0,0,0,0,0,0,0,0,0,0,0,0,0,0,0,0,0,0,0,0,0,41
guava,v12.0,v13.0,F:/corpus/guava/guava#2012-05-01-02-04-06#v12.0#72d2812/guava/src/com/google/common/io/Resources.java,F:/corpus/guava/guava#2012-05-01-02-04-06#v12.0#72d2812/guava/src/com/google/common/io/Resources.java,0,0,0,0,0,0,0,0,0,0,0,0,0,NO,0,0,0,0,0,0,0,0,0,0,0,0,0,0,0,0,0,0,0,0,0,0,0,0,0,0,0,0,0,0,0,0,0,0,0,0,0,0,0,0,0,0,0,0,0,0,0,0,0,173
guava,v12.0,v13.0,F:/corpus/guava/guava#2012-05-01-02-04-06#v12.0#72d2812/guava/src/com/google/common/math/package-info.java,F:/corpus/guava/guava#2012-05-01-02-04-06#v12.0#72d2812/guava/src/com/google/common/math/package-info.java,0,0,0,0,0,0,0,0,0,0,0,0,0,NO,0,0,0,0,0,0,0,0,0,0,0,0,0,0,0,0,0,0,0,0,0,0,0,0,0,0,0,0,0,0,0,0,0,0,0,0,0,0,0,0,0,0,0,0,0,0,0,0,0,31
guava,v12.0,v13.0,F:/corpus/guava/guava#2012-05-01-02-04-06#v12.0#72d2812/guava/src/com/google/common/net/HostSpecifier.java,F:/corpus/guava/guava#2012-05-01-02-04-06#v12.0#72d2812/guava/src/com/google/common/net/HostSpecifier.java,0,0,0,0,0,0,0,0,0,0,0,0,0,NO,0,0,0,0,0,0,0,0,0,0,0,0,0,0,0,0,0,0,0,0,0,0,0,0,0,0,0,0,0,0,0,0,0,0,0,0,0,0,0,0,0,0,0,0,0,0,0,0,0,178
guava,v12.0,v13.0,F:/corpus/guava/guava#2012-05-01-02-04-06#v12.0#72d2812/guava/src/com/google/common/net/HttpHeaders.java,F:/corpus/guava/guava#2012-05-01-02-04-06#v12.0#72d2812/guava/src/com/google/common/net/HttpHeaders.java,1,0,0,0,0,0,0,0,0,0,0,0,0,NO,0,0,0,0,0,0,0,0,0,0,0,0,0,0,0,0,0,0,0,0,0,0,0,0,0,0,0,0,0,0,0,0,0,0,0,0,0,0,0,0,0,0,0,0,0,0,0,0,0,200
guava,v12.0,v13.0,F:/corpus/guava/guava#2012-05-01-02-04-06#v12.0#72d2812/guava/src/com/google/common/net/package-info.java,F:/corpus/guava/guava#2012-05-01-02-04-06#v12.0#72d2812/guava/src/com/google/common/net/package-info.java,0,0,0,0,0,0,0,0,0,0,0,0,0,NO,0,0,0,0,0,0,0,0,0,0,0,0,0,0,0,0,0,0,0,0,0,0,0,0,0,0,0,0,0,0,0,0,0,0,0,0,0,0,0,0,0,0,0,0,0,0,0,0,0,30
guava,v12.0,v13.0,F:/corpus/guava/guava#2012-05-01-02-04-06#v12.0#72d2812/guava/src/com/google/common/primitives/AndroidInteger.java,F:/corpus/guava/guava#2012-05-01-02-04-06#v12.0#72d2812/guava/src/com/google/common/primitives/AndroidInteger.java,0,0,0,0,0,0,0,0,0,0,0,0,0,NO,0,0,0,0,0,0,0,0,0,0,0,0,0,0,0,0,0,0,0,0,0,0,0,0,0,0,0,0,0,0,0,0,0,0,0,0,0,0,0,0,0,0,0,0,0,0,0,0,0,91
guava,v12.0,v13.0,F:/corpus/guava/guava#2012-05-01-02-04-06#v12.0#72d2812/guava/src/com/google/common/primitives/package-info.java,F:/corpus/guava/guava#2012-05-01-02-04-06#v12.0#72d2812/guava/src/com/google/common/primitives/package-info.java,0,0,0,0,0,0,0,0,0,0,0,0,0,NO,0,0,0,0,0,0,0,0,0,0,0,0,0,0,0,0,0,0,0,0,0,0,0,0,0,0,0,0,0,0,0,0,0,0,0,0,0,0,0,0,0,0,0,0,0,0,0,0,0,69
guava,v12.0,v13.0,F:/corpus/guava/guava#2012-05-01-02-04-06#v12.0#72d2812/guava/src/com/google/common/primitives/Primitives.java,F:/corpus/guava/guava#2012-05-01-02-04-06#v12.0#72d2812/guava/src/com/google/common/primitives/Primitives.java,0,0,0,0,0,0,0,0,0,0,0,0,0,NO,0,0,0,0,0,0,0,0,0,0,0,0,0,0,0,0,0,0,0,0,0,0,0,0,0,0,0,0,0,0,0,0,0,0,0,0,0,0,0,0,0,0,0,0,0,0,0,0,0,134
guava,v12.0,v13.0,F:/corpus/guava/guava#2012-05-01-02-04-06#v12.0#72d2812/guava/src/com/google/common/primitives/SignedBytes.java,F:/corpus/guava/guava#2012-05-01-02-04-06#v12.0#72d2812/guava/src/com/google/common/primitives/SignedBytes.java,0,0,0,0,0,0,0,0,0,0,0,0,0,NO,0,0,0,0,0,0,0,0,0,0,0,0,0,0,0,0,0,0,0,0,0,0,0,0,0,0,0,0,0,0,0,0,0,0,0,0,0,0,0,0,0,0,0,0,0,0,0,0,0,194
guava,v12.0,v13.0,F:/corpus/guava/guava#2012-05-01-02-04-06#v12.0#72d2812/guava/src/com/google/common/primitives/UnsignedInteger.java,F:/corpus/guava/guava#2012-05-01-02-04-06#v12.0#72d2812/guava/src/com/google/common/primitives/UnsignedInteger.java,0,0,0,0,0,0,0,0,0,0,0,0,0,NO,0,0,0,0,0,0,0,0,0,0,0,0,0,0,0,0,0,0,0,0,0,0,0,0,0,0,0,0,0,0,0,0,0,0,0,0,0,0,0,0,0,0,0,0,0,0,0,0,0,240
guava,v12.0,v13.0,F:/corpus/guava/guava#2012-05-01-02-04-06#v12.0#72d2812/guava/src/com/google/common/primitives/UnsignedLong.java,F:/corpus/guava/guava#2012-05-01-02-04-06#v12.0#72d2812/guava/src/com/google/common/primitives/UnsignedLong.java,0,0,0,0,0,0,0,0,0,0,0,0,0,NO,0,0,0,0,0,0,0,0,0,0,0,0,0,0,0,0,0,0,0,0,0,0,0,0,0,0,0,0,0,0,0,0,0,0,0,0,0,0,0,0,0,0,0,0,0,0,0,0,0,243
guava,v12.0,v13.0,F:/corpus/guava/guava#2012-05-01-02-04-06#v12.0#72d2812/guava/src/com/google/common/reflect/AbstractInvocationHandler.java,F:/corpus/guava/guava#2012-05-01-02-04-06#v12.0#72d2812/guava/src/com/google/common/reflect/AbstractInvocationHandler.java,0,0,0,0,1,0,0,0,0,0,0,0,0,NO,0,0,0,0,0,0,0,0,0,0,0,0,0,0,0,0,0,0,0,0,0,0,0,0,0,0,0,0,0,0,0,0,0,0,0,0,0,0,0,0,0,0,0,0,0,0,0,0,0,82
guava,v12.0,v13.0,F:/corpus/guava/guava#2012-05-01-02-04-06#v12.0#72d2812/guava/src/com/google/common/reflect/package-info.java,F:/corpus/guava/guava#2012-05-01-02-04-06#v12.0#72d2812/guava/src/com/google/common/reflect/package-info.java,0,0,0,0,0,0,0,0,0,0,0,0,0,NO,0,0,0,0,0,0,0,0,0,0,0,0,0,0,0,0,0,0,0,0,0,0,0,0,0,0,0,0,0,0,0,0,0,0,0,0,0,0,0,0,0,0,0,0,0,0,0,0,0,23
guava,v12.0,v13.0,F:/corpus/guava/guava#2012-05-01-02-04-06#v12.0#72d2812/guava/src/com/google/common/reflect/Reflection.java,F:/corpus/guava/guava#2012-05-01-02-04-06#v12.0#72d2812/guava/src/com/google/common/reflect/Reflection.java,0,0,0,0,0,0,0,0,0,0,0,0,0,NO,0,0,0,0,0,0,0,0,0,0,0,0,0,0,0,0,0,0,0,0,0,0,0,0,0,0,0,0,0,0,0,0,0,0,0,0,0,0,0,0,0,0,0,0,0,0,0,0,0,103
guava,v12.0,v13.0,F:/corpus/guava/guava#2012-05-01-02-04-06#v12.0#72d2812/guava/src/com/google/common/reflect/TypeCapture.java,F:/corpus/guava/guava#2012-05-01-02-04-06#v12.0#72d2812/guava/src/com/google/common/reflect/TypeCapture.java,0,0,1,0,1,1,0,0,0,0,0,1,0,NO,0,0,0,0,0,0,0,0,0,0,0,0,0,0,0,0,0,0,0,0,0,0,0,0,0,0,0,0,0,0,0,0,0,0,0,0,0,0,0,0,0,0,0,0,0,0,0,0,0,38
guava,v12.0,v13.0,F:/corpus/guava/guava#2012-05-01-02-04-06#v12.0#72d2812/guava/src/com/google/common/reflect/TypeParameter.java,F:/corpus/guava/guava#2012-05-01-02-04-06#v12.0#72d2812/guava/src/com/google/common/reflect/TypeParameter.java,0,0,0,0,1,0,0,0,0,0,0,0,0,NO,0,0,0,0,0,0,0,0,0,0,0,0,0,0,0,0,0,0,0,0,0,0,0,0,0,0,0,0,0,0,0,0,0,0,0,0,0,0,0,0,0,0,0,0,0,0,0,0,0,70
guava,v12.0,v13.0,F:/corpus/guava/guava#2012-05-01-02-04-06#v12.0#72d2812/guava/src/com/google/common/util/concurrent/AbstractCheckedFuture.java,F:/corpus/guava/guava#2012-05-01-02-04-06#v12.0#72d2812/guava/src/com/google/common/util/concurrent/AbstractCheckedFuture.java,0,0,0,0,1,0,0,0,0,0,0,0,0,NO,0,0,0,0,0,0,0,0,0,0,0,0,0,0,0,0,0,0,0,0,0,0,0,0,0,0,0,0,0,0,0,0,0,0,0,0,0,0,0,0,0,0,0,0,0,0,0,0,0,117
guava,v12.0,v13.0,F:/corpus/guava/guava#2012-05-01-02-04-06#v12.0#72d2812/guava/src/com/google/common/util/concurrent/AsyncFunction.java,F:/corpus/guava/guava#2012-05-01-02-04-06#v12.0#72d2812/guava/src/com/google/common/util/concurrent/AsyncFunction.java,0,0,0,0,1,0,0,0,0,0,0,0,0,NO,0,0,0,0,0,0,0,0,0,0,0,0,0,0,0,0,0,0,0,0,0,0,0,0,0,0,0,0,0,0,0,0,0,0,0,0,0,0,0,0,0,0,0,0,0,0,0,0,0,41
guava,v12.0,v13.0,F:/corpus/guava/guava#2012-05-01-02-04-06#v12.0#72d2812/guava/src/com/google/common/util/concurrent/AtomicDouble.java,F:/corpus/guava/guava#2012-05-01-02-04-06#v12.0#72d2812/guava/src/com/google/common/util/concurrent/AtomicDouble.java,0,0,0,0,0,0,0,0,0,0,0,0,0,NO,0,0,0,0,0,0,0,0,0,0,0,0,0,0,0,0,0,0,0,0,0,0,0,0,0,0,0,0,0,0,0,0,0,0,0,0,0,0,0,0,0,0,0,0,0,0,0,0,0,257
guava,v12.0,v13.0,F:/corpus/guava/guava#2012-05-01-02-04-06#v12.0#72d2812/guava/src/com/google/common/util/concurrent/AtomicDoubleArray.java,F:/corpus/guava/guava#2012-05-01-02-04-06#v12.0#72d2812/guava/src/com/google/common/util/concurrent/AtomicDoubleArray.java,0,0,0,0,0,0,0,0,0,0,0,0,0,NO,0,0,0,0,0,0,0,0,0,0,0,0,0,0,0,0,0,0,0,0,0,0,0,0,0,0,0,0,0,0,0,0,0,0,0,0,0,0,0,0,0,0,0,0,0,0,0,0,0,271
guava,v12.0,v13.0,F:/corpus/guava/guava#2012-05-01-02-04-06#v12.0#72d2812/guava/src/com/google/common/util/concurrent/Atomics.java,F:/corpus/guava/guava#2012-05-01-02-04-06#v12.0#72d2812/guava/src/com/google/common/util/concurrent/Atomics.java,0,0,0,0,0,0,0,0,0,0,0,0,0,NO,0,0,0,0,0,0,0,0,0,0,0,0,0,0,0,0,0,0,0,0,0,0,0,0,0,0,0,0,0,0,0,0,0,0,0,0,0,0,0,0,0,0,0,0,0,0,0,0,0,76
guava,v12.0,v13.0,F:/corpus/guava/guava#2012-05-01-02-04-06#v12.0#72d2812/guava/src/com/google/common/util/concurrent/Callables.java,F:/corpus/guava/guava#2012-05-01-02-04-06#v12.0#72d2812/guava/src/com/google/common/util/concurrent/Callables.java,0,0,0,0,0,0,0,0,0,0,0,1,0,NO,0,0,0,0,0,0,0,0,0,0,0,0,0,0,0,0,0,0,0,0,0,0,0,0,0,0,0,0,0,0,0,0,0,0,0,0,0,0,0,0,0,0,0,0,0,0,0,0,0,43
guava,v12.0,v13.0,F:/corpus/guava/guava#2012-05-01-02-04-06#v12.0#72d2812/guava/src/com/google/common/util/concurrent/CheckedFuture.java,F:/corpus/guava/guava#2012-05-01-02-04-06#v12.0#72d2812/guava/src/com/google/common/util/concurrent/CheckedFuture.java,0,0,0,0,1,0,0,0,0,0,0,0,0,NO,0,0,0,0,0,0,0,0,0,0,0,0,0,0,0,0,0,0,0,0,0,0,0,0,0,0,0,0,0,0,0,0,0,0,0,0,0,0,0,0,0,0,0,0,0,0,0,0,0,76
guava,v12.0,v13.0,F:/corpus/guava/guava#2012-05-01-02-04-06#v12.0#72d2812/guava/src/com/google/common/util/concurrent/ExecutionError.java,F:/corpus/guava/guava#2012-05-01-02-04-06#v12.0#72d2812/guava/src/com/google/common/util/concurrent/ExecutionError.java,0,0,0,0,0,0,0,0,0,0,0,0,0,NO,0,0,0,0,0,0,0,0,0,0,0,0,0,0,0,0,0,0,0,0,0,0,0,0,0,0,0,0,0,0,0,0,0,0,0,0,0,0,0,0,0,0,0,0,0,0,0,0,0,64
guava,v12.0,v13.0,F:/corpus/guava/guava#2012-05-01-02-04-06#v12.0#72d2812/guava/src/com/google/common/util/concurrent/ExecutionList.java,F:/corpus/guava/guava#2012-05-01-02-04-06#v12.0#72d2812/guava/src/com/google/common/util/concurrent/ExecutionList.java,0,0,0,0,0,0,0,0,0,0,0,0,0,NO,0,0,0,0,0,0,0,0,0,0,0,0,0,0,0,0,0,0,0,0,0,0,0,0,0,0,0,0,0,0,0,0,0,0,0,0,0,0,0,0,0,0,0,0,0,0,0,0,0,159
guava,v12.0,v13.0,F:/corpus/guava/guava#2012-05-01-02-04-06#v12.0#72d2812/guava/src/com/google/common/util/concurrent/FakeTimeLimiter.java,F:/corpus/guava/guava#2012-05-01-02-04-06#v12.0#72d2812/guava/src/com/google/common/util/concurrent/FakeTimeLimiter.java,0,0,0,0,2,0,0,0,0,0,0,0,0,NO,0,0,0,0,0,0,0,0,0,0,0,0,0,0,0,0,0,0,0,0,0,0,0,0,0,0,0,0,0,0,0,0,0,0,0,0,0,0,0,0,0,0,0,0,0,0,0,0,0,47
guava,v12.0,v13.0,F:/corpus/guava/guava#2012-05-01-02-04-06#v12.0#72d2812/guava/src/com/google/common/util/concurrent/ForwardingBlockingQueue.java,F:/corpus/guava/guava#2012-05-01-02-04-06#v12.0#72d2812/guava/src/com/google/common/util/concurrent/ForwardingBlockingQueue.java,0,0,0,0,1,0,0,0,0,0,0,0,0,NO,0,0,0,0,0,0,0,0,0,0,0,0,0,0,0,0,0,0,0,0,0,0,0,0,0,0,0,0,0,0,0,0,0,0,0,0,0,0,0,0,0,0,0,0,0,0,0,0,0,74
guava,v12.0,v13.0,F:/corpus/guava/guava#2012-05-01-02-04-06#v12.0#72d2812/guava/src/com/google/common/util/concurrent/ForwardingCheckedFuture.java,F:/corpus/guava/guava#2012-05-01-02-04-06#v12.0#72d2812/guava/src/com/google/common/util/concurrent/ForwardingCheckedFuture.java,0,0,0,0,2,0,0,0,0,0,0,0,0,NO,0,0,0,0,0,0,0,0,0,0,0,0,0,0,0,0,0,0,0,0,0,0,0,0,0,0,0,0,0,0,0,0,0,0,0,0,0,0,0,0,0,0,0,0,0,0,0,0,0,78
guava,v12.0,v13.0,F:/corpus/guava/guava#2012-05-01-02-04-06#v12.0#72d2812/guava/src/com/google/common/util/concurrent/ForwardingExecutorService.java,F:/corpus/guava/guava#2012-05-01-02-04-06#v12.0#72d2812/guava/src/com/google/common/util/concurrent/ForwardingExecutorService.java,0,0,0,0,1,0,0,0,0,0,0,0,0,NO,0,0,0,0,0,0,0,0,0,0,0,0,0,0,0,0,0,0,0,0,0,0,0,0,0,0,0,0,0,0,0,0,0,0,0,0,0,0,0,0,0,0,0,0,0,0,0,0,0,117
guava,v12.0,v13.0,F:/corpus/guava/guava#2012-05-01-02-04-06#v12.0#72d2812/guava/src/com/google/common/util/concurrent/ForwardingFuture.java,F:/corpus/guava/guava#2012-05-01-02-04-06#v12.0#72d2812/guava/src/com/google/common/util/concurrent/ForwardingFuture.java,0,0,0,0,2,0,0,0,0,0,0,0,0,NO,0,0,0,0,0,0,0,0,0,0,0,0,0,0,0,0,0,0,0,0,0,0,0,0,0,0,0,0,0,0,0,0,0,0,0,0,0,0,0,0,0,0,0,0,0,0,0,0,0,96
guava,v12.0,v13.0,F:/corpus/guava/guava#2012-05-01-02-04-06#v12.0#72d2812/guava/src/com/google/common/util/concurrent/ForwardingListenableFuture.java,F:/corpus/guava/guava#2012-05-01-02-04-06#v12.0#72d2812/guava/src/com/google/common/util/concurrent/ForwardingListenableFuture.java,0,0,0,0,2,0,0,0,0,0,0,0,0,NO,0,0,0,0,0,0,0,0,0,0,0,0,0,0,0,0,0,0,0,0,0,0,0,0,0,0,0,0,0,0,0,0,0,0,0,0,0,0,0,0,0,0,0,0,0,0,0,0,0,74
guava,v12.0,v13.0,F:/corpus/guava/guava#2012-05-01-02-04-06#v12.0#72d2812/guava/src/com/google/common/util/concurrent/ForwardingListeningExecutorService.java,F:/corpus/guava/guava#2012-05-01-02-04-06#v12.0#72d2812/guava/src/com/google/common/util/concurrent/ForwardingListeningExecutorService.java,0,0,0,0,1,0,0,0,0,0,0,0,0,NO,0,0,0,0,0,0,0,0,0,0,0,0,0,0,0,0,0,0,0,0,0,0,0,0,0,0,0,0,0,0,0,0,0,0,0,0,0,0,0,0,0,0,0,0,0,0,0,0,0,52
guava,v12.0,v13.0,F:/corpus/guava/guava#2012-05-01-02-04-06#v12.0#72d2812/guava/src/com/google/common/util/concurrent/FutureCallback.java,F:/corpus/guava/guava#2012-05-01-02-04-06#v12.0#72d2812/guava/src/com/google/common/util/concurrent/FutureCallback.java,0,0,0,0,1,0,0,0,0,0,0,0,0,NO,0,0,0,0,0,0,0,0,0,0,0,0,0,0,0,0,0,0,0,0,0,0,0,0,0,0,0,0,0,0,0,0,0,0,0,0,0,0,0,0,0,0,0,0,0,0,0,0,0,49
guava,v12.0,v13.0,F:/corpus/guava/guava#2012-05-01-02-04-06#v12.0#72d2812/guava/src/com/google/common/util/concurrent/ListenableFutureTask.java,F:/corpus/guava/guava#2012-05-01-02-04-06#v12.0#72d2812/guava/src/com/google/common/util/concurrent/ListenableFutureTask.java,0,0,0,0,0,0,0,0,0,0,0,0,0,NO,0,0,0,0,0,0,0,0,0,0,0,0,0,0,0,0,0,0,0,0,0,0,0,0,0,0,0,0,0,0,0,0,0,0,0,0,0,0,0,0,0,0,0,0,0,0,0,0,0,90
guava,v12.0,v13.0,F:/corpus/guava/guava#2012-05-01-02-04-06#v12.0#72d2812/guava/src/com/google/common/util/concurrent/ListeningExecutorService.java,F:/corpus/guava/guava#2012-05-01-02-04-06#v12.0#72d2812/guava/src/com/google/common/util/concurrent/ListeningExecutorService.java,0,0,0,0,0,0,0,0,0,0,0,0,0,NO,0,0,0,0,0,0,0,0,0,0,0,0,0,0,0,0,0,0,0,0,0,0,0,0,0,0,0,0,0,0,0,0,0,0,0,0,0,0,0,0,0,0,0,0,0,0,0,0,0,88
guava,v12.0,v13.0,F:/corpus/guava/guava#2012-05-01-02-04-06#v12.0#72d2812/guava/src/com/google/common/util/concurrent/ListeningScheduledExecutorService.java,F:/corpus/guava/guava#2012-05-01-02-04-06#v12.0#72d2812/guava/src/com/google/common/util/concurrent/ListeningScheduledExecutorService.java,0,0,0,0,1,0,0,0,0,0,0,0,0,NO,0,0,0,0,0,0,0,0,0,0,0,0,0,0,0,0,0,0,0,0,0,0,0,0,0,0,0,0,0,0,0,0,0,0,0,0,0,0,0,0,0,0,0,0,0,0,0,0,0,40
guava,v12.0,v13.0,F:/corpus/guava/guava#2012-05-01-02-04-06#v12.0#72d2812/guava/src/com/google/common/util/concurrent/Monitor.java,F:/corpus/guava/guava#2012-05-01-02-04-06#v12.0#72d2812/guava/src/com/google/common/util/concurrent/Monitor.java,0,0,0,0,1,0,0,0,0,0,0,0,0,NO,0,0,0,0,0,0,0,0,0,0,0,0,0,0,0,0,0,0,0,0,0,0,0,0,0,0,0,0,0,0,0,0,0,0,0,0,0,0,0,0,0,0,0,0,0,0,0,0,0,942
guava,v12.0,v13.0,F:/corpus/guava/guava#2012-05-01-02-04-06#v12.0#72d2812/guava/src/com/google/common/util/concurrent/package-info.java,F:/corpus/guava/guava#2012-05-01-02-04-06#v12.0#72d2812/guava/src/com/google/common/util/concurrent/package-info.java,0,0,0,0,0,0,0,0,0,0,0,0,0,NO,0,0,0,0,0,0,0,0,0,0,0,0,0,0,0,0,0,0,0,0,0,0,0,0,0,0,0,0,0,0,0,0,0,0,0,0,0,0,0,0,0,0,0,0,0,0,0,0,0,36
guava,v12.0,v13.0,F:/corpus/guava/guava#2012-05-01-02-04-06#v12.0#72d2812/guava/src/com/google/common/util/concurrent/SettableFuture.java,F:/corpus/guava/guava#2012-05-01-02-04-06#v12.0#72d2812/guava/src/com/google/common/util/concurrent/SettableFuture.java,0,0,0,0,0,0,0,0,0,0,0,3,0,NO,0,0,0,0,0,0,0,0,0,0,0,0,0,0,0,0,0,0,0,0,0,0,0,0,0,0,0,0,0,0,0,0,0,0,0,0,0,0,0,0,0,0,0,0,0,0,0,0,0,70
guava,v12.0,v13.0,F:/corpus/guava/guava#2012-05-01-02-04-06#v12.0#72d2812/guava/src/com/google/common/util/concurrent/SimpleTimeLimiter.java,F:/corpus/guava/guava#2012-05-01-02-04-06#v12.0#72d2812/guava/src/com/google/common/util/concurrent/SimpleTimeLimiter.java,0,0,0,0,0,0,0,0,0,0,0,0,0,NO,0,0,0,0,0,0,0,0,0,0,0,0,0,0,0,0,0,0,0,0,0,0,0,0,0,0,0,0,0,0,0,0,0,0,0,0,0,0,0,0,0,0,0,0,0,0,0,0,0,195
guava,v12.0,v13.0,F:/corpus/guava/guava#2012-05-01-02-04-06#v12.0#72d2812/guava/src/com/google/common/util/concurrent/ThreadFactoryBuilder.java,F:/corpus/guava/guava#2012-05-01-02-04-06#v12.0#72d2812/guava/src/com/google/common/util/concurrent/ThreadFactoryBuilder.java,0,0,0,0,0,0,0,0,0,0,0,0,0,NO,0,0,0,0,0,0,0,0,0,0,0,0,0,0,0,0,0,0,0,0,0,0,0,0,0,0,0,0,0,0,0,0,0,0,0,0,0,0,0,0,0,0,0,0,0,0,0,0,0,176
guava,v12.0,v13.0,F:/corpus/guava/guava#2012-05-01-02-04-06#v12.0#72d2812/guava/src/com/google/common/util/concurrent/TimeLimiter.java,F:/corpus/guava/guava#2012-05-01-02-04-06#v12.0#72d2812/guava/src/com/google/common/util/concurrent/TimeLimiter.java,0,0,0,0,0,0,0,0,0,0,0,0,0,NO,0,0,0,0,0,0,0,0,0,0,0,0,0,0,0,0,0,0,0,0,0,0,0,0,0,0,0,0,0,0,0,0,0,0,0,0,0,0,0,0,0,0,0,0,0,0,0,0,0,106
guava,v12.0,v13.0,F:/corpus/guava/guava#2012-05-01-02-04-06#v12.0#72d2812/guava/src/com/google/common/util/concurrent/UncaughtExceptionHandlers.java,F:/corpus/guava/guava#2012-05-01-02-04-06#v12.0#72d2812/guava/src/com/google/common/util/concurrent/UncaughtExceptionHandlers.java,0,0,0,0,0,0,0,0,0,0,0,0,0,NO,0,0,0,0,0,0,0,0,0,0,0,0,0,0,0,0,0,0,0,0,0,0,0,0,0,0,0,0,0,0,0,0,0,0,0,0,0,0,0,0,0,0,0,0,0,0,0,0,0,65
guava,v12.0,v13.0,F:/corpus/guava/guava#2012-05-01-02-04-06#v12.0#72d2812/guava/src/com/google/common/util/concurrent/UncheckedExecutionException.java,F:/corpus/guava/guava#2012-05-01-02-04-06#v12.0#72d2812/guava/src/com/google/common/util/concurrent/UncheckedExecutionException.java,0,0,0,0,0,0,0,0,0,0,0,0,0,NO,0,0,0,0,0,0,0,0,0,0,0,0,0,0,0,0,0,0,0,0,0,0,0,0,0,0,0,0,0,0,0,0,0,0,0,0,0,0,0,0,0,0,0,0,0,0,0,0,0,69
guava,v12.0,v13.0,F:/corpus/guava/guava#2012-05-01-02-04-06#v12.0#72d2812/guava/src/com/google/common/util/concurrent/UncheckedTimeoutException.java,F:/corpus/guava/guava#2012-05-01-02-04-06#v12.0#72d2812/guava/src/com/google/common/util/concurrent/UncheckedTimeoutException.java,0,0,0,0,0,0,0,0,0,0,0,0,0,NO,0,0,0,0,0,0,0,0,0,0,0,0,0,0,0,0,0,0,0,0,0,0,0,0,0,0,0,0,0,0,0,0,0,0,0,0,0,0,0,0,0,0,0,0,0,0,0,0,0,41
guava,v12.0,v13.0,F:/corpus/guava/guava#2012-05-01-02-04-06#v12.0#72d2812/guava/src/com/google/common/util/concurrent/Uninterruptibles.java,F:/corpus/guava/guava#2012-05-01-02-04-06#v12.0#72d2812/guava/src/com/google/common/util/concurrent/Uninterruptibles.java,0,0,0,0,0,0,0,0,0,0,0,0,0,NO,0,0,0,0,0,0,0,0,0,0,0,0,0,0,0,0,0,0,0,0,0,0,0,0,0,0,0,0,0,0,0,0,0,0,0,0,0,0,0,0,0,0,0,0,0,0,0,0,0,278
guava,v12.0,v13.0,F:/corpus/guava/guava#2012-05-01-02-04-06#v12.0#72d2812/guava-gwt/src/com/google/common/base/Absent_CustomFieldSerializer.java,F:/corpus/guava/guava#2012-05-01-02-04-06#v12.0#72d2812/guava-gwt/src/com/google/common/base/Absent_CustomFieldSerializer.java,0,0,0,0,1,0,0,0,0,0,0,0,0,NO,0,0,0,0,0,0,0,0,0,0,0,0,0,0,0,0,0,0,0,0,0,0,0,0,0,0,0,0,0,0,0,0,0,0,0,0,0,0,0,0,0,0,0,0,0,0,0,0,0,41
guava,v12.0,v13.0,F:/corpus/guava/guava#2012-05-01-02-04-06#v12.0#72d2812/guava-gwt/src/com/google/common/base/Present_CustomFieldSerializer.java,F:/corpus/guava/guava#2012-05-01-02-04-06#v12.0#72d2812/guava-gwt/src/com/google/common/base/Present_CustomFieldSerializer.java,0,0,0,0,0,0,0,0,0,0,0,0,0,NO,0,0,0,0,0,0,0,0,0,0,0,0,0,0,0,0,0,0,0,0,0,0,0,0,0,0,0,0,0,0,0,0,0,0,0,0,0,0,0,0,0,0,0,0,0,0,0,0,0,42
guava,v12.0,v13.0,F:/corpus/guava/guava#2012-05-01-02-04-06#v12.0#72d2812/guava-gwt/src/com/google/common/collect/ArrayListMultimap_CustomFieldSerializer.java,F:/corpus/guava/guava#2012-05-01-02-04-06#v12.0#72d2812/guava-gwt/src/com/google/common/collect/ArrayListMultimap_CustomFieldSerializer.java,0,0,0,0,0,0,0,0,0,0,0,0,0,NO,0,0,0,0,0,0,0,0,0,0,0,0,0,0,0,0,0,0,0,0,0,0,0,0,0,0,0,0,0,0,0,0,0,0,0,0,0,0,0,0,0,0,0,0,0,0,0,0,0,45
guava,v12.0,v13.0,F:/corpus/guava/guava#2012-05-01-02-04-06#v12.0#72d2812/guava-gwt/src/com/google/common/collect/ByFunctionOrdering_CustomFieldSerializer.java,F:/corpus/guava/guava#2012-05-01-02-04-06#v12.0#72d2812/guava-gwt/src/com/google/common/collect/ByFunctionOrdering_CustomFieldSerializer.java,0,0,0,0,0,0,0,0,0,0,0,0,0,NO,0,0,0,0,0,0,0,0,0,0,0,0,0,0,0,0,0,0,0,0,0,0,0,0,0,0,0,0,0,0,0,0,0,0,0,0,0,0,0,0,0,0,0,0,0,0,0,0,0,48
guava,v12.0,v13.0,F:/corpus/guava/guava#2012-05-01-02-04-06#v12.0#72d2812/guava-gwt/src/com/google/common/collect/ComparatorOrdering_CustomFieldSerializer.java,F:/corpus/guava/guava#2012-05-01-02-04-06#v12.0#72d2812/guava-gwt/src/com/google/common/collect/ComparatorOrdering_CustomFieldSerializer.java,0,0,0,0,0,0,0,0,0,0,0,0,0,NO,0,0,0,0,0,0,0,0,0,0,0,0,0,0,0,0,0,0,0,0,0,0,0,0,0,0,0,0,0,0,0,0,0,0,0,0,0,0,0,0,0,0,0,0,0,0,0,0,0,47
guava,v12.0,v13.0,F:/corpus/guava/guava#2012-05-01-02-04-06#v12.0#72d2812/guava-gwt/src/com/google/common/collect/CompoundOrdering_CustomFieldSerializer.java,F:/corpus/guava/guava#2012-05-01-02-04-06#v12.0#72d2812/guava-gwt/src/com/google/common/collect/CompoundOrdering_CustomFieldSerializer.java,0,0,0,0,0,0,0,0,0,0,0,0,0,NO,0,0,0,0,0,0,0,0,0,0,0,0,0,0,0,0,0,0,0,0,0,0,0,0,0,0,0,0,0,0,0,0,0,0,0,0,0,0,0,0,0,0,0,0,0,0,0,0,0,47
guava,v12.0,v13.0,F:/corpus/guava/guava#2012-05-01-02-04-06#v12.0#72d2812/guava-gwt/src/com/google/common/collect/EmptyImmutableListMultimap_CustomFieldSerializer.java,F:/corpus/guava/guava#2012-05-01-02-04-06#v12.0#72d2812/guava-gwt/src/com/google/common/collect/EmptyImmutableListMultimap_CustomFieldSerializer.java,0,0,0,0,1,0,0,0,0,0,0,0,0,NO,0,0,0,0,0,0,0,0,0,0,0,0,0,0,0,0,0,0,0,0,0,0,0,0,0,0,0,0,0,0,0,0,0,0,0,0,0,0,0,0,0,0,0,0,0,0,0,0,0,42
guava,v12.0,v13.0,F:/corpus/guava/guava#2012-05-01-02-04-06#v12.0#72d2812/guava-gwt/src/com/google/common/collect/EmptyImmutableList_CustomFieldSerializer.java,F:/corpus/guava/guava#2012-05-01-02-04-06#v12.0#72d2812/guava-gwt/src/com/google/common/collect/EmptyImmutableList_CustomFieldSerializer.java,0,0,0,0,1,0,0,0,0,0,0,0,0,NO,0,0,0,0,0,0,0,0,0,0,0,0,0,0,0,0,0,0,0,0,0,0,0,0,0,0,0,0,0,0,0,0,0,0,0,0,0,0,0,0,0,0,0,0,0,0,0,0,0,41
guava,v12.0,v13.0,F:/corpus/guava/guava#2012-05-01-02-04-06#v12.0#72d2812/guava-gwt/src/com/google/common/collect/EmptyImmutableMap_CustomFieldSerializer.java,F:/corpus/guava/guava#2012-05-01-02-04-06#v12.0#72d2812/guava-gwt/src/com/google/common/collect/EmptyImmutableMap_CustomFieldSerializer.java,0,0,0,0,1,0,0,0,0,0,0,0,0,NO,0,0,0,0,0,0,0,0,0,0,0,0,0,0,0,0,0,0,0,0,0,0,0,0,0,0,0,0,0,0,0,0,0,0,0,0,0,0,0,0,0,0,0,0,0,0,0,0,0,42
guava,v12.0,v13.0,F:/corpus/guava/guava#2012-05-01-02-04-06#v12.0#72d2812/guava-gwt/src/com/google/common/collect/EmptyImmutableMultiset_CustomFieldSerializer.java,F:/corpus/guava/guava#2012-05-01-02-04-06#v12.0#72d2812/guava-gwt/src/com/google/common/collect/EmptyImmutableMultiset_CustomFieldSerializer.java,0,0,0,0,1,0,0,0,0,0,0,0,0,NO,0,0,0,0,0,0,0,0,0,0,0,0,0,0,0,0,0,0,0,0,0,0,0,0,0,0,0,0,0,0,0,0,0,0,0,0,0,0,0,0,0,0,0,0,0,0,0,0,0,42
guava,v12.0,v13.0,F:/corpus/guava/guava#2012-05-01-02-04-06#v12.0#72d2812/guava-gwt/src/com/google/common/collect/EmptyImmutableSetMultimap_CustomFieldSerializer.java,F:/corpus/guava/guava#2012-05-01-02-04-06#v12.0#72d2812/guava-gwt/src/com/google/common/collect/EmptyImmutableSetMultimap_CustomFieldSerializer.java,0,0,0,0,1,0,0,0,0,0,0,0,0,NO,0,0,0,0,0,0,0,0,0,0,0,0,0,0,0,0,0,0,0,0,0,0,0,0,0,0,0,0,0,0,0,0,0,0,0,0,0,0,0,0,0,0,0,0,0,0,0,0,0,42
guava,v12.0,v13.0,F:/corpus/guava/guava#2012-05-01-02-04-06#v12.0#72d2812/guava-gwt/src/com/google/common/collect/EmptyImmutableSet_CustomFieldSerializer.java,F:/corpus/guava/guava#2012-05-01-02-04-06#v12.0#72d2812/guava-gwt/src/com/google/common/collect/EmptyImmutableSet_CustomFieldSerializer.java,0,0,0,0,1,0,0,0,0,0,0,0,0,NO,0,0,0,0,0,0,0,0,0,0,0,0,0,0,0,0,0,0,0,0,0,0,0,0,0,0,0,0,0,0,0,0,0,0,0,0,0,0,0,0,0,0,0,0,0,0,0,0,0,41
guava,v12.0,v13.0,F:/corpus/guava/guava#2012-05-01-02-04-06#v12.0#72d2812/guava-gwt/src/com/google/common/collect/EmptyImmutableSortedSet_CustomFieldSerializer.java,F:/corpus/guava/guava#2012-05-01-02-04-06#v12.0#72d2812/guava-gwt/src/com/google/common/collect/EmptyImmutableSortedSet_CustomFieldSerializer.java,0,0,0,0,0,0,0,0,0,0,0,0,0,NO,0,0,0,0,0,0,0,0,0,0,0,0,0,0,0,0,0,0,0,0,0,0,0,0,0,0,0,0,0,0,0,0,0,0,0,0,0,0,0,0,0,0,0,0,0,0,0,0,0,59
guava,v12.0,v13.0,F:/corpus/guava/guava#2012-05-01-02-04-06#v12.0#72d2812/guava-gwt/src/com/google/common/collect/ExplicitOrdering_CustomFieldSerializer.java,F:/corpus/guava/guava#2012-05-01-02-04-06#v12.0#72d2812/guava-gwt/src/com/google/common/collect/ExplicitOrdering_CustomFieldSerializer.java,0,0,0,0,0,0,0,0,0,0,0,0,0,NO,0,0,0,0,0,0,0,0,0,0,0,0,0,0,0,0,0,0,0,0,0,0,0,0,0,0,0,0,0,0,0,0,0,0,0,0,0,0,0,0,0,0,0,0,0,0,0,0,0,45
guava,v12.0,v13.0,F:/corpus/guava/guava#2012-05-01-02-04-06#v12.0#72d2812/guava-gwt/src/com/google/common/collect/GwtSerializationDependencies.java,F:/corpus/guava/guava#2012-05-01-02-04-06#v12.0#72d2812/guava-gwt/src/com/google/common/collect/GwtSerializationDependencies.java,0,0,0,0,0,0,0,0,0,0,0,0,0,NO,0,0,0,0,0,0,0,0,0,0,0,0,0,0,0,0,0,0,0,0,0,0,0,0,0,0,0,0,0,0,0,0,0,0,0,0,0,0,0,0,0,0,0,0,0,0,0,0,0,129
guava,v12.0,v13.0,F:/corpus/guava/guava#2012-05-01-02-04-06#v12.0#72d2812/guava-gwt/src/com/google/common/collect/HashBasedTable_CustomFieldSerializer.java,F:/corpus/guava/guava#2012-05-01-02-04-06#v12.0#72d2812/guava-gwt/src/com/google/common/collect/HashBasedTable_CustomFieldSerializer.java,0,0,0,0,0,0,0,0,0,0,0,0,0,NO,0,0,0,0,0,0,0,0,0,0,0,0,0,0,0,0,0,0,0,0,0,0,0,0,0,0,0,0,0,0,0,0,0,0,0,0,0,0,0,0,0,0,0,0,0,0,0,0,0,58
guava,v12.0,v13.0,F:/corpus/guava/guava#2012-05-01-02-04-06#v12.0#72d2812/guava-gwt/src/com/google/common/collect/HashMultimap_CustomFieldSerializer.java,F:/corpus/guava/guava#2012-05-01-02-04-06#v12.0#72d2812/guava-gwt/src/com/google/common/collect/HashMultimap_CustomFieldSerializer.java,0,0,0,0,0,0,0,0,0,0,0,0,0,NO,0,0,0,0,0,0,0,0,0,0,0,0,0,0,0,0,0,0,0,0,0,0,0,0,0,0,0,0,0,0,0,0,0,0,0,0,0,0,0,0,0,0,0,0,0,0,0,0,0,45
guava,v12.0,v13.0,F:/corpus/guava/guava#2012-05-01-02-04-06#v12.0#72d2812/guava-gwt/src/com/google/common/collect/HashMultiset_CustomFieldSerializer.java,F:/corpus/guava/guava#2012-05-01-02-04-06#v12.0#72d2812/guava-gwt/src/com/google/common/collect/HashMultiset_CustomFieldSerializer.java,0,0,0,0,0,0,0,0,0,0,0,0,0,NO,0,0,0,0,0,0,0,0,0,0,0,0,0,0,0,0,0,0,0,0,0,0,0,0,0,0,0,0,0,0,0,0,0,0,0,0,0,0,0,0,0,0,0,0,0,0,0,0,0,44
guava,v12.0,v13.0,F:/corpus/guava/guava#2012-05-01-02-04-06#v12.0#72d2812/guava-gwt/src/com/google/common/collect/ImmutableEnumSet_CustomFieldSerializer.java,F:/corpus/guava/guava#2012-05-01-02-04-06#v12.0#72d2812/guava-gwt/src/com/google/common/collect/ImmutableEnumSet_CustomFieldSerializer.java,0,0,0,0,0,0,0,0,0,0,0,0,0,NO,0,0,0,0,0,0,0,0,0,0,0,0,0,0,0,0,0,0,0,0,0,0,0,0,0,0,0,0,0,0,0,0,0,0,0,0,0,0,0,0,0,0,0,0,0,0,0,0,0,54
guava,v12.0,v13.0,F:/corpus/guava/guava#2012-05-01-02-04-06#v12.0#72d2812/guava-gwt/src/com/google/common/collect/ImmutableListMultimap_CustomFieldSerializer.java,F:/corpus/guava/guava#2012-05-01-02-04-06#v12.0#72d2812/guava-gwt/src/com/google/common/collect/ImmutableListMultimap_CustomFieldSerializer.java,0,0,0,0,0,0,0,0,0,0,0,0,0,NO,0,0,0,0,0,0,0,0,0,0,0,0,0,0,0,0,0,0,0,0,0,0,0,0,0,0,0,0,0,0,0,0,0,0,0,0,0,0,0,0,0,0,0,0,0,0,0,0,0,45
guava,v12.0,v13.0,F:/corpus/guava/guava#2012-05-01-02-04-06#v12.0#72d2812/guava-gwt/src/com/google/common/collect/ImmutableList_CustomFieldSerializer.java,F:/corpus/guava/guava#2012-05-01-02-04-06#v12.0#72d2812/guava-gwt/src/com/google/common/collect/ImmutableList_CustomFieldSerializer.java,0,0,0,0,0,0,0,0,0,0,0,0,0,NO,0,0,0,0,0,0,0,0,0,0,0,0,0,0,0,0,0,0,0,0,0,0,0,0,0,0,0,0,0,0,0,0,0,0,0,0,0,0,0,0,0,0,0,0,0,0,0,0,0,26
guava,v12.0,v13.0,F:/corpus/guava/guava#2012-05-01-02-04-06#v12.0#72d2812/guava-gwt/src/com/google/common/collect/ImmutableMultiset_CustomFieldSerializer.java,F:/corpus/guava/guava#2012-05-01-02-04-06#v12.0#72d2812/guava-gwt/src/com/google/common/collect/ImmutableMultiset_CustomFieldSerializer.java,0,0,0,0,0,0,0,0,0,0,0,0,0,NO,0,0,0,0,0,0,0,0,0,0,0,0,0,0,0,0,0,0,0,0,0,0,0,0,0,0,0,0,0,0,0,0,0,0,0,0,0,0,0,0,0,0,0,0,0,0,0,0,0,26
guava,v12.0,v13.0,F:/corpus/guava/guava#2012-05-01-02-04-06#v12.0#72d2812/guava-gwt/src/com/google/common/collect/ImmutableSetMultimap_CustomFieldSerializer.java,F:/corpus/guava/guava#2012-05-01-02-04-06#v12.0#72d2812/guava-gwt/src/com/google/common/collect/ImmutableSetMultimap_CustomFieldSerializer.java,0,0,0,0,0,0,0,0,0,0,0,0,0,NO,0,0,0,0,0,0,0,0,0,0,0,0,0,0,0,0,0,0,0,0,0,0,0,0,0,0,0,0,0,0,0,0,0,0,0,0,0,0,0,0,0,0,0,0,0,0,0,0,0,45
guava,v12.0,v13.0,F:/corpus/guava/guava#2012-05-01-02-04-06#v12.0#72d2812/guava-gwt/src/com/google/common/collect/ImmutableSet_CustomFieldSerializer.java,F:/corpus/guava/guava#2012-05-01-02-04-06#v12.0#72d2812/guava-gwt/src/com/google/common/collect/ImmutableSet_CustomFieldSerializer.java,0,0,0,0,0,0,0,0,0,0,0,0,0,NO,0,0,0,0,0,0,0,0,0,0,0,0,0,0,0,0,0,0,0,0,0,0,0,0,0,0,0,0,0,0,0,0,0,0,0,0,0,0,0,0,0,0,0,0,0,0,0,0,0,26
guava,v12.0,v13.0,F:/corpus/guava/guava#2012-05-01-02-04-06#v12.0#72d2812/guava-gwt/src/com/google/common/collect/ImmutableSortedSet_CustomFieldSerializer.java,F:/corpus/guava/guava#2012-05-01-02-04-06#v12.0#72d2812/guava-gwt/src/com/google/common/collect/ImmutableSortedSet_CustomFieldSerializer.java,0,0,0,0,0,0,0,0,0,0,0,0,0,NO,0,0,0,0,0,0,0,0,0,0,0,0,0,0,0,0,0,0,0,0,0,0,0,0,0,0,0,0,0,0,0,0,0,0,0,0,0,0,0,0,0,0,0,0,0,0,0,0,0,26
guava,v12.0,v13.0,F:/corpus/guava/guava#2012-05-01-02-04-06#v12.0#72d2812/guava-gwt/src/com/google/common/collect/LinkedHashMultiset_CustomFieldSerializer.java,F:/corpus/guava/guava#2012-05-01-02-04-06#v12.0#72d2812/guava-gwt/src/com/google/common/collect/LinkedHashMultiset_CustomFieldSerializer.java,0,0,0,0,0,0,0,0,0,0,0,0,0,NO,0,0,0,0,0,0,0,0,0,0,0,0,0,0,0,0,0,0,0,0,0,0,0,0,0,0,0,0,0,0,0,0,0,0,0,0,0,0,0,0,0,0,0,0,0,0,0,0,0,45
guava,v12.0,v13.0,F:/corpus/guava/guava#2012-05-01-02-04-06#v12.0#72d2812/guava-gwt/src/com/google/common/collect/LinkedListMultimap_CustomFieldSerializer.java,F:/corpus/guava/guava#2012-05-01-02-04-06#v12.0#72d2812/guava-gwt/src/com/google/common/collect/LinkedListMultimap_CustomFieldSerializer.java,0,0,0,0,0,0,0,0,0,0,0,0,0,NO,0,0,0,0,0,0,0,0,0,0,0,0,0,0,0,0,0,0,0,0,0,0,0,0,0,0,0,0,0,0,0,0,0,0,0,0,0,0,0,0,0,0,0,0,0,0,0,0,0,56
guava,v12.0,v13.0,F:/corpus/guava/guava#2012-05-01-02-04-06#v12.0#72d2812/guava-gwt/src/com/google/common/collect/Multimap_CustomFieldSerializerBase.java,F:/corpus/guava/guava#2012-05-01-02-04-06#v12.0#72d2812/guava-gwt/src/com/google/common/collect/Multimap_CustomFieldSerializerBase.java,0,0,0,0,0,0,0,0,0,0,0,1,0,NO,0,0,0,0,0,0,0,0,0,0,0,0,0,0,0,0,0,0,0,0,0,0,0,0,0,0,0,0,0,0,0,0,0,0,0,0,0,0,0,0,0,0,0,0,0,0,0,0,0,83
guava,v12.0,v13.0,F:/corpus/guava/guava#2012-05-01-02-04-06#v12.0#72d2812/guava-gwt/src/com/google/common/collect/Multiset_CustomFieldSerializerBase.java,F:/corpus/guava/guava#2012-05-01-02-04-06#v12.0#72d2812/guava-gwt/src/com/google/common/collect/Multiset_CustomFieldSerializerBase.java,0,0,0,0,0,0,0,0,0,0,0,0,0,NO,0,0,0,0,0,0,0,0,0,0,0,0,0,0,0,0,0,0,0,0,0,0,0,0,0,0,0,0,0,0,0,0,0,0,0,0,0,0,0,0,0,0,0,0,0,0,0,0,0,69
guava,v12.0,v13.0,F:/corpus/guava/guava#2012-05-01-02-04-06#v12.0#72d2812/guava-gwt/src/com/google/common/collect/NaturalOrdering_CustomFieldSerializer.java,F:/corpus/guava/guava#2012-05-01-02-04-06#v12.0#72d2812/guava-gwt/src/com/google/common/collect/NaturalOrdering_CustomFieldSerializer.java,0,0,0,0,1,0,0,0,0,0,0,0,0,NO,0,0,0,0,0,0,0,0,0,0,0,0,0,0,0,0,0,0,0,0,0,0,0,0,0,0,0,0,0,0,0,0,0,0,0,0,0,0,0,0,0,0,0,0,0,0,0,0,0,41
guava,v12.0,v13.0,F:/corpus/guava/guava#2012-05-01-02-04-06#v12.0#72d2812/guava-gwt/src/com/google/common/collect/NullsFirstOrdering_CustomFieldSerializer.java,F:/corpus/guava/guava#2012-05-01-02-04-06#v12.0#72d2812/guava-gwt/src/com/google/common/collect/NullsFirstOrdering_CustomFieldSerializer.java,0,0,0,0,0,0,0,0,0,0,0,0,0,NO,0,0,0,0,0,0,0,0,0,0,0,0,0,0,0,0,0,0,0,0,0,0,0,0,0,0,0,0,0,0,0,0,0,0,0,0,0,0,0,0,0,0,0,0,0,0,0,0,0,45
guava,v12.0,v13.0,F:/corpus/guava/guava#2012-05-01-02-04-06#v12.0#72d2812/guava-gwt/src/com/google/common/collect/NullsLastOrdering_CustomFieldSerializer.java,F:/corpus/guava/guava#2012-05-01-02-04-06#v12.0#72d2812/guava-gwt/src/com/google/common/collect/NullsLastOrdering_CustomFieldSerializer.java,0,0,0,0,0,0,0,0,0,0,0,0,0,NO,0,0,0,0,0,0,0,0,0,0,0,0,0,0,0,0,0,0,0,0,0,0,0,0,0,0,0,0,0,0,0,0,0,0,0,0,0,0,0,0,0,0,0,0,0,0,0,0,0,45
guava,v12.0,v13.0,F:/corpus/guava/guava#2012-05-01-02-04-06#v12.0#72d2812/guava-gwt/src/com/google/common/collect/RegularImmutableBiMap_CustomFieldSerializer.java,F:/corpus/guava/guava#2012-05-01-02-04-06#v12.0#72d2812/guava-gwt/src/com/google/common/collect/RegularImmutableBiMap_CustomFieldSerializer.java,0,0,0,0,0,0,0,0,0,0,0,0,0,NO,0,0,0,0,0,0,0,0,0,0,0,0,0,0,0,0,0,0,0,0,0,0,0,0,0,0,0,0,0,0,0,0,0,0,0,0,0,0,0,0,0,0,0,0,0,0,0,0,0,56
guava,v12.0,v13.0,F:/corpus/guava/guava#2012-05-01-02-04-06#v12.0#72d2812/guava-gwt/src/com/google/common/collect/RegularImmutableList_CustomFieldSerializer.java,F:/corpus/guava/guava#2012-05-01-02-04-06#v12.0#72d2812/guava-gwt/src/com/google/common/collect/RegularImmutableList_CustomFieldSerializer.java,0,0,0,0,0,0,0,0,0,0,0,0,0,NO,0,0,0,0,0,0,0,0,0,0,0,0,0,0,0,0,0,0,0,0,0,0,0,0,0,0,0,0,0,0,0,0,0,0,0,0,0,0,0,0,0,0,0,0,0,0,0,0,0,56
guava,v12.0,v13.0,F:/corpus/guava/guava#2012-05-01-02-04-06#v12.0#72d2812/guava-gwt/src/com/google/common/collect/RegularImmutableMap_CustomFieldSerializer.java,F:/corpus/guava/guava#2012-05-01-02-04-06#v12.0#72d2812/guava-gwt/src/com/google/common/collect/RegularImmutableMap_CustomFieldSerializer.java,0,0,0,0,0,0,0,0,0,0,0,0,0,NO,0,0,0,0,0,0,0,0,0,0,0,0,0,0,0,0,0,0,0,0,0,0,0,0,0,0,0,0,0,0,0,0,0,0,0,0,0,0,0,0,0,0,0,0,0,0,0,0,0,55
guava,v12.0,v13.0,F:/corpus/guava/guava#2012-05-01-02-04-06#v12.0#72d2812/guava-gwt/src/com/google/common/collect/RegularImmutableMultiset_CustomFieldSerializer.java,F:/corpus/guava/guava#2012-05-01-02-04-06#v12.0#72d2812/guava-gwt/src/com/google/common/collect/RegularImmutableMultiset_CustomFieldSerializer.java,0,0,0,0,0,0,0,0,0,0,0,0,0,NO,0,0,0,0,0,0,0,0,0,0,0,0,0,0,0,0,0,0,0,0,0,0,0,0,0,0,0,0,0,0,0,0,0,0,0,0,0,0,0,0,0,0,0,0,0,0,0,0,0,54
guava,v12.0,v13.0,F:/corpus/guava/guava#2012-05-01-02-04-06#v12.0#72d2812/guava-gwt/src/com/google/common/collect/RegularImmutableSet_CustomFieldSerializer.java,F:/corpus/guava/guava#2012-05-01-02-04-06#v12.0#72d2812/guava-gwt/src/com/google/common/collect/RegularImmutableSet_CustomFieldSerializer.java,0,0,0,0,0,0,0,0,0,0,0,0,0,NO,0,0,0,0,0,0,0,0,0,0,0,0,0,0,0,0,0,0,0,0,0,0,0,0,0,0,0,0,0,0,0,0,0,0,0,0,0,0,0,0,0,0,0,0,0,0,0,0,0,54
guava,v12.0,v13.0,F:/corpus/guava/guava#2012-05-01-02-04-06#v12.0#72d2812/guava-gwt/src/com/google/common/collect/RegularImmutableSortedSet_CustomFieldSerializer.java,F:/corpus/guava/guava#2012-05-01-02-04-06#v12.0#72d2812/guava-gwt/src/com/google/common/collect/RegularImmutableSortedSet_CustomFieldSerializer.java,0,0,0,0,0,0,0,0,0,0,0,0,0,NO,0,0,0,0,0,0,0,0,0,0,0,0,0,0,0,0,0,0,0,0,0,0,0,0,0,0,0,0,0,0,0,0,0,0,0,0,0,0,0,0,0,0,0,0,0,0,0,0,0,66
guava,v12.0,v13.0,F:/corpus/guava/guava#2012-05-01-02-04-06#v12.0#72d2812/guava-gwt/src/com/google/common/collect/ReverseNaturalOrdering_CustomFieldSerializer.java,F:/corpus/guava/guava#2012-05-01-02-04-06#v12.0#72d2812/guava-gwt/src/com/google/common/collect/ReverseNaturalOrdering_CustomFieldSerializer.java,0,0,0,0,1,0,0,0,0,0,0,0,0,NO,0,0,0,0,0,0,0,0,0,0,0,0,0,0,0,0,0,0,0,0,0,0,0,0,0,0,0,0,0,0,0,0,0,0,0,0,0,0,0,0,0,0,0,0,0,0,0,0,0,42
guava,v12.0,v13.0,F:/corpus/guava/guava#2012-05-01-02-04-06#v12.0#72d2812/guava-gwt/src/com/google/common/collect/ReverseOrdering_CustomFieldSerializer.java,F:/corpus/guava/guava#2012-05-01-02-04-06#v12.0#72d2812/guava-gwt/src/com/google/common/collect/ReverseOrdering_CustomFieldSerializer.java,0,0,0,0,0,0,0,0,0,0,0,0,0,NO,0,0,0,0,0,0,0,0,0,0,0,0,0,0,0,0,0,0,0,0,0,0,0,0,0,0,0,0,0,0,0,0,0,0,0,0,0,0,0,0,0,0,0,0,0,0,0,0,0,45
guava,v12.0,v13.0,F:/corpus/guava/guava#2012-05-01-02-04-06#v12.0#72d2812/guava-gwt/src/com/google/common/collect/SingletonImmutableList_CustomFieldSerializer.java,F:/corpus/guava/guava#2012-05-01-02-04-06#v12.0#72d2812/guava-gwt/src/com/google/common/collect/SingletonImmutableList_CustomFieldSerializer.java,0,0,0,0,0,0,0,0,0,0,0,0,0,NO,0,0,0,0,0,0,0,0,0,0,0,0,0,0,0,0,0,0,0,0,0,0,0,0,0,0,0,0,0,0,0,0,0,0,0,0,0,0,0,0,0,0,0,0,0,0,0,0,0,45
guava,v12.0,v13.0,F:/corpus/guava/guava#2012-05-01-02-04-06#v12.0#72d2812/guava-gwt/src/com/google/common/collect/SingletonImmutableMap_CustomFieldSerializer.java,F:/corpus/guava/guava#2012-05-01-02-04-06#v12.0#72d2812/guava-gwt/src/com/google/common/collect/SingletonImmutableMap_CustomFieldSerializer.java,0,0,0,0,0,0,0,0,0,0,0,0,0,NO,0,0,0,0,0,0,0,0,0,0,0,0,0,0,0,0,0,0,0,0,0,0,0,0,0,0,0,0,0,0,0,0,0,0,0,0,0,0,0,0,0,0,0,0,0,0,0,0,0,48
guava,v12.0,v13.0,F:/corpus/guava/guava#2012-05-01-02-04-06#v12.0#72d2812/guava-gwt/src/com/google/common/collect/SingletonImmutableSet_CustomFieldSerializer.java,F:/corpus/guava/guava#2012-05-01-02-04-06#v12.0#72d2812/guava-gwt/src/com/google/common/collect/SingletonImmutableSet_CustomFieldSerializer.java,0,0,0,0,0,0,0,0,0,0,0,0,0,NO,0,0,0,0,0,0,0,0,0,0,0,0,0,0,0,0,0,0,0,0,0,0,0,0,0,0,0,0,0,0,0,0,0,0,0,0,0,0,0,0,0,0,0,0,0,0,0,0,0,44
guava,v12.0,v13.0,F:/corpus/guava/guava#2012-05-01-02-04-06#v12.0#72d2812/guava-gwt/src/com/google/common/collect/TreeBasedTable_CustomFieldSerializer.java,F:/corpus/guava/guava#2012-05-01-02-04-06#v12.0#72d2812/guava-gwt/src/com/google/common/collect/TreeBasedTable_CustomFieldSerializer.java,0,0,0,0,0,0,0,0,0,0,0,0,0,NO,0,0,0,0,0,0,0,0,0,0,0,0,0,0,0,0,0,0,0,0,0,0,0,0,0,0,0,0,0,0,0,0,0,0,0,0,0,0,0,0,0,0,0,0,0,0,0,0,0,69
guava,v12.0,v13.0,F:/corpus/guava/guava#2012-05-01-02-04-06#v12.0#72d2812/guava-gwt/src/com/google/common/collect/TreeMultimap_CustomFieldSerializer.java,F:/corpus/guava/guava#2012-05-01-02-04-06#v12.0#72d2812/guava-gwt/src/com/google/common/collect/TreeMultimap_CustomFieldSerializer.java,0,0,0,0,0,0,0,0,0,0,0,0,0,NO,0,0,0,0,0,0,0,0,0,0,0,0,0,0,0,0,0,0,0,0,0,0,0,0,0,0,0,0,0,0,0,0,0,0,0,0,0,0,0,0,0,0,0,0,0,0,0,0,0,53
guava,v12.0,v13.0,F:/corpus/guava/guava#2012-05-01-02-04-06#v12.0#72d2812/guava-gwt/src/com/google/common/collect/UsingToStringOrdering_CustomFieldSerializer.java,F:/corpus/guava/guava#2012-05-01-02-04-06#v12.0#72d2812/guava-gwt/src/com/google/common/collect/UsingToStringOrdering_CustomFieldSerializer.java,0,0,0,0,1,0,0,0,0,0,0,0,0,NO,0,0,0,0,0,0,0,0,0,0,0,0,0,0,0,0,0,0,0,0,0,0,0,0,0,0,0,0,0,0,0,0,0,0,0,0,0,0,0,0,0,0,0,0,0,0,0,0,0,41
guava,v12.0,v13.0,F:/corpus/guava/guava#2012-05-01-02-04-06#v12.0#72d2812/guava-gwt/src-super/com/google/common/base/super/com/google/common/base/Charsets.java,F:/corpus/guava/guava#2012-05-01-02-04-06#v12.0#72d2812/guava-gwt/src-super/com/google/common/base/super/com/google/common/base/Charsets.java,0,0,0,0,0,0,0,0,0,0,0,0,0,NO,0,0,0,0,0,0,0,0,0,0,0,0,0,0,0,0,0,0,0,0,0,0,0,0,0,0,0,0,0,0,0,0,0,0,0,0,0,0,0,0,0,0,0,0,0,0,0,0,0,52
guava,v12.0,v13.0,F:/corpus/guava/guava#2012-05-01-02-04-06#v12.0#72d2812/guava-gwt/src-super/com/google/common/base/super/com/google/common/base/Enums.java,F:/corpus/guava/guava#2012-05-01-02-04-06#v12.0#72d2812/guava-gwt/src-super/com/google/common/base/super/com/google/common/base/Enums.java,0,0,0,0,0,0,0,0,0,0,0,0,0,NO,0,0,0,0,0,0,0,0,0,0,0,0,0,0,0,0,0,0,0,0,0,0,0,0,0,0,0,0,0,0,0,0,0,0,0,0,0,0,0,0,0,0,0,0,0,0,0,0,0,108
guava,v12.0,v13.0,F:/corpus/guava/guava#2012-05-01-02-04-06#v12.0#72d2812/guava-gwt/src-super/com/google/common/base/super/com/google/common/base/Platform.java,F:/corpus/guava/guava#2012-05-01-02-04-06#v12.0#72d2812/guava-gwt/src-super/com/google/common/base/super/com/google/common/base/Platform.java,0,0,0,0,0,0,0,0,0,0,0,0,0,NO,0,0,0,0,0,0,0,0,0,0,0,0,0,0,0,0,0,0,0,0,0,0,0,0,0,0,0,0,0,0,0,0,0,0,0,0,0,0,0,0,0,0,0,0,0,0,0,0,0,49
guava,v12.0,v13.0,F:/corpus/guava/guava#2012-05-01-02-04-06#v12.0#72d2812/guava-gwt/src-super/com/google/common/base/super/com/google/common/base/Stopwatch.java,F:/corpus/guava/guava#2012-05-01-02-04-06#v12.0#72d2812/guava-gwt/src-super/com/google/common/base/super/com/google/common/base/Stopwatch.java,0,0,0,0,0,0,0,0,0,0,0,0,0,NO,0,0,0,0,0,0,0,0,0,0,0,0,0,0,0,0,0,0,0,0,0,0,0,0,0,0,0,0,0,0,0,0,0,0,0,0,0,0,0,0,0,0,0,0,0,0,0,0,0,196
guava,v12.0,v13.0,F:/corpus/guava/guava#2012-05-01-02-04-06#v12.0#72d2812/guava-gwt/src-super/com/google/common/cache/super/com/google/common/cache/CacheBuilder.java,F:/corpus/guava/guava#2012-05-01-02-04-06#v12.0#72d2812/guava-gwt/src-super/com/google/common/cache/super/com/google/common/cache/CacheBuilder.java,0,0,0,0,3,0,0,0,0,0,0,5,0,NO,0,0,0,0,0,0,0,0,0,0,0,0,0,0,0,0,0,0,0,0,0,0,0,0,0,0,0,0,0,0,0,0,0,0,0,0,0,0,0,0,0,0,0,0,0,0,0,0,0,321
guava,v12.0,v13.0,F:/corpus/guava/guava#2012-05-01-02-04-06#v12.0#72d2812/guava-gwt/src-super/com/google/common/collect/super/com/google/common/collect/AbstractBiMap.java,F:/corpus/guava/guava#2012-05-01-02-04-06#v12.0#72d2812/guava-gwt/src-super/com/google/common/collect/super/com/google/common/collect/AbstractBiMap.java,0,0,0,0,1,0,0,0,0,0,0,0,0,NO,0,0,0,0,0,0,0,0,0,0,0,0,0,0,0,0,0,0,0,0,0,0,0,0,0,0,0,0,0,0,0,0,0,0,0,0,0,0,0,0,0,0,0,0,0,0,0,0,0,373
guava,v12.0,v13.0,F:/corpus/guava/guava#2012-05-01-02-04-06#v12.0#72d2812/guava-gwt/src-super/com/google/common/collect/super/com/google/common/collect/ArrayListMultimap.java,F:/corpus/guava/guava#2012-05-01-02-04-06#v12.0#72d2812/guava-gwt/src-super/com/google/common/collect/super/com/google/common/collect/ArrayListMultimap.java,0,0,0,0,0,0,0,0,0,0,0,1,0,NO,0,0,0,0,0,0,0,0,0,0,0,0,0,0,0,0,0,0,0,0,0,0,0,0,0,0,0,0,0,0,0,0,0,0,0,0,0,0,0,0,0,0,0,0,0,0,0,0,0,138
guava,v12.0,v13.0,F:/corpus/guava/guava#2012-05-01-02-04-06#v12.0#72d2812/guava-gwt/src-super/com/google/common/collect/super/com/google/common/collect/EmptyContiguousSet.java,F:/corpus/guava/guava#2012-05-01-02-04-06#v12.0#72d2812/guava-gwt/src-super/com/google/common/collect/super/com/google/common/collect/EmptyContiguousSet.java,0,0,0,0,5,0,0,0,0,0,0,0,0,NO,0,0,0,0,0,0,0,0,0,0,0,0,0,0,0,0,0,0,0,0,0,0,0,0,0,0,0,0,0,0,0,0,0,0,0,0,0,0,0,0,0,0,0,0,0,0,0,0,0,104
guava,v12.0,v13.0,F:/corpus/guava/guava#2012-05-01-02-04-06#v12.0#72d2812/guava-gwt/src-super/com/google/common/collect/super/com/google/common/collect/EmptyImmutableSortedSet.java,F:/corpus/guava/guava#2012-05-01-02-04-06#v12.0#72d2812/guava-gwt/src-super/com/google/common/collect/super/com/google/common/collect/EmptyImmutableSortedSet.java,0,0,0,0,0,0,0,0,0,0,0,0,0,NO,0,0,0,0,0,0,0,0,0,0,0,0,0,0,0,0,0,0,0,0,0,0,0,0,0,0,0,0,0,0,0,0,0,0,0,0,0,0,0,0,0,0,0,0,0,0,0,0,0,30
guava,v12.0,v13.0,F:/corpus/guava/guava#2012-05-01-02-04-06#v12.0#72d2812/guava-gwt/src-super/com/google/common/collect/super/com/google/common/collect/EnumBiMap.java,F:/corpus/guava/guava#2012-05-01-02-04-06#v12.0#72d2812/guava-gwt/src-super/com/google/common/collect/super/com/google/common/collect/EnumBiMap.java,0,0,0,0,0,0,0,0,0,0,0,0,0,NO,0,0,0,0,0,0,0,0,0,0,0,0,0,0,0,0,0,0,0,0,0,0,0,0,0,0,0,0,0,0,0,0,0,0,0,0,0,0,0,0,0,0,0,0,0,0,0,0,0,120
guava,v12.0,v13.0,F:/corpus/guava/guava#2012-05-01-02-04-06#v12.0#72d2812/guava-gwt/src-super/com/google/common/collect/super/com/google/common/collect/EnumMultiset.java,F:/corpus/guava/guava#2012-05-01-02-04-06#v12.0#72d2812/guava-gwt/src-super/com/google/common/collect/super/com/google/common/collect/EnumMultiset.java,0,0,0,0,0,0,0,0,0,0,0,0,0,NO,0,0,0,0,0,0,0,0,0,0,0,0,0,0,0,0,0,0,0,0,0,0,0,0,0,0,0,0,0,0,0,0,0,0,0,0,0,0,0,0,0,0,0,0,0,0,0,0,0,66
guava,v12.0,v13.0,F:/corpus/guava/guava#2012-05-01-02-04-06#v12.0#72d2812/guava-gwt/src-super/com/google/common/collect/super/com/google/common/collect/ForwardingImmutableCollection.java,F:/corpus/guava/guava#2012-05-01-02-04-06#v12.0#72d2812/guava-gwt/src-super/com/google/common/collect/super/com/google/common/collect/ForwardingImmutableCollection.java,0,0,0,0,0,0,0,0,0,0,0,0,0,NO,0,0,0,0,0,0,0,0,0,0,0,0,0,0,0,0,0,0,0,0,0,0,0,0,0,0,0,0,0,0,0,0,0,0,0,0,0,0,0,0,0,0,0,0,0,0,0,0,0,69
guava,v12.0,v13.0,F:/corpus/guava/guava#2012-05-01-02-04-06#v12.0#72d2812/guava-gwt/src-super/com/google/common/collect/super/com/google/common/collect/GwtPlatform.java,F:/corpus/guava/guava#2012-05-01-02-04-06#v12.0#72d2812/guava-gwt/src-super/com/google/common/collect/super/com/google/common/collect/GwtPlatform.java,0,0,0,0,0,0,0,0,0,0,0,0,0,NO,0,0,0,0,0,0,0,0,0,0,0,0,0,0,0,0,0,0,0,0,0,0,0,0,0,0,0,0,0,0,0,0,0,0,0,0,0,0,0,0,0,0,0,0,0,0,0,0,0,44
guava,v12.0,v13.0,F:/corpus/guava/guava#2012-05-01-02-04-06#v12.0#72d2812/guava-gwt/src-super/com/google/common/collect/super/com/google/common/collect/HashBiMap.java,F:/corpus/guava/guava#2012-05-01-02-04-06#v12.0#72d2812/guava-gwt/src-super/com/google/common/collect/super/com/google/common/collect/HashBiMap.java,0,0,0,0,0,0,0,0,0,0,0,1,0,NO,0,0,0,0,0,0,0,0,0,0,0,0,0,0,0,0,0,0,0,0,0,0,0,0,0,0,0,0,0,0,0,0,0,0,0,0,0,0,0,0,0,0,0,0,0,0,0,0,0,92
guava,v12.0,v13.0,F:/corpus/guava/guava#2012-05-01-02-04-06#v12.0#72d2812/guava-gwt/src-super/com/google/common/collect/super/com/google/common/collect/HashMultimap.java,F:/corpus/guava/guava#2012-05-01-02-04-06#v12.0#72d2812/guava-gwt/src-super/com/google/common/collect/super/com/google/common/collect/HashMultimap.java,0,0,0,0,0,0,0,0,0,0,0,1,0,NO,0,0,0,0,0,0,0,0,0,0,0,0,0,0,0,0,0,0,0,0,0,0,0,0,0,0,0,0,0,0,0,0,0,0,0,0,0,0,0,0,0,0,0,0,0,0,0,0,0,112
guava,v12.0,v13.0,F:/corpus/guava/guava#2012-05-01-02-04-06#v12.0#72d2812/guava-gwt/src-super/com/google/common/collect/super/com/google/common/collect/HashMultiset.java,F:/corpus/guava/guava#2012-05-01-02-04-06#v12.0#72d2812/guava-gwt/src-super/com/google/common/collect/super/com/google/common/collect/HashMultiset.java,0,0,0,0,0,0,0,0,0,0,0,2,0,NO,0,0,0,0,0,0,0,0,0,0,0,0,0,0,0,0,0,0,0,0,0,0,0,0,0,0,0,0,0,0,0,0,0,0,0,0,0,0,0,0,0,0,0,0,0,0,0,0,0,75
guava,v12.0,v13.0,F:/corpus/guava/guava#2012-05-01-02-04-06#v12.0#72d2812/guava-gwt/src-super/com/google/common/collect/super/com/google/common/collect/LinkedHashMultiset.java,F:/corpus/guava/guava#2012-05-01-02-04-06#v12.0#72d2812/guava-gwt/src-super/com/google/common/collect/super/com/google/common/collect/LinkedHashMultiset.java,0,0,0,0,0,0,0,0,0,0,0,2,0,NO,0,0,0,0,0,0,0,0,0,0,0,0,0,0,0,0,0,0,0,0,0,0,0,0,0,0,0,0,0,0,0,0,0,0,0,0,0,0,0,0,0,0,0,0,0,0,0,0,0,87
guava,v12.0,v13.0,F:/corpus/guava/guava#2012-05-01-02-04-06#v12.0#72d2812/guava-gwt/src-super/com/google/common/collect/super/com/google/common/collect/RegularImmutableBiMap.java,F:/corpus/guava/guava#2012-05-01-02-04-06#v12.0#72d2812/guava-gwt/src-super/com/google/common/collect/super/com/google/common/collect/RegularImmutableBiMap.java,0,0,0,0,0,0,0,0,0,0,0,0,0,NO,0,0,0,0,0,0,0,0,0,0,0,0,0,0,0,0,0,0,0,0,0,0,0,0,0,0,0,0,0,0,0,0,0,0,0,0,0,0,0,0,0,0,0,0,0,0,0,0,0,52
guava,v12.0,v13.0,F:/corpus/guava/guava#2012-05-01-02-04-06#v12.0#72d2812/guava-gwt/src-super/com/google/common/collect/super/com/google/common/collect/TreeMultimap.java,F:/corpus/guava/guava#2012-05-01-02-04-06#v12.0#72d2812/guava-gwt/src-super/com/google/common/collect/super/com/google/common/collect/TreeMultimap.java,0,0,0,0,0,0,0,0,0,0,0,1,0,NO,0,0,0,0,0,0,0,0,0,0,0,0,0,0,0,0,0,0,0,0,0,0,0,0,0,0,0,0,0,0,0,0,0,0,0,0,0,0,0,0,0,0,0,0,0,0,0,0,0,171
guava,v12.0,v13.0,F:/corpus/guava/guava#2012-05-01-02-04-06#v12.0#72d2812/guava-gwt/src-super/com/google/common/escape/super/com/google/common/escape/Platform.java,F:/corpus/guava/guava#2012-05-01-02-04-06#v12.0#72d2812/guava-gwt/src-super/com/google/common/escape/super/com/google/common/escape/Platform.java,0,0,0,0,0,0,0,0,0,0,0,0,0,NO,0,0,0,0,0,0,0,0,0,0,0,0,0,0,0,0,0,0,0,0,0,0,0,0,0,0,0,0,0,0,0,0,0,0,0,0,0,0,0,0,0,0,0,0,0,0,0,0,0,33
