projectName,oldVersionTag,newVersionTag,oldPath,newPath,DC,LC,MM,RPB,SG,MCH,DCLP,DIVC,FE,LM,LPL,SS,SC,fromChangeDistiller,adding_attribute_modifiability,adding_class_derivability,adding_method_overridability,additional_class,additional_functionality,additional_object_state,alternative_part_delete,alternative_part_insert,attribute_renaming,attribute_type_change,class_renaming,comment_delete,comment_insert,comment_move,comment_update,condition_expression_change,decreasing_accessibility_change,doc_delete,doc_insert,doc_update,increasing_accessibility_change,method_renaming,parameter_delete,parameter_insert,parameter_ordering_change,parameter_renaming,parameter_type_change,parent_class_change,parent_class_delete,parent_class_insert,parent_interface_change,parent_interface_delete,parent_interface_insert,removed_class,removed_functionality,removed_object_state,removing_attribute_modifiability,removing_class_derivability,removing_method_overridability,return_type_change,return_type_delete,return_type_insert,statement_delete,statement_insert,statement_ordering_change,statement_parent_change,statement_update,unclassified_change,codeChurn,LOC
guava,v7.0,v8.0,F:/corpus/guava/guava#2010-09-23-03-12-43#v7.0#13bc6c9/gwt-super/com/google/common/base/super/com/google/common/base/Predicates.java,F:/corpus/guava/guava#2011-02-01-01-56-14#v8.0#0bb8549/gwt-super/com/google/common/base/super/com/google/common/base/Predicates.java,0,0,0,0,0,0,0,0,0,0,0,0,0,YES,0,0,0,0,0,0,0,0,0,2,0,2,2,0,0,0,0,0,0,0,0,0,0,0,0,0,2,0,0,0,0,0,0,0,1,0,0,0,0,0,0,0,8,2,0,0,2,0,42,501
guava,v7.0,v8.0,F:/corpus/guava/guava#2010-09-23-03-12-43#v7.0#13bc6c9/gwt-super/com/google/common/base/super/com/google/common/base/Splitter.java,F:/corpus/guava/guava#2011-02-01-01-56-14#v8.0#0bb8549/gwt-super/com/google/common/base/super/com/google/common/base/Splitter.java,0,0,0,0,3,0,0,0,0,0,0,0,0,YES,0,0,0,0,0,2,0,1,0,0,0,0,2,0,0,0,0,0,0,1,0,0,0,1,0,0,0,0,0,0,0,0,0,0,0,0,0,0,0,0,0,0,0,8,0,0,3,0,28,403
guava,v7.0,v8.0,F:/corpus/guava/guava#2010-09-23-03-12-43#v7.0#13bc6c9/gwt-super/com/google/common/collect/super/com/google/common/collect/GenericMapMaker.java,F:/corpus/guava/guava#2011-02-01-01-56-14#v8.0#0bb8549/gwt-super/com/google/common/collect/super/com/google/common/collect/GenericMapMaker.java,0,0,0,0,1,0,0,0,0,0,0,0,0,YES,0,0,0,0,1,0,0,0,0,0,0,0,0,0,0,0,0,0,0,0,0,0,0,0,0,0,0,0,0,0,0,0,0,0,0,0,0,0,0,0,0,0,0,0,0,0,0,0,11,73
guava,v7.0,v8.0,F:/corpus/guava/guava#2010-09-23-03-12-43#v7.0#13bc6c9/src/com/google/common/collect/ExpirationTimer.java,F:/corpus/guava/guava#2011-02-01-01-56-14#v8.0#0bb8549/gwt-super/com/google/common/collect/super/com/google/common/collect/ImmutableAsList.java,0,0,0,0,0,0,0,0,0,0,0,0,0,YES,0,0,0,0,0,0,0,0,0,0,1,0,0,0,0,0,0,0,0,1,0,0,0,1,0,0,0,0,0,1,0,0,0,0,0,1,0,1,0,0,0,0,1,1,0,0,0,0,5,26
guava,v7.0,v8.0,F:/corpus/guava/guava#2010-09-23-03-12-43#v7.0#13bc6c9/gwt-super/com/google/common/collect/super/com/google/common/collect/ImmutableCollection.java,F:/corpus/guava/guava#2011-02-01-01-56-14#v8.0#0bb8549/gwt-super/com/google/common/collect/super/com/google/common/collect/ImmutableCollection.java,0,0,1,0,7,0,0,0,0,0,0,0,0,YES,0,0,0,0,0,0,0,0,0,0,0,0,0,0,0,0,0,0,0,0,0,0,0,0,0,0,0,0,0,0,0,0,0,0,0,0,0,0,0,0,0,0,0,0,0,0,1,0,1,173
guava,v7.0,v8.0,F:/corpus/guava/guava#2010-09-23-03-12-43#v7.0#13bc6c9/gwt-super/com/google/common/collect/super/com/google/common/collect/ImmutableListMultimap.java,F:/corpus/guava/guava#2011-02-01-01-56-14#v8.0#0bb8549/gwt-super/com/google/common/collect/super/com/google/common/collect/ImmutableListMultimap.java,0,0,0,0,2,0,0,0,0,0,2,0,0,YES,0,0,0,0,2,0,0,0,0,0,0,0,0,0,0,0,0,4,0,0,0,0,0,0,0,0,0,0,0,0,0,0,0,0,0,0,0,0,0,0,0,0,0,0,0,0,0,0,28,289
guava,v7.0,v8.0,F:/corpus/guava/guava#2010-09-23-03-12-43#v7.0#13bc6c9/gwt-super/com/google/common/collect/super/com/google/common/collect/ImmutableMultimap.java,F:/corpus/guava/guava#2011-02-01-01-56-14#v8.0#0bb8549/gwt-super/com/google/common/collect/super/com/google/common/collect/ImmutableMultimap.java,0,0,0,0,7,0,0,0,0,0,2,0,0,YES,1,0,0,1,2,1,0,0,0,0,0,0,0,0,0,0,0,0,0,0,1,0,0,0,0,0,0,0,0,0,0,0,0,0,0,0,0,0,0,0,0,0,0,4,0,0,0,0,52,519
guava,v7.0,v8.0,F:/corpus/guava/guava#2010-09-23-03-12-43#v7.0#13bc6c9/gwt-super/com/google/common/collect/super/com/google/common/collect/ImmutableMultiset.java,F:/corpus/guava/guava#2011-02-01-01-56-14#v8.0#0bb8549/gwt-super/com/google/common/collect/super/com/google/common/collect/ImmutableMultiset.java,0,0,0,0,4,0,0,0,0,0,0,0,0,YES,0,0,0,0,0,0,0,0,0,0,0,0,0,0,0,0,0,0,0,0,0,0,0,0,0,0,0,0,0,0,0,0,0,0,0,0,0,0,0,0,0,0,0,0,0,0,0,0,1,574
guava,v7.0,v8.0,F:/corpus/guava/guava#2010-09-23-03-12-43#v7.0#13bc6c9/gwt-super/com/google/common/collect/super/com/google/common/collect/ImmutableSetMultimap.java,F:/corpus/guava/guava#2011-02-01-01-56-14#v8.0#0bb8549/gwt-super/com/google/common/collect/super/com/google/common/collect/ImmutableSetMultimap.java,0,0,0,0,2,0,0,0,0,0,2,0,0,YES,0,0,0,1,3,1,0,2,0,0,0,2,0,0,0,0,0,3,0,0,0,0,0,1,0,0,0,0,0,0,0,0,0,0,0,1,0,0,0,0,0,0,17,7,0,1,2,0,90,337
guava,v7.0,v8.0,F:/corpus/guava/guava#2010-09-23-03-12-43#v7.0#13bc6c9/gwt-super/com/google/common/collect/super/com/google/common/collect/Iterables.java,F:/corpus/guava/guava#2011-02-01-01-56-14#v8.0#0bb8549/gwt-super/com/google/common/collect/super/com/google/common/collect/Iterables.java,0,0,0,0,1,0,0,0,0,0,0,1,0,YES,0,0,0,1,0,0,0,0,0,0,0,0,0,0,0,0,0,0,0,2,0,0,0,0,0,0,0,0,0,0,0,0,0,0,0,0,0,0,0,0,0,0,0,2,0,0,0,0,43,918
guava,v7.0,v8.0,F:/corpus/guava/guava#2010-09-23-03-12-43#v7.0#13bc6c9/gwt-super/com/google/common/collect/super/com/google/common/collect/Iterators.java,F:/corpus/guava/guava#2011-02-01-01-56-14#v8.0#0bb8549/gwt-super/com/google/common/collect/super/com/google/common/collect/Iterators.java,0,1,0,0,0,0,0,0,0,0,0,2,0,YES,0,0,0,0,0,0,0,0,0,0,0,1,1,0,0,0,0,0,0,0,0,0,0,0,0,0,0,0,0,0,0,0,0,0,0,0,0,0,0,0,0,0,2,2,0,0,2,0,28,1135
guava,v7.0,v8.0,F:/corpus/guava/guava#2010-09-23-03-12-43#v7.0#13bc6c9/gwt-super/com/google/common/collect/super/com/google/common/collect/LinkedHashMultimap.java,F:/corpus/guava/guava#2011-02-01-01-56-14#v8.0#0bb8549/gwt-super/com/google/common/collect/super/com/google/common/collect/LinkedHashMultimap.java,0,0,0,0,0,0,0,0,0,0,0,0,0,YES,0,0,0,0,0,0,0,0,0,0,0,0,0,0,0,0,0,0,0,0,0,0,0,0,0,0,0,0,0,0,0,0,0,0,0,0,0,0,0,0,0,0,0,0,0,0,1,0,1,346
guava,v7.0,v8.0,F:/corpus/guava/guava#2010-09-23-03-12-43#v7.0#13bc6c9/gwt-super/com/google/common/collect/super/com/google/common/collect/MapMaker.java,F:/corpus/guava/guava#2011-02-01-01-56-14#v8.0#0bb8549/gwt-super/com/google/common/collect/super/com/google/common/collect/MapMaker.java,0,0,0,0,0,0,0,0,0,0,0,0,0,YES,0,0,0,0,1,0,0,0,0,0,0,0,0,0,0,0,0,0,0,0,0,0,0,0,0,0,0,0,0,0,0,0,0,0,0,0,0,0,0,0,0,0,7,1,0,0,0,0,5,169
guava,v7.0,v8.0,F:/corpus/guava/guava#2010-09-23-03-12-43#v7.0#13bc6c9/gwt-super/com/google/common/collect/super/com/google/common/collect/Maps.java,F:/corpus/guava/guava#2011-02-01-01-56-14#v8.0#0bb8549/gwt-super/com/google/common/collect/super/com/google/common/collect/Maps.java,0,1,0,0,9,0,0,0,0,0,0,3,0,YES,0,0,0,0,0,0,0,0,0,0,0,0,1,0,0,0,0,0,1,2,0,0,0,0,0,0,0,0,0,0,0,0,0,0,0,0,0,0,0,0,0,0,0,0,0,0,2,0,39,1673
guava,v7.0,v8.0,F:/corpus/guava/guava#2010-09-23-03-12-43#v7.0#13bc6c9/gwt-super/com/google/common/collect/super/com/google/common/collect/Multimaps.java,F:/corpus/guava/guava#2011-02-01-01-56-14#v8.0#0bb8549/gwt-super/com/google/common/collect/super/com/google/common/collect/Multimaps.java,0,1,0,0,16,0,0,0,0,0,0,0,0,YES,0,0,0,0,0,0,0,0,0,0,0,0,0,0,0,0,0,0,0,0,0,0,0,0,0,0,0,0,0,0,0,0,0,0,0,0,0,0,0,0,0,0,0,0,0,0,1,0,1,1157
guava,v7.0,v8.0,F:/corpus/guava/guava#2010-09-23-03-12-43#v7.0#13bc6c9/gwt-super/com/google/common/collect/super/com/google/common/collect/RegularImmutableList.java,F:/corpus/guava/guava#2011-02-01-01-56-14#v8.0#0bb8549/gwt-super/com/google/common/collect/super/com/google/common/collect/RegularImmutableList.java,0,0,0,0,0,0,0,0,0,0,0,0,0,YES,0,0,0,0,0,0,0,0,0,0,0,0,0,0,0,0,0,0,0,0,0,0,0,0,0,0,0,0,0,0,0,0,0,0,0,0,0,0,0,0,0,0,0,0,0,0,0,0,1,30
guava,v7.0,v8.0,F:/corpus/guava/guava#2010-09-23-03-12-43#v7.0#13bc6c9/gwt-super/com/google/common/collect/super/com/google/common/collect/Sets.java,F:/corpus/guava/guava#2011-02-01-01-56-14#v8.0#0bb8549/gwt-super/com/google/common/collect/super/com/google/common/collect/Sets.java,0,1,0,0,1,0,0,0,0,0,0,2,0,YES,0,0,0,0,1,0,0,0,0,0,0,0,0,0,0,0,0,0,0,0,0,0,0,0,0,0,0,0,0,0,0,0,0,0,0,0,0,0,0,0,0,0,0,0,0,0,1,0,22,1118
guava,v7.0,v8.0,F:/corpus/guava/guava#2010-09-23-03-12-43#v7.0#13bc6c9/gwt-super/com/google/common/net/super/com/google/common/net/InternetDomainName.java,F:/corpus/guava/guava#2011-02-01-01-56-14#v8.0#0bb8549/gwt-super/com/google/common/net/super/com/google/common/net/InternetDomainName.java,0,0,0,0,0,0,0,0,0,0,0,0,0,YES,0,0,0,0,0,0,0,0,0,0,0,0,0,0,0,0,0,0,0,3,0,2,0,0,0,0,0,0,0,0,0,0,0,0,0,0,0,0,0,0,0,0,0,0,0,0,2,0,14,503
guava,v7.0,v8.0,F:/corpus/guava/guava#2010-09-23-03-12-43#v7.0#13bc6c9/gwt-super/com/google/common/primitives/super/com/google/common/primitives/Chars.java,F:/corpus/guava/guava#2011-02-01-01-56-14#v8.0#0bb8549/gwt-super/com/google/common/primitives/super/com/google/common/primitives/Chars.java,0,0,0,0,0,0,0,0,0,0,0,0,0,YES,0,0,0,0,0,0,0,0,0,0,0,0,0,0,0,0,0,0,0,0,0,0,0,0,0,0,0,0,0,0,0,0,0,0,0,0,0,0,0,0,0,0,0,0,0,0,0,0,1,530
guava,v7.0,v8.0,F:/corpus/guava/guava#2010-09-23-03-12-43#v7.0#13bc6c9/gwt-super/com/google/common/primitives/super/com/google/common/primitives/Ints.java,F:/corpus/guava/guava#2011-02-01-01-56-14#v8.0#0bb8549/gwt-super/com/google/common/primitives/super/com/google/common/primitives/Ints.java,0,0,0,0,0,0,0,0,0,0,0,1,0,YES,0,0,0,0,0,0,0,0,0,0,0,0,0,0,0,0,0,0,0,0,0,0,0,0,0,0,0,0,0,0,0,0,0,0,0,0,0,0,0,0,0,0,0,0,0,0,0,0,1,525
guava,v7.0,v8.0,F:/corpus/guava/guava#2010-09-23-03-12-43#v7.0#13bc6c9/gwt-super/com/google/common/primitives/super/com/google/common/primitives/Longs.java,F:/corpus/guava/guava#2011-02-01-01-56-14#v8.0#0bb8549/gwt-super/com/google/common/primitives/super/com/google/common/primitives/Longs.java,0,0,0,0,0,0,0,0,0,0,0,0,0,YES,0,0,0,0,0,0,0,0,0,0,0,0,0,0,0,0,0,0,0,0,0,0,0,0,0,0,0,0,0,0,0,0,0,0,0,0,0,0,0,0,0,0,0,0,0,0,0,0,1,494
guava,v7.0,v8.0,F:/corpus/guava/guava#2010-09-23-03-12-43#v7.0#13bc6c9/gwt-super/com/google/common/primitives/super/com/google/common/primitives/Shorts.java,F:/corpus/guava/guava#2011-02-01-01-56-14#v8.0#0bb8549/gwt-super/com/google/common/primitives/super/com/google/common/primitives/Shorts.java,0,0,0,0,0,0,0,0,0,0,0,0,0,YES,0,0,0,0,0,0,0,0,0,0,0,0,0,0,0,0,0,0,0,0,0,0,0,0,0,0,0,0,0,0,0,0,0,0,0,0,0,0,0,0,0,0,0,0,0,0,0,0,1,527
guava,v7.0,v8.0,F:/corpus/guava/guava#2010-09-23-03-12-43#v7.0#13bc6c9/gwt-test/com/google/common/collect/TestModuleEntryPoint.java,F:/corpus/guava/guava#2011-02-01-01-56-14#v8.0#0bb8549/gwt-test/com/google/common/collect/TestModuleEntryPoint.java,0,0,0,0,0,0,0,0,0,0,0,0,0,YES,0,0,0,0,0,0,0,0,0,0,0,0,0,0,0,0,0,0,0,0,0,0,0,0,0,0,0,0,0,0,0,0,0,0,0,0,0,0,0,0,0,0,0,0,0,0,1,0,1,132
guava,v7.0,v8.0,F:/corpus/guava/guava#2010-09-23-03-12-43#v7.0#13bc6c9/src/com/google/common/base/Ascii.java,F:/corpus/guava/guava#2011-02-01-01-56-14#v8.0#0bb8549/src/com/google/common/base/Ascii.java,0,0,0,0,0,0,0,0,0,0,0,0,0,YES,0,0,0,0,0,38,0,0,0,0,0,0,0,0,0,0,0,0,0,1,0,0,0,0,0,0,0,0,0,0,0,0,0,0,0,0,0,0,0,0,0,0,0,0,0,0,0,0,346,95
guava,v7.0,v8.0,F:/corpus/guava/guava#2010-09-23-03-12-43#v7.0#13bc6c9/src/com/google/common/base/CharMatcher.java,F:/corpus/guava/guava#2011-02-01-01-56-14#v8.0#0bb8549/src/com/google/common/base/CharMatcher.java,0,1,0,0,0,0,0,0,0,0,0,0,0,YES,0,0,0,0,1,0,0,0,0,0,0,0,0,0,0,0,0,0,0,0,0,0,0,0,0,0,0,0,0,0,0,0,0,0,0,0,0,0,0,0,0,0,0,0,0,0,0,0,16,1126
guava,v7.0,v8.0,F:/corpus/guava/guava#2010-09-23-03-12-43#v7.0#13bc6c9/src/com/google/common/base/Equivalence.java,F:/corpus/guava/guava#2011-02-01-01-56-14#v8.0#0bb8549/src/com/google/common/base/Equivalence.java,0,0,0,0,1,0,0,0,0,0,0,0,0,YES,0,0,0,0,0,0,0,0,0,0,0,0,0,0,0,0,0,0,0,0,0,0,0,0,0,0,0,0,0,0,0,0,0,0,0,0,0,0,0,0,0,0,0,0,0,0,0,0,18,66
guava,v7.0,v8.0,F:/corpus/guava/guava#2010-09-23-03-12-43#v7.0#13bc6c9/src/com/google/common/base/Equivalences.java,F:/corpus/guava/guava#2011-02-01-01-56-14#v8.0#0bb8549/src/com/google/common/base/Equivalences.java,0,0,0,0,0,0,0,0,0,0,0,0,0,YES,0,0,0,0,0,0,0,0,0,0,0,0,0,0,0,0,0,0,0,4,0,0,0,0,0,0,0,0,0,0,0,0,0,0,0,0,0,0,0,0,0,0,0,0,0,0,1,0,42,97
guava,v7.0,v8.0,F:/corpus/guava/guava#2010-09-23-03-12-43#v7.0#13bc6c9/src/com/google/common/base/Functions.java,F:/corpus/guava/guava#2011-02-01-01-56-14#v8.0#0bb8549/src/com/google/common/base/Functions.java,0,0,0,0,1,0,0,0,0,0,0,0,0,YES,0,0,0,0,0,0,0,0,0,0,0,0,0,0,0,0,0,0,0,0,0,0,0,0,0,0,0,0,0,0,0,0,0,0,0,0,0,0,0,0,0,0,0,1,0,0,1,0,1,298
guava,v7.0,v8.0,F:/corpus/guava/guava#2010-09-23-03-12-43#v7.0#13bc6c9/src/com/google/common/base/Joiner.java,F:/corpus/guava/guava#2011-02-01-01-56-14#v8.0#0bb8549/src/com/google/common/base/Joiner.java,0,0,0,0,0,0,0,0,0,0,0,0,0,YES,0,0,0,0,0,0,0,0,0,0,0,0,1,0,0,0,0,0,0,0,0,0,0,0,0,0,0,0,0,0,0,0,0,0,0,0,0,1,0,0,0,0,0,0,0,0,2,0,4,338
guava,v7.0,v8.0,F:/corpus/guava/guava#2010-09-23-03-12-43#v7.0#13bc6c9/src/com/google/common/base/Objects.java,F:/corpus/guava/guava#2011-02-01-01-56-14#v8.0#0bb8549/src/com/google/common/base/Objects.java,0,0,0,0,0,0,0,0,0,0,0,2,0,YES,0,0,0,0,0,2,0,0,0,0,0,0,0,0,0,0,0,0,0,2,0,0,0,0,0,0,0,0,0,0,0,0,0,0,0,3,0,1,0,0,0,0,4,6,0,0,2,0,43,209
guava,v7.0,v8.0,F:/corpus/guava/guava#2010-09-23-03-12-43#v7.0#13bc6c9/src/com/google/common/base/Preconditions.java,F:/corpus/guava/guava#2011-02-01-01-56-14#v8.0#0bb8549/src/com/google/common/base/Preconditions.java,0,0,0,0,0,0,0,0,0,0,0,10,0,YES,0,0,0,0,0,0,0,0,0,0,0,0,0,0,0,0,0,0,0,0,0,0,0,0,0,0,0,0,0,0,0,0,0,0,0,0,0,0,0,0,0,0,0,0,0,0,1,0,1,445
guava,v7.0,v8.0,F:/corpus/guava/guava#2010-09-23-03-12-43#v7.0#13bc6c9/src/com/google/common/base/Predicates.java,F:/corpus/guava/guava#2011-02-01-01-56-14#v8.0#0bb8549/src/com/google/common/base/Predicates.java,0,0,0,0,0,0,0,0,0,0,0,0,0,YES,0,0,0,0,0,0,0,0,0,2,0,2,2,0,0,0,0,0,0,0,0,0,0,0,0,0,2,0,0,0,0,0,0,0,1,0,0,0,0,0,0,0,8,2,0,0,2,0,44,601
guava,v7.0,v8.0,F:/corpus/guava/guava#2010-09-23-03-12-43#v7.0#13bc6c9/src/com/google/common/base/Splitter.java,F:/corpus/guava/guava#2011-02-01-01-56-14#v8.0#0bb8549/src/com/google/common/base/Splitter.java,0,0,0,0,3,0,0,0,0,0,0,0,0,YES,0,0,0,0,0,2,0,1,0,0,0,0,2,0,0,0,0,0,0,1,0,0,0,1,0,0,0,0,0,0,0,0,0,0,0,0,0,0,0,0,0,0,0,8,0,0,3,0,27,460
guava,v7.0,v8.0,F:/corpus/guava/guava#2010-09-23-03-12-43#v7.0#13bc6c9/src/com/google/common/base/Suppliers.java,F:/corpus/guava/guava#2011-02-01-01-56-14#v8.0#0bb8549/src/com/google/common/base/Suppliers.java,0,0,0,0,0,0,1,0,0,0,0,0,0,YES,0,0,0,0,1,0,0,0,0,0,0,0,4,0,0,0,0,0,0,0,0,0,0,0,0,0,0,0,0,0,0,0,0,0,0,1,0,0,0,0,0,0,5,15,0,1,0,2,35,202
guava,v7.0,v8.0,F:/corpus/guava/guava#2010-09-23-03-12-43#v7.0#13bc6c9/src/com/google/common/collect/AbstractIterator.java,F:/corpus/guava/guava#2011-02-01-01-56-14#v8.0#0bb8549/src/com/google/common/collect/AbstractIterator.java,0,0,0,0,1,0,0,0,0,0,0,0,0,YES,0,0,0,0,0,0,0,0,0,0,0,0,0,0,0,0,0,0,1,0,1,0,0,0,0,0,0,0,0,0,0,0,0,0,0,0,0,0,0,0,0,0,0,0,0,0,0,0,3,166
guava,v7.0,v8.0,F:/corpus/guava/guava#2010-09-23-03-12-43#v7.0#13bc6c9/src/com/google/common/collect/AbstractListMultimap.java,F:/corpus/guava/guava#2011-02-01-01-56-14#v8.0#0bb8549/src/com/google/common/collect/AbstractListMultimap.java,0,0,0,0,1,0,0,0,0,0,0,0,0,YES,0,0,0,0,1,0,0,0,0,0,0,0,0,0,0,0,0,0,3,0,0,0,0,0,0,0,0,0,0,0,0,0,0,0,0,0,0,0,0,0,0,0,0,0,0,0,0,0,35,87
guava,v7.0,v8.0,F:/corpus/guava/guava#2010-09-23-03-12-43#v7.0#13bc6c9/src/com/google/common/collect/AbstractMultiset.java,F:/corpus/guava/guava#2011-02-01-01-56-14#v8.0#0bb8549/src/com/google/common/collect/AbstractMultiset.java,0,0,0,0,3,0,0,0,0,0,0,0,0,YES,0,0,0,0,0,0,0,0,0,0,0,0,0,0,0,0,0,0,0,0,0,0,0,0,0,0,0,0,0,0,0,0,0,0,0,0,0,0,0,0,0,0,0,0,0,0,0,0,2,176
guava,v7.0,v8.0,F:/corpus/guava/guava#2010-09-23-03-12-43#v7.0#13bc6c9/src/com/google/common/collect/AbstractSetMultimap.java,F:/corpus/guava/guava#2011-02-01-01-56-14#v8.0#0bb8549/src/com/google/common/collect/AbstractSetMultimap.java,0,0,0,0,1,0,0,0,0,0,0,0,0,YES,0,0,0,0,1,0,0,0,0,0,0,0,0,0,0,0,0,0,3,1,0,0,0,0,0,0,0,0,0,0,0,0,0,0,0,0,0,0,0,0,0,0,0,0,0,0,0,0,39,95
guava,v7.0,v8.0,F:/corpus/guava/guava#2010-09-23-03-12-43#v7.0#13bc6c9/src/com/google/common/collect/AbstractSortedSetMultimap.java,F:/corpus/guava/guava#2011-02-01-01-56-14#v8.0#0bb8549/src/com/google/common/collect/AbstractSortedSetMultimap.java,0,0,0,0,1,0,0,0,0,0,0,0,0,YES,0,0,0,0,1,0,0,0,0,0,0,0,0,0,0,0,0,0,3,0,0,0,0,0,0,0,0,0,0,0,0,0,0,0,0,0,0,0,0,0,0,0,0,0,0,0,0,0,53,74
guava,v7.0,v8.0,F:/corpus/guava/guava#2010-09-23-03-12-43#v7.0#13bc6c9/src/com/google/common/collect/AsynchronousComputationException.java,F:/corpus/guava/guava#2011-02-01-01-56-14#v8.0#0bb8549/src/com/google/common/collect/AsynchronousComputationException.java,0,0,0,0,0,0,0,0,0,0,0,0,0,YES,0,0,0,0,0,0,0,0,0,0,0,0,0,0,0,0,0,0,0,0,0,0,0,0,0,0,0,0,0,0,0,0,0,0,0,0,0,0,0,0,0,0,0,0,0,0,0,0,1,32
guava,v7.0,v8.0,F:/corpus/guava/guava#2010-09-23-03-12-43#v7.0#13bc6c9/src/com/google/common/collect/ByFunctionOrdering.java,F:/corpus/guava/guava#2011-02-01-01-56-14#v8.0#0bb8549/src/com/google/common/collect/ByFunctionOrdering.java,0,0,0,0,0,0,0,0,0,0,0,0,0,YES,0,0,0,0,0,0,0,0,0,0,0,0,0,0,0,0,0,0,0,0,0,0,0,0,0,0,0,0,0,0,0,0,0,0,0,0,0,0,0,0,0,0,0,0,0,0,0,0,1,70
guava,v7.0,v8.0,F:/corpus/guava/guava#2010-09-23-03-12-43#v7.0#13bc6c9/src/com/google/common/collect/Collections2.java,F:/corpus/guava/guava#2011-02-01-01-56-14#v8.0#0bb8549/src/com/google/common/collect/Collections2.java,0,0,0,0,0,0,0,0,0,0,0,0,0,YES,0,0,0,0,1,0,0,0,0,0,0,0,0,0,0,0,0,0,0,0,0,0,0,0,0,0,0,0,0,0,0,0,0,0,0,0,0,0,0,0,0,0,1,0,0,0,1,0,19,314
guava,v7.0,v8.0,F:/corpus/guava/guava#2010-09-23-03-12-43#v7.0#13bc6c9/src/com/google/common/collect/ComparatorOrdering.java,F:/corpus/guava/guava#2011-02-01-01-56-14#v8.0#0bb8549/src/com/google/common/collect/ComparatorOrdering.java,0,0,0,0,0,0,0,0,0,0,0,0,0,YES,0,0,0,0,0,0,0,0,0,0,0,0,0,0,0,0,0,0,0,0,0,0,0,0,0,0,0,0,0,0,0,0,0,0,0,0,0,0,0,0,0,0,0,0,0,0,0,0,1,75
guava,v7.0,v8.0,F:/corpus/guava/guava#2010-09-23-03-12-43#v7.0#13bc6c9/src/com/google/common/collect/CompoundOrdering.java,F:/corpus/guava/guava#2011-02-01-01-56-14#v8.0#0bb8549/src/com/google/common/collect/CompoundOrdering.java,0,0,0,0,0,0,0,0,0,0,0,0,0,YES,0,0,0,0,0,0,0,0,0,0,0,0,0,0,0,0,0,0,0,0,0,0,0,0,0,0,0,0,0,0,0,0,0,0,0,0,0,0,0,0,0,0,0,0,0,0,0,0,1,76
guava,v7.0,v8.0,F:/corpus/guava/guava#2010-09-23-03-12-43#v7.0#13bc6c9/src/com/google/common/collect/ComputationException.java,F:/corpus/guava/guava#2011-02-01-01-56-14#v8.0#0bb8549/src/com/google/common/collect/ComputationException.java,0,0,0,0,0,0,0,0,0,0,0,0,0,YES,0,0,0,0,0,0,0,0,0,0,0,0,0,0,0,0,0,0,0,0,0,0,0,0,0,0,0,0,0,0,0,0,0,0,0,0,0,0,0,0,0,0,0,0,0,0,0,0,1,33
guava,v7.0,v8.0,F:/corpus/guava/guava#2010-09-23-03-12-43#v7.0#13bc6c9/src/com/google/common/collect/ComputingConcurrentHashMap.java,F:/corpus/guava/guava#2011-02-01-01-56-14#v8.0#0bb8549/src/com/google/common/collect/ComputingConcurrentHashMap.java,0,0,0,1,2,0,0,0,1,0,1,0,0,YES,0,0,0,1,2,0,0,0,0,0,1,7,1,0,0,0,0,0,0,1,0,0,0,1,0,1,0,0,0,0,0,0,0,0,1,0,0,0,0,0,0,0,48,2,0,4,2,0,129,380
guava,v7.0,v8.0,F:/corpus/guava/guava#2010-09-23-03-12-43#v7.0#13bc6c9/src/com/google/common/collect/CustomConcurrentHashMap.java,F:/corpus/guava/guava#2011-02-01-01-56-14#v8.0#0bb8549/src/com/google/common/collect/CustomConcurrentHashMap.java,6,1,1,0,5,0,76,0,0,0,2,0,0,YES,0,1,0,0,23,2,1,1,8,1,0,4,4,1,1,21,0,4,1,1,0,1,1,2,0,2,0,0,0,0,0,0,0,0,16,2,0,0,0,0,0,0,16,35,0,2,23,0,348,2990
guava,v7.0,v8.0,F:/corpus/guava/guava#2010-09-23-03-12-43#v7.0#13bc6c9/src/com/google/common/collect/EmptyImmutableList.java,F:/corpus/guava/guava#2011-02-01-01-56-14#v8.0#0bb8549/src/com/google/common/collect/EmptyImmutableList.java,0,0,0,0,3,0,0,0,0,0,0,0,0,YES,0,0,0,0,1,0,0,0,0,0,0,0,0,0,0,0,0,0,0,0,0,0,0,0,0,0,0,0,0,0,0,0,0,0,0,0,0,0,0,0,0,0,0,0,0,0,0,0,5,155
guava,v7.0,v8.0,F:/corpus/guava/guava#2010-09-23-03-12-43#v7.0#13bc6c9/src/com/google/common/collect/EmptyImmutableSetMultimap.java,F:/corpus/guava/guava#2011-02-01-01-56-14#v8.0#0bb8549/src/com/google/common/collect/EmptyImmutableSetMultimap.java,0,0,0,0,0,0,0,0,0,0,0,0,0,YES,0,0,0,0,0,0,0,0,0,0,0,0,0,0,0,0,0,0,0,0,0,0,0,0,0,0,0,0,0,0,0,0,0,0,0,0,0,0,0,0,0,0,0,0,0,0,1,0,1,40
guava,v7.0,v8.0,F:/corpus/guava/guava#2010-09-23-03-12-43#v7.0#13bc6c9/src/com/google/common/collect/ExplicitOrdering.java,F:/corpus/guava/guava#2011-02-01-01-56-14#v8.0#0bb8549/src/com/google/common/collect/ExplicitOrdering.java,0,0,0,0,0,0,0,0,0,0,0,0,0,YES,0,0,0,0,0,0,0,0,0,0,0,0,0,0,0,0,0,0,0,0,0,0,0,0,0,0,0,0,0,0,0,0,0,0,0,0,0,0,0,0,0,0,0,0,0,0,0,0,1,78
guava,v7.0,v8.0,F:/corpus/guava/guava#2010-09-23-03-12-43#v7.0#13bc6c9/src/com/google/common/collect/GenericMapMaker.java,F:/corpus/guava/guava#2011-02-01-01-56-14#v8.0#0bb8549/src/com/google/common/collect/GenericMapMaker.java,0,0,0,0,1,0,0,0,0,0,0,0,0,YES,0,0,0,0,3,0,0,0,0,0,0,0,0,0,0,0,0,0,0,0,0,0,0,0,0,0,0,0,0,0,0,0,0,0,0,0,0,0,0,0,0,0,0,0,0,0,0,0,29,106
guava,v7.0,v8.0,F:/corpus/guava/guava#2010-09-23-03-12-43#v7.0#13bc6c9/src/com/google/common/collect/Hashing.java,F:/corpus/guava/guava#2011-02-01-01-56-14#v8.0#0bb8549/src/com/google/common/collect/Hashing.java,0,0,0,0,0,0,0,0,0,0,0,0,0,YES,0,0,0,0,0,0,0,0,0,0,0,0,0,0,0,0,0,0,0,0,0,0,0,0,0,0,0,0,0,0,0,0,0,0,1,2,0,0,0,0,0,0,0,0,0,0,0,0,24,67
guava,v7.0,v8.0,F:/corpus/guava/guava#2010-09-23-03-12-43#v7.0#13bc6c9/src/com/google/common/collect/ImmutableAsList.java,F:/corpus/guava/guava#2011-02-01-01-56-14#v8.0#0bb8549/src/com/google/common/collect/ImmutableAsList.java,0,0,0,0,1,0,0,0,0,0,0,0,0,YES,0,0,0,0,0,0,0,0,0,0,0,0,0,0,0,0,0,0,0,0,0,0,0,0,0,0,0,0,0,0,0,0,0,0,0,0,0,0,0,0,0,0,0,0,0,0,0,0,3,66
guava,v7.0,v8.0,F:/corpus/guava/guava#2010-09-23-03-12-43#v7.0#13bc6c9/src/com/google/common/collect/ImmutableCollection.java,F:/corpus/guava/guava#2011-02-01-01-56-14#v8.0#0bb8549/src/com/google/common/collect/ImmutableCollection.java,0,0,0,0,8,0,0,0,0,0,0,0,0,YES,0,0,0,0,0,0,0,0,0,0,0,0,0,0,0,0,0,0,0,0,0,0,0,0,0,0,0,0,0,0,0,0,0,0,0,0,0,0,0,0,0,0,0,0,0,0,0,0,1,338
guava,v7.0,v8.0,F:/corpus/guava/guava#2010-09-23-03-12-43#v7.0#13bc6c9/src/com/google/common/collect/ImmutableEntry.java,F:/corpus/guava/guava#2011-02-01-01-56-14#v8.0#0bb8549/src/com/google/common/collect/ImmutableEntry.java,0,0,0,0,1,0,0,0,0,0,0,0,0,YES,0,0,0,0,0,0,0,0,0,0,0,0,0,0,0,0,0,0,0,0,0,0,0,0,0,0,0,0,0,0,0,0,0,0,0,0,0,0,0,0,0,0,0,0,0,0,0,0,1,52
guava,v7.0,v8.0,F:/corpus/guava/guava#2010-09-23-03-12-43#v7.0#13bc6c9/src/com/google/common/collect/ImmutableList.java,F:/corpus/guava/guava#2011-02-01-01-56-14#v8.0#0bb8549/src/com/google/common/collect/ImmutableList.java,0,0,0,0,6,0,0,0,0,0,5,0,0,YES,0,0,0,0,0,0,0,0,0,0,0,0,0,0,0,0,0,0,0,0,0,0,0,0,0,0,0,0,0,0,0,0,0,0,0,0,0,0,0,0,0,0,0,0,0,0,0,0,1,632
guava,v7.0,v8.0,F:/corpus/guava/guava#2010-09-23-03-12-43#v7.0#13bc6c9/src/com/google/common/collect/ImmutableListMultimap.java,F:/corpus/guava/guava#2011-02-01-01-56-14#v8.0#0bb8549/src/com/google/common/collect/ImmutableListMultimap.java,0,0,0,0,2,0,0,0,0,0,2,0,0,YES,0,0,0,0,2,0,0,0,0,0,0,0,0,0,0,0,0,4,0,0,0,0,0,0,0,0,0,0,0,0,0,0,0,0,0,0,0,0,0,0,0,0,0,0,0,0,0,0,28,346
guava,v7.0,v8.0,F:/corpus/guava/guava#2010-09-23-03-12-43#v7.0#13bc6c9/src/com/google/common/collect/ImmutableMap.java,F:/corpus/guava/guava#2011-02-01-01-56-14#v8.0#0bb8549/src/com/google/common/collect/ImmutableMap.java,0,0,0,0,4,0,0,0,0,0,2,3,0,YES,0,0,0,0,0,0,0,0,0,1,0,0,0,0,0,0,0,0,0,1,0,0,0,0,0,0,0,0,0,0,0,0,0,0,0,0,0,0,0,0,0,0,0,1,0,0,0,0,7,391
guava,v7.0,v8.0,F:/corpus/guava/guava#2010-09-23-03-12-43#v7.0#13bc6c9/src/com/google/common/collect/ImmutableMultimap.java,F:/corpus/guava/guava#2011-02-01-01-56-14#v8.0#0bb8549/src/com/google/common/collect/ImmutableMultimap.java,0,0,0,0,7,0,0,0,0,0,2,0,0,YES,1,0,0,1,2,1,0,0,0,0,0,0,0,0,0,0,0,0,0,0,1,0,0,0,0,0,0,0,0,0,0,0,0,0,0,0,0,0,0,0,0,0,0,4,0,0,0,0,52,532
guava,v7.0,v8.0,F:/corpus/guava/guava#2010-09-23-03-12-43#v7.0#13bc6c9/src/com/google/common/collect/ImmutableMultiset.java,F:/corpus/guava/guava#2011-02-01-01-56-14#v8.0#0bb8549/src/com/google/common/collect/ImmutableMultiset.java,0,0,0,0,4,0,0,0,0,0,0,0,0,YES,0,0,0,0,0,0,0,0,0,0,0,0,0,0,0,0,0,0,0,0,0,0,0,0,0,0,0,0,0,0,0,0,0,0,0,0,0,0,0,0,0,0,0,0,0,0,0,0,1,631
guava,v7.0,v8.0,F:/corpus/guava/guava#2010-09-23-03-12-43#v7.0#13bc6c9/src/com/google/common/collect/ImmutableSet.java,F:/corpus/guava/guava#2011-02-01-01-56-14#v8.0#0bb8549/src/com/google/common/collect/ImmutableSet.java,0,0,0,0,3,0,0,0,0,0,0,0,0,YES,0,0,0,0,1,2,0,0,0,0,0,0,0,0,0,1,0,0,0,0,0,0,0,0,0,0,0,0,0,0,0,0,0,0,0,0,0,0,0,0,0,0,0,0,0,0,2,0,35,622
guava,v7.0,v8.0,F:/corpus/guava/guava#2010-09-23-03-12-43#v7.0#13bc6c9/src/com/google/common/collect/ImmutableSetMultimap.java,F:/corpus/guava/guava#2011-02-01-01-56-14#v8.0#0bb8549/src/com/google/common/collect/ImmutableSetMultimap.java,0,0,0,0,2,0,0,0,0,0,2,0,0,YES,0,0,0,1,3,1,0,2,0,0,0,2,0,0,0,0,0,3,0,0,0,0,0,1,0,0,0,0,0,0,0,0,0,0,0,1,0,0,0,0,0,0,17,7,0,1,2,0,90,398
guava,v7.0,v8.0,F:/corpus/guava/guava#2010-09-23-03-12-43#v7.0#13bc6c9/src/com/google/common/collect/ImmutableSortedSet.java,F:/corpus/guava/guava#2011-02-01-01-56-14#v8.0#0bb8549/src/com/google/common/collect/ImmutableSortedSet.java,0,0,0,0,2,0,0,0,0,0,0,0,0,YES,0,0,0,0,0,0,0,0,0,0,0,0,0,0,0,0,0,0,0,0,0,0,0,0,0,0,0,0,0,0,0,0,0,0,0,0,0,0,0,0,0,0,0,0,0,0,0,0,1,776
guava,v7.0,v8.0,F:/corpus/guava/guava#2010-09-23-03-12-43#v7.0#13bc6c9/src/com/google/common/collect/Interners.java,F:/corpus/guava/guava#2011-02-01-01-56-14#v8.0#0bb8549/src/com/google/common/collect/Interners.java,0,0,0,0,0,0,0,0,0,0,0,0,0,YES,0,0,0,1,1,0,0,0,0,0,0,0,0,0,0,0,0,0,0,0,0,0,0,0,0,0,0,0,0,0,0,0,0,0,0,0,0,0,0,0,0,0,0,0,0,0,0,0,37,176
guava,v7.0,v8.0,F:/corpus/guava/guava#2010-09-23-03-12-43#v7.0#13bc6c9/src/com/google/common/collect/Iterables.java,F:/corpus/guava/guava#2011-02-01-01-56-14#v8.0#0bb8549/src/com/google/common/collect/Iterables.java,0,0,0,0,1,0,0,0,0,0,0,1,0,YES,0,0,0,1,0,0,0,0,0,0,0,0,0,0,0,0,0,0,0,2,0,0,0,0,0,0,0,0,0,0,0,0,0,0,0,0,0,0,0,0,0,0,0,2,0,0,0,0,43,958
guava,v7.0,v8.0,F:/corpus/guava/guava#2010-09-23-03-12-43#v7.0#13bc6c9/src/com/google/common/collect/Iterators.java,F:/corpus/guava/guava#2011-02-01-01-56-14#v8.0#0bb8549/src/com/google/common/collect/Iterators.java,0,1,0,0,0,0,0,0,0,0,0,2,0,YES,0,0,0,0,0,0,0,0,0,0,0,1,1,0,0,0,0,0,0,0,0,0,0,0,0,0,0,0,0,0,0,0,0,0,0,0,0,0,0,0,0,0,2,2,0,0,2,0,28,1171
guava,v7.0,v8.0,F:/corpus/guava/guava#2010-09-23-03-12-43#v7.0#13bc6c9/src/com/google/common/collect/LexicographicalOrdering.java,F:/corpus/guava/guava#2011-02-01-01-56-14#v8.0#0bb8549/src/com/google/common/collect/LexicographicalOrdering.java,0,0,0,0,0,0,0,0,0,0,0,0,0,YES,0,0,0,0,0,0,0,0,0,0,0,0,0,0,0,0,0,0,0,0,0,0,0,0,0,0,0,0,0,0,0,0,0,0,0,0,0,0,0,0,0,0,0,0,0,0,0,0,1,77
guava,v7.0,v8.0,F:/corpus/guava/guava#2010-09-23-03-12-43#v7.0#13bc6c9/src/com/google/common/collect/LinkedHashMultimap.java,F:/corpus/guava/guava#2011-02-01-01-56-14#v8.0#0bb8549/src/com/google/common/collect/LinkedHashMultimap.java,0,0,0,0,0,0,0,0,0,0,0,0,0,YES,0,0,0,0,0,0,0,0,0,0,0,0,0,0,0,0,0,0,0,0,0,0,0,0,0,0,0,0,0,0,0,0,0,0,0,0,0,0,0,0,0,0,0,0,0,0,1,0,1,388
guava,v7.0,v8.0,F:/corpus/guava/guava#2010-09-23-03-12-43#v7.0#13bc6c9/src/com/google/common/collect/Lists.java,F:/corpus/guava/guava#2011-02-01-01-56-14#v8.0#0bb8549/src/com/google/common/collect/Lists.java,0,0,0,0,0,0,2,0,0,0,0,2,0,YES,0,0,0,0,0,0,0,0,0,0,0,0,1,0,0,0,0,0,0,1,0,0,0,0,0,0,0,0,0,0,0,0,0,0,0,0,0,0,0,0,0,0,2,1,0,0,1,0,9,1016
guava,v7.0,v8.0,F:/corpus/guava/guava#2010-09-23-03-12-43#v7.0#13bc6c9/src/com/google/common/collect/MapEvictionListener.java,F:/corpus/guava/guava#2011-02-01-01-56-14#v8.0#0bb8549/src/com/google/common/collect/MapEvictionListener.java,0,0,0,0,1,0,0,0,0,0,0,0,0,YES,0,0,0,0,0,0,0,0,0,0,0,0,0,0,0,0,0,0,0,0,0,0,0,0,0,0,0,0,0,0,0,0,0,0,0,0,0,0,0,0,0,0,0,0,0,0,0,0,1,51
guava,v7.0,v8.0,F:/corpus/guava/guava#2010-09-23-03-12-43#v7.0#13bc6c9/src/com/google/common/collect/MapMaker.java,F:/corpus/guava/guava#2011-02-01-01-56-14#v8.0#0bb8549/src/com/google/common/collect/MapMaker.java,0,0,0,0,1,0,0,0,0,0,0,0,0,YES,0,0,0,0,4,2,0,0,1,0,0,0,0,0,0,0,0,0,0,4,2,1,0,0,0,0,0,0,0,0,0,0,0,0,0,4,0,0,0,0,0,0,5,1,0,0,10,0,61,573
guava,v7.0,v8.0,F:/corpus/guava/guava#2010-09-23-03-12-43#v7.0#13bc6c9/src/com/google/common/collect/Maps.java,F:/corpus/guava/guava#2011-02-01-01-56-14#v8.0#0bb8549/src/com/google/common/collect/Maps.java,0,1,0,0,9,0,0,0,0,0,0,3,0,YES,0,0,0,0,0,0,0,0,0,0,0,0,1,0,0,0,0,0,1,2,0,0,0,0,0,0,0,0,0,0,0,0,0,0,0,0,0,0,0,0,0,0,0,0,0,0,2,0,39,1702
guava,v7.0,v8.0,F:/corpus/guava/guava#2010-09-23-03-12-43#v7.0#13bc6c9/src/com/google/common/collect/Multimap.java,F:/corpus/guava/guava#2011-02-01-01-56-14#v8.0#0bb8549/src/com/google/common/collect/Multimap.java,0,0,0,0,1,0,0,0,0,0,0,0,0,YES,0,0,0,0,0,0,0,0,0,0,0,0,0,0,0,0,0,0,0,0,0,0,0,0,0,0,0,0,0,0,0,0,0,0,0,0,0,0,0,0,0,0,0,0,0,0,0,0,5,263
guava,v7.0,v8.0,F:/corpus/guava/guava#2010-09-23-03-12-43#v7.0#13bc6c9/src/com/google/common/collect/Multimaps.java,F:/corpus/guava/guava#2011-02-01-01-56-14#v8.0#0bb8549/src/com/google/common/collect/Multimaps.java,0,1,0,0,21,0,0,0,0,0,0,0,0,YES,0,0,0,0,0,0,0,0,0,0,0,0,0,0,0,0,0,0,0,0,0,0,0,0,0,0,0,0,0,0,0,0,0,0,0,0,0,0,0,0,0,0,0,0,0,0,1,0,1,1712
guava,v7.0,v8.0,F:/corpus/guava/guava#2010-09-23-03-12-43#v7.0#13bc6c9/src/com/google/common/collect/NaturalOrdering.java,F:/corpus/guava/guava#2011-02-01-01-56-14#v8.0#0bb8549/src/com/google/common/collect/NaturalOrdering.java,0,0,0,0,0,0,0,0,0,0,0,0,0,YES,0,0,0,0,0,0,0,0,0,0,0,0,0,0,0,0,0,0,0,0,0,0,0,0,0,0,0,0,0,0,0,0,0,0,0,0,0,0,0,0,0,0,0,0,0,0,0,0,1,77
guava,v7.0,v8.0,F:/corpus/guava/guava#2010-09-23-03-12-43#v7.0#13bc6c9/src/com/google/common/collect/NullsFirstOrdering.java,F:/corpus/guava/guava#2011-02-01-01-56-14#v8.0#0bb8549/src/com/google/common/collect/NullsFirstOrdering.java,0,0,0,0,0,0,0,0,0,0,0,0,0,YES,0,0,0,0,0,0,0,0,0,0,0,0,0,0,0,0,0,0,0,0,0,0,0,0,0,0,0,0,0,0,0,0,0,0,0,0,0,0,0,0,0,0,0,0,0,0,0,0,1,81
guava,v7.0,v8.0,F:/corpus/guava/guava#2010-09-23-03-12-43#v7.0#13bc6c9/src/com/google/common/collect/NullsLastOrdering.java,F:/corpus/guava/guava#2011-02-01-01-56-14#v8.0#0bb8549/src/com/google/common/collect/NullsLastOrdering.java,0,0,0,0,0,0,0,0,0,0,0,0,0,YES,0,0,0,0,0,0,0,0,0,0,0,0,0,0,0,0,0,0,0,0,0,0,0,0,0,0,0,0,0,0,0,0,0,0,0,0,0,0,0,0,0,0,0,0,0,0,0,0,1,81
guava,v7.0,v8.0,F:/corpus/guava/guava#2010-09-23-03-12-43#v7.0#13bc6c9/src/com/google/common/collect/Ordering.java,F:/corpus/guava/guava#2011-02-01-01-56-14#v8.0#0bb8549/src/com/google/common/collect/Ordering.java,0,0,0,0,1,0,0,0,0,0,0,1,0,YES,0,0,0,0,2,0,0,0,0,0,0,0,0,0,0,0,0,0,0,0,0,0,0,0,0,0,0,0,0,0,0,0,0,0,0,0,0,0,0,0,0,0,0,0,0,0,0,0,68,637
guava,v7.0,v8.0,F:/corpus/guava/guava#2010-09-23-03-12-43#v7.0#13bc6c9/src/com/google/common/collect/RegularImmutableList.java,F:/corpus/guava/guava#2011-02-01-01-56-14#v8.0#0bb8549/src/com/google/common/collect/RegularImmutableList.java,0,0,0,0,0,0,0,0,0,0,0,0,0,YES,0,0,0,0,0,0,0,0,0,0,0,0,0,0,0,0,0,0,0,0,0,0,0,0,0,0,0,0,0,0,0,0,0,0,0,0,0,0,0,0,0,0,3,1,0,0,1,0,5,193
guava,v7.0,v8.0,F:/corpus/guava/guava#2010-09-23-03-12-43#v7.0#13bc6c9/src/com/google/common/collect/RegularImmutableMap.java,F:/corpus/guava/guava#2011-02-01-01-56-14#v8.0#0bb8549/src/com/google/common/collect/RegularImmutableMap.java,0,0,0,0,0,0,0,0,0,0,0,0,0,YES,0,0,0,3,2,0,0,0,0,0,0,2,1,0,0,0,0,0,0,0,0,0,0,0,0,0,0,0,0,0,0,0,0,1,0,0,0,0,0,0,0,0,0,0,0,0,6,0,57,246
guava,v7.0,v8.0,F:/corpus/guava/guava#2010-09-23-03-12-43#v7.0#13bc6c9/src/com/google/common/collect/ReverseNaturalOrdering.java,F:/corpus/guava/guava#2011-02-01-01-56-14#v8.0#0bb8549/src/com/google/common/collect/ReverseNaturalOrdering.java,0,0,0,0,0,0,0,0,0,0,0,0,0,YES,0,0,0,0,0,0,0,0,0,0,0,0,0,0,0,0,0,0,0,0,0,0,0,0,0,0,0,0,0,0,0,0,0,0,0,0,0,0,0,0,0,0,0,0,0,0,0,0,2,85
guava,v7.0,v8.0,F:/corpus/guava/guava#2010-09-23-03-12-43#v7.0#13bc6c9/src/com/google/common/collect/ReverseOrdering.java,F:/corpus/guava/guava#2011-02-01-01-56-14#v8.0#0bb8549/src/com/google/common/collect/ReverseOrdering.java,0,0,0,0,0,0,0,0,0,0,0,0,0,YES,0,0,0,0,0,0,0,0,0,0,0,0,0,0,0,0,0,0,0,0,0,0,0,0,0,0,0,0,0,0,0,0,0,0,0,0,0,0,0,0,0,0,0,0,0,0,0,0,1,91
guava,v7.0,v8.0,F:/corpus/guava/guava#2010-09-23-03-12-43#v7.0#13bc6c9/src/com/google/common/collect/Sets.java,F:/corpus/guava/guava#2011-02-01-01-56-14#v8.0#0bb8549/src/com/google/common/collect/Sets.java,0,1,0,0,1,1,0,0,0,0,0,2,0,YES,0,0,0,0,1,0,0,0,0,0,0,0,0,0,0,0,0,0,0,0,0,0,0,0,0,0,0,0,0,0,0,0,0,0,0,0,0,0,0,0,0,0,0,0,0,0,1,0,22,1133
guava,v7.0,v8.0,F:/corpus/guava/guava#2010-09-23-03-12-43#v7.0#13bc6c9/src/com/google/common/collect/SingletonImmutableList.java,F:/corpus/guava/guava#2011-02-01-01-56-14#v8.0#0bb8549/src/com/google/common/collect/SingletonImmutableList.java,0,0,0,0,0,0,0,0,0,0,0,0,0,YES,0,0,0,0,2,0,0,0,0,0,0,0,0,0,0,0,0,0,0,0,0,0,0,0,0,0,0,0,0,0,0,0,0,0,0,0,0,0,0,0,0,0,0,0,0,0,0,0,13,154
guava,v7.0,v8.0,F:/corpus/guava/guava#2010-09-23-03-12-43#v7.0#13bc6c9/src/com/google/common/collect/SortedLists.java,F:/corpus/guava/guava#2011-02-01-01-56-14#v8.0#0bb8549/src/com/google/common/collect/SortedLists.java,0,0,0,0,0,0,0,0,0,0,0,0,0,YES,0,0,0,0,0,0,0,0,0,0,0,0,0,0,0,0,1,0,0,0,0,0,0,0,0,0,0,0,0,0,0,0,0,0,0,0,0,0,0,0,0,0,0,0,0,0,0,0,8,371
guava,v7.0,v8.0,F:/corpus/guava/guava#2010-09-23-03-12-43#v7.0#13bc6c9/src/com/google/common/collect/SortedSetMultimap.java,F:/corpus/guava/guava#2011-02-01-01-56-14#v8.0#0bb8549/src/com/google/common/collect/SortedSetMultimap.java,0,0,0,0,1,0,0,0,0,0,0,0,0,YES,0,0,0,0,0,0,0,0,0,0,0,0,0,0,0,0,0,0,0,0,0,0,0,0,0,0,0,0,0,0,0,0,0,0,0,0,0,0,0,0,0,0,0,0,0,0,0,0,7,101
guava,v7.0,v8.0,F:/corpus/guava/guava#2010-09-23-03-12-43#v7.0#13bc6c9/src/com/google/common/collect/StandardRowSortedTable.java,F:/corpus/guava/guava#2011-02-01-01-56-14#v8.0#0bb8549/src/com/google/common/collect/StandardRowSortedTable.java,0,0,0,1,0,0,0,0,0,0,0,0,0,YES,0,0,0,0,0,0,0,0,0,0,0,0,0,0,0,0,0,0,0,0,0,0,0,0,0,0,0,0,0,0,0,0,0,0,0,0,0,0,0,0,0,0,0,0,0,0,0,0,1,159
guava,v7.0,v8.0,F:/corpus/guava/guava#2010-09-23-03-12-43#v7.0#13bc6c9/src/com/google/common/collect/TransformedImmutableList.java,F:/corpus/guava/guava#2011-02-01-01-56-14#v8.0#0bb8549/src/com/google/common/collect/TransformedImmutableList.java,0,0,0,0,1,0,0,0,0,0,0,0,0,YES,0,0,0,0,0,0,0,0,0,0,0,0,0,0,0,0,0,0,0,0,0,0,0,0,0,0,0,0,0,0,0,0,0,0,0,0,0,0,0,0,0,0,1,0,0,0,1,0,3,130
guava,v7.0,v8.0,F:/corpus/guava/guava#2010-09-23-03-12-43#v7.0#13bc6c9/src/com/google/common/collect/UsingToStringOrdering.java,F:/corpus/guava/guava#2011-02-01-01-56-14#v8.0#0bb8549/src/com/google/common/collect/UsingToStringOrdering.java,0,0,0,0,0,0,0,0,0,0,0,0,0,YES,0,0,0,0,0,0,0,0,0,0,0,0,0,0,0,0,0,0,0,0,0,0,0,0,0,0,0,0,0,0,0,0,0,0,0,0,0,0,0,0,0,0,0,0,0,0,0,0,1,45
guava,v7.0,v8.0,F:/corpus/guava/guava#2010-09-23-03-12-43#v7.0#13bc6c9/src/com/google/common/io/Flushables.java,F:/corpus/guava/guava#2011-02-01-01-56-14#v8.0#0bb8549/src/com/google/common/io/Flushables.java,0,0,0,0,0,0,0,0,0,0,0,0,0,YES,0,0,0,0,0,0,0,1,0,0,0,0,0,0,0,1,0,0,0,0,0,0,0,0,0,0,0,0,0,0,0,0,0,0,0,0,0,0,0,0,0,0,0,0,0,2,0,0,3,79
guava,v7.0,v8.0,F:/corpus/guava/guava#2010-09-23-03-12-43#v7.0#13bc6c9/src/com/google/common/io/InputSupplier.java,F:/corpus/guava/guava#2011-02-01-01-56-14#v8.0#0bb8549/src/com/google/common/io/InputSupplier.java,0,0,0,0,1,0,0,0,0,0,0,0,0,YES,0,0,0,0,0,0,0,0,0,0,0,0,0,0,0,0,0,0,1,0,0,0,0,0,0,0,0,0,0,0,0,0,0,0,0,0,0,0,0,0,0,0,0,0,0,0,0,0,11,29
guava,v7.0,v8.0,F:/corpus/guava/guava#2010-09-23-03-12-43#v7.0#13bc6c9/src/com/google/common/io/OutputSupplier.java,F:/corpus/guava/guava#2011-02-01-01-56-14#v8.0#0bb8549/src/com/google/common/io/OutputSupplier.java,0,0,0,0,1,0,0,0,0,0,0,0,0,YES,0,0,0,0,0,0,0,0,0,0,0,0,0,0,0,0,0,0,1,1,0,0,0,0,0,0,0,0,0,0,0,0,0,0,0,0,0,0,0,0,0,0,0,0,0,0,0,0,12,29
guava,v7.0,v8.0,F:/corpus/guava/guava#2010-09-23-03-12-43#v7.0#13bc6c9/src/com/google/common/net/HostSpecifier.java,F:/corpus/guava/guava#2011-02-01-01-56-14#v8.0#0bb8549/src/com/google/common/net/HostSpecifier.java,0,0,0,0,0,0,0,0,0,0,0,0,0,YES,0,0,0,0,0,0,0,0,0,0,0,0,0,0,1,1,0,0,0,1,0,0,0,0,0,0,0,0,0,0,0,0,0,0,0,0,0,0,0,0,0,0,1,3,0,0,2,0,5,179
guava,v7.0,v8.0,F:/corpus/guava/guava#2010-09-23-03-12-43#v7.0#13bc6c9/src/com/google/common/net/InetAddresses.java,F:/corpus/guava/guava#2011-02-01-01-56-14#v8.0#0bb8549/src/com/google/common/net/InetAddresses.java,0,0,0,0,0,0,0,0,0,0,0,0,0,YES,0,0,0,0,1,0,2,2,0,0,0,3,10,0,0,4,0,0,0,0,0,0,0,0,0,0,0,0,0,0,0,0,0,0,2,0,0,0,0,0,0,0,17,35,2,8,3,0,80,894
guava,v7.0,v8.0,F:/corpus/guava/guava#2010-09-23-03-12-43#v7.0#13bc6c9/src/com/google/common/net/InternetDomainName.java,F:/corpus/guava/guava#2011-02-01-01-56-14#v8.0#0bb8549/src/com/google/common/net/InternetDomainName.java,0,0,0,0,0,0,0,0,0,0,0,0,0,YES,0,0,0,0,0,0,0,0,0,0,0,0,0,0,0,0,0,0,0,3,0,2,0,0,0,0,0,0,0,0,0,0,0,0,0,0,0,0,0,0,0,0,0,0,0,0,2,0,14,503
guava,v7.0,v8.0,F:/corpus/guava/guava#2010-09-23-03-12-43#v7.0#13bc6c9/src/com/google/common/net/TldPatterns.java,F:/corpus/guava/guava#2011-02-01-01-56-14#v8.0#0bb8549/src/com/google/common/net/TldPatterns.java,0,1,0,0,0,0,0,0,0,0,0,0,0,YES,0,0,0,0,0,0,0,0,0,0,0,0,0,0,0,0,0,0,0,0,0,0,0,0,0,0,0,0,0,0,0,0,0,0,0,0,0,0,0,0,0,0,0,0,0,0,0,0,207,3736
guava,v7.0,v8.0,F:/corpus/guava/guava#2010-09-23-03-12-43#v7.0#13bc6c9/src/com/google/common/primitives/Booleans.java,F:/corpus/guava/guava#2011-02-01-01-56-14#v8.0#0bb8549/src/com/google/common/primitives/Booleans.java,0,0,0,0,0,0,0,0,0,0,0,0,0,YES,0,0,0,0,0,0,0,0,0,0,0,0,0,0,0,0,0,0,0,0,0,0,0,0,0,0,0,0,0,0,0,0,0,0,0,0,0,0,0,0,0,0,0,0,0,0,0,0,1,464
guava,v7.0,v8.0,F:/corpus/guava/guava#2010-09-23-03-12-43#v7.0#13bc6c9/src/com/google/common/primitives/Chars.java,F:/corpus/guava/guava#2011-02-01-01-56-14#v8.0#0bb8549/src/com/google/common/primitives/Chars.java,0,0,0,0,0,0,0,0,0,0,0,0,0,YES,0,0,0,0,0,0,0,0,0,0,0,0,0,0,0,0,0,0,0,0,0,0,0,0,0,0,0,0,0,0,0,0,0,0,0,0,0,0,0,0,0,0,0,0,0,0,0,0,1,580
guava,v7.0,v8.0,F:/corpus/guava/guava#2010-09-23-03-12-43#v7.0#13bc6c9/src/com/google/common/primitives/Doubles.java,F:/corpus/guava/guava#2011-02-01-01-56-14#v8.0#0bb8549/src/com/google/common/primitives/Doubles.java,0,0,0,0,0,0,0,0,0,0,0,0,0,YES,0,0,0,0,0,0,0,0,0,0,0,0,0,0,0,0,0,0,0,0,0,0,0,0,0,0,0,0,0,0,0,0,0,0,0,0,0,0,0,0,0,0,0,0,0,0,0,0,1,501
guava,v7.0,v8.0,F:/corpus/guava/guava#2010-09-23-03-12-43#v7.0#13bc6c9/src/com/google/common/primitives/Floats.java,F:/corpus/guava/guava#2011-02-01-01-56-14#v8.0#0bb8549/src/com/google/common/primitives/Floats.java,0,0,0,0,0,0,0,0,0,0,0,0,0,YES,0,0,0,0,0,0,0,0,0,0,0,0,0,0,0,0,0,0,0,0,0,0,0,0,0,0,0,0,0,0,0,0,0,0,0,0,0,0,0,0,0,0,0,0,0,0,0,0,1,498
guava,v7.0,v8.0,F:/corpus/guava/guava#2010-09-23-03-12-43#v7.0#13bc6c9/src/com/google/common/primitives/Ints.java,F:/corpus/guava/guava#2011-02-01-01-56-14#v8.0#0bb8549/src/com/google/common/primitives/Ints.java,0,0,0,0,0,0,0,0,0,0,0,1,0,YES,0,0,0,0,0,0,0,0,0,0,0,0,0,0,0,0,0,0,0,0,0,0,0,0,0,0,0,0,0,0,0,0,0,0,0,0,0,0,0,0,0,0,0,0,0,0,0,0,1,577
guava,v7.0,v8.0,F:/corpus/guava/guava#2010-09-23-03-12-43#v7.0#13bc6c9/src/com/google/common/primitives/Longs.java,F:/corpus/guava/guava#2011-02-01-01-56-14#v8.0#0bb8549/src/com/google/common/primitives/Longs.java,0,0,0,0,0,0,0,0,0,0,1,0,0,YES,0,0,0,0,0,0,0,0,0,0,0,0,0,0,0,0,0,0,0,0,0,0,0,0,0,0,0,0,0,0,0,0,0,0,0,0,0,0,0,0,0,0,0,0,0,0,0,0,1,560
guava,v7.0,v8.0,F:/corpus/guava/guava#2010-09-23-03-12-43#v7.0#13bc6c9/src/com/google/common/primitives/Shorts.java,F:/corpus/guava/guava#2011-02-01-01-56-14#v8.0#0bb8549/src/com/google/common/primitives/Shorts.java,0,0,0,0,0,0,0,0,0,0,0,0,0,YES,0,0,0,0,0,0,0,0,0,0,0,0,0,0,0,0,0,0,0,0,0,0,0,0,0,0,0,0,0,0,0,0,0,0,0,0,0,0,0,0,0,0,0,0,0,0,0,0,1,578
guava,v7.0,v8.0,F:/corpus/guava/guava#2010-09-23-03-12-43#v7.0#13bc6c9/src/com/google/common/primitives/SignedBytes.java,F:/corpus/guava/guava#2011-02-01-01-56-14#v8.0#0bb8549/src/com/google/common/primitives/SignedBytes.java,0,0,0,0,0,0,0,0,0,0,0,0,0,YES,0,0,0,0,0,0,0,0,0,0,0,0,0,0,0,0,0,0,0,0,0,0,0,0,0,0,0,0,0,0,0,0,0,0,0,0,0,0,0,0,0,0,0,0,0,0,0,0,1,180
guava,v7.0,v8.0,F:/corpus/guava/guava#2010-09-23-03-12-43#v7.0#13bc6c9/src/com/google/common/primitives/UnsignedBytes.java,F:/corpus/guava/guava#2011-02-01-01-56-14#v8.0#0bb8549/src/com/google/common/primitives/UnsignedBytes.java,0,0,0,0,0,0,0,0,0,0,0,0,0,YES,0,0,0,0,0,0,0,0,0,0,0,0,0,0,0,0,0,0,0,0,1,0,0,0,0,0,0,0,0,0,0,0,0,0,0,0,0,0,0,0,0,0,0,0,0,0,0,0,6,361
guava,v7.0,v8.0,F:/corpus/guava/guava#2010-09-23-03-12-43#v7.0#13bc6c9/src/com/google/common/util/concurrent/AbstractFuture.java,F:/corpus/guava/guava#2011-02-01-01-56-14#v8.0#0bb8549/src/com/google/common/util/concurrent/AbstractFuture.java,0,0,0,0,3,0,0,0,0,0,0,0,0,YES,0,0,0,0,0,0,0,0,0,0,0,0,0,0,0,0,0,0,0,0,0,0,0,0,0,0,0,0,0,0,0,0,0,0,0,0,0,0,0,0,0,0,0,0,0,0,0,0,2,329
guava,v7.0,v8.0,F:/corpus/guava/guava#2010-09-23-03-12-43#v7.0#13bc6c9/src/com/google/common/util/concurrent/ExecutionList.java,F:/corpus/guava/guava#2011-02-01-01-56-14#v8.0#0bb8549/src/com/google/common/util/concurrent/ExecutionList.java,0,0,0,0,0,0,0,0,0,0,0,0,0,YES,0,0,0,0,0,0,0,0,0,0,0,0,0,0,0,0,0,0,0,0,0,0,0,0,0,0,0,0,0,0,0,0,0,0,0,0,0,0,0,0,0,0,0,0,0,0,0,0,9,128
guava,v7.0,v8.0,F:/corpus/guava/guava#2010-09-23-03-12-43#v7.0#13bc6c9/src/com/google/common/util/concurrent/FakeTimeLimiter.java,F:/corpus/guava/guava#2011-02-01-01-56-14#v8.0#0bb8549/src/com/google/common/util/concurrent/FakeTimeLimiter.java,0,0,0,0,2,0,0,0,0,0,0,0,0,YES,0,0,0,0,0,0,0,0,0,0,0,0,0,0,0,0,0,0,0,0,0,0,0,0,0,0,0,0,0,0,0,0,0,0,0,0,0,0,0,0,0,0,0,0,0,0,0,0,1,45
guava,v7.0,v8.0,F:/corpus/guava/guava#2010-09-23-03-12-43#v7.0#13bc6c9/src/com/google/common/util/concurrent/ForwardingBlockingQueue.java,F:/corpus/guava/guava#2011-02-01-01-56-14#v8.0#0bb8549/src/com/google/common/util/concurrent/ForwardingBlockingQueue.java,0,0,0,0,1,0,0,0,0,0,0,0,0,YES,0,0,0,0,0,0,0,0,0,0,0,0,0,0,0,0,0,0,0,0,0,0,0,0,0,0,0,0,0,0,0,0,0,0,0,0,0,0,0,0,0,0,0,0,0,0,0,0,1,60
guava,v7.0,v8.0,F:/corpus/guava/guava#2010-09-23-03-12-43#v7.0#13bc6c9/src/com/google/common/util/concurrent/Futures.java,F:/corpus/guava/guava#2011-02-01-01-56-14#v8.0#0bb8549/src/com/google/common/util/concurrent/Futures.java,0,0,0,0,0,0,0,0,0,1,0,0,0,YES,0,0,0,0,2,2,0,0,0,0,0,3,1,0,0,1,0,0,0,0,0,0,0,0,0,0,0,0,0,0,0,0,0,0,0,0,0,0,0,0,0,0,2,4,1,0,2,1,41,746
guava,v7.0,v8.0,F:/corpus/guava/guava#2010-09-23-03-12-43#v7.0#13bc6c9/src/com/google/common/util/concurrent/MoreExecutors.java,F:/corpus/guava/guava#2011-02-01-01-56-14#v8.0#0bb8549/src/com/google/common/util/concurrent/MoreExecutors.java,0,0,1,0,0,0,0,0,0,0,0,0,0,YES,0,0,0,0,0,0,0,0,0,0,0,0,0,0,0,0,0,0,0,0,0,0,0,0,0,0,0,0,0,0,0,0,0,0,0,0,0,0,0,0,0,0,0,0,0,0,0,0,4,339
guava,v7.0,v8.0,F:/corpus/guava/guava#2010-09-23-03-12-43#v7.0#13bc6c9/src/com/google/common/util/concurrent/ValueFuture.java,F:/corpus/guava/guava#2011-02-01-01-56-14#v8.0#0bb8549/src/com/google/common/util/concurrent/ValueFuture.java,0,0,0,0,1,0,0,0,0,0,0,0,0,YES,0,0,0,0,0,0,0,0,0,0,0,0,0,0,0,0,0,0,0,0,0,0,0,0,0,0,0,0,0,0,0,0,0,0,0,0,0,0,0,0,0,0,0,0,0,0,0,0,1,83
guava,v7.0,v8.0,F:/corpus/guava/guava#2010-09-23-03-12-43#v7.0#13bc6c9/gwt-src/com/google/common/collect/ArrayListMultimap_CustomFieldSerializer.java,F:/corpus/guava/guava#2010-09-23-03-12-43#v7.0#13bc6c9/gwt-src/com/google/common/collect/ArrayListMultimap_CustomFieldSerializer.java,0,0,0,0,0,0,0,0,0,0,0,0,0,NO,0,0,0,0,0,0,0,0,0,0,0,0,0,0,0,0,0,0,0,0,0,0,0,0,0,0,0,0,0,0,0,0,0,0,0,0,0,0,0,0,0,0,0,0,0,0,0,0,0,45
guava,v7.0,v8.0,F:/corpus/guava/guava#2010-09-23-03-12-43#v7.0#13bc6c9/gwt-src/com/google/common/collect/ByFunctionOrdering_CustomFieldSerializer.java,F:/corpus/guava/guava#2010-09-23-03-12-43#v7.0#13bc6c9/gwt-src/com/google/common/collect/ByFunctionOrdering_CustomFieldSerializer.java,0,0,0,0,0,0,0,0,0,0,0,0,0,NO,0,0,0,0,0,0,0,0,0,0,0,0,0,0,0,0,0,0,0,0,0,0,0,0,0,0,0,0,0,0,0,0,0,0,0,0,0,0,0,0,0,0,0,0,0,0,0,0,0,48
guava,v7.0,v8.0,F:/corpus/guava/guava#2010-09-23-03-12-43#v7.0#13bc6c9/gwt-src/com/google/common/collect/ComparatorOrdering_CustomFieldSerializer.java,F:/corpus/guava/guava#2010-09-23-03-12-43#v7.0#13bc6c9/gwt-src/com/google/common/collect/ComparatorOrdering_CustomFieldSerializer.java,0,0,0,0,0,0,0,0,0,0,0,0,0,NO,0,0,0,0,0,0,0,0,0,0,0,0,0,0,0,0,0,0,0,0,0,0,0,0,0,0,0,0,0,0,0,0,0,0,0,0,0,0,0,0,0,0,0,0,0,0,0,0,0,47
guava,v7.0,v8.0,F:/corpus/guava/guava#2010-09-23-03-12-43#v7.0#13bc6c9/gwt-src/com/google/common/collect/CompoundOrdering_CustomFieldSerializer.java,F:/corpus/guava/guava#2010-09-23-03-12-43#v7.0#13bc6c9/gwt-src/com/google/common/collect/CompoundOrdering_CustomFieldSerializer.java,0,0,0,0,0,0,0,0,0,0,0,0,0,NO,0,0,0,0,0,0,0,0,0,0,0,0,0,0,0,0,0,0,0,0,0,0,0,0,0,0,0,0,0,0,0,0,0,0,0,0,0,0,0,0,0,0,0,0,0,0,0,0,0,47
guava,v7.0,v8.0,F:/corpus/guava/guava#2010-09-23-03-12-43#v7.0#13bc6c9/gwt-src/com/google/common/collect/EmptyImmutableListMultimap_CustomFieldSerializer.java,F:/corpus/guava/guava#2010-09-23-03-12-43#v7.0#13bc6c9/gwt-src/com/google/common/collect/EmptyImmutableListMultimap_CustomFieldSerializer.java,0,0,0,0,1,0,0,0,0,0,0,0,0,NO,0,0,0,0,0,0,0,0,0,0,0,0,0,0,0,0,0,0,0,0,0,0,0,0,0,0,0,0,0,0,0,0,0,0,0,0,0,0,0,0,0,0,0,0,0,0,0,0,0,42
guava,v7.0,v8.0,F:/corpus/guava/guava#2010-09-23-03-12-43#v7.0#13bc6c9/gwt-src/com/google/common/collect/EmptyImmutableList_CustomFieldSerializer.java,F:/corpus/guava/guava#2010-09-23-03-12-43#v7.0#13bc6c9/gwt-src/com/google/common/collect/EmptyImmutableList_CustomFieldSerializer.java,0,0,0,0,1,0,0,0,0,0,0,0,0,NO,0,0,0,0,0,0,0,0,0,0,0,0,0,0,0,0,0,0,0,0,0,0,0,0,0,0,0,0,0,0,0,0,0,0,0,0,0,0,0,0,0,0,0,0,0,0,0,0,0,41
guava,v7.0,v8.0,F:/corpus/guava/guava#2010-09-23-03-12-43#v7.0#13bc6c9/gwt-src/com/google/common/collect/EmptyImmutableMap_CustomFieldSerializer.java,F:/corpus/guava/guava#2010-09-23-03-12-43#v7.0#13bc6c9/gwt-src/com/google/common/collect/EmptyImmutableMap_CustomFieldSerializer.java,0,0,0,0,1,0,0,0,0,0,0,0,0,NO,0,0,0,0,0,0,0,0,0,0,0,0,0,0,0,0,0,0,0,0,0,0,0,0,0,0,0,0,0,0,0,0,0,0,0,0,0,0,0,0,0,0,0,0,0,0,0,0,0,42
guava,v7.0,v8.0,F:/corpus/guava/guava#2010-09-23-03-12-43#v7.0#13bc6c9/gwt-src/com/google/common/collect/EmptyImmutableMultiset_CustomFieldSerializer.java,F:/corpus/guava/guava#2010-09-23-03-12-43#v7.0#13bc6c9/gwt-src/com/google/common/collect/EmptyImmutableMultiset_CustomFieldSerializer.java,0,0,0,0,1,0,0,0,0,0,0,0,0,NO,0,0,0,0,0,0,0,0,0,0,0,0,0,0,0,0,0,0,0,0,0,0,0,0,0,0,0,0,0,0,0,0,0,0,0,0,0,0,0,0,0,0,0,0,0,0,0,0,0,42
guava,v7.0,v8.0,F:/corpus/guava/guava#2010-09-23-03-12-43#v7.0#13bc6c9/gwt-src/com/google/common/collect/EmptyImmutableSetMultimap_CustomFieldSerializer.java,F:/corpus/guava/guava#2010-09-23-03-12-43#v7.0#13bc6c9/gwt-src/com/google/common/collect/EmptyImmutableSetMultimap_CustomFieldSerializer.java,0,0,0,0,1,0,0,0,0,0,0,0,0,NO,0,0,0,0,0,0,0,0,0,0,0,0,0,0,0,0,0,0,0,0,0,0,0,0,0,0,0,0,0,0,0,0,0,0,0,0,0,0,0,0,0,0,0,0,0,0,0,0,0,42
guava,v7.0,v8.0,F:/corpus/guava/guava#2010-09-23-03-12-43#v7.0#13bc6c9/gwt-src/com/google/common/collect/EmptyImmutableSet_CustomFieldSerializer.java,F:/corpus/guava/guava#2010-09-23-03-12-43#v7.0#13bc6c9/gwt-src/com/google/common/collect/EmptyImmutableSet_CustomFieldSerializer.java,0,0,0,0,1,0,0,0,0,0,0,0,0,NO,0,0,0,0,0,0,0,0,0,0,0,0,0,0,0,0,0,0,0,0,0,0,0,0,0,0,0,0,0,0,0,0,0,0,0,0,0,0,0,0,0,0,0,0,0,0,0,0,0,41
guava,v7.0,v8.0,F:/corpus/guava/guava#2010-09-23-03-12-43#v7.0#13bc6c9/gwt-src/com/google/common/collect/EmptyImmutableSortedSet_CustomFieldSerializer.java,F:/corpus/guava/guava#2010-09-23-03-12-43#v7.0#13bc6c9/gwt-src/com/google/common/collect/EmptyImmutableSortedSet_CustomFieldSerializer.java,0,0,0,0,0,0,0,0,0,0,0,0,0,NO,0,0,0,0,0,0,0,0,0,0,0,0,0,0,0,0,0,0,0,0,0,0,0,0,0,0,0,0,0,0,0,0,0,0,0,0,0,0,0,0,0,0,0,0,0,0,0,0,0,59
guava,v7.0,v8.0,F:/corpus/guava/guava#2010-09-23-03-12-43#v7.0#13bc6c9/gwt-src/com/google/common/collect/ExplicitOrderedImmutableSortedSet_CustomFieldSerializer.java,F:/corpus/guava/guava#2010-09-23-03-12-43#v7.0#13bc6c9/gwt-src/com/google/common/collect/ExplicitOrderedImmutableSortedSet_CustomFieldSerializer.java,0,0,0,0,0,0,0,0,0,0,0,0,0,NO,0,0,0,0,0,0,0,0,0,0,0,0,0,0,0,0,0,0,0,0,0,0,0,0,0,0,0,0,0,0,0,0,0,0,0,0,0,0,0,0,0,0,0,0,0,0,0,0,0,57
guava,v7.0,v8.0,F:/corpus/guava/guava#2010-09-23-03-12-43#v7.0#13bc6c9/gwt-src/com/google/common/collect/ExplicitOrdering_CustomFieldSerializer.java,F:/corpus/guava/guava#2010-09-23-03-12-43#v7.0#13bc6c9/gwt-src/com/google/common/collect/ExplicitOrdering_CustomFieldSerializer.java,0,0,0,0,0,0,0,0,0,0,0,0,0,NO,0,0,0,0,0,0,0,0,0,0,0,0,0,0,0,0,0,0,0,0,0,0,0,0,0,0,0,0,0,0,0,0,0,0,0,0,0,0,0,0,0,0,0,0,0,0,0,0,0,45
guava,v7.0,v8.0,F:/corpus/guava/guava#2010-09-23-03-12-43#v7.0#13bc6c9/gwt-src/com/google/common/collect/HashBasedTable_CustomFieldSerializer.java,F:/corpus/guava/guava#2010-09-23-03-12-43#v7.0#13bc6c9/gwt-src/com/google/common/collect/HashBasedTable_CustomFieldSerializer.java,0,0,0,0,0,0,0,0,0,0,0,0,0,NO,0,0,0,0,0,0,0,0,0,0,0,0,0,0,0,0,0,0,0,0,0,0,0,0,0,0,0,0,0,0,0,0,0,0,0,0,0,0,0,0,0,0,0,0,0,0,0,0,0,58
guava,v7.0,v8.0,F:/corpus/guava/guava#2010-09-23-03-12-43#v7.0#13bc6c9/gwt-src/com/google/common/collect/HashMultimap_CustomFieldSerializer.java,F:/corpus/guava/guava#2010-09-23-03-12-43#v7.0#13bc6c9/gwt-src/com/google/common/collect/HashMultimap_CustomFieldSerializer.java,0,0,0,0,0,0,0,0,0,0,0,0,0,NO,0,0,0,0,0,0,0,0,0,0,0,0,0,0,0,0,0,0,0,0,0,0,0,0,0,0,0,0,0,0,0,0,0,0,0,0,0,0,0,0,0,0,0,0,0,0,0,0,0,45
guava,v7.0,v8.0,F:/corpus/guava/guava#2010-09-23-03-12-43#v7.0#13bc6c9/gwt-src/com/google/common/collect/HashMultiset_CustomFieldSerializer.java,F:/corpus/guava/guava#2010-09-23-03-12-43#v7.0#13bc6c9/gwt-src/com/google/common/collect/HashMultiset_CustomFieldSerializer.java,0,0,0,0,0,0,0,0,0,0,0,0,0,NO,0,0,0,0,0,0,0,0,0,0,0,0,0,0,0,0,0,0,0,0,0,0,0,0,0,0,0,0,0,0,0,0,0,0,0,0,0,0,0,0,0,0,0,0,0,0,0,0,0,44
guava,v7.0,v8.0,F:/corpus/guava/guava#2010-09-23-03-12-43#v7.0#13bc6c9/gwt-src/com/google/common/collect/ImmutableEnumSet_CustomFieldSerializer.java,F:/corpus/guava/guava#2010-09-23-03-12-43#v7.0#13bc6c9/gwt-src/com/google/common/collect/ImmutableEnumSet_CustomFieldSerializer.java,0,0,0,0,0,0,0,0,0,0,0,0,0,NO,0,0,0,0,0,0,0,0,0,0,0,0,0,0,0,0,0,0,0,0,0,0,0,0,0,0,0,0,0,0,0,0,0,0,0,0,0,0,0,0,0,0,0,0,0,0,0,0,0,54
guava,v7.0,v8.0,F:/corpus/guava/guava#2010-09-23-03-12-43#v7.0#13bc6c9/gwt-src/com/google/common/collect/ImmutableListMultimap_CustomFieldSerializer.java,F:/corpus/guava/guava#2010-09-23-03-12-43#v7.0#13bc6c9/gwt-src/com/google/common/collect/ImmutableListMultimap_CustomFieldSerializer.java,0,0,0,0,0,0,0,0,0,0,0,0,0,NO,0,0,0,0,0,0,0,0,0,0,0,0,0,0,0,0,0,0,0,0,0,0,0,0,0,0,0,0,0,0,0,0,0,0,0,0,0,0,0,0,0,0,0,0,0,0,0,0,0,45
guava,v7.0,v8.0,F:/corpus/guava/guava#2010-09-23-03-12-43#v7.0#13bc6c9/gwt-src/com/google/common/collect/ImmutableList_CustomFieldSerializer.java,F:/corpus/guava/guava#2010-09-23-03-12-43#v7.0#13bc6c9/gwt-src/com/google/common/collect/ImmutableList_CustomFieldSerializer.java,0,0,0,0,0,0,0,0,0,0,0,0,0,NO,0,0,0,0,0,0,0,0,0,0,0,0,0,0,0,0,0,0,0,0,0,0,0,0,0,0,0,0,0,0,0,0,0,0,0,0,0,0,0,0,0,0,0,0,0,0,0,0,0,26
guava,v7.0,v8.0,F:/corpus/guava/guava#2010-09-23-03-12-43#v7.0#13bc6c9/gwt-src/com/google/common/collect/ImmutableMultiset_CustomFieldSerializer.java,F:/corpus/guava/guava#2010-09-23-03-12-43#v7.0#13bc6c9/gwt-src/com/google/common/collect/ImmutableMultiset_CustomFieldSerializer.java,0,0,0,0,0,0,0,0,0,0,0,0,0,NO,0,0,0,0,0,0,0,0,0,0,0,0,0,0,0,0,0,0,0,0,0,0,0,0,0,0,0,0,0,0,0,0,0,0,0,0,0,0,0,0,0,0,0,0,0,0,0,0,0,44
guava,v7.0,v8.0,F:/corpus/guava/guava#2010-09-23-03-12-43#v7.0#13bc6c9/gwt-src/com/google/common/collect/ImmutableSetMultimap_CustomFieldSerializer.java,F:/corpus/guava/guava#2010-09-23-03-12-43#v7.0#13bc6c9/gwt-src/com/google/common/collect/ImmutableSetMultimap_CustomFieldSerializer.java,0,0,0,0,0,0,0,0,0,0,0,0,0,NO,0,0,0,0,0,0,0,0,0,0,0,0,0,0,0,0,0,0,0,0,0,0,0,0,0,0,0,0,0,0,0,0,0,0,0,0,0,0,0,0,0,0,0,0,0,0,0,0,0,45
guava,v7.0,v8.0,F:/corpus/guava/guava#2010-09-23-03-12-43#v7.0#13bc6c9/gwt-src/com/google/common/collect/ImmutableSet_CustomFieldSerializer.java,F:/corpus/guava/guava#2010-09-23-03-12-43#v7.0#13bc6c9/gwt-src/com/google/common/collect/ImmutableSet_CustomFieldSerializer.java,0,0,0,0,0,0,0,0,0,0,0,0,0,NO,0,0,0,0,0,0,0,0,0,0,0,0,0,0,0,0,0,0,0,0,0,0,0,0,0,0,0,0,0,0,0,0,0,0,0,0,0,0,0,0,0,0,0,0,0,0,0,0,0,26
guava,v7.0,v8.0,F:/corpus/guava/guava#2010-09-23-03-12-43#v7.0#13bc6c9/gwt-src/com/google/common/collect/ImmutableSortedMap_CustomFieldSerializer.java,F:/corpus/guava/guava#2010-09-23-03-12-43#v7.0#13bc6c9/gwt-src/com/google/common/collect/ImmutableSortedMap_CustomFieldSerializer.java,0,0,0,0,0,0,0,0,0,0,0,0,0,NO,0,0,0,0,0,0,0,0,0,0,0,0,0,0,0,0,0,0,0,0,0,0,0,0,0,0,0,0,0,0,0,0,0,0,0,0,0,0,0,0,0,0,0,0,0,0,0,0,0,59
guava,v7.0,v8.0,F:/corpus/guava/guava#2010-09-23-03-12-43#v7.0#13bc6c9/gwt-src/com/google/common/collect/ImmutableSortedSet_CustomFieldSerializer.java,F:/corpus/guava/guava#2010-09-23-03-12-43#v7.0#13bc6c9/gwt-src/com/google/common/collect/ImmutableSortedSet_CustomFieldSerializer.java,0,0,0,0,0,0,0,0,0,0,0,0,0,NO,0,0,0,0,0,0,0,0,0,0,0,0,0,0,0,0,0,0,0,0,0,0,0,0,0,0,0,0,0,0,0,0,0,0,0,0,0,0,0,0,0,0,0,0,0,0,0,0,0,26
guava,v7.0,v8.0,F:/corpus/guava/guava#2010-09-23-03-12-43#v7.0#13bc6c9/gwt-src/com/google/common/collect/LexicographicalOrdering_CustomFieldSerializer.java,F:/corpus/guava/guava#2010-09-23-03-12-43#v7.0#13bc6c9/gwt-src/com/google/common/collect/LexicographicalOrdering_CustomFieldSerializer.java,0,0,0,0,0,0,0,0,0,0,0,0,0,NO,0,0,0,0,0,0,0,0,0,0,0,0,0,0,0,0,0,0,0,0,0,0,0,0,0,0,0,0,0,0,0,0,0,0,0,0,0,0,0,0,0,0,0,0,0,0,0,0,0,45
guava,v7.0,v8.0,F:/corpus/guava/guava#2010-09-23-03-12-43#v7.0#13bc6c9/gwt-src/com/google/common/collect/LinkedHashMultimap_CustomFieldSerializer.java,F:/corpus/guava/guava#2010-09-23-03-12-43#v7.0#13bc6c9/gwt-src/com/google/common/collect/LinkedHashMultimap_CustomFieldSerializer.java,0,0,0,0,0,0,0,0,0,0,0,0,0,NO,0,0,0,0,0,0,0,0,0,0,0,0,0,0,0,0,0,0,0,0,0,0,0,0,0,0,0,0,0,0,0,0,0,0,0,0,0,0,0,0,0,0,0,0,0,0,0,0,0,61
guava,v7.0,v8.0,F:/corpus/guava/guava#2010-09-23-03-12-43#v7.0#13bc6c9/gwt-src/com/google/common/collect/LinkedHashMultiset_CustomFieldSerializer.java,F:/corpus/guava/guava#2010-09-23-03-12-43#v7.0#13bc6c9/gwt-src/com/google/common/collect/LinkedHashMultiset_CustomFieldSerializer.java,0,0,0,0,0,0,0,0,0,0,0,0,0,NO,0,0,0,0,0,0,0,0,0,0,0,0,0,0,0,0,0,0,0,0,0,0,0,0,0,0,0,0,0,0,0,0,0,0,0,0,0,0,0,0,0,0,0,0,0,0,0,0,0,45
guava,v7.0,v8.0,F:/corpus/guava/guava#2010-09-23-03-12-43#v7.0#13bc6c9/gwt-src/com/google/common/collect/LinkedListMultimap_CustomFieldSerializer.java,F:/corpus/guava/guava#2010-09-23-03-12-43#v7.0#13bc6c9/gwt-src/com/google/common/collect/LinkedListMultimap_CustomFieldSerializer.java,0,0,0,0,0,0,0,0,0,0,0,0,0,NO,0,0,0,0,0,0,0,0,0,0,0,0,0,0,0,0,0,0,0,0,0,0,0,0,0,0,0,0,0,0,0,0,0,0,0,0,0,0,0,0,0,0,0,0,0,0,0,0,0,56
guava,v7.0,v8.0,F:/corpus/guava/guava#2010-09-23-03-12-43#v7.0#13bc6c9/gwt-src/com/google/common/collect/Multimap_CustomFieldSerializerBase.java,F:/corpus/guava/guava#2010-09-23-03-12-43#v7.0#13bc6c9/gwt-src/com/google/common/collect/Multimap_CustomFieldSerializerBase.java,0,0,0,0,0,0,0,0,0,0,0,1,0,NO,0,0,0,0,0,0,0,0,0,0,0,0,0,0,0,0,0,0,0,0,0,0,0,0,0,0,0,0,0,0,0,0,0,0,0,0,0,0,0,0,0,0,0,0,0,0,0,0,0,82
guava,v7.0,v8.0,F:/corpus/guava/guava#2010-09-23-03-12-43#v7.0#13bc6c9/gwt-src/com/google/common/collect/Multiset_CustomFieldSerializerBase.java,F:/corpus/guava/guava#2010-09-23-03-12-43#v7.0#13bc6c9/gwt-src/com/google/common/collect/Multiset_CustomFieldSerializerBase.java,0,0,0,0,0,0,0,0,0,0,0,0,0,NO,0,0,0,0,0,0,0,0,0,0,0,0,0,0,0,0,0,0,0,0,0,0,0,0,0,0,0,0,0,0,0,0,0,0,0,0,0,0,0,0,0,0,0,0,0,0,0,0,0,69
guava,v7.0,v8.0,F:/corpus/guava/guava#2010-09-23-03-12-43#v7.0#13bc6c9/gwt-src/com/google/common/collect/NaturalOrdering_CustomFieldSerializer.java,F:/corpus/guava/guava#2010-09-23-03-12-43#v7.0#13bc6c9/gwt-src/com/google/common/collect/NaturalOrdering_CustomFieldSerializer.java,0,0,0,0,1,0,0,0,0,0,0,0,0,NO,0,0,0,0,0,0,0,0,0,0,0,0,0,0,0,0,0,0,0,0,0,0,0,0,0,0,0,0,0,0,0,0,0,0,0,0,0,0,0,0,0,0,0,0,0,0,0,0,0,41
guava,v7.0,v8.0,F:/corpus/guava/guava#2010-09-23-03-12-43#v7.0#13bc6c9/gwt-src/com/google/common/collect/NullsFirstOrdering_CustomFieldSerializer.java,F:/corpus/guava/guava#2010-09-23-03-12-43#v7.0#13bc6c9/gwt-src/com/google/common/collect/NullsFirstOrdering_CustomFieldSerializer.java,0,0,0,0,0,0,0,0,0,0,0,0,0,NO,0,0,0,0,0,0,0,0,0,0,0,0,0,0,0,0,0,0,0,0,0,0,0,0,0,0,0,0,0,0,0,0,0,0,0,0,0,0,0,0,0,0,0,0,0,0,0,0,0,45
guava,v7.0,v8.0,F:/corpus/guava/guava#2010-09-23-03-12-43#v7.0#13bc6c9/gwt-src/com/google/common/collect/NullsLastOrdering_CustomFieldSerializer.java,F:/corpus/guava/guava#2010-09-23-03-12-43#v7.0#13bc6c9/gwt-src/com/google/common/collect/NullsLastOrdering_CustomFieldSerializer.java,0,0,0,0,0,0,0,0,0,0,0,0,0,NO,0,0,0,0,0,0,0,0,0,0,0,0,0,0,0,0,0,0,0,0,0,0,0,0,0,0,0,0,0,0,0,0,0,0,0,0,0,0,0,0,0,0,0,0,0,0,0,0,0,45
guava,v7.0,v8.0,F:/corpus/guava/guava#2010-09-23-03-12-43#v7.0#13bc6c9/gwt-src/com/google/common/collect/RegularImmutableBiMap_CustomFieldSerializer.java,F:/corpus/guava/guava#2010-09-23-03-12-43#v7.0#13bc6c9/gwt-src/com/google/common/collect/RegularImmutableBiMap_CustomFieldSerializer.java,0,0,0,0,0,0,0,0,0,0,0,0,0,NO,0,0,0,0,0,0,0,0,0,0,0,0,0,0,0,0,0,0,0,0,0,0,0,0,0,0,0,0,0,0,0,0,0,0,0,0,0,0,0,0,0,0,0,0,0,0,0,0,0,56
guava,v7.0,v8.0,F:/corpus/guava/guava#2010-09-23-03-12-43#v7.0#13bc6c9/gwt-src/com/google/common/collect/RegularImmutableList_CustomFieldSerializer.java,F:/corpus/guava/guava#2010-09-23-03-12-43#v7.0#13bc6c9/gwt-src/com/google/common/collect/RegularImmutableList_CustomFieldSerializer.java,0,0,0,0,0,0,0,0,0,0,0,0,0,NO,0,0,0,0,0,0,0,0,0,0,0,0,0,0,0,0,0,0,0,0,0,0,0,0,0,0,0,0,0,0,0,0,0,0,0,0,0,0,0,0,0,0,0,0,0,0,0,0,0,56
guava,v7.0,v8.0,F:/corpus/guava/guava#2010-09-23-03-12-43#v7.0#13bc6c9/gwt-src/com/google/common/collect/RegularImmutableMap_CustomFieldSerializer.java,F:/corpus/guava/guava#2010-09-23-03-12-43#v7.0#13bc6c9/gwt-src/com/google/common/collect/RegularImmutableMap_CustomFieldSerializer.java,0,0,0,0,0,0,0,0,0,0,0,0,0,NO,0,0,0,0,0,0,0,0,0,0,0,0,0,0,0,0,0,0,0,0,0,0,0,0,0,0,0,0,0,0,0,0,0,0,0,0,0,0,0,0,0,0,0,0,0,0,0,0,0,55
guava,v7.0,v8.0,F:/corpus/guava/guava#2010-09-23-03-12-43#v7.0#13bc6c9/gwt-src/com/google/common/collect/RegularImmutableSet_CustomFieldSerializer.java,F:/corpus/guava/guava#2010-09-23-03-12-43#v7.0#13bc6c9/gwt-src/com/google/common/collect/RegularImmutableSet_CustomFieldSerializer.java,0,0,0,0,0,0,0,0,0,0,0,0,0,NO,0,0,0,0,0,0,0,0,0,0,0,0,0,0,0,0,0,0,0,0,0,0,0,0,0,0,0,0,0,0,0,0,0,0,0,0,0,0,0,0,0,0,0,0,0,0,0,0,0,54
guava,v7.0,v8.0,F:/corpus/guava/guava#2010-09-23-03-12-43#v7.0#13bc6c9/gwt-src/com/google/common/collect/RegularImmutableSortedSet_CustomFieldSerializer.java,F:/corpus/guava/guava#2010-09-23-03-12-43#v7.0#13bc6c9/gwt-src/com/google/common/collect/RegularImmutableSortedSet_CustomFieldSerializer.java,0,0,0,0,0,0,0,0,0,0,0,0,0,NO,0,0,0,0,0,0,0,0,0,0,0,0,0,0,0,0,0,0,0,0,0,0,0,0,0,0,0,0,0,0,0,0,0,0,0,0,0,0,0,0,0,0,0,0,0,0,0,0,0,66
guava,v7.0,v8.0,F:/corpus/guava/guava#2010-09-23-03-12-43#v7.0#13bc6c9/gwt-src/com/google/common/collect/ReverseNaturalOrdering_CustomFieldSerializer.java,F:/corpus/guava/guava#2010-09-23-03-12-43#v7.0#13bc6c9/gwt-src/com/google/common/collect/ReverseNaturalOrdering_CustomFieldSerializer.java,0,0,0,0,1,0,0,0,0,0,0,0,0,NO,0,0,0,0,0,0,0,0,0,0,0,0,0,0,0,0,0,0,0,0,0,0,0,0,0,0,0,0,0,0,0,0,0,0,0,0,0,0,0,0,0,0,0,0,0,0,0,0,0,42
guava,v7.0,v8.0,F:/corpus/guava/guava#2010-09-23-03-12-43#v7.0#13bc6c9/gwt-src/com/google/common/collect/ReverseOrdering_CustomFieldSerializer.java,F:/corpus/guava/guava#2010-09-23-03-12-43#v7.0#13bc6c9/gwt-src/com/google/common/collect/ReverseOrdering_CustomFieldSerializer.java,0,0,0,0,0,0,0,0,0,0,0,0,0,NO,0,0,0,0,0,0,0,0,0,0,0,0,0,0,0,0,0,0,0,0,0,0,0,0,0,0,0,0,0,0,0,0,0,0,0,0,0,0,0,0,0,0,0,0,0,0,0,0,0,45
guava,v7.0,v8.0,F:/corpus/guava/guava#2010-09-23-03-12-43#v7.0#13bc6c9/gwt-src/com/google/common/collect/SingletonImmutableList_CustomFieldSerializer.java,F:/corpus/guava/guava#2010-09-23-03-12-43#v7.0#13bc6c9/gwt-src/com/google/common/collect/SingletonImmutableList_CustomFieldSerializer.java,0,0,0,0,0,0,0,0,0,0,0,0,0,NO,0,0,0,0,0,0,0,0,0,0,0,0,0,0,0,0,0,0,0,0,0,0,0,0,0,0,0,0,0,0,0,0,0,0,0,0,0,0,0,0,0,0,0,0,0,0,0,0,0,45
guava,v7.0,v8.0,F:/corpus/guava/guava#2010-09-23-03-12-43#v7.0#13bc6c9/gwt-src/com/google/common/collect/SingletonImmutableMap_CustomFieldSerializer.java,F:/corpus/guava/guava#2010-09-23-03-12-43#v7.0#13bc6c9/gwt-src/com/google/common/collect/SingletonImmutableMap_CustomFieldSerializer.java,0,0,0,0,0,0,0,0,0,0,0,0,0,NO,0,0,0,0,0,0,0,0,0,0,0,0,0,0,0,0,0,0,0,0,0,0,0,0,0,0,0,0,0,0,0,0,0,0,0,0,0,0,0,0,0,0,0,0,0,0,0,0,0,48
guava,v7.0,v8.0,F:/corpus/guava/guava#2010-09-23-03-12-43#v7.0#13bc6c9/gwt-src/com/google/common/collect/SingletonImmutableSet_CustomFieldSerializer.java,F:/corpus/guava/guava#2010-09-23-03-12-43#v7.0#13bc6c9/gwt-src/com/google/common/collect/SingletonImmutableSet_CustomFieldSerializer.java,0,0,0,0,0,0,0,0,0,0,0,0,0,NO,0,0,0,0,0,0,0,0,0,0,0,0,0,0,0,0,0,0,0,0,0,0,0,0,0,0,0,0,0,0,0,0,0,0,0,0,0,0,0,0,0,0,0,0,0,0,0,0,0,44
guava,v7.0,v8.0,F:/corpus/guava/guava#2010-09-23-03-12-43#v7.0#13bc6c9/gwt-src/com/google/common/collect/TreeBasedTable_CustomFieldSerializer.java,F:/corpus/guava/guava#2010-09-23-03-12-43#v7.0#13bc6c9/gwt-src/com/google/common/collect/TreeBasedTable_CustomFieldSerializer.java,0,0,0,0,0,0,0,0,0,0,0,0,0,NO,0,0,0,0,0,0,0,0,0,0,0,0,0,0,0,0,0,0,0,0,0,0,0,0,0,0,0,0,0,0,0,0,0,0,0,0,0,0,0,0,0,0,0,0,0,0,0,0,0,69
guava,v7.0,v8.0,F:/corpus/guava/guava#2010-09-23-03-12-43#v7.0#13bc6c9/gwt-src/com/google/common/collect/TreeMultimap_CustomFieldSerializer.java,F:/corpus/guava/guava#2010-09-23-03-12-43#v7.0#13bc6c9/gwt-src/com/google/common/collect/TreeMultimap_CustomFieldSerializer.java,0,0,0,0,0,0,0,0,0,0,0,0,0,NO,0,0,0,0,0,0,0,0,0,0,0,0,0,0,0,0,0,0,0,0,0,0,0,0,0,0,0,0,0,0,0,0,0,0,0,0,0,0,0,0,0,0,0,0,0,0,0,0,0,53
guava,v7.0,v8.0,F:/corpus/guava/guava#2010-09-23-03-12-43#v7.0#13bc6c9/gwt-src/com/google/common/collect/UsingToStringOrdering_CustomFieldSerializer.java,F:/corpus/guava/guava#2010-09-23-03-12-43#v7.0#13bc6c9/gwt-src/com/google/common/collect/UsingToStringOrdering_CustomFieldSerializer.java,0,0,0,0,1,0,0,0,0,0,0,0,0,NO,0,0,0,0,0,0,0,0,0,0,0,0,0,0,0,0,0,0,0,0,0,0,0,0,0,0,0,0,0,0,0,0,0,0,0,0,0,0,0,0,0,0,0,0,0,0,0,0,0,41
guava,v7.0,v8.0,F:/corpus/guava/guava#2010-09-23-03-12-43#v7.0#13bc6c9/gwt-super/com/google/common/base/super/com/google/common/base/Platform.java,F:/corpus/guava/guava#2010-09-23-03-12-43#v7.0#13bc6c9/gwt-super/com/google/common/base/super/com/google/common/base/Platform.java,0,0,0,0,1,0,0,0,0,0,0,0,0,NO,0,0,0,0,0,0,0,0,0,0,0,0,0,0,0,0,0,0,0,0,0,0,0,0,0,0,0,0,0,0,0,0,0,0,0,0,0,0,0,0,0,0,0,0,0,0,0,0,0,54
guava,v7.0,v8.0,F:/corpus/guava/guava#2010-09-23-03-12-43#v7.0#13bc6c9/gwt-super/com/google/common/collect/super/com/google/common/collect/AbstractBiMap.java,F:/corpus/guava/guava#2010-09-23-03-12-43#v7.0#13bc6c9/gwt-super/com/google/common/collect/super/com/google/common/collect/AbstractBiMap.java,0,0,0,0,1,0,0,0,0,0,0,0,0,NO,0,0,0,0,0,0,0,0,0,0,0,0,0,0,0,0,0,0,0,0,0,0,0,0,0,0,0,0,0,0,0,0,0,0,0,0,0,0,0,0,0,0,0,0,0,0,0,0,0,370
guava,v7.0,v8.0,F:/corpus/guava/guava#2010-09-23-03-12-43#v7.0#13bc6c9/gwt-super/com/google/common/collect/super/com/google/common/collect/AbstractMapBasedMultiset.java,F:/corpus/guava/guava#2010-09-23-03-12-43#v7.0#13bc6c9/gwt-super/com/google/common/collect/super/com/google/common/collect/AbstractMapBasedMultiset.java,0,0,0,0,1,5,0,0,0,0,0,0,0,NO,0,0,0,0,0,0,0,0,0,0,0,0,0,0,0,0,0,0,0,0,0,0,0,0,0,0,0,0,0,0,0,0,0,0,0,0,0,0,0,0,0,0,0,0,0,0,0,0,0,411
guava,v7.0,v8.0,F:/corpus/guava/guava#2010-09-23-03-12-43#v7.0#13bc6c9/gwt-super/com/google/common/collect/super/com/google/common/collect/ArrayListMultimap.java,F:/corpus/guava/guava#2010-09-23-03-12-43#v7.0#13bc6c9/gwt-super/com/google/common/collect/super/com/google/common/collect/ArrayListMultimap.java,0,0,0,0,0,0,0,0,0,0,0,0,0,NO,0,0,0,0,0,0,0,0,0,0,0,0,0,0,0,0,0,0,0,0,0,0,0,0,0,0,0,0,0,0,0,0,0,0,0,0,0,0,0,0,0,0,0,0,0,0,0,0,0,134
guava,v7.0,v8.0,F:/corpus/guava/guava#2010-09-23-03-12-43#v7.0#13bc6c9/gwt-super/com/google/common/collect/super/com/google/common/collect/EmptyImmutableList.java,F:/corpus/guava/guava#2010-09-23-03-12-43#v7.0#13bc6c9/gwt-super/com/google/common/collect/super/com/google/common/collect/EmptyImmutableList.java,0,0,0,0,0,0,0,0,0,0,0,0,0,NO,0,0,0,0,0,0,0,0,0,0,0,0,0,0,0,0,0,0,0,0,0,0,0,0,0,0,0,0,0,0,0,0,0,0,0,0,0,0,0,0,0,0,0,0,0,0,0,0,0,26
guava,v7.0,v8.0,F:/corpus/guava/guava#2010-09-23-03-12-43#v7.0#13bc6c9/gwt-super/com/google/common/collect/super/com/google/common/collect/EmptyImmutableMap.java,F:/corpus/guava/guava#2010-09-23-03-12-43#v7.0#13bc6c9/gwt-super/com/google/common/collect/super/com/google/common/collect/EmptyImmutableMap.java,0,0,0,0,0,0,0,0,0,0,0,0,0,NO,0,0,0,0,0,0,0,0,0,0,0,0,0,0,0,0,0,0,0,0,0,0,0,0,0,0,0,0,0,0,0,0,0,0,0,0,0,0,0,0,0,0,0,0,0,0,0,0,0,28
guava,v7.0,v8.0,F:/corpus/guava/guava#2010-09-23-03-12-43#v7.0#13bc6c9/gwt-super/com/google/common/collect/super/com/google/common/collect/EmptyImmutableSet.java,F:/corpus/guava/guava#2010-09-23-03-12-43#v7.0#13bc6c9/gwt-super/com/google/common/collect/super/com/google/common/collect/EmptyImmutableSet.java,0,0,0,0,0,0,0,0,0,0,0,0,0,NO,0,0,0,0,0,0,0,0,0,0,0,0,0,0,0,0,0,0,0,0,0,0,0,0,0,0,0,0,0,0,0,0,0,0,0,0,0,0,0,0,0,0,0,0,0,0,0,0,0,27
guava,v7.0,v8.0,F:/corpus/guava/guava#2010-09-23-03-12-43#v7.0#13bc6c9/gwt-super/com/google/common/collect/super/com/google/common/collect/EmptyImmutableSortedSet.java,F:/corpus/guava/guava#2010-09-23-03-12-43#v7.0#13bc6c9/gwt-super/com/google/common/collect/super/com/google/common/collect/EmptyImmutableSortedSet.java,0,0,0,0,0,0,0,0,0,0,0,0,0,NO,0,0,0,0,0,0,0,0,0,0,0,0,0,0,0,0,0,0,0,0,0,0,0,0,0,0,0,0,0,0,0,0,0,0,0,0,0,0,0,0,0,0,0,0,0,0,0,0,0,30
guava,v7.0,v8.0,F:/corpus/guava/guava#2010-09-23-03-12-43#v7.0#13bc6c9/gwt-super/com/google/common/collect/super/com/google/common/collect/EnumBiMap.java,F:/corpus/guava/guava#2010-09-23-03-12-43#v7.0#13bc6c9/gwt-super/com/google/common/collect/super/com/google/common/collect/EnumBiMap.java,0,0,0,0,0,0,0,0,0,0,0,0,0,NO,0,0,0,0,0,0,0,0,0,0,0,0,0,0,0,0,0,0,0,0,0,0,0,0,0,0,0,0,0,0,0,0,0,0,0,0,0,0,0,0,0,0,0,0,0,0,0,0,0,104
guava,v7.0,v8.0,F:/corpus/guava/guava#2010-09-23-03-12-43#v7.0#13bc6c9/gwt-super/com/google/common/collect/super/com/google/common/collect/EnumHashBiMap.java,F:/corpus/guava/guava#2010-09-23-03-12-43#v7.0#13bc6c9/gwt-super/com/google/common/collect/super/com/google/common/collect/EnumHashBiMap.java,0,0,0,0,0,0,0,0,0,0,0,0,0,NO,0,0,0,0,0,0,0,0,0,0,0,0,0,0,0,0,0,0,0,0,0,0,0,0,0,0,0,0,0,0,0,0,0,0,0,0,0,0,0,0,0,0,0,0,0,0,0,0,0,88
guava,v7.0,v8.0,F:/corpus/guava/guava#2010-09-23-03-12-43#v7.0#13bc6c9/gwt-super/com/google/common/collect/super/com/google/common/collect/EnumMultiset.java,F:/corpus/guava/guava#2010-09-23-03-12-43#v7.0#13bc6c9/gwt-super/com/google/common/collect/super/com/google/common/collect/EnumMultiset.java,0,0,0,0,0,0,0,0,0,0,0,0,0,NO,0,0,0,0,0,0,0,0,0,0,0,0,0,0,0,0,0,0,0,0,0,0,0,0,0,0,0,0,0,0,0,0,0,0,0,0,0,0,0,0,0,0,0,0,0,0,0,0,0,66
guava,v7.0,v8.0,F:/corpus/guava/guava#2010-09-23-03-12-43#v7.0#13bc6c9/gwt-super/com/google/common/collect/super/com/google/common/collect/ExplicitOrderedImmutableSortedSet.java,F:/corpus/guava/guava#2010-09-23-03-12-43#v7.0#13bc6c9/gwt-super/com/google/common/collect/super/com/google/common/collect/ExplicitOrderedImmutableSortedSet.java,0,0,0,0,0,0,0,0,0,0,0,0,0,NO,0,0,0,0,0,0,0,0,0,0,0,0,0,0,0,0,0,0,0,0,0,0,0,0,0,0,0,0,0,0,0,0,0,0,0,0,0,0,0,0,0,0,0,0,0,0,0,0,0,31
guava,v7.0,v8.0,F:/corpus/guava/guava#2010-09-23-03-12-43#v7.0#13bc6c9/gwt-super/com/google/common/collect/super/com/google/common/collect/ForwardingImmutableCollection.java,F:/corpus/guava/guava#2010-09-23-03-12-43#v7.0#13bc6c9/gwt-super/com/google/common/collect/super/com/google/common/collect/ForwardingImmutableCollection.java,0,0,0,0,0,0,0,0,0,0,0,2,0,NO,0,0,0,0,0,0,0,0,0,0,0,0,0,0,0,0,0,0,0,0,0,0,0,0,0,0,0,0,0,0,0,0,0,0,0,0,0,0,0,0,0,0,0,0,0,0,0,0,0,69
guava,v7.0,v8.0,F:/corpus/guava/guava#2010-09-23-03-12-43#v7.0#13bc6c9/gwt-super/com/google/common/collect/super/com/google/common/collect/GwtPlatform.java,F:/corpus/guava/guava#2010-09-23-03-12-43#v7.0#13bc6c9/gwt-super/com/google/common/collect/super/com/google/common/collect/GwtPlatform.java,0,0,0,0,0,0,0,0,0,0,0,0,0,NO,0,0,0,0,0,0,0,0,0,0,0,0,0,0,0,0,0,0,0,0,0,0,0,0,0,0,0,0,0,0,0,0,0,0,0,0,0,0,0,0,0,0,0,0,0,0,0,0,0,44
guava,v7.0,v8.0,F:/corpus/guava/guava#2010-09-23-03-12-43#v7.0#13bc6c9/gwt-super/com/google/common/collect/super/com/google/common/collect/HashBiMap.java,F:/corpus/guava/guava#2010-09-23-03-12-43#v7.0#13bc6c9/gwt-super/com/google/common/collect/super/com/google/common/collect/HashBiMap.java,0,0,0,0,0,0,0,0,0,0,0,0,0,NO,0,0,0,0,0,0,0,0,0,0,0,0,0,0,0,0,0,0,0,0,0,0,0,0,0,0,0,0,0,0,0,0,0,0,0,0,0,0,0,0,0,0,0,0,0,0,0,0,0,87
guava,v7.0,v8.0,F:/corpus/guava/guava#2010-09-23-03-12-43#v7.0#13bc6c9/gwt-super/com/google/common/collect/super/com/google/common/collect/HashMultimap.java,F:/corpus/guava/guava#2010-09-23-03-12-43#v7.0#13bc6c9/gwt-super/com/google/common/collect/super/com/google/common/collect/HashMultimap.java,0,0,0,0,0,0,0,0,0,0,0,0,0,NO,0,0,0,0,0,0,0,0,0,0,0,0,0,0,0,0,0,0,0,0,0,0,0,0,0,0,0,0,0,0,0,0,0,0,0,0,0,0,0,0,0,0,0,0,0,0,0,0,0,112
guava,v7.0,v8.0,F:/corpus/guava/guava#2010-09-23-03-12-43#v7.0#13bc6c9/gwt-super/com/google/common/collect/super/com/google/common/collect/HashMultiset.java,F:/corpus/guava/guava#2010-09-23-03-12-43#v7.0#13bc6c9/gwt-super/com/google/common/collect/super/com/google/common/collect/HashMultiset.java,0,0,0,0,0,0,0,0,0,0,0,0,0,NO,0,0,0,0,0,0,0,0,0,0,0,0,0,0,0,0,0,0,0,0,0,0,0,0,0,0,0,0,0,0,0,0,0,0,0,0,0,0,0,0,0,0,0,0,0,0,0,0,0,73
guava,v7.0,v8.0,F:/corpus/guava/guava#2010-09-23-03-12-43#v7.0#13bc6c9/gwt-super/com/google/common/collect/super/com/google/common/collect/ImmutableBiMap.java,F:/corpus/guava/guava#2010-09-23-03-12-43#v7.0#13bc6c9/gwt-super/com/google/common/collect/super/com/google/common/collect/ImmutableBiMap.java,0,0,0,0,2,0,0,0,0,0,2,0,0,NO,0,0,0,0,0,0,0,0,0,0,0,0,0,0,0,0,0,0,0,0,0,0,0,0,0,0,0,0,0,0,0,0,0,0,0,0,0,0,0,0,0,0,0,0,0,0,0,0,0,131
guava,v7.0,v8.0,F:/corpus/guava/guava#2010-09-23-03-12-43#v7.0#13bc6c9/gwt-super/com/google/common/collect/super/com/google/common/collect/ImmutableEnumSet.java,F:/corpus/guava/guava#2010-09-23-03-12-43#v7.0#13bc6c9/gwt-super/com/google/common/collect/super/com/google/common/collect/ImmutableEnumSet.java,0,0,0,0,0,0,0,0,0,0,0,0,0,NO,0,0,0,0,0,0,0,0,0,0,0,0,0,0,0,0,0,0,0,0,0,0,0,0,0,0,0,0,0,0,0,0,0,0,0,0,0,0,0,0,0,0,0,0,0,0,0,0,0,31
guava,v7.0,v8.0,F:/corpus/guava/guava#2010-09-23-03-12-43#v7.0#13bc6c9/gwt-super/com/google/common/collect/super/com/google/common/collect/ImmutableList.java,F:/corpus/guava/guava#2010-09-23-03-12-43#v7.0#13bc6c9/gwt-super/com/google/common/collect/super/com/google/common/collect/ImmutableList.java,0,0,0,0,5,0,0,0,0,0,5,0,0,NO,0,0,0,0,0,0,0,0,0,0,0,0,0,0,0,0,0,0,0,0,0,0,0,0,0,0,0,0,0,0,0,0,0,0,0,0,0,0,0,0,0,0,0,0,0,0,0,0,0,318
guava,v7.0,v8.0,F:/corpus/guava/guava#2010-09-23-03-12-43#v7.0#13bc6c9/gwt-super/com/google/common/collect/super/com/google/common/collect/ImmutableMap.java,F:/corpus/guava/guava#2010-09-23-03-12-43#v7.0#13bc6c9/gwt-super/com/google/common/collect/super/com/google/common/collect/ImmutableMap.java,0,0,0,0,4,0,0,0,0,0,2,4,0,NO,0,0,0,0,0,0,0,0,0,0,0,0,0,0,0,0,0,0,0,0,0,0,0,0,0,0,0,0,0,0,0,0,0,0,0,0,0,0,0,0,0,0,0,0,0,0,0,0,0,278
guava,v7.0,v8.0,F:/corpus/guava/guava#2010-09-23-03-12-43#v7.0#13bc6c9/gwt-super/com/google/common/collect/super/com/google/common/collect/ImmutableSet.java,F:/corpus/guava/guava#2010-09-23-03-12-43#v7.0#13bc6c9/gwt-super/com/google/common/collect/super/com/google/common/collect/ImmutableSet.java,0,0,0,0,1,0,0,0,0,0,0,0,0,NO,0,0,0,0,0,0,0,0,0,0,0,0,0,0,0,0,0,0,0,0,0,0,0,0,0,0,0,0,0,0,0,0,0,0,0,0,0,0,0,0,0,0,0,0,0,0,0,0,0,219
guava,v7.0,v8.0,F:/corpus/guava/guava#2010-09-23-03-12-43#v7.0#13bc6c9/gwt-super/com/google/common/collect/super/com/google/common/collect/ImmutableSortedMap.java,F:/corpus/guava/guava#2010-09-23-03-12-43#v7.0#13bc6c9/gwt-super/com/google/common/collect/super/com/google/common/collect/ImmutableSortedMap.java,0,0,0,0,0,0,0,0,0,0,2,0,0,NO,0,0,0,0,0,0,0,0,0,0,0,0,0,0,0,0,0,0,0,0,0,0,0,0,0,0,0,0,0,0,0,0,0,0,0,0,0,0,0,0,0,0,0,0,0,0,0,0,0,264
guava,v7.0,v8.0,F:/corpus/guava/guava#2010-09-23-03-12-43#v7.0#13bc6c9/gwt-super/com/google/common/collect/super/com/google/common/collect/ImmutableSortedSet.java,F:/corpus/guava/guava#2010-09-23-03-12-43#v7.0#13bc6c9/gwt-super/com/google/common/collect/super/com/google/common/collect/ImmutableSortedSet.java,0,0,0,0,1,0,0,0,0,0,0,0,0,NO,0,0,0,0,0,0,0,0,0,0,0,0,0,0,0,0,0,0,0,0,0,0,0,0,0,0,0,0,0,0,0,0,0,0,0,0,0,0,0,0,0,0,0,0,0,0,0,0,0,359
guava,v7.0,v8.0,F:/corpus/guava/guava#2010-09-23-03-12-43#v7.0#13bc6c9/gwt-super/com/google/common/collect/super/com/google/common/collect/LinkedHashMultiset.java,F:/corpus/guava/guava#2010-09-23-03-12-43#v7.0#13bc6c9/gwt-super/com/google/common/collect/super/com/google/common/collect/LinkedHashMultiset.java,0,0,0,0,0,0,0,0,0,0,0,0,0,NO,0,0,0,0,0,0,0,0,0,0,0,0,0,0,0,0,0,0,0,0,0,0,0,0,0,0,0,0,0,0,0,0,0,0,0,0,0,0,0,0,0,0,0,0,0,0,0,0,0,81
guava,v7.0,v8.0,F:/corpus/guava/guava#2010-09-23-03-12-43#v7.0#13bc6c9/gwt-super/com/google/common/collect/super/com/google/common/collect/LinkedListMultimap.java,F:/corpus/guava/guava#2010-09-23-03-12-43#v7.0#13bc6c9/gwt-super/com/google/common/collect/super/com/google/common/collect/LinkedListMultimap.java,0,0,1,0,1,0,0,0,0,0,0,0,0,NO,0,0,0,0,0,0,0,0,0,0,0,0,0,0,0,0,0,0,0,0,0,0,0,0,0,0,0,0,0,0,0,0,0,0,0,0,0,0,0,0,0,0,0,0,0,0,0,0,0,923
guava,v7.0,v8.0,F:/corpus/guava/guava#2010-09-23-03-12-43#v7.0#13bc6c9/gwt-super/com/google/common/collect/super/com/google/common/collect/ObjectArrays.java,F:/corpus/guava/guava#2010-09-23-03-12-43#v7.0#13bc6c9/gwt-super/com/google/common/collect/super/com/google/common/collect/ObjectArrays.java,0,0,0,0,0,0,0,0,0,0,0,0,0,NO,0,0,0,0,0,0,0,0,0,0,0,0,0,0,0,0,0,0,0,0,0,0,0,0,0,0,0,0,0,0,0,0,0,0,0,0,0,0,0,0,0,0,0,0,0,0,0,0,0,156
guava,v7.0,v8.0,F:/corpus/guava/guava#2010-09-23-03-12-43#v7.0#13bc6c9/gwt-super/com/google/common/collect/super/com/google/common/collect/Platform.java,F:/corpus/guava/guava#2010-09-23-03-12-43#v7.0#13bc6c9/gwt-super/com/google/common/collect/super/com/google/common/collect/Platform.java,0,0,0,0,1,0,0,0,0,0,0,0,0,NO,0,0,0,0,0,0,0,0,0,0,0,0,0,0,0,0,0,0,0,0,0,0,0,0,0,0,0,0,0,0,0,0,0,0,0,0,0,0,0,0,0,0,0,0,0,0,0,0,0,58
guava,v7.0,v8.0,F:/corpus/guava/guava#2010-09-23-03-12-43#v7.0#13bc6c9/gwt-super/com/google/common/collect/super/com/google/common/collect/RegularImmutableBiMap.java,F:/corpus/guava/guava#2010-09-23-03-12-43#v7.0#13bc6c9/gwt-super/com/google/common/collect/super/com/google/common/collect/RegularImmutableBiMap.java,0,0,0,0,0,0,0,0,0,0,0,0,0,NO,0,0,0,0,0,0,0,0,0,0,0,0,0,0,0,0,0,0,0,0,0,0,0,0,0,0,0,0,0,0,0,0,0,0,0,0,0,0,0,0,0,0,0,0,0,0,0,0,0,52
guava,v7.0,v8.0,F:/corpus/guava/guava#2010-09-23-03-12-43#v7.0#13bc6c9/gwt-super/com/google/common/collect/super/com/google/common/collect/RegularImmutableMap.java,F:/corpus/guava/guava#2010-09-23-03-12-43#v7.0#13bc6c9/gwt-super/com/google/common/collect/super/com/google/common/collect/RegularImmutableMap.java,0,0,0,0,0,0,0,0,0,0,0,0,0,NO,0,0,0,0,0,0,0,0,0,0,0,0,0,0,0,0,0,0,0,0,0,0,0,0,0,0,0,0,0,0,0,0,0,0,0,0,0,0,0,0,0,0,0,0,0,0,0,0,0,35
guava,v7.0,v8.0,F:/corpus/guava/guava#2010-09-23-03-12-43#v7.0#13bc6c9/gwt-super/com/google/common/collect/super/com/google/common/collect/RegularImmutableSet.java,F:/corpus/guava/guava#2010-09-23-03-12-43#v7.0#13bc6c9/gwt-super/com/google/common/collect/super/com/google/common/collect/RegularImmutableSet.java,0,0,0,0,0,0,0,0,0,0,0,0,0,NO,0,0,0,0,0,0,0,0,0,0,0,0,0,0,0,0,0,0,0,0,0,0,0,0,0,0,0,0,0,0,0,0,0,0,0,0,0,0,0,0,0,0,0,0,0,0,0,0,0,30
guava,v7.0,v8.0,F:/corpus/guava/guava#2010-09-23-03-12-43#v7.0#13bc6c9/gwt-super/com/google/common/collect/super/com/google/common/collect/RegularImmutableSortedSet.java,F:/corpus/guava/guava#2010-09-23-03-12-43#v7.0#13bc6c9/gwt-super/com/google/common/collect/super/com/google/common/collect/RegularImmutableSortedSet.java,0,0,0,0,0,0,0,0,0,0,0,0,0,NO,0,0,0,0,0,0,0,0,0,0,0,0,0,0,0,0,0,0,0,0,0,0,0,0,0,0,0,0,0,0,0,0,0,0,0,0,0,0,0,0,0,0,0,0,0,0,0,0,0,35
guava,v7.0,v8.0,F:/corpus/guava/guava#2010-09-23-03-12-43#v7.0#13bc6c9/gwt-super/com/google/common/collect/super/com/google/common/collect/SingletonImmutableList.java,F:/corpus/guava/guava#2010-09-23-03-12-43#v7.0#13bc6c9/gwt-super/com/google/common/collect/super/com/google/common/collect/SingletonImmutableList.java,0,0,0,0,0,0,0,0,0,0,0,0,0,NO,0,0,0,0,0,0,0,0,0,0,0,0,0,0,0,0,0,0,0,0,0,0,0,0,0,0,0,0,0,0,0,0,0,0,0,0,0,0,0,0,0,0,0,0,0,0,0,0,0,39
guava,v7.0,v8.0,F:/corpus/guava/guava#2010-09-23-03-12-43#v7.0#13bc6c9/gwt-super/com/google/common/collect/super/com/google/common/collect/SingletonImmutableMap.java,F:/corpus/guava/guava#2010-09-23-03-12-43#v7.0#13bc6c9/gwt-super/com/google/common/collect/super/com/google/common/collect/SingletonImmutableMap.java,0,0,0,0,0,0,0,0,0,0,0,0,0,NO,0,0,0,0,0,0,0,0,0,0,0,0,0,0,0,0,0,0,0,0,0,0,0,0,0,0,0,0,0,0,0,0,0,0,0,0,0,0,0,0,0,0,0,0,0,0,0,0,0,44
guava,v7.0,v8.0,F:/corpus/guava/guava#2010-09-23-03-12-43#v7.0#13bc6c9/gwt-super/com/google/common/collect/super/com/google/common/collect/SingletonImmutableSet.java,F:/corpus/guava/guava#2010-09-23-03-12-43#v7.0#13bc6c9/gwt-super/com/google/common/collect/super/com/google/common/collect/SingletonImmutableSet.java,0,0,0,0,0,0,0,0,0,0,0,0,0,NO,0,0,0,0,0,0,0,0,0,0,0,0,0,0,0,0,0,0,0,0,0,0,0,0,0,0,0,0,0,0,0,0,0,0,0,0,0,0,0,0,0,0,0,0,0,0,0,0,0,41
guava,v7.0,v8.0,F:/corpus/guava/guava#2010-09-23-03-12-43#v7.0#13bc6c9/gwt-super/com/google/common/collect/super/com/google/common/collect/Synchronized.java,F:/corpus/guava/guava#2010-09-23-03-12-43#v7.0#13bc6c9/gwt-super/com/google/common/collect/super/com/google/common/collect/Synchronized.java,0,1,0,0,0,0,0,0,0,0,0,0,0,NO,0,0,0,0,0,0,0,0,0,0,0,0,0,0,0,0,0,0,0,0,0,0,0,0,0,0,0,0,0,0,0,0,0,0,0,0,0,0,0,0,0,0,0,0,0,0,0,0,0,1114
guava,v7.0,v8.0,F:/corpus/guava/guava#2010-09-23-03-12-43#v7.0#13bc6c9/gwt-super/com/google/common/collect/super/com/google/common/collect/TreeMultimap.java,F:/corpus/guava/guava#2010-09-23-03-12-43#v7.0#13bc6c9/gwt-super/com/google/common/collect/super/com/google/common/collect/TreeMultimap.java,0,0,0,0,0,0,0,0,0,0,0,0,0,NO,0,0,0,0,0,0,0,0,0,0,0,0,0,0,0,0,0,0,0,0,0,0,0,0,0,0,0,0,0,0,0,0,0,0,0,0,0,0,0,0,0,0,0,0,0,0,0,0,0,168
guava,v7.0,v8.0,F:/corpus/guava/guava#2010-09-23-03-12-43#v7.0#13bc6c9/gwt-super/com/google/common/collect/super/com/google/common/collect/TreeMultiset.java,F:/corpus/guava/guava#2010-09-23-03-12-43#v7.0#13bc6c9/gwt-super/com/google/common/collect/super/com/google/common/collect/TreeMultiset.java,0,0,0,0,0,0,0,0,0,0,0,0,0,NO,0,0,0,0,0,0,0,0,0,0,0,0,0,0,0,0,0,0,0,0,0,0,0,0,0,0,0,0,0,0,0,0,0,0,0,0,0,0,0,0,0,0,0,0,0,0,0,0,0,190
guava,v7.0,v8.0,F:/corpus/guava/guava#2010-09-23-03-12-43#v7.0#13bc6c9/gwt-super/java/util/super/java/util/concurrent/atomic/AtomicInteger.java,F:/corpus/guava/guava#2010-09-23-03-12-43#v7.0#13bc6c9/gwt-super/java/util/super/java/util/concurrent/atomic/AtomicInteger.java,0,0,0,0,0,0,0,0,0,0,0,0,0,NO,0,0,0,0,0,0,0,0,0,0,0,0,0,0,0,0,0,0,0,0,0,0,0,0,0,0,0,0,0,0,0,0,0,0,0,0,0,0,0,0,0,0,0,0,0,0,0,0,0,109
guava,v7.0,v8.0,F:/corpus/guava/guava#2010-09-23-03-12-43#v7.0#13bc6c9/gwt-super/java/util/super/java/util/concurrent/ConcurrentHashMap.java,F:/corpus/guava/guava#2010-09-23-03-12-43#v7.0#13bc6c9/gwt-super/java/util/super/java/util/concurrent/ConcurrentHashMap.java,0,0,0,0,0,0,0,0,0,0,0,0,0,NO,0,0,0,0,0,0,0,0,0,0,0,0,0,0,0,0,0,0,0,0,0,0,0,0,0,0,0,0,0,0,0,0,0,0,0,0,0,0,0,0,0,0,0,0,0,0,0,0,0,144
guava,v7.0,v8.0,F:/corpus/guava/guava#2010-09-23-03-12-43#v7.0#13bc6c9/gwt-super/java/util/super/java/util/concurrent/ConcurrentMap.java,F:/corpus/guava/guava#2010-09-23-03-12-43#v7.0#13bc6c9/gwt-super/java/util/super/java/util/concurrent/ConcurrentMap.java,0,0,0,0,1,0,0,0,0,0,0,0,0,NO,0,0,0,0,0,0,0,0,0,0,0,0,0,0,0,0,0,0,0,0,0,0,0,0,0,0,0,0,0,0,0,0,0,0,0,0,0,0,0,0,0,0,0,0,0,0,0,0,0,35
guava,v7.0,v8.0,F:/corpus/guava/guava#2010-09-23-03-12-43#v7.0#13bc6c9/gwt-super/java/util/super/java/util/concurrent/TimeUnit.java,F:/corpus/guava/guava#2010-09-23-03-12-43#v7.0#13bc6c9/gwt-super/java/util/super/java/util/concurrent/TimeUnit.java,0,0,0,0,0,0,0,0,0,0,0,0,0,NO,0,0,0,0,0,0,0,0,0,0,0,0,0,0,0,0,0,0,0,0,0,0,0,0,0,0,0,0,0,0,0,0,0,0,0,0,0,0,0,0,0,0,0,0,0,0,0,0,0,141
guava,v7.0,v8.0,F:/corpus/guava/guava#2010-09-23-03-12-43#v7.0#13bc6c9/gwt-test/com/google/common/base/TestModuleEntryPoint.java,F:/corpus/guava/guava#2010-09-23-03-12-43#v7.0#13bc6c9/gwt-test/com/google/common/base/TestModuleEntryPoint.java,0,0,0,0,0,0,0,0,0,0,0,0,0,NO,0,0,0,0,0,0,0,0,0,0,0,0,0,0,0,0,0,0,0,0,0,0,0,0,0,0,0,0,0,0,0,0,0,0,0,0,0,0,0,0,0,0,0,0,0,0,0,0,0,51
guava,v7.0,v8.0,F:/corpus/guava/guava#2010-09-23-03-12-43#v7.0#13bc6c9/gwt-test/com/google/common/net/TestModuleEntryPoint.java,F:/corpus/guava/guava#2010-09-23-03-12-43#v7.0#13bc6c9/gwt-test/com/google/common/net/TestModuleEntryPoint.java,0,0,0,0,0,0,0,0,0,0,0,0,0,NO,0,0,0,0,0,0,0,0,0,0,0,0,0,0,0,0,0,0,0,0,0,0,0,0,0,0,0,0,0,0,0,0,0,0,0,0,0,0,0,0,0,0,0,0,0,0,0,0,0,36
guava,v7.0,v8.0,F:/corpus/guava/guava#2010-09-23-03-12-43#v7.0#13bc6c9/gwt-test/com/google/common/primitives/TestModuleEntryPoint.java,F:/corpus/guava/guava#2010-09-23-03-12-43#v7.0#13bc6c9/gwt-test/com/google/common/primitives/TestModuleEntryPoint.java,0,0,0,0,0,0,0,0,0,0,0,0,0,NO,0,0,0,0,0,0,0,0,0,0,0,0,0,0,0,0,0,0,0,0,0,0,0,0,0,0,0,0,0,0,0,0,0,0,0,0,0,0,0,0,0,0,0,0,0,0,0,0,0,43
guava,v7.0,v8.0,F:/corpus/guava/guava#2010-09-23-03-12-43#v7.0#13bc6c9/src/com/google/common/annotations/Beta.java,F:/corpus/guava/guava#2010-09-23-03-12-43#v7.0#13bc6c9/src/com/google/common/annotations/Beta.java,0,0,0,0,0,0,0,0,0,0,0,0,0,NO,0,0,0,0,0,0,0,0,0,0,0,0,0,0,0,0,0,0,0,0,0,0,0,0,0,0,0,0,0,0,0,0,0,0,0,0,0,0,0,0,0,0,0,0,0,0,0,0,0,44
guava,v7.0,v8.0,F:/corpus/guava/guava#2010-09-23-03-12-43#v7.0#13bc6c9/src/com/google/common/annotations/GwtCompatible.java,F:/corpus/guava/guava#2010-09-23-03-12-43#v7.0#13bc6c9/src/com/google/common/annotations/GwtCompatible.java,0,0,0,0,0,0,0,0,0,0,0,0,0,NO,0,0,0,0,0,0,0,0,0,0,0,0,0,0,0,0,0,0,0,0,0,0,0,0,0,0,0,0,0,0,0,0,0,0,0,0,0,0,0,0,0,0,0,0,0,0,0,0,0,88
guava,v7.0,v8.0,F:/corpus/guava/guava#2010-09-23-03-12-43#v7.0#13bc6c9/src/com/google/common/annotations/GwtIncompatible.java,F:/corpus/guava/guava#2010-09-23-03-12-43#v7.0#13bc6c9/src/com/google/common/annotations/GwtIncompatible.java,0,0,0,0,0,0,0,0,0,0,0,0,0,NO,0,0,0,0,0,0,0,0,0,0,0,0,0,0,0,0,0,0,0,0,0,0,0,0,0,0,0,0,0,0,0,0,0,0,0,0,0,0,0,0,0,0,0,0,0,0,0,0,0,52
guava,v7.0,v8.0,F:/corpus/guava/guava#2010-09-23-03-12-43#v7.0#13bc6c9/src/com/google/common/annotations/package-info.java,F:/corpus/guava/guava#2010-09-23-03-12-43#v7.0#13bc6c9/src/com/google/common/annotations/package-info.java,0,0,0,0,0,0,0,0,0,0,0,0,0,NO,0,0,0,0,0,0,0,0,0,0,0,0,0,0,0,0,0,0,0,0,0,0,0,0,0,0,0,0,0,0,0,0,0,0,0,0,0,0,0,0,0,0,0,0,0,0,0,0,0,21
guava,v7.0,v8.0,F:/corpus/guava/guava#2010-09-23-03-12-43#v7.0#13bc6c9/src/com/google/common/annotations/VisibleForTesting.java,F:/corpus/guava/guava#2010-09-23-03-12-43#v7.0#13bc6c9/src/com/google/common/annotations/VisibleForTesting.java,0,0,0,0,0,0,0,0,0,0,0,0,0,NO,0,0,0,0,0,0,0,0,0,0,0,0,0,0,0,0,0,0,0,0,0,0,0,0,0,0,0,0,0,0,0,0,0,0,0,0,0,0,0,0,0,0,0,0,0,0,0,0,0,27
guava,v7.0,v8.0,F:/corpus/guava/guava#2010-09-23-03-12-43#v7.0#13bc6c9/src/com/google/common/base/CaseFormat.java,F:/corpus/guava/guava#2010-09-23-03-12-43#v7.0#13bc6c9/src/com/google/common/base/CaseFormat.java,0,0,0,0,0,0,0,0,0,0,0,0,0,NO,0,0,0,0,0,0,0,0,0,0,0,0,0,0,0,0,0,0,0,0,0,0,0,0,0,0,0,0,0,0,0,0,0,0,0,0,0,0,0,0,0,0,0,0,0,0,0,0,0,162
guava,v7.0,v8.0,F:/corpus/guava/guava#2010-09-23-03-12-43#v7.0#13bc6c9/src/com/google/common/base/Charsets.java,F:/corpus/guava/guava#2010-09-23-03-12-43#v7.0#13bc6c9/src/com/google/common/base/Charsets.java,1,0,0,0,0,0,0,0,0,0,0,0,0,NO,0,0,0,0,0,0,0,0,0,0,0,0,0,0,0,0,0,0,0,0,0,0,0,0,0,0,0,0,0,0,0,0,0,0,0,0,0,0,0,0,0,0,0,0,0,0,0,0,0,67
guava,v7.0,v8.0,F:/corpus/guava/guava#2010-09-23-03-12-43#v7.0#13bc6c9/src/com/google/common/base/Defaults.java,F:/corpus/guava/guava#2010-09-23-03-12-43#v7.0#13bc6c9/src/com/google/common/base/Defaults.java,0,0,0,0,0,0,0,0,0,0,0,0,0,NO,0,0,0,0,0,0,0,0,0,0,0,0,0,0,0,0,0,0,0,0,0,0,0,0,0,0,0,0,0,0,0,0,0,0,0,0,0,0,0,0,0,0,0,0,0,0,0,0,0,57
guava,v7.0,v8.0,F:/corpus/guava/guava#2010-09-23-03-12-43#v7.0#13bc6c9/src/com/google/common/base/FinalizablePhantomReference.java,F:/corpus/guava/guava#2010-09-23-03-12-43#v7.0#13bc6c9/src/com/google/common/base/FinalizablePhantomReference.java,0,0,0,0,1,0,0,0,0,0,0,0,0,NO,0,0,0,0,0,0,0,0,0,0,0,0,0,0,0,0,0,0,0,0,0,0,0,0,0,0,0,0,0,0,0,0,0,0,0,0,0,0,0,0,0,0,0,0,0,0,0,0,0,42
guava,v7.0,v8.0,F:/corpus/guava/guava#2010-09-23-03-12-43#v7.0#13bc6c9/src/com/google/common/base/FinalizableReference.java,F:/corpus/guava/guava#2010-09-23-03-12-43#v7.0#13bc6c9/src/com/google/common/base/FinalizableReference.java,0,0,0,0,0,0,0,0,0,0,0,0,0,NO,0,0,0,0,0,0,0,0,0,0,0,0,0,0,0,0,0,0,0,0,0,0,0,0,0,0,0,0,0,0,0,0,0,0,0,0,0,0,0,0,0,0,0,0,0,0,0,0,0,31
guava,v7.0,v8.0,F:/corpus/guava/guava#2010-09-23-03-12-43#v7.0#13bc6c9/src/com/google/common/base/FinalizableReferenceQueue.java,F:/corpus/guava/guava#2010-09-23-03-12-43#v7.0#13bc6c9/src/com/google/common/base/FinalizableReferenceQueue.java,0,0,0,0,0,1,0,0,0,0,0,0,0,NO,0,0,0,0,0,0,0,0,0,0,0,0,0,0,0,0,0,0,0,0,0,0,0,0,0,0,0,0,0,0,0,0,0,0,0,0,0,0,0,0,0,0,0,0,0,0,0,0,0,281
guava,v7.0,v8.0,F:/corpus/guava/guava#2010-09-23-03-12-43#v7.0#13bc6c9/src/com/google/common/base/FinalizableSoftReference.java,F:/corpus/guava/guava#2010-09-23-03-12-43#v7.0#13bc6c9/src/com/google/common/base/FinalizableSoftReference.java,0,0,0,0,1,0,0,0,0,0,0,0,0,NO,0,0,0,0,0,0,0,0,0,0,0,0,0,0,0,0,0,0,0,0,0,0,0,0,0,0,0,0,0,0,0,0,0,0,0,0,0,0,0,0,0,0,0,0,0,0,0,0,0,40
guava,v7.0,v8.0,F:/corpus/guava/guava#2010-09-23-03-12-43#v7.0#13bc6c9/src/com/google/common/base/FinalizableWeakReference.java,F:/corpus/guava/guava#2010-09-23-03-12-43#v7.0#13bc6c9/src/com/google/common/base/FinalizableWeakReference.java,0,0,0,0,1,0,0,0,0,0,0,0,0,NO,0,0,0,0,0,0,0,0,0,0,0,0,0,0,0,0,0,0,0,0,0,0,0,0,0,0,0,0,0,0,0,0,0,0,0,0,0,0,0,0,0,0,0,0,0,0,0,0,0,40
guava,v7.0,v8.0,F:/corpus/guava/guava#2010-09-23-03-12-43#v7.0#13bc6c9/src/com/google/common/base/Function.java,F:/corpus/guava/guava#2010-09-23-03-12-43#v7.0#13bc6c9/src/com/google/common/base/Function.java,0,0,0,0,1,0,0,0,0,0,0,0,0,NO,0,0,0,0,0,0,0,0,0,0,0,0,0,0,0,0,0,0,0,0,0,0,0,0,0,0,0,0,0,0,0,0,0,0,0,0,0,0,0,0,0,0,0,0,0,0,0,0,0,56
guava,v7.0,v8.0,F:/corpus/guava/guava#2010-09-23-03-12-43#v7.0#13bc6c9/src/com/google/common/base/internal/Finalizer.java,F:/corpus/guava/guava#2010-09-23-03-12-43#v7.0#13bc6c9/src/com/google/common/base/internal/Finalizer.java,0,0,0,0,0,0,0,0,0,0,0,0,0,NO,0,0,0,0,0,0,0,0,0,0,0,0,0,0,0,0,0,0,0,0,0,0,0,0,0,0,0,0,0,0,0,0,0,0,0,0,0,0,0,0,0,0,0,0,0,0,0,0,0,207
guava,v7.0,v8.0,F:/corpus/guava/guava#2010-09-23-03-12-43#v7.0#13bc6c9/src/com/google/common/base/package-info.java,F:/corpus/guava/guava#2010-09-23-03-12-43#v7.0#13bc6c9/src/com/google/common/base/package-info.java,0,0,0,0,0,0,0,0,0,0,0,0,0,NO,0,0,0,0,0,0,0,0,0,0,0,0,0,0,0,0,0,0,0,0,0,0,0,0,0,0,0,0,0,0,0,0,0,0,0,0,0,0,0,0,0,0,0,0,0,0,0,0,0,60
guava,v7.0,v8.0,F:/corpus/guava/guava#2010-09-23-03-12-43#v7.0#13bc6c9/src/com/google/common/base/Platform.java,F:/corpus/guava/guava#2010-09-23-03-12-43#v7.0#13bc6c9/src/com/google/common/base/Platform.java,0,0,0,0,0,0,0,0,0,0,0,0,0,NO,0,0,0,0,0,0,0,0,0,0,0,0,0,0,0,0,0,0,0,0,0,0,0,0,0,0,0,0,0,0,0,0,0,0,0,0,0,0,0,0,0,0,0,0,0,0,0,0,0,66
guava,v7.0,v8.0,F:/corpus/guava/guava#2010-09-23-03-12-43#v7.0#13bc6c9/src/com/google/common/base/Predicate.java,F:/corpus/guava/guava#2010-09-23-03-12-43#v7.0#13bc6c9/src/com/google/common/base/Predicate.java,0,0,0,0,1,0,0,0,0,0,0,0,0,NO,0,0,0,0,0,0,0,0,0,0,0,0,0,0,0,0,0,0,0,0,0,0,0,0,0,0,0,0,0,0,0,0,0,0,0,0,0,0,0,0,0,0,0,0,0,0,0,0,0,58
guava,v7.0,v8.0,F:/corpus/guava/guava#2010-09-23-03-12-43#v7.0#13bc6c9/src/com/google/common/base/Service.java,F:/corpus/guava/guava#2010-09-23-03-12-43#v7.0#13bc6c9/src/com/google/common/base/Service.java,0,0,0,0,0,0,0,0,0,0,0,0,0,NO,0,0,0,0,0,0,0,0,0,0,0,0,0,0,0,0,0,0,0,0,0,0,0,0,0,0,0,0,0,0,0,0,0,0,0,0,0,0,0,0,0,0,0,0,0,0,0,0,0,162
guava,v7.0,v8.0,F:/corpus/guava/guava#2010-09-23-03-12-43#v7.0#13bc6c9/src/com/google/common/base/Strings.java,F:/corpus/guava/guava#2010-09-23-03-12-43#v7.0#13bc6c9/src/com/google/common/base/Strings.java,0,0,0,0,0,0,0,0,0,0,0,0,0,NO,0,0,0,0,0,0,0,0,0,0,0,0,0,0,0,0,0,0,0,0,0,0,0,0,0,0,0,0,0,0,0,0,0,0,0,0,0,0,0,0,0,0,0,0,0,0,0,0,0,165
guava,v7.0,v8.0,F:/corpus/guava/guava#2010-09-23-03-12-43#v7.0#13bc6c9/src/com/google/common/base/Supplier.java,F:/corpus/guava/guava#2010-09-23-03-12-43#v7.0#13bc6c9/src/com/google/common/base/Supplier.java,0,0,0,0,1,0,0,0,0,0,0,0,0,NO,0,0,0,0,0,0,0,0,0,0,0,0,0,0,0,0,0,0,0,0,0,0,0,0,0,0,0,0,0,0,0,0,0,0,0,0,0,0,0,0,0,0,0,0,0,0,0,0,0,38
guava,v7.0,v8.0,F:/corpus/guava/guava#2010-09-23-03-12-43#v7.0#13bc6c9/src/com/google/common/base/Throwables.java,F:/corpus/guava/guava#2010-09-23-03-12-43#v7.0#13bc6c9/src/com/google/common/base/Throwables.java,0,0,0,0,0,0,0,0,0,0,0,0,0,NO,0,0,0,0,0,0,0,0,0,0,0,0,0,0,0,0,0,0,0,0,0,0,0,0,0,0,0,0,0,0,0,0,0,0,0,0,0,0,0,0,0,0,0,0,0,0,0,0,0,254
guava,v7.0,v8.0,F:/corpus/guava/guava#2010-09-23-03-12-43#v7.0#13bc6c9/src/com/google/common/collect/AbstractBiMap.java,F:/corpus/guava/guava#2010-09-23-03-12-43#v7.0#13bc6c9/src/com/google/common/collect/AbstractBiMap.java,0,0,0,0,1,0,0,0,0,0,0,0,0,NO,0,0,0,0,0,0,0,0,0,0,0,0,0,0,0,0,0,0,0,0,0,0,0,0,0,0,0,0,0,0,0,0,0,0,0,0,0,0,0,0,0,0,0,0,0,0,0,0,0,401
guava,v7.0,v8.0,F:/corpus/guava/guava#2010-09-23-03-12-43#v7.0#13bc6c9/src/com/google/common/collect/AbstractMapBasedMultiset.java,F:/corpus/guava/guava#2010-09-23-03-12-43#v7.0#13bc6c9/src/com/google/common/collect/AbstractMapBasedMultiset.java,0,0,0,0,1,5,0,0,0,0,0,0,0,NO,0,0,0,0,0,0,0,0,0,0,0,0,0,0,0,0,0,0,0,0,0,0,0,0,0,0,0,0,0,0,0,0,0,0,0,0,0,0,0,0,0,0,0,0,0,0,0,0,0,421
guava,v7.0,v8.0,F:/corpus/guava/guava#2010-09-23-03-12-43#v7.0#13bc6c9/src/com/google/common/collect/AbstractMapEntry.java,F:/corpus/guava/guava#2010-09-23-03-12-43#v7.0#13bc6c9/src/com/google/common/collect/AbstractMapEntry.java,0,0,0,0,2,0,0,0,0,0,0,0,0,NO,0,0,0,0,0,0,0,0,0,0,0,0,0,0,0,0,0,0,0,0,0,0,0,0,0,0,0,0,0,0,0,0,0,0,0,0,0,0,0,0,0,0,0,0,0,0,0,0,0,64
guava,v7.0,v8.0,F:/corpus/guava/guava#2010-09-23-03-12-43#v7.0#13bc6c9/src/com/google/common/collect/AbstractMultimap.java,F:/corpus/guava/guava#2010-09-23-03-12-43#v7.0#13bc6c9/src/com/google/common/collect/AbstractMultimap.java,0,1,3,0,2,0,1,0,0,0,0,0,0,NO,0,0,0,0,0,0,0,0,0,0,0,0,0,0,0,0,0,0,0,0,0,0,0,0,0,0,0,0,0,0,0,0,0,0,0,0,0,0,0,0,0,0,0,0,0,0,0,0,0,1498
guava,v7.0,v8.0,F:/corpus/guava/guava#2010-09-23-03-12-43#v7.0#13bc6c9/src/com/google/common/collect/ArrayListMultimap.java,F:/corpus/guava/guava#2010-09-23-03-12-43#v7.0#13bc6c9/src/com/google/common/collect/ArrayListMultimap.java,0,0,0,0,0,0,0,0,0,0,0,0,0,NO,0,0,0,0,0,0,0,0,0,0,0,0,0,0,0,0,0,0,0,0,0,0,0,0,0,0,0,0,0,0,0,0,0,0,0,0,0,0,0,0,0,0,0,0,0,0,0,0,0,164
guava,v7.0,v8.0,F:/corpus/guava/guava#2010-09-23-03-12-43#v7.0#13bc6c9/src/com/google/common/collect/BiMap.java,F:/corpus/guava/guava#2010-09-23-03-12-43#v7.0#13bc6c9/src/com/google/common/collect/BiMap.java,0,0,0,0,1,0,0,0,0,0,0,0,0,NO,0,0,0,0,0,0,0,0,0,0,0,0,0,0,0,0,0,0,0,0,0,0,0,0,0,0,0,0,0,0,0,0,0,0,0,0,0,0,0,0,0,0,0,0,0,0,0,0,0,103
guava,v7.0,v8.0,F:/corpus/guava/guava#2010-09-23-03-12-43#v7.0#13bc6c9/src/com/google/common/collect/ClassToInstanceMap.java,F:/corpus/guava/guava#2010-09-23-03-12-43#v7.0#13bc6c9/src/com/google/common/collect/ClassToInstanceMap.java,0,0,0,0,1,0,0,0,0,0,0,0,0,NO,0,0,0,0,0,0,0,0,0,0,0,0,0,0,0,0,0,0,0,0,0,0,0,0,0,0,0,0,0,0,0,0,0,0,0,0,0,0,0,0,0,0,0,0,0,0,0,0,0,59
guava,v7.0,v8.0,F:/corpus/guava/guava#2010-09-23-03-12-43#v7.0#13bc6c9/src/com/google/common/collect/ComparisonChain.java,F:/corpus/guava/guava#2010-09-23-03-12-43#v7.0#13bc6c9/src/com/google/common/collect/ComparisonChain.java,0,0,0,0,8,0,0,0,0,0,0,0,0,NO,0,0,0,0,0,0,0,0,0,0,0,0,0,0,0,0,0,0,0,0,0,0,0,0,0,0,0,0,0,0,0,0,0,0,0,0,0,0,0,0,0,0,0,0,0,0,0,0,0,192
guava,v7.0,v8.0,F:/corpus/guava/guava#2010-09-23-03-12-43#v7.0#13bc6c9/src/com/google/common/collect/ConcurrentHashMultiset.java,F:/corpus/guava/guava#2010-09-23-03-12-43#v7.0#13bc6c9/src/com/google/common/collect/ConcurrentHashMultiset.java,0,0,0,0,0,0,0,0,0,0,0,0,0,NO,0,0,0,0,0,0,0,0,0,0,0,0,0,0,0,0,0,0,0,0,0,0,0,0,0,0,0,0,0,0,0,0,0,0,0,0,0,0,0,0,0,0,0,0,0,0,0,0,0,514
guava,v7.0,v8.0,F:/corpus/guava/guava#2010-09-23-03-12-43#v7.0#13bc6c9/src/com/google/common/collect/Constraint.java,F:/corpus/guava/guava#2010-09-23-03-12-43#v7.0#13bc6c9/src/com/google/common/collect/Constraint.java,0,0,0,0,1,0,0,0,0,0,0,0,0,NO,0,0,0,0,0,0,0,0,0,0,0,0,0,0,0,0,0,0,0,0,0,0,0,0,0,0,0,0,0,0,0,0,0,0,0,0,0,0,0,0,0,0,0,0,0,0,0,0,0,66
guava,v7.0,v8.0,F:/corpus/guava/guava#2010-09-23-03-12-43#v7.0#13bc6c9/src/com/google/common/collect/Constraints.java,F:/corpus/guava/guava#2010-09-23-03-12-43#v7.0#13bc6c9/src/com/google/common/collect/Constraints.java,0,0,0,0,0,0,0,0,0,0,0,0,0,NO,0,0,0,0,0,0,0,0,0,0,0,0,0,0,0,0,0,0,0,0,0,0,0,0,0,0,0,0,0,0,0,0,0,0,0,0,0,0,0,0,0,0,0,0,0,0,0,0,0,381
guava,v7.0,v8.0,F:/corpus/guava/guava#2010-09-23-03-12-43#v7.0#13bc6c9/src/com/google/common/collect/EmptyImmutableListMultimap.java,F:/corpus/guava/guava#2010-09-23-03-12-43#v7.0#13bc6c9/src/com/google/common/collect/EmptyImmutableListMultimap.java,0,0,0,0,0,0,0,0,0,0,0,0,0,NO,0,0,0,0,0,0,0,0,0,0,0,0,0,0,0,0,0,0,0,0,0,0,0,0,0,0,0,0,0,0,0,0,0,0,0,0,0,0,0,0,0,0,0,0,0,0,0,0,0,40
guava,v7.0,v8.0,F:/corpus/guava/guava#2010-09-23-03-12-43#v7.0#13bc6c9/src/com/google/common/collect/EmptyImmutableMap.java,F:/corpus/guava/guava#2010-09-23-03-12-43#v7.0#13bc6c9/src/com/google/common/collect/EmptyImmutableMap.java,0,0,0,0,3,0,0,0,0,0,0,0,0,NO,0,0,0,0,0,0,0,0,0,0,0,0,0,0,0,0,0,0,0,0,0,0,0,0,0,0,0,0,0,0,0,0,0,0,0,0,0,0,0,0,0,0,0,0,0,0,0,0,0,94
guava,v7.0,v8.0,F:/corpus/guava/guava#2010-09-23-03-12-43#v7.0#13bc6c9/src/com/google/common/collect/EmptyImmutableMultiset.java,F:/corpus/guava/guava#2010-09-23-03-12-43#v7.0#13bc6c9/src/com/google/common/collect/EmptyImmutableMultiset.java,0,0,0,0,0,0,0,0,0,0,0,0,0,NO,0,0,0,0,0,0,0,0,0,0,0,0,0,0,0,0,0,0,0,0,0,0,0,0,0,0,0,0,0,0,0,0,0,0,0,0,0,0,0,0,0,0,0,0,0,0,0,0,0,39
guava,v7.0,v8.0,F:/corpus/guava/guava#2010-09-23-03-12-43#v7.0#13bc6c9/src/com/google/common/collect/EmptyImmutableSet.java,F:/corpus/guava/guava#2010-09-23-03-12-43#v7.0#13bc6c9/src/com/google/common/collect/EmptyImmutableSet.java,0,0,0,0,1,0,0,0,0,0,0,0,0,NO,0,0,0,0,0,0,0,0,0,0,0,0,0,0,0,0,0,0,0,0,0,0,0,0,0,0,0,0,0,0,0,0,0,0,0,0,0,0,0,0,0,0,0,0,0,0,0,0,0,99
guava,v7.0,v8.0,F:/corpus/guava/guava#2010-09-23-03-12-43#v7.0#13bc6c9/src/com/google/common/collect/EmptyImmutableSortedSet.java,F:/corpus/guava/guava#2010-09-23-03-12-43#v7.0#13bc6c9/src/com/google/common/collect/EmptyImmutableSortedSet.java,0,0,0,0,5,0,0,0,0,0,0,0,0,NO,0,0,0,0,0,0,0,0,0,0,0,0,0,0,0,0,0,0,0,0,0,0,0,0,0,0,0,0,0,0,0,0,0,0,0,0,0,0,0,0,0,0,0,0,0,0,0,0,0,116
guava,v7.0,v8.0,F:/corpus/guava/guava#2010-09-23-03-12-43#v7.0#13bc6c9/src/com/google/common/collect/EnumBiMap.java,F:/corpus/guava/guava#2010-09-23-03-12-43#v7.0#13bc6c9/src/com/google/common/collect/EnumBiMap.java,0,0,0,0,0,0,0,0,0,0,0,0,0,NO,0,0,0,0,0,0,0,0,0,0,0,0,0,0,0,0,0,0,0,0,0,0,0,0,0,0,0,0,0,0,0,0,0,0,0,0,0,0,0,0,0,0,0,0,0,0,0,0,0,133
guava,v7.0,v8.0,F:/corpus/guava/guava#2010-09-23-03-12-43#v7.0#13bc6c9/src/com/google/common/collect/EnumHashBiMap.java,F:/corpus/guava/guava#2010-09-23-03-12-43#v7.0#13bc6c9/src/com/google/common/collect/EnumHashBiMap.java,0,0,0,0,0,0,0,0,0,0,0,0,0,NO,0,0,0,0,0,0,0,0,0,0,0,0,0,0,0,0,0,0,0,0,0,0,0,0,0,0,0,0,0,0,0,0,0,0,0,0,0,0,0,0,0,0,0,0,0,0,0,0,0,117
guava,v7.0,v8.0,F:/corpus/guava/guava#2010-09-23-03-12-43#v7.0#13bc6c9/src/com/google/common/collect/EnumMultiset.java,F:/corpus/guava/guava#2010-09-23-03-12-43#v7.0#13bc6c9/src/com/google/common/collect/EnumMultiset.java,0,0,0,0,0,0,0,0,0,0,0,0,0,NO,0,0,0,0,0,0,0,0,0,0,0,0,0,0,0,0,0,0,0,0,0,0,0,0,0,0,0,0,0,0,0,0,0,0,0,0,0,0,0,0,0,0,0,0,0,0,0,0,0,95
guava,v7.0,v8.0,F:/corpus/guava/guava#2010-09-23-03-12-43#v7.0#13bc6c9/src/com/google/common/collect/EvictionListeners.java,F:/corpus/guava/guava#2010-09-23-03-12-43#v7.0#13bc6c9/src/com/google/common/collect/EvictionListeners.java,0,0,0,0,0,0,0,0,0,0,0,0,0,NO,0,0,0,0,0,0,0,0,0,0,0,0,0,0,0,0,0,0,0,0,0,0,0,0,0,0,0,0,0,0,0,0,0,0,0,0,0,0,0,0,0,0,0,0,0,0,0,0,0,58
guava,v7.0,v8.0,F:/corpus/guava/guava#2010-09-23-03-12-43#v7.0#13bc6c9/src/com/google/common/collect/ExplicitOrderedImmutableSortedSet.java,F:/corpus/guava/guava#2010-09-23-03-12-43#v7.0#13bc6c9/src/com/google/common/collect/ExplicitOrderedImmutableSortedSet.java,0,0,0,0,1,0,0,0,0,0,0,0,0,NO,0,0,0,0,0,0,0,0,0,0,0,0,0,0,0,0,0,0,0,0,0,0,0,0,0,0,0,0,0,0,0,0,0,0,0,0,0,0,0,0,0,0,0,0,0,0,0,0,0,227
guava,v7.0,v8.0,F:/corpus/guava/guava#2010-09-23-03-12-43#v7.0#13bc6c9/src/com/google/common/collect/ForwardingCollection.java,F:/corpus/guava/guava#2010-09-23-03-12-43#v7.0#13bc6c9/src/com/google/common/collect/ForwardingCollection.java,0,0,0,0,1,0,0,0,0,0,0,0,0,NO,0,0,0,0,0,0,0,0,0,0,0,0,0,0,0,0,0,0,0,0,0,0,0,0,0,0,0,0,0,0,0,0,0,0,0,0,0,0,0,0,0,0,0,0,0,0,0,0,0,252
guava,v7.0,v8.0,F:/corpus/guava/guava#2010-09-23-03-12-43#v7.0#13bc6c9/src/com/google/common/collect/ForwardingConcurrentMap.java,F:/corpus/guava/guava#2010-09-23-03-12-43#v7.0#13bc6c9/src/com/google/common/collect/ForwardingConcurrentMap.java,0,0,0,0,1,0,0,0,0,0,0,0,0,NO,0,0,0,0,0,0,0,0,0,0,0,0,0,0,0,0,0,0,0,0,0,0,0,0,0,0,0,0,0,0,0,0,0,0,0,0,0,0,0,0,0,0,0,0,0,0,0,0,0,57
guava,v7.0,v8.0,F:/corpus/guava/guava#2010-09-23-03-12-43#v7.0#13bc6c9/src/com/google/common/collect/ForwardingIterator.java,F:/corpus/guava/guava#2010-09-23-03-12-43#v7.0#13bc6c9/src/com/google/common/collect/ForwardingIterator.java,0,0,0,0,1,0,0,0,0,0,0,0,0,NO,0,0,0,0,0,0,0,0,0,0,0,0,0,0,0,0,0,0,0,0,0,0,0,0,0,0,0,0,0,0,0,0,0,0,0,0,0,0,0,0,0,0,0,0,0,0,0,0,0,52
guava,v7.0,v8.0,F:/corpus/guava/guava#2010-09-23-03-12-43#v7.0#13bc6c9/src/com/google/common/collect/ForwardingList.java,F:/corpus/guava/guava#2010-09-23-03-12-43#v7.0#13bc6c9/src/com/google/common/collect/ForwardingList.java,0,0,0,0,1,0,0,0,0,0,0,0,0,NO,0,0,0,0,0,0,0,0,0,0,0,0,0,0,0,0,0,0,0,0,0,0,0,0,0,0,0,0,0,0,0,0,0,0,0,0,0,0,0,0,0,0,0,0,0,0,0,0,0,228
guava,v7.0,v8.0,F:/corpus/guava/guava#2010-09-23-03-12-43#v7.0#13bc6c9/src/com/google/common/collect/ForwardingListIterator.java,F:/corpus/guava/guava#2010-09-23-03-12-43#v7.0#13bc6c9/src/com/google/common/collect/ForwardingListIterator.java,0,0,0,0,1,0,0,0,0,0,0,0,0,NO,0,0,0,0,0,0,0,0,0,0,0,0,0,0,0,0,0,0,0,0,0,0,0,0,0,0,0,0,0,0,0,0,0,0,0,0,0,0,0,0,0,0,0,0,0,0,0,0,0,64
guava,v7.0,v8.0,F:/corpus/guava/guava#2010-09-23-03-12-43#v7.0#13bc6c9/src/com/google/common/collect/ForwardingListMultimap.java,F:/corpus/guava/guava#2010-09-23-03-12-43#v7.0#13bc6c9/src/com/google/common/collect/ForwardingListMultimap.java,0,0,0,0,1,0,0,0,0,0,0,0,0,NO,0,0,0,0,0,0,0,0,0,0,0,0,0,0,0,0,0,0,0,0,0,0,0,0,0,0,0,0,0,0,0,0,0,0,0,0,0,0,0,0,0,0,0,0,0,0,0,0,0,54
guava,v7.0,v8.0,F:/corpus/guava/guava#2010-09-23-03-12-43#v7.0#13bc6c9/src/com/google/common/collect/ForwardingMap.java,F:/corpus/guava/guava#2010-09-23-03-12-43#v7.0#13bc6c9/src/com/google/common/collect/ForwardingMap.java,0,0,0,0,1,0,0,0,0,0,0,0,0,NO,0,0,0,0,0,0,0,0,0,0,0,0,0,0,0,0,0,0,0,0,0,0,0,0,0,0,0,0,0,0,0,0,0,0,0,0,0,0,0,0,0,0,0,0,0,0,0,0,0,288
guava,v7.0,v8.0,F:/corpus/guava/guava#2010-09-23-03-12-43#v7.0#13bc6c9/src/com/google/common/collect/ForwardingMapEntry.java,F:/corpus/guava/guava#2010-09-23-03-12-43#v7.0#13bc6c9/src/com/google/common/collect/ForwardingMapEntry.java,0,0,0,0,1,0,0,0,0,0,0,0,0,NO,0,0,0,0,0,0,0,0,0,0,0,0,0,0,0,0,0,0,0,0,0,0,0,0,0,0,0,0,0,0,0,0,0,0,0,0,0,0,0,0,0,0,0,0,0,0,0,0,0,125
guava,v7.0,v8.0,F:/corpus/guava/guava#2010-09-23-03-12-43#v7.0#13bc6c9/src/com/google/common/collect/ForwardingMultimap.java,F:/corpus/guava/guava#2010-09-23-03-12-43#v7.0#13bc6c9/src/com/google/common/collect/ForwardingMultimap.java,0,0,0,0,1,0,0,0,0,0,0,0,0,NO,0,0,0,0,0,0,0,0,0,0,0,0,0,0,0,0,0,0,0,0,0,0,0,0,0,0,0,0,0,0,0,0,0,0,0,0,0,0,0,0,0,0,0,0,0,0,0,0,0,125
guava,v7.0,v8.0,F:/corpus/guava/guava#2010-09-23-03-12-43#v7.0#13bc6c9/src/com/google/common/collect/ForwardingMultiset.java,F:/corpus/guava/guava#2010-09-23-03-12-43#v7.0#13bc6c9/src/com/google/common/collect/ForwardingMultiset.java,0,0,0,0,1,0,0,0,0,0,0,0,0,NO,0,0,0,0,0,0,0,0,0,0,0,0,0,0,0,0,0,0,0,0,0,0,0,0,0,0,0,0,0,0,0,0,0,0,0,0,0,0,0,0,0,0,0,0,0,0,0,0,0,296
guava,v7.0,v8.0,F:/corpus/guava/guava#2010-09-23-03-12-43#v7.0#13bc6c9/src/com/google/common/collect/ForwardingObject.java,F:/corpus/guava/guava#2010-09-23-03-12-43#v7.0#13bc6c9/src/com/google/common/collect/ForwardingObject.java,0,0,0,0,0,0,0,0,0,0,0,0,0,NO,0,0,0,0,0,0,0,0,0,0,0,0,0,0,0,0,0,0,0,0,0,0,0,0,0,0,0,0,0,0,0,0,0,0,0,0,0,0,0,0,0,0,0,0,0,0,0,0,0,76
guava,v7.0,v8.0,F:/corpus/guava/guava#2010-09-23-03-12-43#v7.0#13bc6c9/src/com/google/common/collect/ForwardingQueue.java,F:/corpus/guava/guava#2010-09-23-03-12-43#v7.0#13bc6c9/src/com/google/common/collect/ForwardingQueue.java,0,0,0,0,1,0,0,0,0,0,0,0,0,NO,0,0,0,0,0,0,0,0,0,0,0,0,0,0,0,0,0,0,0,0,0,0,0,0,0,0,0,0,0,0,0,0,0,0,0,0,0,0,0,0,0,0,0,0,0,0,0,0,0,118
guava,v7.0,v8.0,F:/corpus/guava/guava#2010-09-23-03-12-43#v7.0#13bc6c9/src/com/google/common/collect/ForwardingSet.java,F:/corpus/guava/guava#2010-09-23-03-12-43#v7.0#13bc6c9/src/com/google/common/collect/ForwardingSet.java,0,0,0,0,1,0,0,0,0,0,0,0,0,NO,0,0,0,0,0,0,0,0,0,0,0,0,0,0,0,0,0,0,0,0,0,0,0,0,0,0,0,0,0,0,0,0,0,0,0,0,0,0,0,0,0,0,0,0,0,0,0,0,0,85
guava,v7.0,v8.0,F:/corpus/guava/guava#2010-09-23-03-12-43#v7.0#13bc6c9/src/com/google/common/collect/ForwardingSetMultimap.java,F:/corpus/guava/guava#2010-09-23-03-12-43#v7.0#13bc6c9/src/com/google/common/collect/ForwardingSetMultimap.java,0,0,0,0,1,0,0,0,0,0,0,0,0,NO,0,0,0,0,0,0,0,0,0,0,0,0,0,0,0,0,0,0,0,0,0,0,0,0,0,0,0,0,0,0,0,0,0,0,0,0,0,0,0,0,0,0,0,0,0,0,0,0,0,56
guava,v7.0,v8.0,F:/corpus/guava/guava#2010-09-23-03-12-43#v7.0#13bc6c9/src/com/google/common/collect/ForwardingSortedMap.java,F:/corpus/guava/guava#2010-09-23-03-12-43#v7.0#13bc6c9/src/com/google/common/collect/ForwardingSortedMap.java,0,0,0,0,1,0,0,0,0,0,0,0,0,NO,0,0,0,0,0,0,0,0,0,0,0,0,0,0,0,0,0,0,0,0,0,0,0,0,0,0,0,0,0,0,0,0,0,0,0,0,0,0,0,0,0,0,0,0,0,0,0,0,0,165
guava,v7.0,v8.0,F:/corpus/guava/guava#2010-09-23-03-12-43#v7.0#13bc6c9/src/com/google/common/collect/ForwardingSortedSet.java,F:/corpus/guava/guava#2010-09-23-03-12-43#v7.0#13bc6c9/src/com/google/common/collect/ForwardingSortedSet.java,0,0,0,0,1,0,0,0,0,0,0,0,0,NO,0,0,0,0,0,0,0,0,0,0,0,0,0,0,0,0,0,0,0,0,0,0,0,0,0,0,0,0,0,0,0,0,0,0,0,0,0,0,0,0,0,0,0,0,0,0,0,0,0,159
guava,v7.0,v8.0,F:/corpus/guava/guava#2010-09-23-03-12-43#v7.0#13bc6c9/src/com/google/common/collect/ForwardingSortedSetMultimap.java,F:/corpus/guava/guava#2010-09-23-03-12-43#v7.0#13bc6c9/src/com/google/common/collect/ForwardingSortedSetMultimap.java,0,0,0,0,1,0,0,0,0,0,0,0,0,NO,0,0,0,0,0,0,0,0,0,0,0,0,0,0,0,0,0,0,0,0,0,0,0,0,0,0,0,0,0,0,0,0,0,0,0,0,0,0,0,0,0,0,0,0,0,0,0,0,0,60
guava,v7.0,v8.0,F:/corpus/guava/guava#2010-09-23-03-12-43#v7.0#13bc6c9/src/com/google/common/collect/ForwardingTable.java,F:/corpus/guava/guava#2010-09-23-03-12-43#v7.0#13bc6c9/src/com/google/common/collect/ForwardingTable.java,0,0,0,0,1,0,0,0,0,0,0,0,0,NO,0,0,0,0,0,0,0,0,0,0,0,0,0,0,0,0,0,0,0,0,0,0,0,0,0,0,0,0,0,0,0,0,0,0,0,0,0,0,0,0,0,0,0,0,0,0,0,0,0,127
guava,v7.0,v8.0,F:/corpus/guava/guava#2010-09-23-03-12-43#v7.0#13bc6c9/src/com/google/common/collect/HashBasedTable.java,F:/corpus/guava/guava#2010-09-23-03-12-43#v7.0#13bc6c9/src/com/google/common/collect/HashBasedTable.java,0,0,0,0,0,0,0,0,0,0,0,0,0,NO,0,0,0,0,0,0,0,0,0,0,0,0,0,0,0,0,0,0,0,0,0,0,0,0,0,0,0,0,0,0,0,0,0,0,0,0,0,0,0,0,0,0,0,0,0,0,0,0,0,144
guava,v7.0,v8.0,F:/corpus/guava/guava#2010-09-23-03-12-43#v7.0#13bc6c9/src/com/google/common/collect/HashBiMap.java,F:/corpus/guava/guava#2010-09-23-03-12-43#v7.0#13bc6c9/src/com/google/common/collect/HashBiMap.java,0,0,0,0,0,0,0,0,0,0,0,0,0,NO,0,0,0,0,0,0,0,0,0,0,0,0,0,0,0,0,0,0,0,0,0,0,0,0,0,0,0,0,0,0,0,0,0,0,0,0,0,0,0,0,0,0,0,0,0,0,0,0,0,113
guava,v7.0,v8.0,F:/corpus/guava/guava#2010-09-23-03-12-43#v7.0#13bc6c9/src/com/google/common/collect/HashMultimap.java,F:/corpus/guava/guava#2010-09-23-03-12-43#v7.0#13bc6c9/src/com/google/common/collect/HashMultimap.java,0,0,0,0,0,0,0,0,0,0,0,0,0,NO,0,0,0,0,0,0,0,0,0,0,0,0,0,0,0,0,0,0,0,0,0,0,0,0,0,0,0,0,0,0,0,0,0,0,0,0,0,0,0,0,0,0,0,0,0,0,0,0,0,142
guava,v7.0,v8.0,F:/corpus/guava/guava#2010-09-23-03-12-43#v7.0#13bc6c9/src/com/google/common/collect/HashMultiset.java,F:/corpus/guava/guava#2010-09-23-03-12-43#v7.0#13bc6c9/src/com/google/common/collect/HashMultiset.java,0,0,0,0,0,0,0,0,0,0,0,0,0,NO,0,0,0,0,0,0,0,0,0,0,0,0,0,0,0,0,0,0,0,0,0,0,0,0,0,0,0,0,0,0,0,0,0,0,0,0,0,0,0,0,0,0,0,0,0,0,0,0,0,99
guava,v7.0,v8.0,F:/corpus/guava/guava#2010-09-23-03-12-43#v7.0#13bc6c9/src/com/google/common/collect/ImmutableBiMap.java,F:/corpus/guava/guava#2010-09-23-03-12-43#v7.0#13bc6c9/src/com/google/common/collect/ImmutableBiMap.java,0,0,0,0,2,0,0,0,0,0,2,0,0,NO,0,0,0,0,0,0,0,0,0,0,0,0,0,0,0,0,0,0,0,0,0,0,0,0,0,0,0,0,0,0,0,0,0,0,0,0,0,0,0,0,0,0,0,0,0,0,0,0,0,322
guava,v7.0,v8.0,F:/corpus/guava/guava#2010-09-23-03-12-43#v7.0#13bc6c9/src/com/google/common/collect/ImmutableClassToInstanceMap.java,F:/corpus/guava/guava#2010-09-23-03-12-43#v7.0#13bc6c9/src/com/google/common/collect/ImmutableClassToInstanceMap.java,0,0,0,0,1,0,0,0,0,0,0,0,0,NO,0,0,0,0,0,0,0,0,0,0,0,0,0,0,0,0,0,0,0,0,0,0,0,0,0,0,0,0,0,0,0,0,0,0,0,0,0,0,0,0,0,0,0,0,0,0,0,0,0,150
guava,v7.0,v8.0,F:/corpus/guava/guava#2010-09-23-03-12-43#v7.0#13bc6c9/src/com/google/common/collect/ImmutableEnumSet.java,F:/corpus/guava/guava#2010-09-23-03-12-43#v7.0#13bc6c9/src/com/google/common/collect/ImmutableEnumSet.java,0,0,0,0,0,0,0,0,0,0,0,0,0,NO,0,0,0,0,0,0,0,0,0,0,0,0,0,0,0,0,0,0,0,0,0,0,0,0,0,0,0,0,0,0,0,0,0,0,0,0,0,0,0,0,0,0,0,0,0,0,0,0,0,115
guava,v7.0,v8.0,F:/corpus/guava/guava#2010-09-23-03-12-43#v7.0#13bc6c9/src/com/google/common/collect/ImmutableSortedAsList.java,F:/corpus/guava/guava#2010-09-23-03-12-43#v7.0#13bc6c9/src/com/google/common/collect/ImmutableSortedAsList.java,0,0,0,0,0,0,0,0,0,0,0,0,0,NO,0,0,0,0,0,0,0,0,0,0,0,0,0,0,0,0,0,0,0,0,0,0,0,0,0,0,0,0,0,0,0,0,0,0,0,0,0,0,0,0,0,0,0,0,0,0,0,0,0,102
guava,v7.0,v8.0,F:/corpus/guava/guava#2010-09-23-03-12-43#v7.0#13bc6c9/src/com/google/common/collect/ImmutableSortedMap.java,F:/corpus/guava/guava#2010-09-23-03-12-43#v7.0#13bc6c9/src/com/google/common/collect/ImmutableSortedMap.java,0,0,0,0,0,3,0,0,0,0,2,0,0,NO,0,0,0,0,0,0,0,0,0,0,0,0,0,0,0,0,0,0,0,0,0,0,0,0,0,0,0,0,0,0,0,0,0,0,0,0,0,0,0,0,0,0,0,0,0,0,0,0,0,720
guava,v7.0,v8.0,F:/corpus/guava/guava#2010-09-23-03-12-43#v7.0#13bc6c9/src/com/google/common/collect/ImmutableSortedMapFauxverideShim.java,F:/corpus/guava/guava#2010-09-23-03-12-43#v7.0#13bc6c9/src/com/google/common/collect/ImmutableSortedMapFauxverideShim.java,0,0,0,0,6,0,0,0,0,0,2,0,0,NO,0,0,0,0,0,0,0,0,0,0,0,0,0,0,0,0,0,0,0,0,0,0,0,0,0,0,0,0,0,0,0,0,0,0,0,0,0,0,0,0,0,0,0,0,0,0,0,0,0,117
guava,v7.0,v8.0,F:/corpus/guava/guava#2010-09-23-03-12-43#v7.0#13bc6c9/src/com/google/common/collect/ImmutableSortedSetFauxverideShim.java,F:/corpus/guava/guava#2010-09-23-03-12-43#v7.0#13bc6c9/src/com/google/common/collect/ImmutableSortedSetFauxverideShim.java,0,0,0,0,9,0,0,0,0,0,0,0,0,NO,0,0,0,0,0,0,0,0,0,0,0,0,0,0,0,0,0,0,0,0,0,0,0,0,0,0,0,0,0,0,0,0,0,0,0,0,0,0,0,0,0,0,0,0,0,0,0,0,0,182
guava,v7.0,v8.0,F:/corpus/guava/guava#2010-09-23-03-12-43#v7.0#13bc6c9/src/com/google/common/collect/Interner.java,F:/corpus/guava/guava#2010-09-23-03-12-43#v7.0#13bc6c9/src/com/google/common/collect/Interner.java,0,0,0,0,1,0,0,0,0,0,0,0,0,NO,0,0,0,0,0,0,0,0,0,0,0,0,0,0,0,0,0,0,0,0,0,0,0,0,0,0,0,0,0,0,0,0,0,0,0,0,0,0,0,0,0,0,0,0,0,0,0,0,0,44
guava,v7.0,v8.0,F:/corpus/guava/guava#2010-09-23-03-12-43#v7.0#13bc6c9/src/com/google/common/collect/LinkedHashMultiset.java,F:/corpus/guava/guava#2010-09-23-03-12-43#v7.0#13bc6c9/src/com/google/common/collect/LinkedHashMultiset.java,0,0,0,0,0,0,0,0,0,0,0,0,0,NO,0,0,0,0,0,0,0,0,0,0,0,0,0,0,0,0,0,0,0,0,0,0,0,0,0,0,0,0,0,0,0,0,0,0,0,0,0,0,0,0,0,0,0,0,0,0,0,0,0,107
guava,v7.0,v8.0,F:/corpus/guava/guava#2010-09-23-03-12-43#v7.0#13bc6c9/src/com/google/common/collect/LinkedListMultimap.java,F:/corpus/guava/guava#2010-09-23-03-12-43#v7.0#13bc6c9/src/com/google/common/collect/LinkedListMultimap.java,0,0,1,0,1,0,0,0,0,0,0,0,0,NO,0,0,0,0,0,0,0,0,0,0,0,0,0,0,0,0,0,0,0,0,0,0,0,0,0,0,0,0,0,0,0,0,0,0,0,0,0,0,0,0,0,0,0,0,0,0,0,0,0,961
guava,v7.0,v8.0,F:/corpus/guava/guava#2010-09-23-03-12-43#v7.0#13bc6c9/src/com/google/common/collect/ListMultimap.java,F:/corpus/guava/guava#2010-09-23-03-12-43#v7.0#13bc6c9/src/com/google/common/collect/ListMultimap.java,0,0,0,0,1,0,0,0,0,0,0,0,0,NO,0,0,0,0,0,0,0,0,0,0,0,0,0,0,0,0,0,0,0,0,0,0,0,0,0,0,0,0,0,0,0,0,0,0,0,0,0,0,0,0,0,0,0,0,0,0,0,0,0,83
guava,v7.0,v8.0,F:/corpus/guava/guava#2010-09-23-03-12-43#v7.0#13bc6c9/src/com/google/common/collect/MapConstraint.java,F:/corpus/guava/guava#2010-09-23-03-12-43#v7.0#13bc6c9/src/com/google/common/collect/MapConstraint.java,0,0,0,0,1,0,0,0,0,0,0,0,0,NO,0,0,0,0,0,0,0,0,0,0,0,0,0,0,0,0,0,0,0,0,0,0,0,0,0,0,0,0,0,0,0,0,0,0,0,0,0,0,0,0,0,0,0,0,0,0,0,0,0,64
guava,v7.0,v8.0,F:/corpus/guava/guava#2010-09-23-03-12-43#v7.0#13bc6c9/src/com/google/common/collect/MapConstraints.java,F:/corpus/guava/guava#2010-09-23-03-12-43#v7.0#13bc6c9/src/com/google/common/collect/MapConstraints.java,0,0,0,0,0,0,0,0,0,0,0,0,0,NO,0,0,0,0,0,0,0,0,0,0,0,0,0,0,0,0,0,0,0,0,0,0,0,0,0,0,0,0,0,0,0,0,0,0,0,0,0,0,0,0,0,0,0,0,0,0,0,0,0,773
guava,v7.0,v8.0,F:/corpus/guava/guava#2010-09-23-03-12-43#v7.0#13bc6c9/src/com/google/common/collect/MapDifference.java,F:/corpus/guava/guava#2010-09-23-03-12-43#v7.0#13bc6c9/src/com/google/common/collect/MapDifference.java,0,0,0,0,2,0,0,0,0,0,0,0,0,NO,0,0,0,0,0,0,0,0,0,0,0,0,0,0,0,0,0,0,0,0,0,0,0,0,0,0,0,0,0,0,0,0,0,0,0,0,0,0,0,0,0,0,0,0,0,0,0,0,0,112
guava,v7.0,v8.0,F:/corpus/guava/guava#2010-09-23-03-12-43#v7.0#13bc6c9/src/com/google/common/collect/Multiset.java,F:/corpus/guava/guava#2010-09-23-03-12-43#v7.0#13bc6c9/src/com/google/common/collect/Multiset.java,0,0,0,0,2,0,0,0,0,0,0,0,0,NO,0,0,0,0,0,0,0,0,0,0,0,0,0,0,0,0,0,0,0,0,0,0,0,0,0,0,0,0,0,0,0,0,0,0,0,0,0,0,0,0,0,0,0,0,0,0,0,0,0,403
guava,v7.0,v8.0,F:/corpus/guava/guava#2010-09-23-03-12-43#v7.0#13bc6c9/src/com/google/common/collect/Multisets.java,F:/corpus/guava/guava#2010-09-23-03-12-43#v7.0#13bc6c9/src/com/google/common/collect/Multisets.java,0,0,0,0,17,0,1,0,0,0,0,0,0,NO,0,0,0,0,0,0,0,0,0,0,0,0,0,0,0,0,0,0,0,0,0,0,0,0,0,0,0,0,0,0,0,0,0,0,0,0,0,0,0,0,0,0,0,0,0,0,0,0,0,698
guava,v7.0,v8.0,F:/corpus/guava/guava#2010-09-23-03-12-43#v7.0#13bc6c9/src/com/google/common/collect/MutableClassToInstanceMap.java,F:/corpus/guava/guava#2010-09-23-03-12-43#v7.0#13bc6c9/src/com/google/common/collect/MutableClassToInstanceMap.java,0,0,0,0,0,0,0,0,0,0,0,0,0,NO,0,0,0,0,0,0,0,0,0,0,0,0,0,0,0,0,0,0,0,0,0,0,0,0,0,0,0,0,0,0,0,0,0,0,0,0,0,0,0,0,0,0,0,0,0,0,0,0,0,79
guava,v7.0,v8.0,F:/corpus/guava/guava#2010-09-23-03-12-43#v7.0#13bc6c9/src/com/google/common/collect/ObjectArrays.java,F:/corpus/guava/guava#2010-09-23-03-12-43#v7.0#13bc6c9/src/com/google/common/collect/ObjectArrays.java,0,0,0,0,0,0,0,0,0,0,0,0,0,NO,0,0,0,0,0,0,0,0,0,0,0,0,0,0,0,0,0,0,0,0,0,0,0,0,0,0,0,0,0,0,0,0,0,0,0,0,0,0,0,0,0,0,0,0,0,0,0,0,0,183
guava,v7.0,v8.0,F:/corpus/guava/guava#2010-09-23-03-12-43#v7.0#13bc6c9/src/com/google/common/collect/package-info.java,F:/corpus/guava/guava#2010-09-23-03-12-43#v7.0#13bc6c9/src/com/google/common/collect/package-info.java,0,0,0,0,0,0,0,0,0,0,0,0,0,NO,0,0,0,0,0,0,0,0,0,0,0,0,0,0,0,0,0,0,0,0,0,0,0,0,0,0,0,0,0,0,0,0,0,0,0,0,0,0,0,0,0,0,0,0,0,0,0,0,0,192
guava,v7.0,v8.0,F:/corpus/guava/guava#2010-09-23-03-12-43#v7.0#13bc6c9/src/com/google/common/collect/PeekingIterator.java,F:/corpus/guava/guava#2010-09-23-03-12-43#v7.0#13bc6c9/src/com/google/common/collect/PeekingIterator.java,0,0,0,0,1,0,0,0,0,0,0,0,0,NO,0,0,0,0,0,0,0,0,0,0,0,0,0,0,0,0,0,0,0,0,0,0,0,0,0,0,0,0,0,0,0,0,0,0,0,0,0,0,0,0,0,0,0,0,0,0,0,0,0,63
guava,v7.0,v8.0,F:/corpus/guava/guava#2010-09-23-03-12-43#v7.0#13bc6c9/src/com/google/common/collect/Platform.java,F:/corpus/guava/guava#2010-09-23-03-12-43#v7.0#13bc6c9/src/com/google/common/collect/Platform.java,0,0,0,0,0,1,0,0,0,0,0,0,0,NO,0,0,0,0,0,0,0,0,0,0,0,0,0,0,0,0,0,0,0,0,0,0,0,0,0,0,0,0,0,0,0,0,0,0,0,0,0,0,0,0,0,0,0,0,0,0,0,0,0,100
guava,v7.0,v8.0,F:/corpus/guava/guava#2010-09-23-03-12-43#v7.0#13bc6c9/src/com/google/common/collect/RegularImmutableBiMap.java,F:/corpus/guava/guava#2010-09-23-03-12-43#v7.0#13bc6c9/src/com/google/common/collect/RegularImmutableBiMap.java,0,0,0,0,0,0,0,0,0,0,0,0,0,NO,0,0,0,0,0,0,0,0,0,0,0,0,0,0,0,0,0,0,0,0,0,0,0,0,0,0,0,0,0,0,0,0,0,0,0,0,0,0,0,0,0,0,0,0,0,0,0,0,0,60
guava,v7.0,v8.0,F:/corpus/guava/guava#2010-09-23-03-12-43#v7.0#13bc6c9/src/com/google/common/collect/RegularImmutableSet.java,F:/corpus/guava/guava#2010-09-23-03-12-43#v7.0#13bc6c9/src/com/google/common/collect/RegularImmutableSet.java,0,0,0,0,0,0,0,0,0,0,0,0,0,NO,0,0,0,0,0,0,0,0,0,0,0,0,0,0,0,0,0,0,0,0,0,0,0,0,0,0,0,0,0,0,0,0,0,0,0,0,0,0,0,0,0,0,0,0,0,0,0,0,0,67
guava,v7.0,v8.0,F:/corpus/guava/guava#2010-09-23-03-12-43#v7.0#13bc6c9/src/com/google/common/collect/RegularImmutableSortedSet.java,F:/corpus/guava/guava#2010-09-23-03-12-43#v7.0#13bc6c9/src/com/google/common/collect/RegularImmutableSortedSet.java,0,0,0,0,0,0,0,0,0,0,0,0,0,NO,0,0,0,0,0,0,0,0,0,0,0,0,0,0,0,0,0,0,0,0,0,0,0,0,0,0,0,0,0,0,0,0,0,0,0,0,0,0,0,0,0,0,0,0,0,0,0,0,0,238
guava,v7.0,v8.0,F:/corpus/guava/guava#2010-09-23-03-12-43#v7.0#13bc6c9/src/com/google/common/collect/Serialization.java,F:/corpus/guava/guava#2010-09-23-03-12-43#v7.0#13bc6c9/src/com/google/common/collect/Serialization.java,0,0,0,0,0,0,0,0,0,0,0,0,0,NO,0,0,0,0,0,0,0,0,0,0,0,0,0,0,0,0,0,0,0,0,0,0,0,0,0,0,0,0,0,0,0,0,0,0,0,0,0,0,0,0,0,0,0,0,0,0,0,0,0,231
guava,v7.0,v8.0,F:/corpus/guava/guava#2010-09-23-03-12-43#v7.0#13bc6c9/src/com/google/common/collect/SetMultimap.java,F:/corpus/guava/guava#2010-09-23-03-12-43#v7.0#13bc6c9/src/com/google/common/collect/SetMultimap.java,0,0,0,0,1,0,0,0,0,0,0,0,0,NO,0,0,0,0,0,0,0,0,0,0,0,0,0,0,0,0,0,0,0,0,0,0,0,0,0,0,0,0,0,0,0,0,0,0,0,0,0,0,0,0,0,0,0,0,0,0,0,0,0,95
guava,v7.0,v8.0,F:/corpus/guava/guava#2010-09-23-03-12-43#v7.0#13bc6c9/src/com/google/common/collect/SingletonImmutableMap.java,F:/corpus/guava/guava#2010-09-23-03-12-43#v7.0#13bc6c9/src/com/google/common/collect/SingletonImmutableMap.java,0,0,0,0,0,0,0,0,0,0,0,0,0,NO,0,0,0,0,0,0,0,0,0,0,0,0,0,0,0,0,0,0,0,0,0,0,0,0,0,0,0,0,0,0,0,0,0,0,0,0,0,0,0,0,0,0,0,0,0,0,0,0,0,160
guava,v7.0,v8.0,F:/corpus/guava/guava#2010-09-23-03-12-43#v7.0#13bc6c9/src/com/google/common/collect/SingletonImmutableSet.java,F:/corpus/guava/guava#2010-09-23-03-12-43#v7.0#13bc6c9/src/com/google/common/collect/SingletonImmutableSet.java,0,0,0,0,0,0,0,0,0,0,0,0,0,NO,0,0,0,0,0,0,0,0,0,0,0,0,0,0,0,0,0,0,0,0,0,0,0,0,0,0,0,0,0,0,0,0,0,0,0,0,0,0,0,0,0,0,0,0,0,0,0,0,0,121
guava,v7.0,v8.0,F:/corpus/guava/guava#2010-09-23-03-12-43#v7.0#13bc6c9/src/com/google/common/collect/StandardTable.java,F:/corpus/guava/guava#2010-09-23-03-12-43#v7.0#13bc6c9/src/com/google/common/collect/StandardTable.java,0,1,0,0,2,0,0,0,0,0,0,0,0,NO,0,0,0,0,0,0,0,0,0,0,0,0,0,0,0,0,0,0,0,0,0,0,0,0,0,0,0,0,0,0,0,0,0,0,0,0,0,0,0,0,0,0,0,0,0,0,0,0,0,1120
guava,v7.0,v8.0,F:/corpus/guava/guava#2010-09-23-03-12-43#v7.0#13bc6c9/src/com/google/common/collect/Synchronized.java,F:/corpus/guava/guava#2010-09-23-03-12-43#v7.0#13bc6c9/src/com/google/common/collect/Synchronized.java,0,1,0,0,0,0,0,0,0,0,0,0,0,NO,0,0,0,0,0,0,0,0,0,0,0,0,0,0,0,0,0,0,0,0,0,0,0,0,0,0,0,0,0,0,0,0,0,0,0,0,0,0,0,0,0,0,0,0,0,0,0,0,0,1126
guava,v7.0,v8.0,F:/corpus/guava/guava#2010-09-23-03-12-43#v7.0#13bc6c9/src/com/google/common/collect/Table.java,F:/corpus/guava/guava#2010-09-23-03-12-43#v7.0#13bc6c9/src/com/google/common/collect/Table.java,0,0,0,0,2,0,0,0,0,0,0,0,0,NO,0,0,0,0,0,0,0,0,0,0,0,0,0,0,0,0,0,0,0,0,0,0,0,0,0,0,0,0,0,0,0,0,0,0,0,0,0,0,0,0,0,0,0,0,0,0,0,0,0,291
guava,v7.0,v8.0,F:/corpus/guava/guava#2010-09-23-03-12-43#v7.0#13bc6c9/src/com/google/common/collect/Tables.java,F:/corpus/guava/guava#2010-09-23-03-12-43#v7.0#13bc6c9/src/com/google/common/collect/Tables.java,0,0,0,0,1,0,0,0,0,0,0,0,0,NO,0,0,0,0,0,0,0,0,0,0,0,0,0,0,0,0,0,0,0,0,0,0,0,0,0,0,0,0,0,0,0,0,0,0,0,0,0,0,0,0,0,0,0,0,0,0,0,0,0,294
guava,v7.0,v8.0,F:/corpus/guava/guava#2010-09-23-03-12-43#v7.0#13bc6c9/src/com/google/common/collect/TreeBasedTable.java,F:/corpus/guava/guava#2010-09-23-03-12-43#v7.0#13bc6c9/src/com/google/common/collect/TreeBasedTable.java,0,0,0,0,0,0,0,0,0,0,0,0,0,NO,0,0,0,0,0,0,0,0,0,0,0,0,0,0,0,0,0,0,0,0,0,0,0,0,0,0,0,0,0,0,0,0,0,0,0,0,0,0,0,0,0,0,0,0,0,0,0,0,0,196
guava,v7.0,v8.0,F:/corpus/guava/guava#2010-09-23-03-12-43#v7.0#13bc6c9/src/com/google/common/collect/TreeMultimap.java,F:/corpus/guava/guava#2010-09-23-03-12-43#v7.0#13bc6c9/src/com/google/common/collect/TreeMultimap.java,0,0,0,0,0,0,0,0,0,0,0,0,0,NO,0,0,0,0,0,0,0,0,0,0,0,0,0,0,0,0,0,0,0,0,0,0,0,0,0,0,0,0,0,0,0,0,0,0,0,0,0,0,0,0,0,0,0,0,0,0,0,0,0,199
guava,v7.0,v8.0,F:/corpus/guava/guava#2010-09-23-03-12-43#v7.0#13bc6c9/src/com/google/common/collect/TreeMultiset.java,F:/corpus/guava/guava#2010-09-23-03-12-43#v7.0#13bc6c9/src/com/google/common/collect/TreeMultiset.java,0,0,0,0,0,0,0,0,0,0,0,0,0,NO,0,0,0,0,0,0,0,0,0,0,0,0,0,0,0,0,0,0,0,0,0,0,0,0,0,0,0,0,0,0,0,0,0,0,0,0,0,0,0,0,0,0,0,0,0,0,0,0,0,219
guava,v7.0,v8.0,F:/corpus/guava/guava#2010-09-23-03-12-43#v7.0#13bc6c9/src/com/google/common/collect/UnmodifiableIterator.java,F:/corpus/guava/guava#2010-09-23-03-12-43#v7.0#13bc6c9/src/com/google/common/collect/UnmodifiableIterator.java,0,0,0,0,1,0,0,0,0,0,0,0,0,NO,0,0,0,0,0,0,0,0,0,0,0,0,0,0,0,0,0,0,0,0,0,0,0,0,0,0,0,0,0,0,0,0,0,0,0,0,0,0,0,0,0,0,0,0,0,0,0,0,0,42
guava,v7.0,v8.0,F:/corpus/guava/guava#2010-09-23-03-12-43#v7.0#13bc6c9/src/com/google/common/collect/UnmodifiableListIterator.java,F:/corpus/guava/guava#2010-09-23-03-12-43#v7.0#13bc6c9/src/com/google/common/collect/UnmodifiableListIterator.java,0,0,0,0,3,0,0,0,0,0,0,0,0,NO,0,0,0,0,0,0,0,0,0,0,0,0,0,0,0,0,0,0,0,0,0,0,0,0,0,0,0,0,0,0,0,0,0,0,0,0,0,0,0,0,0,0,0,0,0,0,0,0,0,55
guava,v7.0,v8.0,F:/corpus/guava/guava#2010-09-23-03-12-43#v7.0#13bc6c9/src/com/google/common/io/AppendableWriter.java,F:/corpus/guava/guava#2010-09-23-03-12-43#v7.0#13bc6c9/src/com/google/common/io/AppendableWriter.java,0,0,1,0,0,0,0,0,0,0,0,0,0,NO,0,0,0,0,0,0,0,0,0,0,0,0,0,0,0,0,0,0,0,0,0,0,0,0,0,0,0,0,0,0,0,0,0,0,0,0,0,0,0,0,0,0,0,0,0,0,0,0,0,117
guava,v7.0,v8.0,F:/corpus/guava/guava#2010-09-23-03-12-43#v7.0#13bc6c9/src/com/google/common/io/ByteArrayDataInput.java,F:/corpus/guava/guava#2010-09-23-03-12-43#v7.0#13bc6c9/src/com/google/common/io/ByteArrayDataInput.java,0,0,0,0,1,0,0,0,0,0,0,0,0,NO,0,0,0,0,0,0,0,0,0,0,0,0,0,0,0,0,0,0,0,0,0,0,0,0,0,0,0,0,0,0,0,0,0,0,0,0,0,0,0,0,0,0,0,0,0,0,0,0,0,47
guava,v7.0,v8.0,F:/corpus/guava/guava#2010-09-23-03-12-43#v7.0#13bc6c9/src/com/google/common/io/ByteArrayDataOutput.java,F:/corpus/guava/guava#2010-09-23-03-12-43#v7.0#13bc6c9/src/com/google/common/io/ByteArrayDataOutput.java,0,0,0,0,1,0,0,0,0,0,0,0,0,NO,0,0,0,0,0,0,0,0,0,0,0,0,0,0,0,0,0,0,0,0,0,0,0,0,0,0,0,0,0,0,0,0,0,0,0,0,0,0,0,0,0,0,0,0,0,0,0,0,0,55
guava,v7.0,v8.0,F:/corpus/guava/guava#2010-09-23-03-12-43#v7.0#13bc6c9/src/com/google/common/io/ByteProcessor.java,F:/corpus/guava/guava#2010-09-23-03-12-43#v7.0#13bc6c9/src/com/google/common/io/ByteProcessor.java,0,0,0,0,1,0,0,0,0,0,0,0,0,NO,0,0,0,0,0,0,0,0,0,0,0,0,0,0,0,0,0,0,0,0,0,0,0,0,0,0,0,0,0,0,0,0,0,0,0,0,0,0,0,0,0,0,0,0,0,0,0,0,0,49
guava,v7.0,v8.0,F:/corpus/guava/guava#2010-09-23-03-12-43#v7.0#13bc6c9/src/com/google/common/io/ByteStreams.java,F:/corpus/guava/guava#2010-09-23-03-12-43#v7.0#13bc6c9/src/com/google/common/io/ByteStreams.java,0,0,0,0,0,0,1,0,0,0,0,0,0,NO,0,0,0,0,0,0,0,0,0,0,0,0,0,0,0,0,0,0,0,0,0,0,0,0,0,0,0,0,0,0,0,0,0,0,0,0,0,0,0,0,0,0,0,0,0,0,0,0,0,848
guava,v7.0,v8.0,F:/corpus/guava/guava#2010-09-23-03-12-43#v7.0#13bc6c9/src/com/google/common/io/CharStreams.java,F:/corpus/guava/guava#2010-09-23-03-12-43#v7.0#13bc6c9/src/com/google/common/io/CharStreams.java,0,0,0,0,0,0,0,0,0,0,0,0,0,NO,0,0,0,0,0,0,0,0,0,0,0,0,0,0,0,0,0,0,0,0,0,0,0,0,0,0,0,0,0,0,0,0,0,0,0,0,0,0,0,0,0,0,0,0,0,0,0,0,0,437
guava,v7.0,v8.0,F:/corpus/guava/guava#2010-09-23-03-12-43#v7.0#13bc6c9/src/com/google/common/io/Closeables.java,F:/corpus/guava/guava#2010-09-23-03-12-43#v7.0#13bc6c9/src/com/google/common/io/Closeables.java,0,0,0,0,0,0,0,0,0,0,0,0,0,NO,0,0,0,0,0,0,0,0,0,0,0,0,0,0,0,0,0,0,0,0,0,0,0,0,0,0,0,0,0,0,0,0,0,0,0,0,0,0,0,0,0,0,0,0,0,0,0,0,0,103
guava,v7.0,v8.0,F:/corpus/guava/guava#2010-09-23-03-12-43#v7.0#13bc6c9/src/com/google/common/io/CountingInputStream.java,F:/corpus/guava/guava#2010-09-23-03-12-43#v7.0#13bc6c9/src/com/google/common/io/CountingInputStream.java,0,0,0,0,0,0,0,0,0,0,0,0,0,NO,0,0,0,0,0,0,0,0,0,0,0,0,0,0,0,0,0,0,0,0,0,0,0,0,0,0,0,0,0,0,0,0,0,0,0,0,0,0,0,0,0,0,0,0,0,0,0,0,0,90
guava,v7.0,v8.0,F:/corpus/guava/guava#2010-09-23-03-12-43#v7.0#13bc6c9/src/com/google/common/io/CountingOutputStream.java,F:/corpus/guava/guava#2010-09-23-03-12-43#v7.0#13bc6c9/src/com/google/common/io/CountingOutputStream.java,0,0,0,0,0,0,0,0,0,0,0,0,0,NO,0,0,0,0,0,0,0,0,0,0,0,0,0,0,0,0,0,0,0,0,0,0,0,0,0,0,0,0,0,0,0,0,0,0,0,0,0,0,0,0,0,0,0,0,0,0,0,0,0,59
guava,v7.0,v8.0,F:/corpus/guava/guava#2010-09-23-03-12-43#v7.0#13bc6c9/src/com/google/common/io/FileBackedOutputStream.java,F:/corpus/guava/guava#2010-09-23-03-12-43#v7.0#13bc6c9/src/com/google/common/io/FileBackedOutputStream.java,0,0,0,0,0,0,0,0,0,0,0,0,0,NO,0,0,0,0,0,0,0,0,0,0,0,0,0,0,0,0,0,0,0,0,0,0,0,0,0,0,0,0,0,0,0,0,0,0,0,0,0,0,0,0,0,0,0,0,0,0,0,0,0,207
guava,v7.0,v8.0,F:/corpus/guava/guava#2010-09-23-03-12-43#v7.0#13bc6c9/src/com/google/common/io/Files.java,F:/corpus/guava/guava#2010-09-23-03-12-43#v7.0#13bc6c9/src/com/google/common/io/Files.java,0,0,0,0,0,1,0,0,0,0,0,0,0,NO,0,0,0,0,0,0,0,0,0,0,0,0,0,0,0,0,0,0,0,0,0,0,0,0,0,0,0,0,0,0,0,0,0,0,0,0,0,0,0,0,0,0,0,0,0,0,0,0,0,726
guava,v7.0,v8.0,F:/corpus/guava/guava#2010-09-23-03-12-43#v7.0#13bc6c9/src/com/google/common/io/LimitInputStream.java,F:/corpus/guava/guava#2010-09-23-03-12-43#v7.0#13bc6c9/src/com/google/common/io/LimitInputStream.java,0,0,0,0,0,0,0,0,0,0,0,0,0,NO,0,0,0,0,0,0,0,0,0,0,0,0,0,0,0,0,0,0,0,0,0,0,0,0,0,0,0,0,0,0,0,0,0,0,0,0,0,0,0,0,0,0,0,0,0,0,0,0,0,104
guava,v7.0,v8.0,F:/corpus/guava/guava#2010-09-23-03-12-43#v7.0#13bc6c9/src/com/google/common/io/LineBuffer.java,F:/corpus/guava/guava#2010-09-23-03-12-43#v7.0#13bc6c9/src/com/google/common/io/LineBuffer.java,0,0,0,0,1,0,0,0,0,0,0,0,0,NO,0,0,0,0,0,0,0,0,0,0,0,0,0,0,0,0,0,0,0,0,0,0,0,0,0,0,0,0,0,0,0,0,0,0,0,0,0,0,0,0,0,0,0,0,0,0,0,0,0,118
guava,v7.0,v8.0,F:/corpus/guava/guava#2010-09-23-03-12-43#v7.0#13bc6c9/src/com/google/common/io/LineProcessor.java,F:/corpus/guava/guava#2010-09-23-03-12-43#v7.0#13bc6c9/src/com/google/common/io/LineProcessor.java,0,0,0,0,1,0,0,0,0,0,0,0,0,NO,0,0,0,0,0,0,0,0,0,0,0,0,0,0,0,0,0,0,0,0,0,0,0,0,0,0,0,0,0,0,0,0,0,0,0,0,0,0,0,0,0,0,0,0,0,0,0,0,0,45
guava,v7.0,v8.0,F:/corpus/guava/guava#2010-09-23-03-12-43#v7.0#13bc6c9/src/com/google/common/io/LineReader.java,F:/corpus/guava/guava#2010-09-23-03-12-43#v7.0#13bc6c9/src/com/google/common/io/LineReader.java,0,0,0,0,0,0,0,0,0,0,0,0,0,NO,0,0,0,0,0,0,0,0,0,0,0,0,0,0,0,0,0,0,0,0,0,0,0,0,0,0,0,0,0,0,0,0,0,0,0,0,0,0,0,0,0,0,0,0,0,0,0,0,0,87
guava,v7.0,v8.0,F:/corpus/guava/guava#2010-09-23-03-12-43#v7.0#13bc6c9/src/com/google/common/io/MultiInputStream.java,F:/corpus/guava/guava#2010-09-23-03-12-43#v7.0#13bc6c9/src/com/google/common/io/MultiInputStream.java,0,0,0,0,0,0,0,0,0,0,0,0,0,NO,0,0,0,0,0,0,0,0,0,0,0,0,0,0,0,0,0,0,0,0,0,0,0,0,0,0,0,0,0,0,0,0,0,0,0,0,0,0,0,0,0,0,0,0,0,0,0,0,0,115
guava,v7.0,v8.0,F:/corpus/guava/guava#2010-09-23-03-12-43#v7.0#13bc6c9/src/com/google/common/io/MultiReader.java,F:/corpus/guava/guava#2010-09-23-03-12-43#v7.0#13bc6c9/src/com/google/common/io/MultiReader.java,0,0,0,0,0,0,0,0,0,0,0,0,0,NO,0,0,0,0,0,0,0,0,0,0,0,0,0,0,0,0,0,0,0,0,0,0,0,0,0,0,0,0,0,0,0,0,0,0,0,0,0,0,0,0,0,0,0,0,0,0,0,0,0,90
guava,v7.0,v8.0,F:/corpus/guava/guava#2010-09-23-03-12-43#v7.0#13bc6c9/src/com/google/common/io/NullOutputStream.java,F:/corpus/guava/guava#2010-09-23-03-12-43#v7.0#13bc6c9/src/com/google/common/io/NullOutputStream.java,0,0,0,0,0,0,0,0,0,0,0,0,0,NO,0,0,0,0,0,0,0,0,0,0,0,0,0,0,0,0,0,0,0,0,0,0,0,0,0,0,0,0,0,0,0,0,0,0,0,0,0,0,0,0,0,0,0,0,0,0,0,0,0,38
guava,v7.0,v8.0,F:/corpus/guava/guava#2010-09-23-03-12-43#v7.0#13bc6c9/src/com/google/common/io/package-info.java,F:/corpus/guava/guava#2010-09-23-03-12-43#v7.0#13bc6c9/src/com/google/common/io/package-info.java,0,0,0,0,0,0,0,0,0,0,0,0,0,NO,0,0,0,0,0,0,0,0,0,0,0,0,0,0,0,0,0,0,0,0,0,0,0,0,0,0,0,0,0,0,0,0,0,0,0,0,0,0,0,0,0,0,0,0,0,0,0,0,0,40
guava,v7.0,v8.0,F:/corpus/guava/guava#2010-09-23-03-12-43#v7.0#13bc6c9/src/com/google/common/io/PatternFilenameFilter.java,F:/corpus/guava/guava#2010-09-23-03-12-43#v7.0#13bc6c9/src/com/google/common/io/PatternFilenameFilter.java,0,0,0,0,1,0,0,0,0,0,0,0,0,NO,0,0,0,0,0,0,0,0,0,0,0,0,0,0,0,0,0,0,0,0,0,0,0,0,0,0,0,0,0,0,0,0,0,0,0,0,0,0,0,0,0,0,0,0,0,0,0,0,0,59
guava,v7.0,v8.0,F:/corpus/guava/guava#2010-09-23-03-12-43#v7.0#13bc6c9/src/com/google/common/io/Resources.java,F:/corpus/guava/guava#2010-09-23-03-12-43#v7.0#13bc6c9/src/com/google/common/io/Resources.java,0,0,0,0,0,0,0,0,0,0,0,0,0,NO,0,0,0,0,0,0,0,0,0,0,0,0,0,0,0,0,0,0,0,0,0,0,0,0,0,0,0,0,0,0,0,0,0,0,0,0,0,0,0,0,0,0,0,0,0,0,0,0,0,167
guava,v7.0,v8.0,F:/corpus/guava/guava#2010-09-23-03-12-43#v7.0#13bc6c9/src/com/google/common/net/package-info.java,F:/corpus/guava/guava#2010-09-23-03-12-43#v7.0#13bc6c9/src/com/google/common/net/package-info.java,0,0,0,0,0,0,0,0,0,0,0,0,0,NO,0,0,0,0,0,0,0,0,0,0,0,0,0,0,0,0,0,0,0,0,0,0,0,0,0,0,0,0,0,0,0,0,0,0,0,0,0,0,0,0,0,0,0,0,0,0,0,0,0,29
guava,v7.0,v8.0,F:/corpus/guava/guava#2010-09-23-03-12-43#v7.0#13bc6c9/src/com/google/common/primitives/Bytes.java,F:/corpus/guava/guava#2010-09-23-03-12-43#v7.0#13bc6c9/src/com/google/common/primitives/Bytes.java,0,0,0,0,0,0,0,0,0,0,0,0,0,NO,0,0,0,0,0,0,0,0,0,0,0,0,0,0,0,0,0,0,0,0,0,0,0,0,0,0,0,0,0,0,0,0,0,0,0,0,0,0,0,0,0,0,0,0,0,0,0,0,0,380
guava,v7.0,v8.0,F:/corpus/guava/guava#2010-09-23-03-12-43#v7.0#13bc6c9/src/com/google/common/primitives/package-info.java,F:/corpus/guava/guava#2010-09-23-03-12-43#v7.0#13bc6c9/src/com/google/common/primitives/package-info.java,0,0,0,0,0,0,0,0,0,0,0,0,0,NO,0,0,0,0,0,0,0,0,0,0,0,0,0,0,0,0,0,0,0,0,0,0,0,0,0,0,0,0,0,0,0,0,0,0,0,0,0,0,0,0,0,0,0,0,0,0,0,0,0,51
guava,v7.0,v8.0,F:/corpus/guava/guava#2010-09-23-03-12-43#v7.0#13bc6c9/src/com/google/common/primitives/Primitives.java,F:/corpus/guava/guava#2010-09-23-03-12-43#v7.0#13bc6c9/src/com/google/common/primitives/Primitives.java,0,0,0,0,0,0,0,0,0,0,0,0,0,NO,0,0,0,0,0,0,0,0,0,0,0,0,0,0,0,0,0,0,0,0,0,0,0,0,0,0,0,0,0,0,0,0,0,0,0,0,0,0,0,0,0,0,0,0,0,0,0,0,0,134
guava,v7.0,v8.0,F:/corpus/guava/guava#2010-09-23-03-12-43#v7.0#13bc6c9/src/com/google/common/util/concurrent/AbstractCheckedFuture.java,F:/corpus/guava/guava#2010-09-23-03-12-43#v7.0#13bc6c9/src/com/google/common/util/concurrent/AbstractCheckedFuture.java,0,0,0,0,1,0,0,0,0,0,0,0,0,NO,0,0,0,0,0,0,0,0,0,0,0,0,0,0,0,0,0,0,0,0,0,0,0,0,0,0,0,0,0,0,0,0,0,0,0,0,0,0,0,0,0,0,0,0,0,0,0,0,0,142
guava,v7.0,v8.0,F:/corpus/guava/guava#2010-09-23-03-12-43#v7.0#13bc6c9/src/com/google/common/util/concurrent/AbstractExecutionThreadService.java,F:/corpus/guava/guava#2010-09-23-03-12-43#v7.0#13bc6c9/src/com/google/common/util/concurrent/AbstractExecutionThreadService.java,0,0,0,0,1,1,0,0,0,0,0,0,0,NO,0,0,0,0,0,0,0,0,0,0,0,0,0,0,0,0,0,0,0,0,0,0,0,0,0,0,0,0,0,0,0,0,0,0,0,0,0,0,0,0,0,0,0,0,0,0,0,0,0,154
guava,v7.0,v8.0,F:/corpus/guava/guava#2010-09-23-03-12-43#v7.0#13bc6c9/src/com/google/common/util/concurrent/AbstractIdleService.java,F:/corpus/guava/guava#2010-09-23-03-12-43#v7.0#13bc6c9/src/com/google/common/util/concurrent/AbstractIdleService.java,0,0,0,0,1,1,0,0,0,0,0,0,0,NO,0,0,0,0,0,0,0,0,0,0,0,0,0,0,0,0,0,0,0,0,0,0,0,0,0,0,0,0,0,0,0,0,0,0,0,0,0,0,0,0,0,0,0,0,0,0,0,0,0,129
guava,v7.0,v8.0,F:/corpus/guava/guava#2010-09-23-03-12-43#v7.0#13bc6c9/src/com/google/common/util/concurrent/AbstractListenableFuture.java,F:/corpus/guava/guava#2010-09-23-03-12-43#v7.0#13bc6c9/src/com/google/common/util/concurrent/AbstractListenableFuture.java,0,0,1,0,1,0,0,0,0,0,0,0,0,NO,0,0,0,0,0,0,0,0,0,0,0,0,0,0,0,0,0,0,0,0,0,0,0,0,0,0,0,0,0,0,0,0,0,0,0,0,0,0,0,0,0,0,0,0,0,0,0,0,0,62
guava,v7.0,v8.0,F:/corpus/guava/guava#2010-09-23-03-12-43#v7.0#13bc6c9/src/com/google/common/util/concurrent/AbstractService.java,F:/corpus/guava/guava#2010-09-23-03-12-43#v7.0#13bc6c9/src/com/google/common/util/concurrent/AbstractService.java,0,0,0,0,2,1,0,0,0,0,0,0,0,NO,0,0,0,0,0,0,0,0,0,0,0,0,0,0,0,0,0,0,0,0,0,0,0,0,0,0,0,0,0,0,0,0,0,0,0,0,0,0,0,0,0,0,0,0,0,0,0,0,0,311
guava,v7.0,v8.0,F:/corpus/guava/guava#2010-09-23-03-12-43#v7.0#13bc6c9/src/com/google/common/util/concurrent/Callables.java,F:/corpus/guava/guava#2010-09-23-03-12-43#v7.0#13bc6c9/src/com/google/common/util/concurrent/Callables.java,0,0,0,0,0,0,0,0,0,0,0,0,0,NO,0,0,0,0,0,0,0,0,0,0,0,0,0,0,0,0,0,0,0,0,0,0,0,0,0,0,0,0,0,0,0,0,0,0,0,0,0,0,0,0,0,0,0,0,0,0,0,0,0,46
guava,v7.0,v8.0,F:/corpus/guava/guava#2010-09-23-03-12-43#v7.0#13bc6c9/src/com/google/common/util/concurrent/CheckedFuture.java,F:/corpus/guava/guava#2010-09-23-03-12-43#v7.0#13bc6c9/src/com/google/common/util/concurrent/CheckedFuture.java,0,0,0,0,1,0,0,0,0,0,0,0,0,NO,0,0,0,0,0,0,0,0,0,0,0,0,0,0,0,0,0,0,0,0,0,0,0,0,0,0,0,0,0,0,0,0,0,0,0,0,0,0,0,0,0,0,0,0,0,0,0,0,0,72
guava,v7.0,v8.0,F:/corpus/guava/guava#2010-09-23-03-12-43#v7.0#13bc6c9/src/com/google/common/util/concurrent/ForwardingFuture.java,F:/corpus/guava/guava#2010-09-23-03-12-43#v7.0#13bc6c9/src/com/google/common/util/concurrent/ForwardingFuture.java,0,0,0,0,1,0,0,0,0,0,0,0,0,NO,0,0,0,0,0,0,0,0,0,0,0,0,0,0,0,0,0,0,0,0,0,0,0,0,0,0,0,0,0,0,0,0,0,0,0,0,0,0,0,0,0,0,0,0,0,0,0,0,0,68
guava,v7.0,v8.0,F:/corpus/guava/guava#2010-09-23-03-12-43#v7.0#13bc6c9/src/com/google/common/util/concurrent/ForwardingListenableFuture.java,F:/corpus/guava/guava#2010-09-23-03-12-43#v7.0#13bc6c9/src/com/google/common/util/concurrent/ForwardingListenableFuture.java,0,0,0,0,1,0,0,0,0,0,0,0,0,NO,0,0,0,0,0,0,0,0,0,0,0,0,0,0,0,0,0,0,0,0,0,0,0,0,0,0,0,0,0,0,0,0,0,0,0,0,0,0,0,0,0,0,0,0,0,0,0,0,0,47
guava,v7.0,v8.0,F:/corpus/guava/guava#2010-09-23-03-12-43#v7.0#13bc6c9/src/com/google/common/util/concurrent/ForwardingService.java,F:/corpus/guava/guava#2010-09-23-03-12-43#v7.0#13bc6c9/src/com/google/common/util/concurrent/ForwardingService.java,0,0,0,0,1,0,0,0,0,0,0,0,0,NO,0,0,0,0,0,0,0,0,0,0,0,0,0,0,0,0,0,0,0,0,0,0,0,0,0,0,0,0,0,0,0,0,0,0,0,0,0,0,0,0,0,0,0,0,0,0,0,0,0,63
guava,v7.0,v8.0,F:/corpus/guava/guava#2010-09-23-03-12-43#v7.0#13bc6c9/src/com/google/common/util/concurrent/ListenableFuture.java,F:/corpus/guava/guava#2010-09-23-03-12-43#v7.0#13bc6c9/src/com/google/common/util/concurrent/ListenableFuture.java,0,0,0,0,1,0,0,0,0,0,0,0,0,NO,0,0,0,0,0,0,0,0,0,0,0,0,0,0,0,0,0,0,0,0,0,0,0,0,0,0,0,0,0,0,0,0,0,0,0,0,0,0,0,0,0,0,0,0,0,0,0,0,0,70
guava,v7.0,v8.0,F:/corpus/guava/guava#2010-09-23-03-12-43#v7.0#13bc6c9/src/com/google/common/util/concurrent/ListenableFutureTask.java,F:/corpus/guava/guava#2010-09-23-03-12-43#v7.0#13bc6c9/src/com/google/common/util/concurrent/ListenableFutureTask.java,0,0,0,0,0,0,0,0,0,0,0,0,0,NO,0,0,0,0,0,0,0,0,0,0,0,0,0,0,0,0,0,0,0,0,0,0,0,0,0,0,0,0,0,0,0,0,0,0,0,0,0,0,0,0,0,0,0,0,0,0,0,0,0,77
guava,v7.0,v8.0,F:/corpus/guava/guava#2010-09-23-03-12-43#v7.0#13bc6c9/src/com/google/common/util/concurrent/package-info.java,F:/corpus/guava/guava#2010-09-23-03-12-43#v7.0#13bc6c9/src/com/google/common/util/concurrent/package-info.java,0,0,0,0,0,0,0,0,0,0,0,0,0,NO,0,0,0,0,0,0,0,0,0,0,0,0,0,0,0,0,0,0,0,0,0,0,0,0,0,0,0,0,0,0,0,0,0,0,0,0,0,0,0,0,0,0,0,0,0,0,0,0,0,26
guava,v7.0,v8.0,F:/corpus/guava/guava#2010-09-23-03-12-43#v7.0#13bc6c9/src/com/google/common/util/concurrent/SimpleTimeLimiter.java,F:/corpus/guava/guava#2010-09-23-03-12-43#v7.0#13bc6c9/src/com/google/common/util/concurrent/SimpleTimeLimiter.java,0,0,0,0,0,0,0,0,0,0,0,0,0,NO,0,0,0,0,0,0,0,0,0,0,0,0,0,0,0,0,0,0,0,0,0,0,0,0,0,0,0,0,0,0,0,0,0,0,0,0,0,0,0,0,0,0,0,0,0,0,0,0,0,170
guava,v7.0,v8.0,F:/corpus/guava/guava#2010-09-23-03-12-43#v7.0#13bc6c9/src/com/google/common/util/concurrent/ThreadFactoryBuilder.java,F:/corpus/guava/guava#2010-09-23-03-12-43#v7.0#13bc6c9/src/com/google/common/util/concurrent/ThreadFactoryBuilder.java,0,0,0,0,0,0,0,0,0,0,0,0,0,NO,0,0,0,0,0,0,0,0,0,0,0,0,0,0,0,0,0,0,0,0,0,0,0,0,0,0,0,0,0,0,0,0,0,0,0,0,0,0,0,0,0,0,0,0,0,0,0,0,0,179
guava,v7.0,v8.0,F:/corpus/guava/guava#2010-09-23-03-12-43#v7.0#13bc6c9/src/com/google/common/util/concurrent/TimeLimiter.java,F:/corpus/guava/guava#2010-09-23-03-12-43#v7.0#13bc6c9/src/com/google/common/util/concurrent/TimeLimiter.java,0,0,0,0,0,0,0,0,0,0,0,0,0,NO,0,0,0,0,0,0,0,0,0,0,0,0,0,0,0,0,0,0,0,0,0,0,0,0,0,0,0,0,0,0,0,0,0,0,0,0,0,0,0,0,0,0,0,0,0,0,0,0,0,106
guava,v7.0,v8.0,F:/corpus/guava/guava#2010-09-23-03-12-43#v7.0#13bc6c9/src/com/google/common/util/concurrent/UncheckedTimeoutException.java,F:/corpus/guava/guava#2010-09-23-03-12-43#v7.0#13bc6c9/src/com/google/common/util/concurrent/UncheckedTimeoutException.java,0,0,0,0,0,0,0,0,0,0,0,0,0,NO,0,0,0,0,0,0,0,0,0,0,0,0,0,0,0,0,0,0,0,0,0,0,0,0,0,0,0,0,0,0,0,0,0,0,0,0,0,0,0,0,0,0,0,0,0,0,0,0,0,41
guava,v7.0,v8.0,F:/corpus/guava/guava#2010-09-23-03-12-43#v7.0#13bc6c9/src/com/google/common/util/concurrent/UninterruptibleFuture.java,F:/corpus/guava/guava#2010-09-23-03-12-43#v7.0#13bc6c9/src/com/google/common/util/concurrent/UninterruptibleFuture.java,0,0,0,0,1,0,0,0,0,0,0,0,0,NO,0,0,0,0,0,0,0,0,0,0,0,0,0,0,0,0,0,0,0,0,0,0,0,0,0,0,0,0,0,0,0,0,0,0,0,0,0,0,0,0,0,0,0,0,0,0,0,0,0,42
