projectName,oldVersionTag,newVersionTag,oldPath,newPath,DC,LC,MM,RPB,SG,MCH,DCLP,DIVC,FE,LM,LPL,SS,SC,fromChangeDistiller,adding_attribute_modifiability,adding_class_derivability,adding_method_overridability,additional_class,additional_functionality,additional_object_state,alternative_part_delete,alternative_part_insert,attribute_renaming,attribute_type_change,class_renaming,comment_delete,comment_insert,comment_move,comment_update,condition_expression_change,decreasing_accessibility_change,doc_delete,doc_insert,doc_update,increasing_accessibility_change,method_renaming,parameter_delete,parameter_insert,parameter_ordering_change,parameter_renaming,parameter_type_change,parent_class_change,parent_class_delete,parent_class_insert,parent_interface_change,parent_interface_delete,parent_interface_insert,removed_class,removed_functionality,removed_object_state,removing_attribute_modifiability,removing_class_derivability,removing_method_overridability,return_type_change,return_type_delete,return_type_insert,statement_delete,statement_insert,statement_ordering_change,statement_parent_change,statement_update,unclassified_change,codeChurn,LOC
guava,v5.0,v6.0,F:/corpus/guava/guava#2010-06-03-08-26-58#v5.0#1ab3ec7/src/com/google/common/base/Defaults.java,F:/corpus/guava/guava#2010-07-09-05-54-56#v6.0#9b62975/src/com/google/common/base/Defaults.java,0,0,0,0,0,0,0,0,0,0,0,0,0,YES,0,0,0,0,0,0,0,0,0,0,0,0,0,0,0,0,0,0,0,0,0,0,0,0,0,0,0,0,0,0,0,0,0,0,0,0,0,0,0,0,0,0,0,0,0,0,0,0,13,57
guava,v5.0,v6.0,F:/corpus/guava/guava#2010-06-03-08-26-58#v5.0#1ab3ec7/src/com/google/common/base/Equivalence.java,F:/corpus/guava/guava#2010-07-09-05-54-56#v6.0#9b62975/src/com/google/common/base/Equivalence.java,0,0,0,0,1,0,0,0,0,0,0,0,0,YES,0,0,0,0,0,0,0,0,0,0,0,0,0,0,0,0,0,0,0,0,0,0,0,0,0,0,0,0,0,0,0,0,0,0,0,0,0,0,0,0,0,0,0,0,0,0,0,0,38,71
guava,v5.0,v6.0,F:/corpus/guava/guava#2010-06-03-08-26-58#v5.0#1ab3ec7/src/com/google/common/base/Equivalences.java,F:/corpus/guava/guava#2010-07-09-05-54-56#v6.0#9b62975/src/com/google/common/base/Equivalences.java,0,0,0,0,0,0,0,0,0,0,0,0,0,YES,0,0,0,0,0,0,0,0,0,0,0,0,0,0,0,0,0,0,0,0,0,0,0,0,0,0,0,0,0,0,0,0,0,0,0,0,0,0,0,0,0,0,0,0,0,0,0,0,28,93
guava,v5.0,v6.0,F:/corpus/guava/guava#2010-06-03-08-26-58#v5.0#1ab3ec7/src/com/google/common/base/FinalizablePhantomReference.java,F:/corpus/guava/guava#2010-07-09-05-54-56#v6.0#9b62975/src/com/google/common/base/FinalizablePhantomReference.java,0,0,0,0,1,0,0,0,0,0,0,0,0,YES,0,0,0,0,0,0,0,0,0,0,0,0,0,0,0,0,0,0,0,0,0,0,0,0,0,0,0,0,0,0,0,0,0,0,0,0,0,0,0,0,0,0,0,0,0,0,0,0,20,47
guava,v5.0,v6.0,F:/corpus/guava/guava#2010-06-03-08-26-58#v5.0#1ab3ec7/src/com/google/common/base/FinalizableReference.java,F:/corpus/guava/guava#2010-07-09-05-54-56#v6.0#9b62975/src/com/google/common/base/FinalizableReference.java,0,0,0,0,0,0,0,0,0,0,0,0,0,YES,0,0,0,0,0,0,0,0,0,0,0,0,0,0,0,0,0,0,0,0,0,0,0,0,0,0,0,0,0,0,0,0,0,0,0,0,0,0,0,0,0,0,0,0,0,0,0,0,15,36
guava,v5.0,v6.0,F:/corpus/guava/guava#2010-06-03-08-26-58#v5.0#1ab3ec7/src/com/google/common/base/FinalizableReferenceQueue.java,F:/corpus/guava/guava#2010-07-09-05-54-56#v6.0#9b62975/src/com/google/common/base/FinalizableReferenceQueue.java,0,0,0,0,0,1,0,0,0,0,0,0,0,YES,0,0,0,0,0,0,0,0,0,0,0,1,1,0,0,0,0,0,0,0,0,0,0,0,0,0,0,0,0,0,0,0,0,0,0,0,0,0,0,0,0,0,0,0,0,0,2,0,99,314
guava,v5.0,v6.0,F:/corpus/guava/guava#2010-06-03-08-26-58#v5.0#1ab3ec7/src/com/google/common/base/FinalizableSoftReference.java,F:/corpus/guava/guava#2010-07-09-05-54-56#v6.0#9b62975/src/com/google/common/base/FinalizableSoftReference.java,0,0,0,0,1,0,0,0,0,0,0,0,0,YES,0,0,0,0,0,0,0,0,0,0,0,0,0,0,0,0,0,0,0,0,0,0,0,0,0,0,0,0,0,0,0,0,0,0,0,0,0,0,0,0,0,0,0,0,0,0,0,0,15,43
guava,v5.0,v6.0,F:/corpus/guava/guava#2010-06-03-08-26-58#v5.0#1ab3ec7/src/com/google/common/base/FinalizableWeakReference.java,F:/corpus/guava/guava#2010-07-09-05-54-56#v6.0#9b62975/src/com/google/common/base/FinalizableWeakReference.java,0,0,0,0,1,0,0,0,0,0,0,0,0,YES,0,0,0,0,0,0,0,0,0,0,0,0,0,0,0,0,0,0,0,0,0,0,0,0,0,0,0,0,0,0,0,0,0,0,0,0,0,0,0,0,0,0,0,0,0,0,0,0,15,43
guava,v5.0,v6.0,F:/corpus/guava/guava#2010-06-03-08-26-58#v5.0#1ab3ec7/src/com/google/common/base/Function.java,F:/corpus/guava/guava#2010-07-09-05-54-56#v6.0#9b62975/src/com/google/common/base/Function.java,0,0,0,0,1,0,0,0,0,0,0,0,0,YES,0,0,0,0,0,0,0,0,0,0,0,0,0,0,0,0,0,0,0,0,0,0,0,0,0,0,0,0,0,0,0,0,0,0,0,0,0,0,0,0,0,0,0,0,0,0,0,0,31,68
guava,v5.0,v6.0,F:/corpus/guava/guava#2010-06-03-08-26-58#v5.0#1ab3ec7/src/com/google/common/base/Functions.java,F:/corpus/guava/guava#2010-07-09-05-54-56#v6.0#9b62975/src/com/google/common/base/Functions.java,0,0,0,0,1,0,0,0,0,0,0,0,0,YES,0,0,0,0,0,0,0,0,0,0,0,0,0,0,0,0,0,0,0,0,0,0,0,0,0,0,0,0,0,0,0,0,0,0,0,0,0,0,0,0,0,0,0,0,0,0,0,0,77,286
guava,v5.0,v6.0,F:/corpus/guava/guava#2010-06-03-08-26-58#v5.0#1ab3ec7/src/com/google/common/base/Joiner.java,F:/corpus/guava/guava#2010-07-09-05-54-56#v6.0#9b62975/src/com/google/common/base/Joiner.java,0,0,0,0,0,0,0,0,0,0,0,0,0,YES,0,0,0,0,0,0,0,0,0,0,0,0,0,0,0,0,0,0,0,0,0,0,0,0,0,0,0,0,0,0,0,0,0,0,0,0,0,0,0,0,0,0,0,0,0,0,0,0,106,353
guava,v5.0,v6.0,F:/corpus/guava/guava#2010-06-03-08-26-58#v5.0#1ab3ec7/src/com/google/common/base/Objects.java,F:/corpus/guava/guava#2010-07-09-05-54-56#v6.0#9b62975/src/com/google/common/base/Objects.java,0,0,0,0,0,0,0,0,0,0,0,2,0,YES,0,0,0,0,0,0,0,0,0,0,0,0,0,0,0,0,0,0,0,1,0,0,0,0,0,1,0,0,0,0,0,0,0,0,0,0,0,0,0,0,0,0,0,0,0,0,1,0,4,184
guava,v5.0,v6.0,F:/corpus/guava/guava#2010-06-03-08-26-58#v5.0#1ab3ec7/src/com/google/common/base/Platform.java,F:/corpus/guava/guava#2010-07-09-05-54-56#v6.0#9b62975/src/com/google/common/base/Platform.java,0,0,0,0,0,0,0,0,0,0,0,0,0,YES,0,0,0,0,1,0,0,0,0,0,0,0,0,0,0,0,0,0,0,0,0,0,0,0,0,0,0,0,0,0,0,0,0,0,0,0,0,0,0,0,0,0,0,0,0,0,0,0,5,59
guava,v5.0,v6.0,F:/corpus/guava/guava#2010-06-03-08-26-58#v5.0#1ab3ec7/src/com/google/common/base/Predicates.java,F:/corpus/guava/guava#2010-07-09-05-54-56#v6.0#9b62975/src/com/google/common/base/Predicates.java,0,0,0,0,0,0,0,0,0,0,0,0,0,YES,0,0,0,0,0,0,0,0,0,0,0,0,0,0,0,0,0,0,0,0,0,0,0,0,0,0,0,0,0,0,0,0,0,0,0,0,0,0,0,0,0,0,0,0,0,0,0,0,4,630
guava,v5.0,v6.0,F:/corpus/guava/guava#2010-06-03-08-26-58#v5.0#1ab3ec7/src/com/google/common/base/Splitter.java,F:/corpus/guava/guava#2010-07-09-05-54-56#v6.0#9b62975/src/com/google/common/base/Splitter.java,0,0,0,0,3,0,0,0,0,0,0,0,0,YES,0,0,0,0,0,0,0,0,0,0,0,0,0,0,0,0,0,0,0,0,0,0,0,0,0,0,0,0,0,0,0,0,0,0,0,0,0,0,0,0,0,0,0,0,0,0,5,0,11,459
guava,v5.0,v6.0,F:/corpus/guava/guava#2010-06-03-08-26-58#v5.0#1ab3ec7/src/com/google/common/base/Strings.java,F:/corpus/guava/guava#2010-07-09-05-54-56#v6.0#9b62975/src/com/google/common/base/Strings.java,0,0,0,0,0,0,0,0,0,0,0,0,0,YES,0,0,0,0,0,0,0,0,0,0,0,0,3,0,0,0,0,0,0,0,0,0,0,0,0,0,0,0,0,0,0,0,0,0,0,0,0,0,0,0,0,0,0,3,0,0,0,0,10,160
guava,v5.0,v6.0,F:/corpus/guava/guava#2010-06-03-08-26-58#v5.0#1ab3ec7/src/com/google/common/base/Suppliers.java,F:/corpus/guava/guava#2010-07-09-05-54-56#v6.0#9b62975/src/com/google/common/base/Suppliers.java,0,0,0,0,0,0,1,0,0,0,0,0,0,YES,0,0,0,0,0,0,0,0,0,0,0,0,0,0,0,1,0,0,0,0,0,0,0,0,0,0,0,0,0,0,0,0,0,0,0,0,0,0,0,0,0,0,0,0,0,0,1,0,4,195
guava,v5.0,v6.0,F:/corpus/guava/guava#2010-06-03-08-26-58#v5.0#1ab3ec7/src/com/google/common/base/Throwables.java,F:/corpus/guava/guava#2010-07-09-05-54-56#v6.0#9b62975/src/com/google/common/base/Throwables.java,0,0,0,0,0,0,0,0,0,0,0,0,0,YES,0,0,0,0,0,0,0,0,0,0,0,0,0,0,0,0,0,0,0,0,0,0,0,0,0,0,0,0,0,0,0,0,0,0,0,0,0,0,0,0,0,0,0,0,0,0,0,0,4,254
guava,v5.0,v6.0,F:/corpus/guava/guava#2010-06-03-08-26-58#v5.0#1ab3ec7/src/com/google/common/collect/AbstractBiMap.java,F:/corpus/guava/guava#2010-07-09-05-54-56#v6.0#9b62975/src/com/google/common/collect/AbstractBiMap.java,0,0,0,0,1,0,0,0,0,0,0,0,0,YES,0,0,0,0,0,0,0,0,0,0,0,0,0,0,0,0,0,0,0,0,0,0,0,0,0,0,0,0,0,0,0,0,0,0,0,0,0,0,0,0,0,0,0,0,0,0,2,0,18,394
guava,v5.0,v6.0,F:/corpus/guava/guava#2010-06-03-08-26-58#v5.0#1ab3ec7/src/com/google/common/collect/AbstractIterator.java,F:/corpus/guava/guava#2010-07-09-05-54-56#v6.0#9b62975/src/com/google/common/collect/AbstractIterator.java,0,0,0,0,1,0,0,0,0,0,0,1,0,YES,0,0,0,0,0,0,0,0,0,0,0,0,0,0,0,0,0,0,0,0,0,0,0,0,0,0,0,0,0,0,0,0,0,0,0,0,0,0,0,0,0,0,0,0,0,0,0,0,3,165
guava,v5.0,v6.0,F:/corpus/guava/guava#2010-06-03-08-26-58#v5.0#1ab3ec7/src/com/google/common/collect/AbstractMapBasedMultiset.java,F:/corpus/guava/guava#2010-07-09-05-54-56#v6.0#9b62975/src/com/google/common/collect/AbstractMapBasedMultiset.java,0,0,0,0,1,5,0,0,0,0,0,0,0,YES,0,0,0,0,0,0,0,0,0,0,0,0,0,0,0,0,0,0,0,0,0,0,0,0,0,0,0,0,0,0,0,0,0,0,0,0,0,0,0,0,0,0,1,1,0,0,0,0,9,414
guava,v5.0,v6.0,F:/corpus/guava/guava#2010-06-03-08-26-58#v5.0#1ab3ec7/src/com/google/common/collect/AbstractMultimap.java,F:/corpus/guava/guava#2010-07-09-05-54-56#v6.0#9b62975/src/com/google/common/collect/AbstractMultimap.java,0,1,3,0,2,0,1,0,0,0,0,1,0,YES,0,0,0,0,0,0,0,0,0,0,0,0,0,0,0,0,0,0,0,0,0,0,0,0,0,0,0,0,0,0,0,0,0,0,0,0,0,0,0,0,0,0,0,0,0,0,0,0,8,1492
guava,v5.0,v6.0,F:/corpus/guava/guava#2010-06-03-08-26-58#v5.0#1ab3ec7/src/com/google/common/collect/AbstractMultiset.java,F:/corpus/guava/guava#2010-07-09-05-54-56#v6.0#9b62975/src/com/google/common/collect/AbstractMultiset.java,0,0,0,0,3,0,0,0,0,0,0,0,0,YES,0,0,0,0,0,0,0,0,0,0,0,0,0,0,0,0,0,0,0,0,0,0,0,0,0,0,0,0,0,0,0,0,0,0,0,0,0,0,0,0,0,0,1,1,0,0,0,0,7,295
guava,v5.0,v6.0,F:/corpus/guava/guava#2010-06-03-08-26-58#v5.0#1ab3ec7/src/com/google/common/collect/ArrayListMultimap.java,F:/corpus/guava/guava#2010-07-09-05-54-56#v6.0#9b62975/src/com/google/common/collect/ArrayListMultimap.java,0,0,0,0,0,0,0,0,0,0,0,0,0,YES,0,0,0,0,0,0,0,0,0,0,0,0,0,0,0,0,0,0,0,0,0,0,0,0,0,0,0,0,0,0,0,0,0,0,0,0,0,0,0,0,0,0,0,0,0,0,0,0,9,159
guava,v5.0,v6.0,F:/corpus/guava/guava#2010-06-03-08-26-58#v5.0#1ab3ec7/src/com/google/common/collect/ByFunctionOrdering.java,F:/corpus/guava/guava#2010-07-09-05-54-56#v6.0#9b62975/src/com/google/common/collect/ByFunctionOrdering.java,0,0,0,0,0,0,0,0,0,0,0,0,0,YES,0,0,0,0,0,0,0,0,0,0,0,0,0,0,0,0,0,0,0,0,0,0,0,0,0,0,0,0,0,0,0,0,0,0,0,0,0,0,0,0,0,0,0,0,0,0,0,0,3,69
guava,v5.0,v6.0,F:/corpus/guava/guava#2010-06-03-08-26-58#v5.0#1ab3ec7/src/com/google/common/collect/Collections2.java,F:/corpus/guava/guava#2010-07-09-05-54-56#v6.0#9b62975/src/com/google/common/collect/Collections2.java,0,0,0,0,0,0,0,0,0,0,0,2,0,YES,0,0,0,0,0,0,0,0,0,0,0,0,0,0,0,0,0,0,0,0,0,0,0,0,0,0,0,0,0,0,0,0,0,0,0,0,0,0,0,0,0,0,0,0,0,0,0,0,5,301
guava,v5.0,v6.0,F:/corpus/guava/guava#2010-06-03-08-26-58#v5.0#1ab3ec7/src/com/google/common/collect/ComparatorOrdering.java,F:/corpus/guava/guava#2010-07-09-05-54-56#v6.0#9b62975/src/com/google/common/collect/ComparatorOrdering.java,0,0,0,0,0,0,0,0,0,0,0,0,0,YES,0,0,0,0,0,0,0,0,0,0,0,0,0,0,0,0,0,0,0,0,0,0,0,0,0,0,0,0,0,0,0,0,0,0,0,0,0,0,0,0,0,0,0,0,0,0,0,0,3,74
guava,v5.0,v6.0,F:/corpus/guava/guava#2010-06-03-08-26-58#v5.0#1ab3ec7/src/com/google/common/collect/ComputingConcurrentHashMap.java,F:/corpus/guava/guava#2010-07-09-05-54-56#v6.0#9b62975/src/com/google/common/collect/ComputingConcurrentHashMap.java,0,0,0,1,2,0,0,0,1,0,1,0,0,YES,0,0,0,0,0,0,0,0,0,0,0,0,0,0,0,0,0,0,0,0,0,0,0,0,0,0,0,0,0,0,0,0,0,0,0,0,0,0,0,0,0,0,0,0,0,0,0,0,3,375
guava,v5.0,v6.0,F:/corpus/guava/guava#2010-06-03-08-26-58#v5.0#1ab3ec7/src/com/google/common/collect/ConcurrentHashMultiset.java,F:/corpus/guava/guava#2010-07-09-05-54-56#v6.0#9b62975/src/com/google/common/collect/ConcurrentHashMultiset.java,0,0,0,0,0,0,0,0,0,0,0,0,0,YES,0,0,0,0,0,0,0,0,0,0,0,0,0,0,0,0,0,0,0,0,0,0,0,0,0,0,0,0,0,0,0,0,0,0,0,0,0,0,0,0,0,0,1,1,0,0,0,0,5,486
guava,v5.0,v6.0,F:/corpus/guava/guava#2010-06-03-08-26-58#v5.0#1ab3ec7/src/com/google/common/collect/Constraints.java,F:/corpus/guava/guava#2010-07-09-05-54-56#v6.0#9b62975/src/com/google/common/collect/Constraints.java,0,0,1,0,0,0,0,0,0,0,0,0,0,YES,0,0,0,0,0,0,0,0,0,0,0,0,0,0,0,0,0,0,0,0,0,0,0,0,0,0,0,0,0,0,0,0,0,0,0,0,0,0,0,0,0,0,0,0,0,0,0,0,3,382
guava,v5.0,v6.0,F:/corpus/guava/guava#2010-06-03-08-26-58#v5.0#1ab3ec7/src/com/google/common/collect/CustomConcurrentHashMap.java,F:/corpus/guava/guava#2010-07-09-05-54-56#v6.0#9b62975/src/com/google/common/collect/CustomConcurrentHashMap.java,7,1,0,0,5,0,76,0,0,0,2,0,0,YES,0,0,0,0,0,0,0,0,0,0,0,0,0,0,0,0,0,0,0,0,0,0,0,0,0,0,0,0,0,0,0,0,0,0,0,0,0,0,0,0,0,0,0,0,0,0,0,0,6,2549
guava,v5.0,v6.0,F:/corpus/guava/guava#2010-06-03-08-26-58#v5.0#1ab3ec7/src/com/google/common/collect/EmptyImmutableList.java,F:/corpus/guava/guava#2010-07-09-05-54-56#v6.0#9b62975/src/com/google/common/collect/EmptyImmutableList.java,0,0,0,0,3,0,0,0,0,0,0,0,0,YES,0,0,0,0,0,0,0,0,0,0,0,0,0,0,0,0,0,0,0,0,0,0,0,0,0,0,0,0,0,0,0,0,0,0,0,0,0,0,0,0,0,0,0,0,0,0,0,0,8,125
guava,v5.0,v6.0,F:/corpus/guava/guava#2010-06-03-08-26-58#v5.0#1ab3ec7/src/com/google/common/collect/EnumMultiset.java,F:/corpus/guava/guava#2010-07-09-05-54-56#v6.0#9b62975/src/com/google/common/collect/EnumMultiset.java,0,0,0,0,0,0,0,0,0,0,0,0,0,YES,0,0,0,0,0,0,0,0,0,0,0,0,0,0,0,0,0,0,0,0,0,0,0,0,0,0,0,0,0,0,0,0,0,0,0,0,0,0,0,0,0,0,0,0,0,0,0,0,8,90
guava,v5.0,v6.0,F:/corpus/guava/guava#2010-06-03-08-26-58#v5.0#1ab3ec7/src/com/google/common/collect/ForwardingCollection.java,F:/corpus/guava/guava#2010-07-09-05-54-56#v6.0#9b62975/src/com/google/common/collect/ForwardingCollection.java,0,0,0,0,1,0,0,0,0,0,0,0,0,YES,0,0,0,0,0,0,0,0,0,0,0,0,0,0,0,0,0,0,0,0,0,0,0,0,0,0,0,0,0,0,0,0,0,0,0,0,0,0,0,0,0,0,0,0,0,0,0,0,1,94
guava,v5.0,v6.0,F:/corpus/guava/guava#2010-06-03-08-26-58#v5.0#1ab3ec7/src/com/google/common/collect/ForwardingConcurrentMap.java,F:/corpus/guava/guava#2010-07-09-05-54-56#v6.0#9b62975/src/com/google/common/collect/ForwardingConcurrentMap.java,0,0,0,0,1,0,0,0,0,0,0,0,0,YES,0,0,0,0,0,0,0,0,0,0,0,0,0,0,0,0,0,0,0,0,0,0,0,0,0,0,0,0,0,0,0,0,0,0,0,0,0,0,0,0,0,0,0,0,0,0,0,0,1,58
guava,v5.0,v6.0,F:/corpus/guava/guava#2010-06-03-08-26-58#v5.0#1ab3ec7/src/com/google/common/collect/ForwardingIterator.java,F:/corpus/guava/guava#2010-07-09-05-54-56#v6.0#9b62975/src/com/google/common/collect/ForwardingIterator.java,0,0,0,0,1,0,0,0,0,0,0,0,0,YES,0,0,0,0,0,0,0,0,0,0,0,0,0,0,0,0,0,0,0,0,0,0,0,0,0,0,0,0,0,0,0,0,0,0,0,0,0,0,0,0,0,0,0,0,0,0,0,0,1,53
guava,v5.0,v6.0,F:/corpus/guava/guava#2010-06-03-08-26-58#v5.0#1ab3ec7/src/com/google/common/collect/ForwardingListIterator.java,F:/corpus/guava/guava#2010-07-09-05-54-56#v6.0#9b62975/src/com/google/common/collect/ForwardingListIterator.java,0,0,0,0,1,0,0,0,0,0,0,0,0,YES,0,0,0,0,0,0,0,0,0,0,0,0,0,0,0,0,0,0,0,0,0,0,0,0,0,0,0,0,0,0,0,0,0,0,0,0,0,0,0,0,0,0,0,0,0,0,0,0,1,65
guava,v5.0,v6.0,F:/corpus/guava/guava#2010-06-03-08-26-58#v5.0#1ab3ec7/src/com/google/common/collect/ForwardingListMultimap.java,F:/corpus/guava/guava#2010-07-09-05-54-56#v6.0#9b62975/src/com/google/common/collect/ForwardingListMultimap.java,0,0,0,0,1,0,0,0,0,0,0,0,0,YES,0,0,0,0,0,0,0,0,0,0,0,0,0,0,0,0,0,0,0,0,0,0,0,0,0,0,0,0,0,0,0,0,0,0,0,0,0,0,0,0,0,0,0,0,0,0,0,0,1,55
guava,v5.0,v6.0,F:/corpus/guava/guava#2010-06-03-08-26-58#v5.0#1ab3ec7/src/com/google/common/collect/ForwardingMap.java,F:/corpus/guava/guava#2010-07-09-05-54-56#v6.0#9b62975/src/com/google/common/collect/ForwardingMap.java,0,0,0,0,1,0,0,0,0,0,0,0,0,YES,0,0,0,0,0,0,0,0,0,0,0,0,0,0,0,0,0,0,0,0,0,0,0,0,0,0,0,0,0,0,0,0,0,0,0,0,0,0,0,0,0,0,0,0,0,0,0,0,1,102
guava,v5.0,v6.0,F:/corpus/guava/guava#2010-06-03-08-26-58#v5.0#1ab3ec7/src/com/google/common/collect/ForwardingMapEntry.java,F:/corpus/guava/guava#2010-07-09-05-54-56#v6.0#9b62975/src/com/google/common/collect/ForwardingMapEntry.java,0,0,0,0,1,0,0,0,0,0,0,0,0,YES,0,0,0,0,0,0,0,0,0,0,0,0,0,0,0,0,0,0,0,0,0,0,0,0,0,0,0,0,0,0,0,0,0,0,0,0,0,0,0,0,0,0,0,0,0,0,0,0,1,63
guava,v5.0,v6.0,F:/corpus/guava/guava#2010-06-03-08-26-58#v5.0#1ab3ec7/src/com/google/common/collect/ForwardingMultimap.java,F:/corpus/guava/guava#2010-07-09-05-54-56#v6.0#9b62975/src/com/google/common/collect/ForwardingMultimap.java,0,0,0,0,1,0,0,0,0,0,0,0,0,YES,0,0,0,0,0,0,0,0,0,0,0,0,0,0,0,0,0,0,0,0,0,0,0,0,0,0,0,0,0,0,0,0,0,0,0,0,0,0,0,0,0,0,0,0,0,0,0,0,1,126
guava,v5.0,v6.0,F:/corpus/guava/guava#2010-06-03-08-26-58#v5.0#1ab3ec7/src/com/google/common/collect/ForwardingMultiset.java,F:/corpus/guava/guava#2010-07-09-05-54-56#v6.0#9b62975/src/com/google/common/collect/ForwardingMultiset.java,0,0,0,0,1,0,0,0,0,0,0,0,0,YES,0,0,0,0,0,0,0,0,0,0,0,0,0,0,0,0,0,0,0,0,0,0,0,0,0,0,0,0,0,0,0,0,0,0,0,0,0,0,0,0,0,0,0,0,0,0,0,0,1,79
guava,v5.0,v6.0,F:/corpus/guava/guava#2010-06-03-08-26-58#v5.0#1ab3ec7/src/com/google/common/collect/ForwardingQueue.java,F:/corpus/guava/guava#2010-07-09-05-54-56#v6.0#9b62975/src/com/google/common/collect/ForwardingQueue.java,0,0,0,0,1,0,0,0,0,0,0,0,0,YES,0,0,0,0,0,0,0,0,0,0,0,0,0,0,0,0,0,0,0,0,0,0,0,0,0,0,0,0,0,0,0,0,0,0,0,0,0,0,0,0,0,0,0,0,0,0,0,0,1,61
guava,v5.0,v6.0,F:/corpus/guava/guava#2010-06-03-08-26-58#v5.0#1ab3ec7/src/com/google/common/collect/ForwardingSet.java,F:/corpus/guava/guava#2010-07-09-05-54-56#v6.0#9b62975/src/com/google/common/collect/ForwardingSet.java,0,0,0,0,1,0,0,0,0,0,0,0,0,YES,0,0,0,0,0,0,0,0,0,0,0,0,0,0,0,0,0,0,0,0,0,0,0,0,0,0,0,0,0,0,0,0,0,0,0,0,0,0,0,0,0,0,0,0,0,0,0,0,1,51
guava,v5.0,v6.0,F:/corpus/guava/guava#2010-06-03-08-26-58#v5.0#1ab3ec7/src/com/google/common/collect/ForwardingSetMultimap.java,F:/corpus/guava/guava#2010-07-09-05-54-56#v6.0#9b62975/src/com/google/common/collect/ForwardingSetMultimap.java,0,0,0,0,1,0,0,0,0,0,0,0,0,YES,0,0,0,0,0,0,0,0,0,0,0,0,0,0,0,0,0,0,0,0,0,0,0,0,0,0,0,0,0,0,0,0,0,0,0,0,0,0,0,0,0,0,0,0,0,0,0,0,1,57
guava,v5.0,v6.0,F:/corpus/guava/guava#2010-06-03-08-26-58#v5.0#1ab3ec7/src/com/google/common/collect/ForwardingSortedMap.java,F:/corpus/guava/guava#2010-07-09-05-54-56#v6.0#9b62975/src/com/google/common/collect/ForwardingSortedMap.java,0,0,0,0,1,0,0,0,0,0,0,0,0,YES,0,0,0,0,0,0,0,0,0,0,0,0,0,0,0,0,0,0,0,0,0,0,0,0,0,0,0,0,0,0,0,0,0,0,0,0,0,0,0,0,0,0,0,0,0,0,0,0,1,66
guava,v5.0,v6.0,F:/corpus/guava/guava#2010-06-03-08-26-58#v5.0#1ab3ec7/src/com/google/common/collect/ForwardingSortedSet.java,F:/corpus/guava/guava#2010-07-09-05-54-56#v6.0#9b62975/src/com/google/common/collect/ForwardingSortedSet.java,0,0,0,0,1,0,0,0,0,0,0,0,0,YES,0,0,0,0,0,0,0,0,0,0,0,0,0,0,0,0,0,0,0,0,0,0,0,0,0,0,0,0,0,0,0,0,0,0,0,0,0,0,0,0,0,0,0,0,0,0,0,0,1,66
guava,v5.0,v6.0,F:/corpus/guava/guava#2010-06-03-08-26-58#v5.0#1ab3ec7/src/com/google/common/collect/ForwardingSortedSetMultimap.java,F:/corpus/guava/guava#2010-07-09-05-54-56#v6.0#9b62975/src/com/google/common/collect/ForwardingSortedSetMultimap.java,0,0,0,0,1,0,0,0,0,0,0,0,0,YES,0,0,0,0,0,0,0,0,0,0,0,0,0,0,0,0,0,0,0,0,0,0,0,0,0,0,0,0,0,0,0,0,0,0,0,0,0,0,0,0,0,0,0,0,0,0,0,0,1,61
guava,v5.0,v6.0,F:/corpus/guava/guava#2010-06-03-08-26-58#v5.0#1ab3ec7/src/com/google/common/collect/HashBiMap.java,F:/corpus/guava/guava#2010-07-09-05-54-56#v6.0#9b62975/src/com/google/common/collect/HashBiMap.java,0,0,0,0,0,0,0,0,0,0,0,0,0,YES,0,0,0,0,0,0,0,0,0,0,0,0,0,0,0,0,0,0,0,0,0,0,0,0,0,0,0,0,0,0,0,0,0,0,0,0,0,0,0,0,0,0,0,0,0,0,0,0,5,109
guava,v5.0,v6.0,F:/corpus/guava/guava#2010-06-03-08-26-58#v5.0#1ab3ec7/src/com/google/common/collect/HashMultimap.java,F:/corpus/guava/guava#2010-07-09-05-54-56#v6.0#9b62975/src/com/google/common/collect/HashMultimap.java,0,0,0,0,0,0,0,0,0,0,0,0,0,YES,0,0,0,0,0,0,0,0,0,0,0,0,0,0,0,0,0,0,0,0,0,0,0,0,0,0,0,0,0,0,0,0,0,0,0,0,0,0,0,0,0,0,0,0,0,0,0,0,5,138
guava,v5.0,v6.0,F:/corpus/guava/guava#2010-06-03-08-26-58#v5.0#1ab3ec7/src/com/google/common/collect/HashMultiset.java,F:/corpus/guava/guava#2010-07-09-05-54-56#v6.0#9b62975/src/com/google/common/collect/HashMultiset.java,0,0,0,0,0,0,0,0,0,0,0,0,0,YES,0,0,0,0,0,0,0,0,0,0,0,0,0,0,0,0,0,0,0,0,0,0,0,0,0,0,0,0,0,0,0,0,0,0,0,0,0,0,0,0,0,0,0,0,0,0,0,0,5,95
guava,v5.0,v6.0,F:/corpus/guava/guava#2010-06-03-08-26-58#v5.0#1ab3ec7/src/com/google/common/collect/Hashing.java,F:/corpus/guava/guava#2010-07-09-05-54-56#v6.0#9b62975/src/com/google/common/collect/Hashing.java,0,0,0,0,0,0,0,0,0,0,0,0,0,YES,0,0,0,0,0,0,0,0,0,0,0,0,0,0,0,0,0,0,1,0,0,0,0,0,0,0,0,0,0,0,0,0,0,0,0,0,0,0,0,0,0,0,0,0,0,0,0,0,7,58
guava,v5.0,v6.0,F:/corpus/guava/guava#2010-06-03-08-26-58#v5.0#1ab3ec7/src/com/google/common/collect/ImmutableList.java,F:/corpus/guava/guava#2010-07-09-05-54-56#v6.0#9b62975/src/com/google/common/collect/ImmutableList.java,0,0,0,0,6,0,0,0,0,0,5,1,0,YES,0,0,0,0,0,0,0,0,0,0,0,0,0,0,0,0,0,0,0,0,0,0,0,0,0,0,0,0,0,0,0,0,0,0,0,0,0,0,0,0,0,0,0,0,0,0,0,0,6,513
guava,v5.0,v6.0,F:/corpus/guava/guava#2010-06-03-08-26-58#v5.0#1ab3ec7/src/com/google/common/collect/ImmutableListMultimap.java,F:/corpus/guava/guava#2010-07-09-05-54-56#v6.0#9b62975/src/com/google/common/collect/ImmutableListMultimap.java,0,0,0,0,2,0,0,0,0,0,2,0,0,YES,0,0,0,0,0,0,0,0,0,0,0,0,0,0,0,0,0,0,0,0,0,0,0,0,0,0,0,0,0,0,0,0,0,0,0,0,0,0,0,0,0,0,0,0,0,0,0,0,5,337
guava,v5.0,v6.0,F:/corpus/guava/guava#2010-06-03-08-26-58#v5.0#1ab3ec7/src/com/google/common/collect/ImmutableMap.java,F:/corpus/guava/guava#2010-07-09-05-54-56#v6.0#9b62975/src/com/google/common/collect/ImmutableMap.java,0,0,0,0,4,0,0,0,0,0,2,4,0,YES,0,0,0,0,0,0,0,0,0,0,0,0,0,0,0,0,0,0,0,0,0,0,0,0,0,0,0,0,0,0,0,0,0,0,0,0,0,0,0,0,0,0,0,0,0,0,0,0,3,381
guava,v5.0,v6.0,F:/corpus/guava/guava#2010-06-03-08-26-58#v5.0#1ab3ec7/src/com/google/common/collect/ImmutableMultimap.java,F:/corpus/guava/guava#2010-07-09-05-54-56#v6.0#9b62975/src/com/google/common/collect/ImmutableMultimap.java,0,0,0,0,7,0,0,0,0,0,2,0,0,YES,0,0,0,0,0,0,0,0,0,0,0,0,0,0,0,0,0,0,0,0,0,0,0,0,0,0,0,0,0,0,0,0,0,0,0,0,0,0,0,0,0,0,0,0,0,0,0,0,6,514
guava,v5.0,v6.0,F:/corpus/guava/guava#2010-06-03-08-26-58#v5.0#1ab3ec7/src/com/google/common/collect/ImmutableMultiset.java,F:/corpus/guava/guava#2010-07-09-05-54-56#v6.0#9b62975/src/com/google/common/collect/ImmutableMultiset.java,0,0,0,0,4,0,0,0,0,0,0,0,0,YES,0,0,0,0,8,0,0,0,0,0,0,0,0,0,0,0,0,0,0,1,0,0,1,7,0,0,0,0,0,0,0,0,0,0,0,0,0,0,0,0,0,0,1,5,0,0,2,0,97,529
guava,v5.0,v6.0,F:/corpus/guava/guava#2010-06-03-08-26-58#v5.0#1ab3ec7/src/com/google/common/collect/ImmutableSet.java,F:/corpus/guava/guava#2010-07-09-05-54-56#v6.0#9b62975/src/com/google/common/collect/ImmutableSet.java,0,0,0,0,3,0,0,0,0,0,0,1,0,YES,0,0,0,0,0,0,0,0,0,0,0,0,0,0,0,0,0,0,0,0,0,0,0,0,0,0,0,0,0,0,0,0,0,0,0,0,0,0,0,0,0,0,0,0,0,0,0,0,6,568
guava,v5.0,v6.0,F:/corpus/guava/guava#2010-06-03-08-26-58#v5.0#1ab3ec7/src/com/google/common/collect/ImmutableSetMultimap.java,F:/corpus/guava/guava#2010-07-09-05-54-56#v6.0#9b62975/src/com/google/common/collect/ImmutableSetMultimap.java,0,0,0,0,2,0,0,0,0,0,2,0,0,YES,0,0,0,0,0,0,0,0,0,0,0,0,0,0,0,0,0,0,0,0,0,0,0,0,0,0,0,0,0,0,0,0,0,0,0,0,0,0,0,0,0,0,0,0,0,0,0,0,8,388
guava,v5.0,v6.0,F:/corpus/guava/guava#2010-06-03-08-26-58#v5.0#1ab3ec7/src/com/google/common/collect/ImmutableSortedMap.java,F:/corpus/guava/guava#2010-07-09-05-54-56#v6.0#9b62975/src/com/google/common/collect/ImmutableSortedMap.java,0,0,0,0,0,0,0,0,0,0,2,0,0,YES,0,0,0,0,0,0,0,0,0,0,0,0,0,0,0,0,0,0,0,0,0,0,0,0,0,0,0,0,0,0,0,0,0,0,0,0,0,0,0,0,0,0,0,0,0,0,0,0,3,695
guava,v5.0,v6.0,F:/corpus/guava/guava#2010-06-03-08-26-58#v5.0#1ab3ec7/src/com/google/common/collect/ImmutableSortedSet.java,F:/corpus/guava/guava#2010-07-09-05-54-56#v6.0#9b62975/src/com/google/common/collect/ImmutableSortedSet.java,0,0,0,0,2,0,0,0,0,0,0,0,0,YES,0,0,0,0,0,0,0,0,0,0,0,0,0,0,0,0,0,0,0,0,0,0,0,0,0,0,0,0,0,0,0,0,0,0,0,0,0,0,0,0,0,0,0,0,0,0,0,0,9,755
guava,v5.0,v6.0,F:/corpus/guava/guava#2010-06-03-08-26-58#v5.0#1ab3ec7/src/com/google/common/collect/Interners.java,F:/corpus/guava/guava#2010-07-09-05-54-56#v6.0#9b62975/src/com/google/common/collect/Interners.java,0,0,0,0,0,0,0,0,0,0,0,0,0,YES,0,0,0,0,0,0,0,0,0,0,0,0,0,0,0,0,0,0,0,0,0,0,0,0,0,0,0,0,0,0,0,0,0,0,0,0,0,0,0,0,0,0,0,0,0,0,0,0,4,175
guava,v5.0,v6.0,F:/corpus/guava/guava#2010-06-03-08-26-58#v5.0#1ab3ec7/src/com/google/common/collect/Iterables.java,F:/corpus/guava/guava#2010-07-09-05-54-56#v6.0#9b62975/src/com/google/common/collect/Iterables.java,0,0,0,0,1,0,0,0,0,0,0,1,0,YES,0,0,0,0,0,0,0,0,0,0,0,0,0,0,0,0,0,0,0,1,0,0,0,0,0,0,0,0,0,0,0,0,0,0,0,0,0,0,0,0,0,0,0,0,0,0,0,0,12,923
guava,v5.0,v6.0,F:/corpus/guava/guava#2010-06-03-08-26-58#v5.0#1ab3ec7/src/com/google/common/collect/Iterators.java,F:/corpus/guava/guava#2010-07-09-05-54-56#v6.0#9b62975/src/com/google/common/collect/Iterators.java,0,1,0,0,0,0,0,0,0,0,0,2,0,YES,0,0,0,0,0,0,0,0,0,0,0,0,0,0,0,0,0,0,0,1,0,0,0,0,0,0,0,0,0,0,0,0,0,0,0,0,0,0,0,0,0,0,0,0,0,0,0,0,17,1134
guava,v5.0,v6.0,F:/corpus/guava/guava#2010-06-03-08-26-58#v5.0#1ab3ec7/src/com/google/common/collect/LinkedHashMultimap.java,F:/corpus/guava/guava#2010-07-09-05-54-56#v6.0#9b62975/src/com/google/common/collect/LinkedHashMultimap.java,0,0,0,0,0,0,0,0,0,0,0,0,0,YES,0,0,0,0,0,0,0,0,0,0,0,0,0,0,0,0,0,0,0,0,0,0,0,0,0,0,0,0,0,0,0,0,0,0,0,0,0,0,0,0,0,0,0,0,0,0,0,0,5,382
guava,v5.0,v6.0,F:/corpus/guava/guava#2010-06-03-08-26-58#v5.0#1ab3ec7/src/com/google/common/collect/LinkedHashMultiset.java,F:/corpus/guava/guava#2010-07-09-05-54-56#v6.0#9b62975/src/com/google/common/collect/LinkedHashMultiset.java,0,0,0,0,0,0,0,0,0,0,0,0,0,YES,0,0,0,0,0,0,0,0,0,0,0,0,0,0,0,0,0,0,0,0,0,0,0,0,0,0,0,0,0,0,0,0,0,0,0,0,0,0,0,0,0,0,0,0,0,0,0,0,5,103
guava,v5.0,v6.0,F:/corpus/guava/guava#2010-06-03-08-26-58#v5.0#1ab3ec7/src/com/google/common/collect/LinkedListMultimap.java,F:/corpus/guava/guava#2010-07-09-05-54-56#v6.0#9b62975/src/com/google/common/collect/LinkedListMultimap.java,0,0,1,0,1,0,0,0,0,0,0,0,0,YES,0,0,0,0,0,0,0,0,0,0,0,0,0,0,0,0,0,0,0,0,0,0,0,0,0,0,0,0,0,0,0,0,0,0,0,0,0,0,0,0,0,0,0,0,0,0,0,0,14,952
guava,v5.0,v6.0,F:/corpus/guava/guava#2010-06-03-08-26-58#v5.0#1ab3ec7/src/com/google/common/collect/Lists.java,F:/corpus/guava/guava#2010-07-09-05-54-56#v6.0#9b62975/src/com/google/common/collect/Lists.java,0,0,0,0,0,0,2,0,0,0,0,2,0,YES,0,0,0,0,0,0,0,0,0,0,0,0,0,0,0,0,0,0,0,0,0,0,0,0,0,0,0,0,0,0,0,0,0,0,0,0,0,0,0,0,0,0,0,0,0,0,1,0,9,505
guava,v5.0,v6.0,F:/corpus/guava/guava#2010-06-03-08-26-58#v5.0#1ab3ec7/src/com/google/common/collect/MapConstraints.java,F:/corpus/guava/guava#2010-07-09-05-54-56#v6.0#9b62975/src/com/google/common/collect/MapConstraints.java,0,0,0,0,0,0,0,0,0,0,0,0,0,YES,0,0,0,0,0,0,0,0,0,0,0,0,0,0,0,0,0,0,0,0,0,0,0,0,0,0,0,0,0,0,0,0,0,0,0,0,0,0,0,0,0,0,0,0,0,0,0,0,3,772
guava,v5.0,v6.0,F:/corpus/guava/guava#2010-06-03-08-26-58#v5.0#1ab3ec7/src/com/google/common/collect/MapMaker.java,F:/corpus/guava/guava#2010-07-09-05-54-56#v6.0#9b62975/src/com/google/common/collect/MapMaker.java,0,0,0,0,1,0,0,0,0,0,0,0,0,YES,0,0,0,0,0,0,0,0,0,0,0,0,0,0,0,0,0,1,0,1,0,0,0,0,0,0,0,0,0,0,0,0,0,0,0,0,0,0,0,0,0,0,0,0,0,0,0,0,19,528
guava,v5.0,v6.0,F:/corpus/guava/guava#2010-06-03-08-26-58#v5.0#1ab3ec7/src/com/google/common/collect/Multimaps.java,F:/corpus/guava/guava#2010-07-09-05-54-56#v6.0#9b62975/src/com/google/common/collect/Multimaps.java,0,1,0,0,16,0,0,0,0,0,0,0,0,YES,0,0,0,0,0,0,0,0,0,0,0,0,0,0,0,0,0,0,0,0,0,0,0,0,0,0,0,0,0,0,0,0,0,0,0,0,0,0,0,0,0,0,0,0,0,0,0,0,20,1229
guava,v5.0,v6.0,F:/corpus/guava/guava#2010-06-03-08-26-58#v5.0#1ab3ec7/src/com/google/common/collect/Multisets.java,F:/corpus/guava/guava#2010-07-09-05-54-56#v6.0#9b62975/src/com/google/common/collect/Multisets.java,0,0,0,0,15,0,1,0,0,0,0,0,0,YES,0,0,0,0,0,0,0,0,0,0,0,0,0,0,0,0,0,0,0,0,0,0,0,0,0,0,0,0,0,0,0,0,0,0,0,0,0,0,0,0,0,0,0,0,0,0,0,0,5,471
guava,v5.0,v6.0,F:/corpus/guava/guava#2010-06-03-08-26-58#v5.0#1ab3ec7/src/com/google/common/collect/NaturalOrdering.java,F:/corpus/guava/guava#2010-07-09-05-54-56#v6.0#9b62975/src/com/google/common/collect/NaturalOrdering.java,0,0,0,0,0,0,0,0,0,0,0,0,0,YES,0,0,0,0,0,0,0,0,0,0,0,0,0,0,0,0,0,0,0,0,0,0,0,0,0,0,0,0,0,0,0,0,0,0,0,0,0,0,0,0,0,0,0,0,0,0,0,0,3,76
guava,v5.0,v6.0,F:/corpus/guava/guava#2010-06-03-08-26-58#v5.0#1ab3ec7/src/com/google/common/collect/ObjectArrays.java,F:/corpus/guava/guava#2010-07-09-05-54-56#v6.0#9b62975/src/com/google/common/collect/ObjectArrays.java,0,0,0,0,0,0,0,0,0,0,0,3,0,YES,0,0,0,0,0,0,0,0,0,0,0,0,0,0,0,0,0,0,0,0,0,0,0,0,0,0,0,0,0,0,0,0,0,0,0,0,0,0,0,0,0,0,0,0,0,0,0,0,3,176
guava,v5.0,v6.0,F:/corpus/guava/guava#2010-06-03-08-26-58#v5.0#1ab3ec7/src/com/google/common/collect/Ordering.java,F:/corpus/guava/guava#2010-07-09-05-54-56#v6.0#9b62975/src/com/google/common/collect/Ordering.java,0,0,0,0,1,0,0,0,0,0,0,0,0,YES,0,0,0,0,0,0,0,0,0,0,0,0,0,0,0,0,0,0,0,0,0,0,0,0,0,0,0,0,0,0,0,0,0,0,0,0,0,0,0,0,0,0,0,0,0,0,0,0,4,601
guava,v5.0,v6.0,F:/corpus/guava/guava#2010-06-03-08-26-58#v5.0#1ab3ec7/src/com/google/common/collect/Platform.java,F:/corpus/guava/guava#2010-07-09-05-54-56#v6.0#9b62975/src/com/google/common/collect/Platform.java,0,0,0,0,0,1,0,0,0,0,0,0,0,YES,0,0,0,0,0,0,0,0,0,0,0,0,0,0,0,0,0,0,0,0,0,0,0,0,0,0,0,0,0,0,0,0,0,0,1,0,0,0,0,0,0,0,0,0,0,0,0,0,9,109
guava,v5.0,v6.0,F:/corpus/guava/guava#2010-06-03-08-26-58#v5.0#1ab3ec7/src/com/google/common/collect/ReverseNaturalOrdering.java,F:/corpus/guava/guava#2010-07-09-05-54-56#v6.0#9b62975/src/com/google/common/collect/ReverseNaturalOrdering.java,0,0,0,0,0,0,0,0,0,0,0,0,0,YES,0,0,0,0,0,0,0,0,0,0,0,0,0,0,0,0,0,0,0,0,0,0,0,0,0,0,0,0,0,0,0,0,0,0,0,0,0,0,0,0,0,0,0,0,0,0,0,0,3,84
guava,v5.0,v6.0,F:/corpus/guava/guava#2010-06-03-08-26-58#v5.0#1ab3ec7/src/com/google/common/collect/ReverseOrdering.java,F:/corpus/guava/guava#2010-07-09-05-54-56#v6.0#9b62975/src/com/google/common/collect/ReverseOrdering.java,0,0,0,0,0,0,0,0,0,0,0,0,0,YES,0,0,0,0,0,0,0,0,0,0,0,0,0,0,0,0,0,0,0,0,0,0,0,0,0,0,0,0,0,0,0,0,0,0,0,0,0,0,0,0,0,0,0,0,0,0,0,0,3,90
guava,v5.0,v6.0,F:/corpus/guava/guava#2010-06-03-08-26-58#v5.0#1ab3ec7/src/com/google/common/collect/Serialization.java,F:/corpus/guava/guava#2010-07-09-05-54-56#v6.0#9b62975/src/com/google/common/collect/Serialization.java,0,0,0,0,0,0,0,0,0,0,0,3,0,YES,0,0,0,0,0,0,0,0,0,0,0,0,0,0,0,0,0,0,0,0,0,0,0,0,0,0,0,0,0,0,0,0,0,0,0,0,0,0,0,0,0,0,0,0,0,0,0,0,18,249
guava,v5.0,v6.0,F:/corpus/guava/guava#2010-06-03-08-26-58#v5.0#1ab3ec7/src/com/google/common/collect/Sets.java,F:/corpus/guava/guava#2010-07-09-05-54-56#v6.0#9b62975/src/com/google/common/collect/Sets.java,0,1,0,0,1,0,0,0,0,0,0,0,0,YES,0,0,0,0,0,0,0,0,0,0,0,0,0,0,0,0,0,0,0,0,0,0,0,0,0,0,0,0,0,0,0,0,0,0,0,0,0,0,0,0,0,0,0,0,0,0,0,0,12,1117
guava,v5.0,v6.0,F:/corpus/guava/guava#2010-06-03-08-26-58#v5.0#1ab3ec7/src/com/google/common/collect/SingletonImmutableList.java,F:/corpus/guava/guava#2010-07-09-05-54-56#v6.0#9b62975/src/com/google/common/collect/SingletonImmutableList.java,0,0,0,0,0,0,0,0,0,0,0,0,0,YES,0,0,0,0,0,0,0,0,0,0,0,0,0,0,0,0,0,0,0,0,0,0,0,0,0,0,0,0,0,0,0,0,0,0,0,0,0,0,0,0,0,0,0,0,0,0,0,0,4,120
guava,v5.0,v6.0,F:/corpus/guava/guava#2010-06-03-08-26-58#v5.0#1ab3ec7/src/com/google/common/collect/Synchronized.java,F:/corpus/guava/guava#2010-07-09-05-54-56#v6.0#9b62975/src/com/google/common/collect/Synchronized.java,0,1,0,0,0,0,0,0,0,0,0,0,0,YES,0,0,0,0,0,0,0,0,0,0,0,0,0,0,0,0,0,0,0,0,0,0,0,0,0,0,0,0,0,0,0,0,0,0,0,0,0,0,0,0,0,0,0,0,0,0,0,0,8,1066
guava,v5.0,v6.0,F:/corpus/guava/guava#2010-06-03-08-26-58#v5.0#1ab3ec7/src/com/google/common/collect/TreeMultimap.java,F:/corpus/guava/guava#2010-07-09-05-54-56#v6.0#9b62975/src/com/google/common/collect/TreeMultimap.java,0,0,0,0,0,0,0,0,0,0,0,0,0,YES,0,0,0,0,0,0,0,0,0,0,0,0,0,0,0,0,0,0,0,0,0,0,0,0,0,0,0,0,0,0,0,0,0,0,0,0,0,0,0,0,0,0,0,0,0,0,0,0,8,194
guava,v5.0,v6.0,F:/corpus/guava/guava#2010-06-03-08-26-58#v5.0#1ab3ec7/src/com/google/common/collect/TreeMultiset.java,F:/corpus/guava/guava#2010-07-09-05-54-56#v6.0#9b62975/src/com/google/common/collect/TreeMultiset.java,0,0,0,0,0,0,0,0,0,0,0,0,0,YES,0,0,0,0,0,0,0,0,0,0,0,0,0,0,0,0,0,0,0,0,0,0,0,0,0,0,0,0,0,0,0,0,0,0,0,0,0,0,0,0,0,0,0,0,0,0,0,0,5,215
guava,v5.0,v6.0,F:/corpus/guava/guava#2010-06-03-08-26-58#v5.0#1ab3ec7/src/com/google/common/io/ByteArrayDataInput.java,F:/corpus/guava/guava#2010-07-09-05-54-56#v6.0#9b62975/src/com/google/common/io/ByteArrayDataInput.java,0,0,0,0,1,0,0,0,0,0,0,0,0,YES,0,0,0,0,0,0,0,0,0,0,0,0,0,0,0,0,0,0,0,0,0,0,0,0,0,0,0,0,0,0,0,0,0,0,0,0,0,0,0,0,0,0,0,0,0,0,0,0,15,47
guava,v5.0,v6.0,F:/corpus/guava/guava#2010-06-03-08-26-58#v5.0#1ab3ec7/src/com/google/common/io/ByteArrayDataOutput.java,F:/corpus/guava/guava#2010-07-09-05-54-56#v6.0#9b62975/src/com/google/common/io/ByteArrayDataOutput.java,0,0,0,0,1,0,0,0,0,0,0,0,0,YES,0,0,0,0,0,0,0,0,0,0,0,0,0,0,0,0,0,0,0,0,0,0,0,0,0,0,0,0,0,0,0,0,0,0,0,0,0,0,0,0,0,0,0,0,0,0,0,0,14,55
guava,v5.0,v6.0,F:/corpus/guava/guava#2010-06-03-08-26-58#v5.0#1ab3ec7/src/com/google/common/io/ByteStreams.java,F:/corpus/guava/guava#2010-07-09-05-54-56#v6.0#9b62975/src/com/google/common/io/ByteStreams.java,0,0,0,0,0,0,1,0,0,0,0,0,0,YES,0,0,0,0,0,0,0,0,0,0,0,0,0,0,0,0,0,0,0,0,0,0,0,0,0,0,0,0,0,0,0,0,0,0,0,0,0,0,0,0,0,0,0,0,0,0,2,0,32,848
guava,v5.0,v6.0,F:/corpus/guava/guava#2010-06-03-08-26-58#v5.0#1ab3ec7/src/com/google/common/io/CharStreams.java,F:/corpus/guava/guava#2010-07-09-05-54-56#v6.0#9b62975/src/com/google/common/io/CharStreams.java,0,0,0,0,0,0,0,0,0,0,0,0,0,YES,0,0,0,0,0,0,0,0,0,0,0,0,0,0,0,0,0,0,0,0,0,0,0,0,0,0,0,0,0,0,0,0,0,0,0,0,0,0,0,0,0,0,0,0,0,0,1,0,1,437
guava,v5.0,v6.0,F:/corpus/guava/guava#2010-06-03-08-26-58#v5.0#1ab3ec7/src/com/google/common/io/PatternFilenameFilter.java,F:/corpus/guava/guava#2010-07-09-05-54-56#v6.0#9b62975/src/com/google/common/io/PatternFilenameFilter.java,0,0,0,0,1,0,0,0,0,0,0,0,0,YES,0,0,0,0,0,0,0,0,0,0,0,0,0,0,0,0,0,0,0,0,0,0,0,0,0,0,0,0,0,0,0,0,0,0,0,0,0,0,0,0,0,0,0,0,0,0,0,0,1,59
guava,v5.0,v6.0,F:/corpus/guava/guava#2010-06-03-08-26-58#v5.0#1ab3ec7/src/com/google/common/io/Resources.java,F:/corpus/guava/guava#2010-07-09-05-54-56#v6.0#9b62975/src/com/google/common/io/Resources.java,0,0,0,0,0,0,0,0,0,0,0,0,0,YES,0,0,0,0,0,0,0,0,0,0,0,0,0,0,0,0,0,0,0,0,0,0,0,0,0,0,0,0,0,0,0,0,0,0,0,0,0,0,0,0,0,0,0,0,0,0,0,0,3,166
guava,v5.0,v6.0,F:/corpus/guava/guava#2010-06-03-08-26-58#v5.0#1ab3ec7/src/com/google/common/net/HostSpecifier.java,F:/corpus/guava/guava#2010-07-09-05-54-56#v6.0#9b62975/src/com/google/common/net/HostSpecifier.java,0,0,0,0,0,0,0,0,0,0,0,0,0,YES,0,0,0,0,0,0,0,0,0,0,0,0,0,0,0,1,0,0,0,1,0,0,0,0,0,0,0,0,0,0,0,0,0,0,0,0,0,0,0,0,0,0,0,0,0,0,0,0,3,179
guava,v5.0,v6.0,F:/corpus/guava/guava#2010-06-03-08-26-58#v5.0#1ab3ec7/src/com/google/common/net/InetAddresses.java,F:/corpus/guava/guava#2010-07-09-05-54-56#v6.0#9b62975/src/com/google/common/net/InetAddresses.java,0,0,0,0,0,0,0,0,0,0,0,0,0,YES,0,0,0,0,0,0,0,0,0,0,0,0,0,0,0,0,0,0,0,0,0,0,0,0,0,0,0,0,0,0,0,0,0,0,0,0,0,0,0,0,0,0,0,0,0,0,2,0,4,781
guava,v5.0,v6.0,F:/corpus/guava/guava#2010-06-03-08-26-58#v5.0#1ab3ec7/src/com/google/common/net/InternetDomainName.java,F:/corpus/guava/guava#2010-07-09-05-54-56#v6.0#9b62975/src/com/google/common/net/InternetDomainName.java,0,0,0,0,0,0,0,0,0,0,0,0,0,YES,0,0,0,0,8,2,0,0,2,0,0,0,2,0,0,2,0,0,0,13,0,1,1,1,0,0,0,0,0,0,0,0,0,0,2,2,0,0,0,0,0,0,14,19,0,0,6,0,190,456
guava,v5.0,v6.0,F:/corpus/guava/guava#2010-06-03-08-26-58#v5.0#1ab3ec7/src/com/google/common/net/TldPatterns.java,F:/corpus/guava/guava#2010-07-09-05-54-56#v6.0#9b62975/src/com/google/common/net/TldPatterns.java,0,1,0,0,0,0,0,0,0,0,0,0,0,YES,0,0,0,0,0,0,0,0,0,0,0,0,0,0,0,0,0,0,0,0,0,0,0,0,0,0,0,0,0,0,0,0,0,0,0,0,0,0,0,0,0,0,0,0,0,0,0,0,221,3719
guava,v5.0,v6.0,F:/corpus/guava/guava#2010-06-03-08-26-58#v5.0#1ab3ec7/src/com/google/common/primitives/Booleans.java,F:/corpus/guava/guava#2010-07-09-05-54-56#v6.0#9b62975/src/com/google/common/primitives/Booleans.java,0,0,0,0,0,0,0,0,0,0,0,0,0,YES,0,0,0,0,0,0,0,0,0,0,0,0,0,0,0,0,0,0,0,0,0,0,0,0,0,0,0,0,0,0,0,0,0,0,0,0,0,0,0,0,0,0,0,0,0,0,0,0,11,465
guava,v5.0,v6.0,F:/corpus/guava/guava#2010-06-03-08-26-58#v5.0#1ab3ec7/src/com/google/common/primitives/Bytes.java,F:/corpus/guava/guava#2010-07-09-05-54-56#v6.0#9b62975/src/com/google/common/primitives/Bytes.java,0,0,0,0,0,0,0,0,0,0,0,0,0,YES,0,0,0,0,0,0,0,0,0,0,0,0,0,0,0,0,0,0,0,0,0,0,0,0,0,0,0,0,0,0,0,0,0,0,0,0,0,0,0,0,0,0,0,0,0,0,0,0,11,381
guava,v5.0,v6.0,F:/corpus/guava/guava#2010-06-03-08-26-58#v5.0#1ab3ec7/src/com/google/common/primitives/Chars.java,F:/corpus/guava/guava#2010-07-09-05-54-56#v6.0#9b62975/src/com/google/common/primitives/Chars.java,0,0,0,0,0,0,0,0,0,0,0,0,0,YES,0,0,0,0,0,0,0,0,0,0,0,0,0,0,0,0,0,0,0,0,0,0,0,0,0,0,0,0,0,0,0,0,0,0,0,0,0,0,0,0,0,0,0,0,0,0,0,0,11,569
guava,v5.0,v6.0,F:/corpus/guava/guava#2010-06-03-08-26-58#v5.0#1ab3ec7/src/com/google/common/primitives/Doubles.java,F:/corpus/guava/guava#2010-07-09-05-54-56#v6.0#9b62975/src/com/google/common/primitives/Doubles.java,0,0,0,0,0,0,0,0,0,0,0,0,0,YES,0,0,0,0,0,0,0,0,0,0,0,0,0,0,0,0,0,0,0,0,0,0,0,0,0,0,0,0,0,0,0,0,0,0,0,0,0,0,0,0,0,0,0,0,0,0,0,0,11,502
guava,v5.0,v6.0,F:/corpus/guava/guava#2010-06-03-08-26-58#v5.0#1ab3ec7/src/com/google/common/primitives/Floats.java,F:/corpus/guava/guava#2010-07-09-05-54-56#v6.0#9b62975/src/com/google/common/primitives/Floats.java,0,0,0,0,0,0,0,0,0,0,0,0,0,YES,0,0,0,0,0,0,0,0,0,0,0,0,0,0,0,0,0,0,0,0,0,0,0,0,0,0,0,0,0,0,0,0,0,0,0,0,0,0,0,0,0,0,0,0,0,0,0,0,11,499
guava,v5.0,v6.0,F:/corpus/guava/guava#2010-06-03-08-26-58#v5.0#1ab3ec7/src/com/google/common/primitives/Ints.java,F:/corpus/guava/guava#2010-07-09-05-54-56#v6.0#9b62975/src/com/google/common/primitives/Ints.java,0,0,0,0,0,0,0,0,0,0,0,0,0,YES,0,0,0,0,0,0,0,0,0,0,0,0,0,0,0,0,0,0,0,0,0,0,0,0,0,0,0,0,0,0,0,0,0,0,0,0,0,0,0,0,0,0,0,0,0,0,0,0,11,573
guava,v5.0,v6.0,F:/corpus/guava/guava#2010-06-03-08-26-58#v5.0#1ab3ec7/src/com/google/common/primitives/Longs.java,F:/corpus/guava/guava#2010-07-09-05-54-56#v6.0#9b62975/src/com/google/common/primitives/Longs.java,0,0,0,0,0,0,0,0,0,0,0,0,0,YES,0,0,0,0,0,0,0,0,0,0,0,0,0,0,0,0,0,0,0,0,0,0,0,0,0,0,0,0,0,0,0,0,0,0,0,0,0,0,0,0,0,0,0,0,0,0,0,0,11,551
guava,v5.0,v6.0,F:/corpus/guava/guava#2010-06-03-08-26-58#v5.0#1ab3ec7/src/com/google/common/primitives/Shorts.java,F:/corpus/guava/guava#2010-07-09-05-54-56#v6.0#9b62975/src/com/google/common/primitives/Shorts.java,0,0,0,0,0,0,0,0,0,0,0,0,0,YES,0,0,0,0,0,0,0,0,0,0,0,0,0,0,0,0,0,0,0,0,0,0,0,0,0,0,0,0,0,0,0,0,0,0,0,0,0,0,0,0,0,0,0,0,0,0,0,0,20,566
guava,v5.0,v6.0,F:/corpus/guava/guava#2010-06-03-08-26-58#v5.0#1ab3ec7/src/com/google/common/primitives/SignedBytes.java,F:/corpus/guava/guava#2010-07-09-05-54-56#v6.0#9b62975/src/com/google/common/primitives/SignedBytes.java,0,0,0,0,0,0,0,0,0,0,0,0,0,YES,0,0,0,0,0,0,0,0,0,0,0,0,0,0,0,0,0,0,0,0,0,0,0,0,0,0,0,0,0,0,0,0,0,0,0,0,0,0,0,0,0,0,0,0,0,0,0,0,6,180
guava,v5.0,v6.0,F:/corpus/guava/guava#2010-06-03-08-26-58#v5.0#1ab3ec7/src/com/google/common/primitives/UnsignedBytes.java,F:/corpus/guava/guava#2010-07-09-05-54-56#v6.0#9b62975/src/com/google/common/primitives/UnsignedBytes.java,0,0,0,0,0,0,0,0,0,0,0,0,0,YES,0,0,0,0,1,0,0,0,0,0,0,0,0,0,0,0,0,0,0,0,0,0,0,0,0,0,0,0,0,0,0,0,0,0,0,0,0,0,0,0,0,0,1,1,0,0,6,0,22,183
guava,v5.0,v6.0,F:/corpus/guava/guava#2010-06-03-08-26-58#v5.0#1ab3ec7/src/com/google/common/util/concurrent/AbstractExecutionThreadService.java,F:/corpus/guava/guava#2010-07-09-05-54-56#v6.0#9b62975/src/com/google/common/util/concurrent/AbstractExecutionThreadService.java,0,0,0,0,1,1,0,0,0,0,0,0,0,YES,0,0,0,0,0,0,0,0,0,0,0,0,0,0,0,0,0,0,0,0,0,0,0,0,0,0,0,0,0,0,0,0,0,0,0,0,0,0,0,0,0,0,0,0,0,0,0,0,6,154
guava,v5.0,v6.0,F:/corpus/guava/guava#2010-06-03-08-26-58#v5.0#1ab3ec7/src/com/google/common/util/concurrent/AbstractFuture.java,F:/corpus/guava/guava#2010-07-09-05-54-56#v6.0#9b62975/src/com/google/common/util/concurrent/AbstractFuture.java,0,0,0,0,3,0,0,0,0,0,0,0,0,YES,0,0,0,0,0,0,0,0,0,0,0,0,0,0,0,0,0,0,0,0,0,0,0,0,0,0,0,0,0,0,0,0,0,0,0,0,0,0,0,0,0,0,0,0,0,0,0,0,3,325
guava,v5.0,v6.0,F:/corpus/guava/guava#2010-06-03-08-26-58#v5.0#1ab3ec7/src/com/google/common/util/concurrent/AbstractIdleService.java,F:/corpus/guava/guava#2010-07-09-05-54-56#v6.0#9b62975/src/com/google/common/util/concurrent/AbstractIdleService.java,0,0,0,0,1,1,0,0,0,0,0,0,0,YES,0,0,0,0,0,0,0,0,0,0,0,0,0,0,0,0,0,0,0,0,0,0,0,0,0,0,0,0,0,0,0,0,0,0,0,0,0,0,0,0,0,0,0,0,0,0,0,0,8,129
guava,v5.0,v6.0,F:/corpus/guava/guava#2010-06-03-08-26-58#v5.0#1ab3ec7/src/com/google/common/util/concurrent/AbstractService.java,F:/corpus/guava/guava#2010-07-09-05-54-56#v6.0#9b62975/src/com/google/common/util/concurrent/AbstractService.java,0,0,0,0,2,1,0,0,0,0,0,0,0,YES,0,0,0,0,0,0,0,0,0,0,0,0,0,0,0,0,0,0,0,0,0,0,0,0,0,0,0,0,0,0,0,0,0,0,0,0,0,0,0,0,0,0,0,0,0,0,0,0,3,310
guava,v5.0,v6.0,F:/corpus/guava/guava#2010-06-03-08-26-58#v5.0#1ab3ec7/src/com/google/common/util/concurrent/Callables.java,F:/corpus/guava/guava#2010-07-09-05-54-56#v6.0#9b62975/src/com/google/common/util/concurrent/Callables.java,0,0,0,0,0,0,0,0,0,0,0,0,0,YES,0,0,0,0,0,0,0,0,0,0,0,0,0,0,0,0,0,0,0,0,0,0,0,0,0,0,0,0,0,0,0,0,0,0,0,0,0,0,0,0,0,0,0,0,0,0,1,0,1,46
guava,v5.0,v6.0,F:/corpus/guava/guava#2010-06-03-08-26-58#v5.0#1ab3ec7/src/com/google/common/util/concurrent/ForwardingBlockingQueue.java,F:/corpus/guava/guava#2010-07-09-05-54-56#v6.0#9b62975/src/com/google/common/util/concurrent/ForwardingBlockingQueue.java,0,0,0,0,1,0,0,0,0,0,0,0,0,YES,0,0,0,0,0,0,0,0,0,0,0,0,0,0,0,0,0,0,0,0,0,0,0,0,0,0,0,0,0,0,0,0,0,0,0,0,0,0,0,0,0,0,0,0,0,0,0,0,7,60
guava,v5.0,v6.0,F:/corpus/guava/guava#2010-06-03-08-26-58#v5.0#1ab3ec7/src/com/google/common/util/concurrent/ForwardingFuture.java,F:/corpus/guava/guava#2010-07-09-05-54-56#v6.0#9b62975/src/com/google/common/util/concurrent/ForwardingFuture.java,0,0,0,0,1,0,0,0,0,0,0,0,0,YES,0,0,0,0,0,0,0,0,0,0,0,0,0,0,0,0,0,0,0,1,0,0,0,0,0,0,0,0,0,0,0,0,0,0,0,0,0,0,0,0,0,0,0,0,0,0,0,0,6,69
guava,v5.0,v6.0,F:/corpus/guava/guava#2010-06-03-08-26-58#v5.0#1ab3ec7/src/com/google/common/util/concurrent/ForwardingService.java,F:/corpus/guava/guava#2010-07-09-05-54-56#v6.0#9b62975/src/com/google/common/util/concurrent/ForwardingService.java,0,0,0,0,1,0,0,0,0,0,0,0,0,YES,0,0,0,0,0,0,0,0,0,0,0,0,0,0,0,0,0,0,0,0,0,0,0,0,0,0,0,0,0,0,0,0,0,0,0,0,0,0,0,0,0,0,0,0,0,0,0,0,6,63
guava,v5.0,v6.0,F:/corpus/guava/guava#2010-06-03-08-26-58#v5.0#1ab3ec7/src/com/google/common/util/concurrent/Futures.java,F:/corpus/guava/guava#2010-07-09-05-54-56#v6.0#9b62975/src/com/google/common/util/concurrent/Futures.java,0,0,0,0,0,0,0,0,0,0,0,0,0,YES,0,0,0,0,1,0,0,0,0,0,0,1,0,0,0,0,0,0,0,0,0,0,0,0,0,0,0,0,0,0,0,0,0,0,0,0,0,0,0,0,0,0,0,0,0,0,2,0,20,573
guava,v5.0,v6.0,F:/corpus/guava/guava#2010-06-03-08-26-58#v5.0#1ab3ec7/src/com/google/common/util/concurrent/MoreExecutors.java,F:/corpus/guava/guava#2010-07-09-05-54-56#v6.0#9b62975/src/com/google/common/util/concurrent/MoreExecutors.java,0,0,1,0,0,0,0,0,0,0,0,0,0,YES,0,0,0,0,0,0,0,0,0,0,0,0,0,0,0,0,0,0,0,0,0,0,0,0,0,0,0,0,0,0,0,0,0,0,2,0,0,0,0,0,0,0,0,0,0,0,0,0,44,375
guava,v5.0,v6.0,F:/corpus/guava/guava#2010-06-03-08-26-58#v5.0#1ab3ec7/src/com/google/common/util/concurrent/SimpleTimeLimiter.java,F:/corpus/guava/guava#2010-07-09-05-54-56#v6.0#9b62975/src/com/google/common/util/concurrent/SimpleTimeLimiter.java,0,0,0,0,0,0,0,0,0,0,0,0,0,YES,0,0,0,0,0,0,0,0,0,0,0,0,0,0,0,0,0,0,0,0,0,0,0,0,0,0,0,0,0,0,0,0,0,0,0,0,0,0,0,0,0,0,0,0,0,0,0,0,3,170
guava,v5.0,v6.0,F:/corpus/guava/guava#2010-06-03-08-26-58#v5.0#1ab3ec7/src/com/google/common/util/concurrent/ThreadFactoryBuilder.java,F:/corpus/guava/guava#2010-07-09-05-54-56#v6.0#9b62975/src/com/google/common/util/concurrent/ThreadFactoryBuilder.java,0,0,0,0,0,0,0,0,0,0,0,0,0,YES,0,0,0,0,0,0,0,0,0,0,0,0,0,0,0,0,0,0,0,0,0,0,0,0,0,0,0,0,0,0,0,0,0,0,0,0,0,0,0,0,0,0,0,0,0,0,0,0,3,175
guava,v5.0,v6.0,F:/corpus/guava/guava#2010-06-03-08-26-58#v5.0#1ab3ec7/src/com/google/common/util/concurrent/UninterruptibleFuture.java,F:/corpus/guava/guava#2010-07-09-05-54-56#v6.0#9b62975/src/com/google/common/util/concurrent/UninterruptibleFuture.java,0,0,0,0,1,0,0,0,0,0,0,0,0,YES,0,0,0,0,0,0,0,0,0,0,0,0,0,0,0,0,0,0,0,0,0,0,0,0,0,0,0,0,0,0,0,0,0,0,0,0,0,0,0,0,0,0,0,0,0,0,0,0,2,42
guava,v5.0,v6.0,F:/corpus/guava/guava#2010-06-03-08-26-58#v5.0#1ab3ec7/src/com/google/common/util/concurrent/ValueFuture.java,F:/corpus/guava/guava#2010-07-09-05-54-56#v6.0#9b62975/src/com/google/common/util/concurrent/ValueFuture.java,0,0,0,0,1,0,0,0,0,0,0,0,0,YES,0,0,0,0,0,0,0,0,0,0,0,0,0,0,0,0,0,0,0,0,0,0,0,0,0,0,0,0,0,0,0,0,0,0,0,0,0,0,0,0,0,0,0,0,0,0,0,0,3,80
guava,v5.0,v6.0,F:/corpus/guava/guava#2010-06-03-08-26-58#v5.0#1ab3ec7/src/com/google/common/annotations/GwtCompatible.java,F:/corpus/guava/guava#2010-06-03-08-26-58#v5.0#1ab3ec7/src/com/google/common/annotations/GwtCompatible.java,0,0,0,0,0,0,0,0,0,0,0,0,0,NO,0,0,0,0,0,0,0,0,0,0,0,0,0,0,0,0,0,0,0,0,0,0,0,0,0,0,0,0,0,0,0,0,0,0,0,0,0,0,0,0,0,0,0,0,0,0,0,0,0,87
guava,v5.0,v6.0,F:/corpus/guava/guava#2010-06-03-08-26-58#v5.0#1ab3ec7/src/com/google/common/annotations/GwtIncompatible.java,F:/corpus/guava/guava#2010-06-03-08-26-58#v5.0#1ab3ec7/src/com/google/common/annotations/GwtIncompatible.java,0,0,0,0,0,0,0,0,0,0,0,0,0,NO,0,0,0,0,0,0,0,0,0,0,0,0,0,0,0,0,0,0,0,0,0,0,0,0,0,0,0,0,0,0,0,0,0,0,0,0,0,0,0,0,0,0,0,0,0,0,0,0,0,51
guava,v5.0,v6.0,F:/corpus/guava/guava#2010-06-03-08-26-58#v5.0#1ab3ec7/src/com/google/common/annotations/package-info.java,F:/corpus/guava/guava#2010-06-03-08-26-58#v5.0#1ab3ec7/src/com/google/common/annotations/package-info.java,0,0,0,0,0,0,0,0,0,0,0,0,0,NO,0,0,0,0,0,0,0,0,0,0,0,0,0,0,0,0,0,0,0,0,0,0,0,0,0,0,0,0,0,0,0,0,0,0,0,0,0,0,0,0,0,0,0,0,0,0,0,0,0,21
guava,v5.0,v6.0,F:/corpus/guava/guava#2010-06-03-08-26-58#v5.0#1ab3ec7/src/com/google/common/annotations/VisibleForTesting.java,F:/corpus/guava/guava#2010-06-03-08-26-58#v5.0#1ab3ec7/src/com/google/common/annotations/VisibleForTesting.java,0,0,0,0,0,0,0,0,0,0,0,0,0,NO,0,0,0,0,0,0,0,0,0,0,0,0,0,0,0,0,0,0,0,0,0,0,0,0,0,0,0,0,0,0,0,0,0,0,0,0,0,0,0,0,0,0,0,0,0,0,0,0,0,27
guava,v5.0,v6.0,F:/corpus/guava/guava#2010-06-03-08-26-58#v5.0#1ab3ec7/src/com/google/common/base/CaseFormat.java,F:/corpus/guava/guava#2010-06-03-08-26-58#v5.0#1ab3ec7/src/com/google/common/base/CaseFormat.java,0,0,0,0,0,0,0,0,0,0,0,0,0,NO,0,0,0,0,0,0,0,0,0,0,0,0,0,0,0,0,0,0,0,0,0,0,0,0,0,0,0,0,0,0,0,0,0,0,0,0,0,0,0,0,0,0,0,0,0,0,0,0,0,197
guava,v5.0,v6.0,F:/corpus/guava/guava#2010-06-03-08-26-58#v5.0#1ab3ec7/src/com/google/common/base/CharMatcher.java,F:/corpus/guava/guava#2010-06-03-08-26-58#v5.0#1ab3ec7/src/com/google/common/base/CharMatcher.java,0,1,0,0,0,0,0,0,0,0,0,0,0,NO,0,0,0,0,0,0,0,0,0,0,0,0,0,0,0,0,0,0,0,0,0,0,0,0,0,0,0,0,0,0,0,0,0,0,0,0,0,0,0,0,0,0,0,0,0,0,0,0,0,1129
guava,v5.0,v6.0,F:/corpus/guava/guava#2010-06-03-08-26-58#v5.0#1ab3ec7/src/com/google/common/base/Charsets.java,F:/corpus/guava/guava#2010-06-03-08-26-58#v5.0#1ab3ec7/src/com/google/common/base/Charsets.java,1,0,0,0,0,0,0,0,0,0,0,0,0,NO,0,0,0,0,0,0,0,0,0,0,0,0,0,0,0,0,0,0,0,0,0,0,0,0,0,0,0,0,0,0,0,0,0,0,0,0,0,0,0,0,0,0,0,0,0,0,0,0,0,67
guava,v5.0,v6.0,F:/corpus/guava/guava#2010-06-03-08-26-58#v5.0#1ab3ec7/src/com/google/common/base/internal/Finalizer.java,F:/corpus/guava/guava#2010-06-03-08-26-58#v5.0#1ab3ec7/src/com/google/common/base/internal/Finalizer.java,0,0,0,0,0,0,0,0,0,0,0,0,0,NO,0,0,0,0,0,0,0,0,0,0,0,0,0,0,0,0,0,0,0,0,0,0,0,0,0,0,0,0,0,0,0,0,0,0,0,0,0,0,0,0,0,0,0,0,0,0,0,0,0,207
guava,v5.0,v6.0,F:/corpus/guava/guava#2010-06-03-08-26-58#v5.0#1ab3ec7/src/com/google/common/base/package-info.java,F:/corpus/guava/guava#2010-06-03-08-26-58#v5.0#1ab3ec7/src/com/google/common/base/package-info.java,0,0,0,0,0,0,0,0,0,0,0,0,0,NO,0,0,0,0,0,0,0,0,0,0,0,0,0,0,0,0,0,0,0,0,0,0,0,0,0,0,0,0,0,0,0,0,0,0,0,0,0,0,0,0,0,0,0,0,0,0,0,0,0,60
guava,v5.0,v6.0,F:/corpus/guava/guava#2010-06-03-08-26-58#v5.0#1ab3ec7/src/com/google/common/base/Preconditions.java,F:/corpus/guava/guava#2010-06-03-08-26-58#v5.0#1ab3ec7/src/com/google/common/base/Preconditions.java,0,0,0,0,0,0,0,0,0,0,0,10,0,NO,0,0,0,0,0,0,0,0,0,0,0,0,0,0,0,0,0,0,0,0,0,0,0,0,0,0,0,0,0,0,0,0,0,0,0,0,0,0,0,0,0,0,0,0,0,0,0,0,0,445
guava,v5.0,v6.0,F:/corpus/guava/guava#2010-06-03-08-26-58#v5.0#1ab3ec7/src/com/google/common/base/Predicate.java,F:/corpus/guava/guava#2010-06-03-08-26-58#v5.0#1ab3ec7/src/com/google/common/base/Predicate.java,0,0,0,0,1,0,0,0,0,0,0,0,0,NO,0,0,0,0,0,0,0,0,0,0,0,0,0,0,0,0,0,0,0,0,0,0,0,0,0,0,0,0,0,0,0,0,0,0,0,0,0,0,0,0,0,0,0,0,0,0,0,0,0,63
guava,v5.0,v6.0,F:/corpus/guava/guava#2010-06-03-08-26-58#v5.0#1ab3ec7/src/com/google/common/base/Service.java,F:/corpus/guava/guava#2010-06-03-08-26-58#v5.0#1ab3ec7/src/com/google/common/base/Service.java,0,0,0,0,0,0,0,0,0,0,0,0,0,NO,0,0,0,0,0,0,0,0,0,0,0,0,0,0,0,0,0,0,0,0,0,0,0,0,0,0,0,0,0,0,0,0,0,0,0,0,0,0,0,0,0,0,0,0,0,0,0,0,0,160
guava,v5.0,v6.0,F:/corpus/guava/guava#2010-06-03-08-26-58#v5.0#1ab3ec7/src/com/google/common/base/Supplier.java,F:/corpus/guava/guava#2010-06-03-08-26-58#v5.0#1ab3ec7/src/com/google/common/base/Supplier.java,0,0,0,0,1,0,0,0,0,0,0,0,0,NO,0,0,0,0,0,0,0,0,0,0,0,0,0,0,0,0,0,0,0,0,0,0,0,0,0,0,0,0,0,0,0,0,0,0,0,0,0,0,0,0,0,0,0,0,0,0,0,0,0,38
guava,v5.0,v6.0,F:/corpus/guava/guava#2010-06-03-08-26-58#v5.0#1ab3ec7/src/com/google/common/collect/AbstractIndexedIterator.java,F:/corpus/guava/guava#2010-06-03-08-26-58#v5.0#1ab3ec7/src/com/google/common/collect/AbstractIndexedIterator.java,0,0,0,0,1,0,0,0,0,0,0,0,0,NO,0,0,0,0,0,0,0,0,0,0,0,0,0,0,0,0,0,0,0,0,0,0,0,0,0,0,0,0,0,0,0,0,0,0,0,0,0,0,0,0,0,0,0,0,0,0,0,0,0,59
guava,v5.0,v6.0,F:/corpus/guava/guava#2010-06-03-08-26-58#v5.0#1ab3ec7/src/com/google/common/collect/AbstractListMultimap.java,F:/corpus/guava/guava#2010-06-03-08-26-58#v5.0#1ab3ec7/src/com/google/common/collect/AbstractListMultimap.java,0,0,0,0,1,0,0,0,0,0,0,0,0,NO,0,0,0,0,0,0,0,0,0,0,0,0,0,0,0,0,0,0,0,0,0,0,0,0,0,0,0,0,0,0,0,0,0,0,0,0,0,0,0,0,0,0,0,0,0,0,0,0,0,87
guava,v5.0,v6.0,F:/corpus/guava/guava#2010-06-03-08-26-58#v5.0#1ab3ec7/src/com/google/common/collect/AbstractMapEntry.java,F:/corpus/guava/guava#2010-06-03-08-26-58#v5.0#1ab3ec7/src/com/google/common/collect/AbstractMapEntry.java,0,0,0,0,2,0,0,0,0,0,0,0,0,NO,0,0,0,0,0,0,0,0,0,0,0,0,0,0,0,0,0,0,0,0,0,0,0,0,0,0,0,0,0,0,0,0,0,0,0,0,0,0,0,0,0,0,0,0,0,0,0,0,0,64
guava,v5.0,v6.0,F:/corpus/guava/guava#2010-06-03-08-26-58#v5.0#1ab3ec7/src/com/google/common/collect/AbstractSetMultimap.java,F:/corpus/guava/guava#2010-06-03-08-26-58#v5.0#1ab3ec7/src/com/google/common/collect/AbstractSetMultimap.java,0,0,0,0,1,0,0,0,0,0,0,0,0,NO,0,0,0,0,0,0,0,0,0,0,0,0,0,0,0,0,0,0,0,0,0,0,0,0,0,0,0,0,0,0,0,0,0,0,0,0,0,0,0,0,0,0,0,0,0,0,0,0,0,95
guava,v5.0,v6.0,F:/corpus/guava/guava#2010-06-03-08-26-58#v5.0#1ab3ec7/src/com/google/common/collect/AbstractSortedSetMultimap.java,F:/corpus/guava/guava#2010-06-03-08-26-58#v5.0#1ab3ec7/src/com/google/common/collect/AbstractSortedSetMultimap.java,0,0,0,0,1,0,0,0,0,0,0,0,0,NO,0,0,0,0,0,0,0,0,0,0,0,0,0,0,0,0,0,0,0,0,0,0,0,0,0,0,0,0,0,0,0,0,0,0,0,0,0,0,0,0,0,0,0,0,0,0,0,0,0,74
guava,v5.0,v6.0,F:/corpus/guava/guava#2010-06-03-08-26-58#v5.0#1ab3ec7/src/com/google/common/collect/AsynchronousComputationException.java,F:/corpus/guava/guava#2010-06-03-08-26-58#v5.0#1ab3ec7/src/com/google/common/collect/AsynchronousComputationException.java,0,0,0,0,0,0,0,0,0,0,0,0,0,NO,0,0,0,0,0,0,0,0,0,0,0,0,0,0,0,0,0,0,0,0,0,0,0,0,0,0,0,0,0,0,0,0,0,0,0,0,0,0,0,0,0,0,0,0,0,0,0,0,0,32
guava,v5.0,v6.0,F:/corpus/guava/guava#2010-06-03-08-26-58#v5.0#1ab3ec7/src/com/google/common/collect/BiMap.java,F:/corpus/guava/guava#2010-06-03-08-26-58#v5.0#1ab3ec7/src/com/google/common/collect/BiMap.java,0,0,0,0,1,0,0,0,0,0,0,0,0,NO,0,0,0,0,0,0,0,0,0,0,0,0,0,0,0,0,0,0,0,0,0,0,0,0,0,0,0,0,0,0,0,0,0,0,0,0,0,0,0,0,0,0,0,0,0,0,0,0,0,103
guava,v5.0,v6.0,F:/corpus/guava/guava#2010-06-03-08-26-58#v5.0#1ab3ec7/src/com/google/common/collect/ClassToInstanceMap.java,F:/corpus/guava/guava#2010-06-03-08-26-58#v5.0#1ab3ec7/src/com/google/common/collect/ClassToInstanceMap.java,0,0,0,0,1,0,0,0,0,0,0,0,0,NO,0,0,0,0,0,0,0,0,0,0,0,0,0,0,0,0,0,0,0,0,0,0,0,0,0,0,0,0,0,0,0,0,0,0,0,0,0,0,0,0,0,0,0,0,0,0,0,0,0,59
guava,v5.0,v6.0,F:/corpus/guava/guava#2010-06-03-08-26-58#v5.0#1ab3ec7/src/com/google/common/collect/ComparisonChain.java,F:/corpus/guava/guava#2010-06-03-08-26-58#v5.0#1ab3ec7/src/com/google/common/collect/ComparisonChain.java,0,0,0,0,8,0,0,0,0,0,0,0,0,NO,0,0,0,0,0,0,0,0,0,0,0,0,0,0,0,0,0,0,0,0,0,0,0,0,0,0,0,0,0,0,0,0,0,0,0,0,0,0,0,0,0,0,0,0,0,0,0,0,0,193
guava,v5.0,v6.0,F:/corpus/guava/guava#2010-06-03-08-26-58#v5.0#1ab3ec7/src/com/google/common/collect/CompoundOrdering.java,F:/corpus/guava/guava#2010-06-03-08-26-58#v5.0#1ab3ec7/src/com/google/common/collect/CompoundOrdering.java,0,0,0,0,0,0,0,0,0,0,0,0,0,NO,0,0,0,0,0,0,0,0,0,0,0,0,0,0,0,0,0,0,0,0,0,0,0,0,0,0,0,0,0,0,0,0,0,0,0,0,0,0,0,0,0,0,0,0,0,0,0,0,0,76
guava,v5.0,v6.0,F:/corpus/guava/guava#2010-06-03-08-26-58#v5.0#1ab3ec7/src/com/google/common/collect/ComputationException.java,F:/corpus/guava/guava#2010-06-03-08-26-58#v5.0#1ab3ec7/src/com/google/common/collect/ComputationException.java,0,0,0,0,0,0,0,0,0,0,0,0,0,NO,0,0,0,0,0,0,0,0,0,0,0,0,0,0,0,0,0,0,0,0,0,0,0,0,0,0,0,0,0,0,0,0,0,0,0,0,0,0,0,0,0,0,0,0,0,0,0,0,0,33
guava,v5.0,v6.0,F:/corpus/guava/guava#2010-06-03-08-26-58#v5.0#1ab3ec7/src/com/google/common/collect/Constraint.java,F:/corpus/guava/guava#2010-06-03-08-26-58#v5.0#1ab3ec7/src/com/google/common/collect/Constraint.java,0,0,0,0,1,0,0,0,0,0,0,0,0,NO,0,0,0,0,0,0,0,0,0,0,0,0,0,0,0,0,0,0,0,0,0,0,0,0,0,0,0,0,0,0,0,0,0,0,0,0,0,0,0,0,0,0,0,0,0,0,0,0,0,66
guava,v5.0,v6.0,F:/corpus/guava/guava#2010-06-03-08-26-58#v5.0#1ab3ec7/src/com/google/common/collect/EmptyImmutableListMultimap.java,F:/corpus/guava/guava#2010-06-03-08-26-58#v5.0#1ab3ec7/src/com/google/common/collect/EmptyImmutableListMultimap.java,0,0,0,0,0,0,0,0,0,0,0,0,0,NO,0,0,0,0,0,0,0,0,0,0,0,0,0,0,0,0,0,0,0,0,0,0,0,0,0,0,0,0,0,0,0,0,0,0,0,0,0,0,0,0,0,0,0,0,0,0,0,0,0,40
guava,v5.0,v6.0,F:/corpus/guava/guava#2010-06-03-08-26-58#v5.0#1ab3ec7/src/com/google/common/collect/EmptyImmutableMap.java,F:/corpus/guava/guava#2010-06-03-08-26-58#v5.0#1ab3ec7/src/com/google/common/collect/EmptyImmutableMap.java,0,0,0,0,3,0,0,0,0,0,0,0,0,NO,0,0,0,0,0,0,0,0,0,0,0,0,0,0,0,0,0,0,0,0,0,0,0,0,0,0,0,0,0,0,0,0,0,0,0,0,0,0,0,0,0,0,0,0,0,0,0,0,0,90
guava,v5.0,v6.0,F:/corpus/guava/guava#2010-06-03-08-26-58#v5.0#1ab3ec7/src/com/google/common/collect/EmptyImmutableMultiset.java,F:/corpus/guava/guava#2010-06-03-08-26-58#v5.0#1ab3ec7/src/com/google/common/collect/EmptyImmutableMultiset.java,0,0,0,0,0,0,0,0,0,0,0,0,0,NO,0,0,0,0,0,0,0,0,0,0,0,0,0,0,0,0,0,0,0,0,0,0,0,0,0,0,0,0,0,0,0,0,0,0,0,0,0,0,0,0,0,0,0,0,0,0,0,0,0,39
guava,v5.0,v6.0,F:/corpus/guava/guava#2010-06-03-08-26-58#v5.0#1ab3ec7/src/com/google/common/collect/EmptyImmutableSet.java,F:/corpus/guava/guava#2010-06-03-08-26-58#v5.0#1ab3ec7/src/com/google/common/collect/EmptyImmutableSet.java,0,0,0,0,1,0,0,0,0,0,0,0,0,NO,0,0,0,0,0,0,0,0,0,0,0,0,0,0,0,0,0,0,0,0,0,0,0,0,0,0,0,0,0,0,0,0,0,0,0,0,0,0,0,0,0,0,0,0,0,0,0,0,0,95
guava,v5.0,v6.0,F:/corpus/guava/guava#2010-06-03-08-26-58#v5.0#1ab3ec7/src/com/google/common/collect/EmptyImmutableSetMultimap.java,F:/corpus/guava/guava#2010-06-03-08-26-58#v5.0#1ab3ec7/src/com/google/common/collect/EmptyImmutableSetMultimap.java,0,0,0,0,0,0,0,0,0,0,0,0,0,NO,0,0,0,0,0,0,0,0,0,0,0,0,0,0,0,0,0,0,0,0,0,0,0,0,0,0,0,0,0,0,0,0,0,0,0,0,0,0,0,0,0,0,0,0,0,0,0,0,0,40
guava,v5.0,v6.0,F:/corpus/guava/guava#2010-06-03-08-26-58#v5.0#1ab3ec7/src/com/google/common/collect/EmptyImmutableSortedSet.java,F:/corpus/guava/guava#2010-06-03-08-26-58#v5.0#1ab3ec7/src/com/google/common/collect/EmptyImmutableSortedSet.java,0,0,0,0,5,0,0,0,0,0,0,0,0,NO,0,0,0,0,0,0,0,0,0,0,0,0,0,0,0,0,0,0,0,0,0,0,0,0,0,0,0,0,0,0,0,0,0,0,0,0,0,0,0,0,0,0,0,0,0,0,0,0,0,116
guava,v5.0,v6.0,F:/corpus/guava/guava#2010-06-03-08-26-58#v5.0#1ab3ec7/src/com/google/common/collect/EnumBiMap.java,F:/corpus/guava/guava#2010-06-03-08-26-58#v5.0#1ab3ec7/src/com/google/common/collect/EnumBiMap.java,0,0,0,0,0,0,0,0,0,0,0,0,0,NO,0,0,0,0,0,0,0,0,0,0,0,0,0,0,0,0,0,0,0,0,0,0,0,0,0,0,0,0,0,0,0,0,0,0,0,0,0,0,0,0,0,0,0,0,0,0,0,0,0,126
guava,v5.0,v6.0,F:/corpus/guava/guava#2010-06-03-08-26-58#v5.0#1ab3ec7/src/com/google/common/collect/EnumHashBiMap.java,F:/corpus/guava/guava#2010-06-03-08-26-58#v5.0#1ab3ec7/src/com/google/common/collect/EnumHashBiMap.java,0,0,0,0,0,0,0,0,0,0,0,0,0,NO,0,0,0,0,0,0,0,0,0,0,0,0,0,0,0,0,0,0,0,0,0,0,0,0,0,0,0,0,0,0,0,0,0,0,0,0,0,0,0,0,0,0,0,0,0,0,0,0,0,110
guava,v5.0,v6.0,F:/corpus/guava/guava#2010-06-03-08-26-58#v5.0#1ab3ec7/src/com/google/common/collect/ExpirationTimer.java,F:/corpus/guava/guava#2010-06-03-08-26-58#v5.0#1ab3ec7/src/com/google/common/collect/ExpirationTimer.java,0,0,0,0,0,0,0,0,0,0,0,0,0,NO,0,0,0,0,0,0,0,0,0,0,0,0,0,0,0,0,0,0,0,0,0,0,0,0,0,0,0,0,0,0,0,0,0,0,0,0,0,0,0,0,0,0,0,0,0,0,0,0,0,26
guava,v5.0,v6.0,F:/corpus/guava/guava#2010-06-03-08-26-58#v5.0#1ab3ec7/src/com/google/common/collect/ExplicitOrderedImmutableSortedSet.java,F:/corpus/guava/guava#2010-06-03-08-26-58#v5.0#1ab3ec7/src/com/google/common/collect/ExplicitOrderedImmutableSortedSet.java,0,0,0,0,1,0,0,0,0,0,0,0,0,NO,0,0,0,0,0,0,0,0,0,0,0,0,0,0,0,0,0,0,0,0,0,0,0,0,0,0,0,0,0,0,0,0,0,0,0,0,0,0,0,0,0,0,0,0,0,0,0,0,0,224
guava,v5.0,v6.0,F:/corpus/guava/guava#2010-06-03-08-26-58#v5.0#1ab3ec7/src/com/google/common/collect/ExplicitOrdering.java,F:/corpus/guava/guava#2010-06-03-08-26-58#v5.0#1ab3ec7/src/com/google/common/collect/ExplicitOrdering.java,0,0,0,0,0,0,0,0,0,0,0,0,0,NO,0,0,0,0,0,0,0,0,0,0,0,0,0,0,0,0,0,0,0,0,0,0,0,0,0,0,0,0,0,0,0,0,0,0,0,0,0,0,0,0,0,0,0,0,0,0,0,0,0,78
guava,v5.0,v6.0,F:/corpus/guava/guava#2010-06-03-08-26-58#v5.0#1ab3ec7/src/com/google/common/collect/ForwardingList.java,F:/corpus/guava/guava#2010-06-03-08-26-58#v5.0#1ab3ec7/src/com/google/common/collect/ForwardingList.java,0,0,0,0,1,0,0,0,0,0,0,0,0,NO,0,0,0,0,0,0,0,0,0,0,0,0,0,0,0,0,0,0,0,0,0,0,0,0,0,0,0,0,0,0,0,0,0,0,0,0,0,0,0,0,0,0,0,0,0,0,0,0,0,96
guava,v5.0,v6.0,F:/corpus/guava/guava#2010-06-03-08-26-58#v5.0#1ab3ec7/src/com/google/common/collect/ForwardingObject.java,F:/corpus/guava/guava#2010-06-03-08-26-58#v5.0#1ab3ec7/src/com/google/common/collect/ForwardingObject.java,0,0,0,0,0,0,0,0,0,0,0,0,0,NO,0,0,0,0,0,0,0,0,0,0,0,0,0,0,0,0,0,0,0,0,0,0,0,0,0,0,0,0,0,0,0,0,0,0,0,0,0,0,0,0,0,0,0,0,0,0,0,0,0,76
guava,v5.0,v6.0,F:/corpus/guava/guava#2010-06-03-08-26-58#v5.0#1ab3ec7/src/com/google/common/collect/ImmutableAsList.java,F:/corpus/guava/guava#2010-06-03-08-26-58#v5.0#1ab3ec7/src/com/google/common/collect/ImmutableAsList.java,0,0,0,0,1,0,0,0,0,0,0,0,0,NO,0,0,0,0,0,0,0,0,0,0,0,0,0,0,0,0,0,0,0,0,0,0,0,0,0,0,0,0,0,0,0,0,0,0,0,0,0,0,0,0,0,0,0,0,0,0,0,0,0,66
guava,v5.0,v6.0,F:/corpus/guava/guava#2010-06-03-08-26-58#v5.0#1ab3ec7/src/com/google/common/collect/ImmutableBiMap.java,F:/corpus/guava/guava#2010-06-03-08-26-58#v5.0#1ab3ec7/src/com/google/common/collect/ImmutableBiMap.java,0,0,0,0,2,0,0,0,0,0,2,0,0,NO,0,0,0,0,0,0,0,0,0,0,0,0,0,0,0,0,0,0,0,0,0,0,0,0,0,0,0,0,0,0,0,0,0,0,0,0,0,0,0,0,0,0,0,0,0,0,0,0,0,312
guava,v5.0,v6.0,F:/corpus/guava/guava#2010-06-03-08-26-58#v5.0#1ab3ec7/src/com/google/common/collect/ImmutableClassToInstanceMap.java,F:/corpus/guava/guava#2010-06-03-08-26-58#v5.0#1ab3ec7/src/com/google/common/collect/ImmutableClassToInstanceMap.java,0,0,0,0,1,0,0,0,0,0,0,0,0,NO,0,0,0,0,0,0,0,0,0,0,0,0,0,0,0,0,0,0,0,0,0,0,0,0,0,0,0,0,0,0,0,0,0,0,0,0,0,0,0,0,0,0,0,0,0,0,0,0,0,148
guava,v5.0,v6.0,F:/corpus/guava/guava#2010-06-03-08-26-58#v5.0#1ab3ec7/src/com/google/common/collect/ImmutableCollection.java,F:/corpus/guava/guava#2010-06-03-08-26-58#v5.0#1ab3ec7/src/com/google/common/collect/ImmutableCollection.java,0,0,0,0,8,0,0,0,0,0,0,0,0,NO,0,0,0,0,0,0,0,0,0,0,0,0,0,0,0,0,0,0,0,0,0,0,0,0,0,0,0,0,0,0,0,0,0,0,0,0,0,0,0,0,0,0,0,0,0,0,0,0,0,343
guava,v5.0,v6.0,F:/corpus/guava/guava#2010-06-03-08-26-58#v5.0#1ab3ec7/src/com/google/common/collect/ImmutableEntry.java,F:/corpus/guava/guava#2010-06-03-08-26-58#v5.0#1ab3ec7/src/com/google/common/collect/ImmutableEntry.java,0,0,0,0,0,0,0,0,0,0,0,0,0,NO,0,0,0,0,0,0,0,0,0,0,0,0,0,0,0,0,0,0,0,0,0,0,0,0,0,0,0,0,0,0,0,0,0,0,0,0,0,0,0,0,0,0,0,0,0,0,0,0,0,47
guava,v5.0,v6.0,F:/corpus/guava/guava#2010-06-03-08-26-58#v5.0#1ab3ec7/src/com/google/common/collect/ImmutableEnumSet.java,F:/corpus/guava/guava#2010-06-03-08-26-58#v5.0#1ab3ec7/src/com/google/common/collect/ImmutableEnumSet.java,0,0,0,0,0,0,0,0,0,0,0,0,0,NO,0,0,0,0,0,0,0,0,0,0,0,0,0,0,0,0,0,0,0,0,0,0,0,0,0,0,0,0,0,0,0,0,0,0,0,0,0,0,0,0,0,0,0,0,0,0,0,0,0,111
guava,v5.0,v6.0,F:/corpus/guava/guava#2010-06-03-08-26-58#v5.0#1ab3ec7/src/com/google/common/collect/ImmutableSortedAsList.java,F:/corpus/guava/guava#2010-06-03-08-26-58#v5.0#1ab3ec7/src/com/google/common/collect/ImmutableSortedAsList.java,0,0,0,0,0,0,0,0,0,0,0,0,0,NO,0,0,0,0,0,0,0,0,0,0,0,0,0,0,0,0,0,0,0,0,0,0,0,0,0,0,0,0,0,0,0,0,0,0,0,0,0,0,0,0,0,0,0,0,0,0,0,0,0,67
guava,v5.0,v6.0,F:/corpus/guava/guava#2010-06-03-08-26-58#v5.0#1ab3ec7/src/com/google/common/collect/ImmutableSortedMapFauxverideShim.java,F:/corpus/guava/guava#2010-06-03-08-26-58#v5.0#1ab3ec7/src/com/google/common/collect/ImmutableSortedMapFauxverideShim.java,0,0,0,0,6,0,0,0,0,0,2,0,0,NO,0,0,0,0,0,0,0,0,0,0,0,0,0,0,0,0,0,0,0,0,0,0,0,0,0,0,0,0,0,0,0,0,0,0,0,0,0,0,0,0,0,0,0,0,0,0,0,0,0,117
guava,v5.0,v6.0,F:/corpus/guava/guava#2010-06-03-08-26-58#v5.0#1ab3ec7/src/com/google/common/collect/ImmutableSortedSetFauxverideShim.java,F:/corpus/guava/guava#2010-06-03-08-26-58#v5.0#1ab3ec7/src/com/google/common/collect/ImmutableSortedSetFauxverideShim.java,0,0,0,0,9,0,0,0,0,0,0,0,0,NO,0,0,0,0,0,0,0,0,0,0,0,0,0,0,0,0,0,0,0,0,0,0,0,0,0,0,0,0,0,0,0,0,0,0,0,0,0,0,0,0,0,0,0,0,0,0,0,0,0,182
guava,v5.0,v6.0,F:/corpus/guava/guava#2010-06-03-08-26-58#v5.0#1ab3ec7/src/com/google/common/collect/Interner.java,F:/corpus/guava/guava#2010-06-03-08-26-58#v5.0#1ab3ec7/src/com/google/common/collect/Interner.java,0,0,0,0,1,0,0,0,0,0,0,0,0,NO,0,0,0,0,0,0,0,0,0,0,0,0,0,0,0,0,0,0,0,0,0,0,0,0,0,0,0,0,0,0,0,0,0,0,0,0,0,0,0,0,0,0,0,0,0,0,0,0,0,44
guava,v5.0,v6.0,F:/corpus/guava/guava#2010-06-03-08-26-58#v5.0#1ab3ec7/src/com/google/common/collect/LexicographicalOrdering.java,F:/corpus/guava/guava#2010-06-03-08-26-58#v5.0#1ab3ec7/src/com/google/common/collect/LexicographicalOrdering.java,0,0,0,0,0,0,0,0,0,0,0,0,0,NO,0,0,0,0,0,0,0,0,0,0,0,0,0,0,0,0,0,0,0,0,0,0,0,0,0,0,0,0,0,0,0,0,0,0,0,0,0,0,0,0,0,0,0,0,0,0,0,0,0,77
guava,v5.0,v6.0,F:/corpus/guava/guava#2010-06-03-08-26-58#v5.0#1ab3ec7/src/com/google/common/collect/ListMultimap.java,F:/corpus/guava/guava#2010-06-03-08-26-58#v5.0#1ab3ec7/src/com/google/common/collect/ListMultimap.java,0,0,0,0,1,0,0,0,0,0,0,0,0,NO,0,0,0,0,0,0,0,0,0,0,0,0,0,0,0,0,0,0,0,0,0,0,0,0,0,0,0,0,0,0,0,0,0,0,0,0,0,0,0,0,0,0,0,0,0,0,0,0,0,83
guava,v5.0,v6.0,F:/corpus/guava/guava#2010-06-03-08-26-58#v5.0#1ab3ec7/src/com/google/common/collect/MapConstraint.java,F:/corpus/guava/guava#2010-06-03-08-26-58#v5.0#1ab3ec7/src/com/google/common/collect/MapConstraint.java,0,0,0,0,1,0,0,0,0,0,0,0,0,NO,0,0,0,0,0,0,0,0,0,0,0,0,0,0,0,0,0,0,0,0,0,0,0,0,0,0,0,0,0,0,0,0,0,0,0,0,0,0,0,0,0,0,0,0,0,0,0,0,0,64
guava,v5.0,v6.0,F:/corpus/guava/guava#2010-06-03-08-26-58#v5.0#1ab3ec7/src/com/google/common/collect/MapDifference.java,F:/corpus/guava/guava#2010-06-03-08-26-58#v5.0#1ab3ec7/src/com/google/common/collect/MapDifference.java,0,0,0,0,2,0,0,0,0,0,0,0,0,NO,0,0,0,0,0,0,0,0,0,0,0,0,0,0,0,0,0,0,0,0,0,0,0,0,0,0,0,0,0,0,0,0,0,0,0,0,0,0,0,0,0,0,0,0,0,0,0,0,0,110
guava,v5.0,v6.0,F:/corpus/guava/guava#2010-06-03-08-26-58#v5.0#1ab3ec7/src/com/google/common/collect/Maps.java,F:/corpus/guava/guava#2010-06-03-08-26-58#v5.0#1ab3ec7/src/com/google/common/collect/Maps.java,0,1,0,0,3,0,0,0,0,0,0,3,0,NO,0,0,0,0,0,0,0,0,0,0,0,0,0,0,0,0,0,0,0,0,0,0,0,0,0,0,0,0,0,0,0,0,0,0,0,0,0,0,0,0,0,0,0,0,0,0,0,0,0,1383
guava,v5.0,v6.0,F:/corpus/guava/guava#2010-06-03-08-26-58#v5.0#1ab3ec7/src/com/google/common/collect/Multimap.java,F:/corpus/guava/guava#2010-06-03-08-26-58#v5.0#1ab3ec7/src/com/google/common/collect/Multimap.java,0,0,0,0,1,0,0,0,0,0,0,0,0,NO,0,0,0,0,0,0,0,0,0,0,0,0,0,0,0,0,0,0,0,0,0,0,0,0,0,0,0,0,0,0,0,0,0,0,0,0,0,0,0,0,0,0,0,0,0,0,0,0,0,263
guava,v5.0,v6.0,F:/corpus/guava/guava#2010-06-03-08-26-58#v5.0#1ab3ec7/src/com/google/common/collect/Multiset.java,F:/corpus/guava/guava#2010-06-03-08-26-58#v5.0#1ab3ec7/src/com/google/common/collect/Multiset.java,0,0,0,0,2,0,0,0,0,0,0,0,0,NO,0,0,0,0,0,0,0,0,0,0,0,0,0,0,0,0,0,0,0,0,0,0,0,0,0,0,0,0,0,0,0,0,0,0,0,0,0,0,0,0,0,0,0,0,0,0,0,0,0,404
guava,v5.0,v6.0,F:/corpus/guava/guava#2010-06-03-08-26-58#v5.0#1ab3ec7/src/com/google/common/collect/MutableClassToInstanceMap.java,F:/corpus/guava/guava#2010-06-03-08-26-58#v5.0#1ab3ec7/src/com/google/common/collect/MutableClassToInstanceMap.java,0,0,0,0,0,0,0,0,0,0,0,0,0,NO,0,0,0,0,0,0,0,0,0,0,0,0,0,0,0,0,0,0,0,0,0,0,0,0,0,0,0,0,0,0,0,0,0,0,0,0,0,0,0,0,0,0,0,0,0,0,0,0,0,79
guava,v5.0,v6.0,F:/corpus/guava/guava#2010-06-03-08-26-58#v5.0#1ab3ec7/src/com/google/common/collect/NullOutputException.java,F:/corpus/guava/guava#2010-06-03-08-26-58#v5.0#1ab3ec7/src/com/google/common/collect/NullOutputException.java,0,0,0,0,0,0,0,0,0,0,0,0,0,NO,0,0,0,0,0,0,0,0,0,0,0,0,0,0,0,0,0,0,0,0,0,0,0,0,0,0,0,0,0,0,0,0,0,0,0,0,0,0,0,0,0,0,0,0,0,0,0,0,0,31
guava,v5.0,v6.0,F:/corpus/guava/guava#2010-06-03-08-26-58#v5.0#1ab3ec7/src/com/google/common/collect/NullsFirstOrdering.java,F:/corpus/guava/guava#2010-06-03-08-26-58#v5.0#1ab3ec7/src/com/google/common/collect/NullsFirstOrdering.java,0,0,0,0,0,0,0,0,0,0,0,0,0,NO,0,0,0,0,0,0,0,0,0,0,0,0,0,0,0,0,0,0,0,0,0,0,0,0,0,0,0,0,0,0,0,0,0,0,0,0,0,0,0,0,0,0,0,0,0,0,0,0,0,81
guava,v5.0,v6.0,F:/corpus/guava/guava#2010-06-03-08-26-58#v5.0#1ab3ec7/src/com/google/common/collect/NullsLastOrdering.java,F:/corpus/guava/guava#2010-06-03-08-26-58#v5.0#1ab3ec7/src/com/google/common/collect/NullsLastOrdering.java,0,0,0,0,0,0,0,0,0,0,0,0,0,NO,0,0,0,0,0,0,0,0,0,0,0,0,0,0,0,0,0,0,0,0,0,0,0,0,0,0,0,0,0,0,0,0,0,0,0,0,0,0,0,0,0,0,0,0,0,0,0,0,0,81
guava,v5.0,v6.0,F:/corpus/guava/guava#2010-06-03-08-26-58#v5.0#1ab3ec7/src/com/google/common/collect/package-info.java,F:/corpus/guava/guava#2010-06-03-08-26-58#v5.0#1ab3ec7/src/com/google/common/collect/package-info.java,0,0,0,0,0,0,0,0,0,0,0,0,0,NO,0,0,0,0,0,0,0,0,0,0,0,0,0,0,0,0,0,0,0,0,0,0,0,0,0,0,0,0,0,0,0,0,0,0,0,0,0,0,0,0,0,0,0,0,0,0,0,0,0,192
guava,v5.0,v6.0,F:/corpus/guava/guava#2010-06-03-08-26-58#v5.0#1ab3ec7/src/com/google/common/collect/PeekingIterator.java,F:/corpus/guava/guava#2010-06-03-08-26-58#v5.0#1ab3ec7/src/com/google/common/collect/PeekingIterator.java,0,0,0,0,1,0,0,0,0,0,0,0,0,NO,0,0,0,0,0,0,0,0,0,0,0,0,0,0,0,0,0,0,0,0,0,0,0,0,0,0,0,0,0,0,0,0,0,0,0,0,0,0,0,0,0,0,0,0,0,0,0,0,0,63
guava,v5.0,v6.0,F:/corpus/guava/guava#2010-06-03-08-26-58#v5.0#1ab3ec7/src/com/google/common/collect/RegularImmutableBiMap.java,F:/corpus/guava/guava#2010-06-03-08-26-58#v5.0#1ab3ec7/src/com/google/common/collect/RegularImmutableBiMap.java,0,0,0,0,0,0,0,0,0,0,0,0,0,NO,0,0,0,0,0,0,0,0,0,0,0,0,0,0,0,0,0,0,0,0,0,0,0,0,0,0,0,0,0,0,0,0,0,0,0,0,0,0,0,0,0,0,0,0,0,0,0,0,0,56
guava,v5.0,v6.0,F:/corpus/guava/guava#2010-06-03-08-26-58#v5.0#1ab3ec7/src/com/google/common/collect/RegularImmutableList.java,F:/corpus/guava/guava#2010-06-03-08-26-58#v5.0#1ab3ec7/src/com/google/common/collect/RegularImmutableList.java,0,0,0,0,0,0,0,0,0,0,0,0,0,NO,0,0,0,0,0,0,0,0,0,0,0,0,0,0,0,0,0,0,0,0,0,0,0,0,0,0,0,0,0,0,0,0,0,0,0,0,0,0,0,0,0,0,0,0,0,0,0,0,0,235
guava,v5.0,v6.0,F:/corpus/guava/guava#2010-06-03-08-26-58#v5.0#1ab3ec7/src/com/google/common/collect/RegularImmutableMap.java,F:/corpus/guava/guava#2010-06-03-08-26-58#v5.0#1ab3ec7/src/com/google/common/collect/RegularImmutableMap.java,0,0,0,0,0,0,0,0,0,0,0,0,0,NO,0,0,0,0,0,0,0,0,0,0,0,0,0,0,0,0,0,0,0,0,0,0,0,0,0,0,0,0,0,0,0,0,0,0,0,0,0,0,0,0,0,0,0,0,0,0,0,0,0,209
guava,v5.0,v6.0,F:/corpus/guava/guava#2010-06-03-08-26-58#v5.0#1ab3ec7/src/com/google/common/collect/RegularImmutableSet.java,F:/corpus/guava/guava#2010-06-03-08-26-58#v5.0#1ab3ec7/src/com/google/common/collect/RegularImmutableSet.java,0,0,0,0,0,0,0,0,0,0,0,0,0,NO,0,0,0,0,0,0,0,0,0,0,0,0,0,0,0,0,0,0,0,0,0,0,0,0,0,0,0,0,0,0,0,0,0,0,0,0,0,0,0,0,0,0,0,0,0,0,0,0,0,67
guava,v5.0,v6.0,F:/corpus/guava/guava#2010-06-03-08-26-58#v5.0#1ab3ec7/src/com/google/common/collect/RegularImmutableSortedSet.java,F:/corpus/guava/guava#2010-06-03-08-26-58#v5.0#1ab3ec7/src/com/google/common/collect/RegularImmutableSortedSet.java,0,0,0,0,0,0,0,0,0,0,0,0,0,NO,0,0,0,0,0,0,0,0,0,0,0,0,0,0,0,0,0,0,0,0,0,0,0,0,0,0,0,0,0,0,0,0,0,0,0,0,0,0,0,0,0,0,0,0,0,0,0,0,0,273
guava,v5.0,v6.0,F:/corpus/guava/guava#2010-06-03-08-26-58#v5.0#1ab3ec7/src/com/google/common/collect/SetMultimap.java,F:/corpus/guava/guava#2010-06-03-08-26-58#v5.0#1ab3ec7/src/com/google/common/collect/SetMultimap.java,0,0,0,0,1,0,0,0,0,0,0,0,0,NO,0,0,0,0,0,0,0,0,0,0,0,0,0,0,0,0,0,0,0,0,0,0,0,0,0,0,0,0,0,0,0,0,0,0,0,0,0,0,0,0,0,0,0,0,0,0,0,0,0,95
guava,v5.0,v6.0,F:/corpus/guava/guava#2010-06-03-08-26-58#v5.0#1ab3ec7/src/com/google/common/collect/SingletonImmutableMap.java,F:/corpus/guava/guava#2010-06-03-08-26-58#v5.0#1ab3ec7/src/com/google/common/collect/SingletonImmutableMap.java,0,0,0,0,0,0,0,0,0,0,0,0,0,NO,0,0,0,0,0,0,0,0,0,0,0,0,0,0,0,0,0,0,0,0,0,0,0,0,0,0,0,0,0,0,0,0,0,0,0,0,0,0,0,0,0,0,0,0,0,0,0,0,0,152
guava,v5.0,v6.0,F:/corpus/guava/guava#2010-06-03-08-26-58#v5.0#1ab3ec7/src/com/google/common/collect/SingletonImmutableSet.java,F:/corpus/guava/guava#2010-06-03-08-26-58#v5.0#1ab3ec7/src/com/google/common/collect/SingletonImmutableSet.java,0,0,0,0,0,0,0,0,0,0,0,0,0,NO,0,0,0,0,0,0,0,0,0,0,0,0,0,0,0,0,0,0,0,0,0,0,0,0,0,0,0,0,0,0,0,0,0,0,0,0,0,0,0,0,0,0,0,0,0,0,0,0,0,117
guava,v5.0,v6.0,F:/corpus/guava/guava#2010-06-03-08-26-58#v5.0#1ab3ec7/src/com/google/common/collect/SortedSetMultimap.java,F:/corpus/guava/guava#2010-06-03-08-26-58#v5.0#1ab3ec7/src/com/google/common/collect/SortedSetMultimap.java,0,0,0,0,1,0,0,0,0,0,0,0,0,NO,0,0,0,0,0,0,0,0,0,0,0,0,0,0,0,0,0,0,0,0,0,0,0,0,0,0,0,0,0,0,0,0,0,0,0,0,0,0,0,0,0,0,0,0,0,0,0,0,0,101
guava,v5.0,v6.0,F:/corpus/guava/guava#2010-06-03-08-26-58#v5.0#1ab3ec7/src/com/google/common/collect/UnmodifiableIterator.java,F:/corpus/guava/guava#2010-06-03-08-26-58#v5.0#1ab3ec7/src/com/google/common/collect/UnmodifiableIterator.java,0,0,0,0,1,0,0,0,0,0,0,0,0,NO,0,0,0,0,0,0,0,0,0,0,0,0,0,0,0,0,0,0,0,0,0,0,0,0,0,0,0,0,0,0,0,0,0,0,0,0,0,0,0,0,0,0,0,0,0,0,0,0,0,39
guava,v5.0,v6.0,F:/corpus/guava/guava#2010-06-03-08-26-58#v5.0#1ab3ec7/src/com/google/common/collect/UsingToStringOrdering.java,F:/corpus/guava/guava#2010-06-03-08-26-58#v5.0#1ab3ec7/src/com/google/common/collect/UsingToStringOrdering.java,0,0,0,0,0,0,0,0,0,0,0,0,0,NO,0,0,0,0,0,0,0,0,0,0,0,0,0,0,0,0,0,0,0,0,0,0,0,0,0,0,0,0,0,0,0,0,0,0,0,0,0,0,0,0,0,0,0,0,0,0,0,0,0,45
guava,v5.0,v6.0,F:/corpus/guava/guava#2010-06-03-08-26-58#v5.0#1ab3ec7/src/com/google/common/io/AppendableWriter.java,F:/corpus/guava/guava#2010-06-03-08-26-58#v5.0#1ab3ec7/src/com/google/common/io/AppendableWriter.java,0,0,1,0,0,0,0,0,0,0,0,0,0,NO,0,0,0,0,0,0,0,0,0,0,0,0,0,0,0,0,0,0,0,0,0,0,0,0,0,0,0,0,0,0,0,0,0,0,0,0,0,0,0,0,0,0,0,0,0,0,0,0,0,117
guava,v5.0,v6.0,F:/corpus/guava/guava#2010-06-03-08-26-58#v5.0#1ab3ec7/src/com/google/common/io/ByteProcessor.java,F:/corpus/guava/guava#2010-06-03-08-26-58#v5.0#1ab3ec7/src/com/google/common/io/ByteProcessor.java,0,0,0,0,1,0,0,0,0,0,0,0,0,NO,0,0,0,0,0,0,0,0,0,0,0,0,0,0,0,0,0,0,0,0,0,0,0,0,0,0,0,0,0,0,0,0,0,0,0,0,0,0,0,0,0,0,0,0,0,0,0,0,0,49
guava,v5.0,v6.0,F:/corpus/guava/guava#2010-06-03-08-26-58#v5.0#1ab3ec7/src/com/google/common/io/Closeables.java,F:/corpus/guava/guava#2010-06-03-08-26-58#v5.0#1ab3ec7/src/com/google/common/io/Closeables.java,0,0,0,0,0,0,0,0,0,0,0,0,0,NO,0,0,0,0,0,0,0,0,0,0,0,0,0,0,0,0,0,0,0,0,0,0,0,0,0,0,0,0,0,0,0,0,0,0,0,0,0,0,0,0,0,0,0,0,0,0,0,0,0,103
guava,v5.0,v6.0,F:/corpus/guava/guava#2010-06-03-08-26-58#v5.0#1ab3ec7/src/com/google/common/io/CountingInputStream.java,F:/corpus/guava/guava#2010-06-03-08-26-58#v5.0#1ab3ec7/src/com/google/common/io/CountingInputStream.java,0,0,0,0,0,0,0,0,0,0,0,0,0,NO,0,0,0,0,0,0,0,0,0,0,0,0,0,0,0,0,0,0,0,0,0,0,0,0,0,0,0,0,0,0,0,0,0,0,0,0,0,0,0,0,0,0,0,0,0,0,0,0,0,90
guava,v5.0,v6.0,F:/corpus/guava/guava#2010-06-03-08-26-58#v5.0#1ab3ec7/src/com/google/common/io/CountingOutputStream.java,F:/corpus/guava/guava#2010-06-03-08-26-58#v5.0#1ab3ec7/src/com/google/common/io/CountingOutputStream.java,0,0,0,0,0,0,0,0,0,0,0,0,0,NO,0,0,0,0,0,0,0,0,0,0,0,0,0,0,0,0,0,0,0,0,0,0,0,0,0,0,0,0,0,0,0,0,0,0,0,0,0,0,0,0,0,0,0,0,0,0,0,0,0,59
guava,v5.0,v6.0,F:/corpus/guava/guava#2010-06-03-08-26-58#v5.0#1ab3ec7/src/com/google/common/io/FileBackedOutputStream.java,F:/corpus/guava/guava#2010-06-03-08-26-58#v5.0#1ab3ec7/src/com/google/common/io/FileBackedOutputStream.java,0,0,0,0,0,0,0,0,0,0,0,0,0,NO,0,0,0,0,0,0,0,0,0,0,0,0,0,0,0,0,0,0,0,0,0,0,0,0,0,0,0,0,0,0,0,0,0,0,0,0,0,0,0,0,0,0,0,0,0,0,0,0,0,207
guava,v5.0,v6.0,F:/corpus/guava/guava#2010-06-03-08-26-58#v5.0#1ab3ec7/src/com/google/common/io/Files.java,F:/corpus/guava/guava#2010-06-03-08-26-58#v5.0#1ab3ec7/src/com/google/common/io/Files.java,0,0,0,0,0,1,0,0,0,0,0,0,0,NO,0,0,0,0,0,0,0,0,0,0,0,0,0,0,0,0,0,0,0,0,0,0,0,0,0,0,0,0,0,0,0,0,0,0,0,0,0,0,0,0,0,0,0,0,0,0,0,0,0,717
guava,v5.0,v6.0,F:/corpus/guava/guava#2010-06-03-08-26-58#v5.0#1ab3ec7/src/com/google/common/io/Flushables.java,F:/corpus/guava/guava#2010-06-03-08-26-58#v5.0#1ab3ec7/src/com/google/common/io/Flushables.java,0,0,0,0,0,0,0,0,0,0,0,0,0,NO,0,0,0,0,0,0,0,0,0,0,0,0,0,0,0,0,0,0,0,0,0,0,0,0,0,0,0,0,0,0,0,0,0,0,0,0,0,0,0,0,0,0,0,0,0,0,0,0,0,79
guava,v5.0,v6.0,F:/corpus/guava/guava#2010-06-03-08-26-58#v5.0#1ab3ec7/src/com/google/common/io/InputSupplier.java,F:/corpus/guava/guava#2010-06-03-08-26-58#v5.0#1ab3ec7/src/com/google/common/io/InputSupplier.java,0,0,0,0,1,0,0,0,0,0,0,0,0,NO,0,0,0,0,0,0,0,0,0,0,0,0,0,0,0,0,0,0,0,0,0,0,0,0,0,0,0,0,0,0,0,0,0,0,0,0,0,0,0,0,0,0,0,0,0,0,0,0,0,29
guava,v5.0,v6.0,F:/corpus/guava/guava#2010-06-03-08-26-58#v5.0#1ab3ec7/src/com/google/common/io/LimitInputStream.java,F:/corpus/guava/guava#2010-06-03-08-26-58#v5.0#1ab3ec7/src/com/google/common/io/LimitInputStream.java,0,0,0,0,0,0,0,0,0,0,0,0,0,NO,0,0,0,0,0,0,0,0,0,0,0,0,0,0,0,0,0,0,0,0,0,0,0,0,0,0,0,0,0,0,0,0,0,0,0,0,0,0,0,0,0,0,0,0,0,0,0,0,0,104
guava,v5.0,v6.0,F:/corpus/guava/guava#2010-06-03-08-26-58#v5.0#1ab3ec7/src/com/google/common/io/LineBuffer.java,F:/corpus/guava/guava#2010-06-03-08-26-58#v5.0#1ab3ec7/src/com/google/common/io/LineBuffer.java,0,0,0,0,1,0,0,0,0,0,0,0,0,NO,0,0,0,0,0,0,0,0,0,0,0,0,0,0,0,0,0,0,0,0,0,0,0,0,0,0,0,0,0,0,0,0,0,0,0,0,0,0,0,0,0,0,0,0,0,0,0,0,0,118
guava,v5.0,v6.0,F:/corpus/guava/guava#2010-06-03-08-26-58#v5.0#1ab3ec7/src/com/google/common/io/LineProcessor.java,F:/corpus/guava/guava#2010-06-03-08-26-58#v5.0#1ab3ec7/src/com/google/common/io/LineProcessor.java,0,0,0,0,1,0,0,0,0,0,0,0,0,NO,0,0,0,0,0,0,0,0,0,0,0,0,0,0,0,0,0,0,0,0,0,0,0,0,0,0,0,0,0,0,0,0,0,0,0,0,0,0,0,0,0,0,0,0,0,0,0,0,0,45
guava,v5.0,v6.0,F:/corpus/guava/guava#2010-06-03-08-26-58#v5.0#1ab3ec7/src/com/google/common/io/LineReader.java,F:/corpus/guava/guava#2010-06-03-08-26-58#v5.0#1ab3ec7/src/com/google/common/io/LineReader.java,0,0,0,0,0,0,0,0,0,0,0,0,0,NO,0,0,0,0,0,0,0,0,0,0,0,0,0,0,0,0,0,0,0,0,0,0,0,0,0,0,0,0,0,0,0,0,0,0,0,0,0,0,0,0,0,0,0,0,0,0,0,0,0,87
guava,v5.0,v6.0,F:/corpus/guava/guava#2010-06-03-08-26-58#v5.0#1ab3ec7/src/com/google/common/io/MultiInputStream.java,F:/corpus/guava/guava#2010-06-03-08-26-58#v5.0#1ab3ec7/src/com/google/common/io/MultiInputStream.java,0,0,0,0,0,0,0,0,0,0,0,0,0,NO,0,0,0,0,0,0,0,0,0,0,0,0,0,0,0,0,0,0,0,0,0,0,0,0,0,0,0,0,0,0,0,0,0,0,0,0,0,0,0,0,0,0,0,0,0,0,0,0,0,115
guava,v5.0,v6.0,F:/corpus/guava/guava#2010-06-03-08-26-58#v5.0#1ab3ec7/src/com/google/common/io/MultiReader.java,F:/corpus/guava/guava#2010-06-03-08-26-58#v5.0#1ab3ec7/src/com/google/common/io/MultiReader.java,0,0,0,0,0,0,0,0,0,0,0,0,0,NO,0,0,0,0,0,0,0,0,0,0,0,0,0,0,0,0,0,0,0,0,0,0,0,0,0,0,0,0,0,0,0,0,0,0,0,0,0,0,0,0,0,0,0,0,0,0,0,0,0,90
guava,v5.0,v6.0,F:/corpus/guava/guava#2010-06-03-08-26-58#v5.0#1ab3ec7/src/com/google/common/io/NullOutputStream.java,F:/corpus/guava/guava#2010-06-03-08-26-58#v5.0#1ab3ec7/src/com/google/common/io/NullOutputStream.java,0,0,0,0,0,0,0,0,0,0,0,0,0,NO,0,0,0,0,0,0,0,0,0,0,0,0,0,0,0,0,0,0,0,0,0,0,0,0,0,0,0,0,0,0,0,0,0,0,0,0,0,0,0,0,0,0,0,0,0,0,0,0,0,38
guava,v5.0,v6.0,F:/corpus/guava/guava#2010-06-03-08-26-58#v5.0#1ab3ec7/src/com/google/common/io/OutputSupplier.java,F:/corpus/guava/guava#2010-06-03-08-26-58#v5.0#1ab3ec7/src/com/google/common/io/OutputSupplier.java,0,0,0,0,1,0,0,0,0,0,0,0,0,NO,0,0,0,0,0,0,0,0,0,0,0,0,0,0,0,0,0,0,0,0,0,0,0,0,0,0,0,0,0,0,0,0,0,0,0,0,0,0,0,0,0,0,0,0,0,0,0,0,0,29
guava,v5.0,v6.0,F:/corpus/guava/guava#2010-06-03-08-26-58#v5.0#1ab3ec7/src/com/google/common/io/package-info.java,F:/corpus/guava/guava#2010-06-03-08-26-58#v5.0#1ab3ec7/src/com/google/common/io/package-info.java,0,0,0,0,0,0,0,0,0,0,0,0,0,NO,0,0,0,0,0,0,0,0,0,0,0,0,0,0,0,0,0,0,0,0,0,0,0,0,0,0,0,0,0,0,0,0,0,0,0,0,0,0,0,0,0,0,0,0,0,0,0,0,0,40
guava,v5.0,v6.0,F:/corpus/guava/guava#2010-06-03-08-26-58#v5.0#1ab3ec7/src/com/google/common/net/package-info.java,F:/corpus/guava/guava#2010-06-03-08-26-58#v5.0#1ab3ec7/src/com/google/common/net/package-info.java,0,0,0,0,0,0,0,0,0,0,0,0,0,NO,0,0,0,0,0,0,0,0,0,0,0,0,0,0,0,0,0,0,0,0,0,0,0,0,0,0,0,0,0,0,0,0,0,0,0,0,0,0,0,0,0,0,0,0,0,0,0,0,0,29
guava,v5.0,v6.0,F:/corpus/guava/guava#2010-06-03-08-26-58#v5.0#1ab3ec7/src/com/google/common/primitives/package-info.java,F:/corpus/guava/guava#2010-06-03-08-26-58#v5.0#1ab3ec7/src/com/google/common/primitives/package-info.java,0,0,0,0,0,0,0,0,0,0,0,0,0,NO,0,0,0,0,0,0,0,0,0,0,0,0,0,0,0,0,0,0,0,0,0,0,0,0,0,0,0,0,0,0,0,0,0,0,0,0,0,0,0,0,0,0,0,0,0,0,0,0,0,51
guava,v5.0,v6.0,F:/corpus/guava/guava#2010-06-03-08-26-58#v5.0#1ab3ec7/src/com/google/common/primitives/Primitives.java,F:/corpus/guava/guava#2010-06-03-08-26-58#v5.0#1ab3ec7/src/com/google/common/primitives/Primitives.java,0,0,0,0,0,0,0,0,0,0,0,0,0,NO,0,0,0,0,0,0,0,0,0,0,0,0,0,0,0,0,0,0,0,0,0,0,0,0,0,0,0,0,0,0,0,0,0,0,0,0,0,0,0,0,0,0,0,0,0,0,0,0,0,134
guava,v5.0,v6.0,F:/corpus/guava/guava#2010-06-03-08-26-58#v5.0#1ab3ec7/src/com/google/common/util/concurrent/AbstractCheckedFuture.java,F:/corpus/guava/guava#2010-06-03-08-26-58#v5.0#1ab3ec7/src/com/google/common/util/concurrent/AbstractCheckedFuture.java,0,0,0,0,1,0,0,0,0,0,0,0,0,NO,0,0,0,0,0,0,0,0,0,0,0,0,0,0,0,0,0,0,0,0,0,0,0,0,0,0,0,0,0,0,0,0,0,0,0,0,0,0,0,0,0,0,0,0,0,0,0,0,0,118
guava,v5.0,v6.0,F:/corpus/guava/guava#2010-06-03-08-26-58#v5.0#1ab3ec7/src/com/google/common/util/concurrent/AbstractListenableFuture.java,F:/corpus/guava/guava#2010-06-03-08-26-58#v5.0#1ab3ec7/src/com/google/common/util/concurrent/AbstractListenableFuture.java,0,0,1,0,1,0,0,0,0,0,0,0,0,NO,0,0,0,0,0,0,0,0,0,0,0,0,0,0,0,0,0,0,0,0,0,0,0,0,0,0,0,0,0,0,0,0,0,0,0,0,0,0,0,0,0,0,0,0,0,0,0,0,0,62
guava,v5.0,v6.0,F:/corpus/guava/guava#2010-06-03-08-26-58#v5.0#1ab3ec7/src/com/google/common/util/concurrent/CheckedFuture.java,F:/corpus/guava/guava#2010-06-03-08-26-58#v5.0#1ab3ec7/src/com/google/common/util/concurrent/CheckedFuture.java,0,0,0,0,1,0,0,0,0,0,0,0,0,NO,0,0,0,0,0,0,0,0,0,0,0,0,0,0,0,0,0,0,0,0,0,0,0,0,0,0,0,0,0,0,0,0,0,0,0,0,0,0,0,0,0,0,0,0,0,0,0,0,0,72
guava,v5.0,v6.0,F:/corpus/guava/guava#2010-06-03-08-26-58#v5.0#1ab3ec7/src/com/google/common/util/concurrent/ExecutionList.java,F:/corpus/guava/guava#2010-06-03-08-26-58#v5.0#1ab3ec7/src/com/google/common/util/concurrent/ExecutionList.java,0,0,0,0,0,0,0,0,0,0,0,0,0,NO,0,0,0,0,0,0,0,0,0,0,0,0,0,0,0,0,0,0,0,0,0,0,0,0,0,0,0,0,0,0,0,0,0,0,0,0,0,0,0,0,0,0,0,0,0,0,0,0,0,128
guava,v5.0,v6.0,F:/corpus/guava/guava#2010-06-03-08-26-58#v5.0#1ab3ec7/src/com/google/common/util/concurrent/FakeTimeLimiter.java,F:/corpus/guava/guava#2010-06-03-08-26-58#v5.0#1ab3ec7/src/com/google/common/util/concurrent/FakeTimeLimiter.java,0,0,0,0,2,0,0,0,0,0,0,0,0,NO,0,0,0,0,0,0,0,0,0,0,0,0,0,0,0,0,0,0,0,0,0,0,0,0,0,0,0,0,0,0,0,0,0,0,0,0,0,0,0,0,0,0,0,0,0,0,0,0,0,45
guava,v5.0,v6.0,F:/corpus/guava/guava#2010-06-03-08-26-58#v5.0#1ab3ec7/src/com/google/common/util/concurrent/ForwardingListenableFuture.java,F:/corpus/guava/guava#2010-06-03-08-26-58#v5.0#1ab3ec7/src/com/google/common/util/concurrent/ForwardingListenableFuture.java,0,0,0,0,1,0,0,0,0,0,0,0,0,NO,0,0,0,0,0,0,0,0,0,0,0,0,0,0,0,0,0,0,0,0,0,0,0,0,0,0,0,0,0,0,0,0,0,0,0,0,0,0,0,0,0,0,0,0,0,0,0,0,0,47
guava,v5.0,v6.0,F:/corpus/guava/guava#2010-06-03-08-26-58#v5.0#1ab3ec7/src/com/google/common/util/concurrent/ListenableFuture.java,F:/corpus/guava/guava#2010-06-03-08-26-58#v5.0#1ab3ec7/src/com/google/common/util/concurrent/ListenableFuture.java,0,0,0,0,1,0,0,0,0,0,0,0,0,NO,0,0,0,0,0,0,0,0,0,0,0,0,0,0,0,0,0,0,0,0,0,0,0,0,0,0,0,0,0,0,0,0,0,0,0,0,0,0,0,0,0,0,0,0,0,0,0,0,0,70
guava,v5.0,v6.0,F:/corpus/guava/guava#2010-06-03-08-26-58#v5.0#1ab3ec7/src/com/google/common/util/concurrent/ListenableFutureTask.java,F:/corpus/guava/guava#2010-06-03-08-26-58#v5.0#1ab3ec7/src/com/google/common/util/concurrent/ListenableFutureTask.java,0,0,0,0,0,0,0,0,0,0,0,0,0,NO,0,0,0,0,0,0,0,0,0,0,0,0,0,0,0,0,0,0,0,0,0,0,0,0,0,0,0,0,0,0,0,0,0,0,0,0,0,0,0,0,0,0,0,0,0,0,0,0,0,77
guava,v5.0,v6.0,F:/corpus/guava/guava#2010-06-03-08-26-58#v5.0#1ab3ec7/src/com/google/common/util/concurrent/package-info.java,F:/corpus/guava/guava#2010-06-03-08-26-58#v5.0#1ab3ec7/src/com/google/common/util/concurrent/package-info.java,0,0,0,0,0,0,0,0,0,0,0,0,0,NO,0,0,0,0,0,0,0,0,0,0,0,0,0,0,0,0,0,0,0,0,0,0,0,0,0,0,0,0,0,0,0,0,0,0,0,0,0,0,0,0,0,0,0,0,0,0,0,0,0,26
guava,v5.0,v6.0,F:/corpus/guava/guava#2010-06-03-08-26-58#v5.0#1ab3ec7/src/com/google/common/util/concurrent/TimeLimiter.java,F:/corpus/guava/guava#2010-06-03-08-26-58#v5.0#1ab3ec7/src/com/google/common/util/concurrent/TimeLimiter.java,0,0,0,0,0,0,0,0,0,0,0,0,0,NO,0,0,0,0,0,0,0,0,0,0,0,0,0,0,0,0,0,0,0,0,0,0,0,0,0,0,0,0,0,0,0,0,0,0,0,0,0,0,0,0,0,0,0,0,0,0,0,0,0,106
guava,v5.0,v6.0,F:/corpus/guava/guava#2010-06-03-08-26-58#v5.0#1ab3ec7/src/com/google/common/util/concurrent/UncheckedTimeoutException.java,F:/corpus/guava/guava#2010-06-03-08-26-58#v5.0#1ab3ec7/src/com/google/common/util/concurrent/UncheckedTimeoutException.java,0,0,0,0,0,0,0,0,0,0,0,0,0,NO,0,0,0,0,0,0,0,0,0,0,0,0,0,0,0,0,0,0,0,0,0,0,0,0,0,0,0,0,0,0,0,0,0,0,0,0,0,0,0,0,0,0,0,0,0,0,0,0,0,41
