projectName,oldVersionTag,newVersionTag,oldPath,newPath,DC,LC,MM,RPB,SG,MCH,DCLP,DIVC,FE,LM,LPL,SS,SC,fromChangeDistiller,adding_attribute_modifiability,adding_class_derivability,adding_method_overridability,additional_class,additional_functionality,additional_object_state,alternative_part_delete,alternative_part_insert,attribute_renaming,attribute_type_change,class_renaming,comment_delete,comment_insert,comment_move,comment_update,condition_expression_change,decreasing_accessibility_change,doc_delete,doc_insert,doc_update,increasing_accessibility_change,method_renaming,parameter_delete,parameter_insert,parameter_ordering_change,parameter_renaming,parameter_type_change,parent_class_change,parent_class_delete,parent_class_insert,parent_interface_change,parent_interface_delete,parent_interface_insert,removed_class,removed_functionality,removed_object_state,removing_attribute_modifiability,removing_class_derivability,removing_method_overridability,return_type_change,return_type_delete,return_type_insert,statement_delete,statement_insert,statement_ordering_change,statement_parent_change,statement_update,unclassified_change,codeChurn,LOC
hbase,0.90.1,0.92.0,F:/corpus/hbase/hbase#2011-02-18-09-37-19#0.90.1#ed25749/src/main/java/org/apache/hadoop/hbase/Chore.java,F:/corpus/hbase/hbase#2012-01-24-00-49-27#0.92.0#6ba4e7c/src/main/java/org/apache/hadoop/hbase/Chore.java,0,0,0,0,0,0,0,0,0,0,0,0,0,YES,0,0,0,0,0,0,0,0,0,0,0,0,0,0,0,0,0,0,0,0,0,0,0,0,0,0,0,0,0,0,0,0,0,0,0,0,0,0,0,0,0,0,0,0,0,0,0,0,2,112
hbase,0.90.1,0.92.0,F:/corpus/hbase/hbase#2011-02-18-09-37-19#0.90.1#ed25749/src/main/java/org/apache/hadoop/hbase/ClusterStatus.java,F:/corpus/hbase/hbase#2012-01-24-00-49-27#0.92.0#6ba4e7c/src/main/java/org/apache/hadoop/hbase/ClusterStatus.java,0,0,0,0,0,3,0,0,0,0,0,0,0,YES,0,0,0,0,5,3,0,0,0,1,0,0,0,0,0,2,0,1,1,2,0,0,0,0,0,0,0,0,0,0,0,0,0,0,4,1,0,0,0,2,0,0,11,22,0,2,10,0,81,243
hbase,0.90.1,0.92.0,F:/corpus/hbase/hbase#2011-02-18-09-37-19#0.90.1#ed25749/src/main/java/org/apache/hadoop/hbase/HBaseConfiguration.java,F:/corpus/hbase/hbase#2012-01-24-00-49-27#0.92.0#6ba4e7c/src/main/java/org/apache/hadoop/hbase/HBaseConfiguration.java,0,0,0,0,0,0,0,0,0,0,0,2,0,YES,0,0,0,0,2,1,0,0,0,0,0,0,0,0,0,0,0,0,0,0,0,0,0,0,0,0,0,0,0,0,0,0,0,0,0,0,0,0,0,0,0,0,4,5,0,0,0,0,45,102
hbase,0.90.1,0.92.0,F:/corpus/hbase/hbase#2011-02-18-09-37-19#0.90.1#ed25749/src/main/java/org/apache/hadoop/hbase/HColumnDescriptor.java,F:/corpus/hbase/hbase#2012-01-24-00-49-27#0.92.0#6ba4e7c/src/main/java/org/apache/hadoop/hbase/HColumnDescriptor.java,0,0,0,0,0,0,0,0,0,0,1,1,0,YES,0,0,0,0,4,3,0,0,0,0,0,1,0,0,0,1,0,0,0,0,0,0,0,0,0,0,0,0,0,0,0,0,0,0,0,0,0,0,0,0,0,0,13,7,2,0,0,0,122,696
hbase,0.90.1,0.92.0,F:/corpus/hbase/hbase#2011-02-18-09-37-19#0.90.1#ed25749/src/main/java/org/apache/hadoop/hbase/HConstants.java,F:/corpus/hbase/hbase#2012-01-24-00-49-27#0.92.0#6ba4e7c/src/main/java/org/apache/hadoop/hbase/HConstants.java,1,0,0,0,0,0,0,0,0,0,0,0,0,YES,0,0,0,0,0,39,0,0,0,1,0,0,0,0,0,0,0,0,0,0,0,0,0,0,0,0,0,0,0,0,0,0,0,0,0,0,0,0,0,0,0,0,0,0,0,0,0,0,177,370
hbase,0.90.1,0.92.0,F:/corpus/hbase/hbase#2011-02-18-09-37-19#0.90.1#ed25749/src/main/java/org/apache/hadoop/hbase/HRegionInfo.java,F:/corpus/hbase/hbase#2012-01-24-00-49-27#0.92.0#6ba4e7c/src/main/java/org/apache/hadoop/hbase/HRegionInfo.java,0,0,0,0,0,0,0,0,0,0,0,12,0,YES,0,0,0,0,5,2,0,2,0,0,0,0,4,0,0,1,0,0,0,6,1,0,3,3,0,0,0,0,0,0,0,0,0,0,1,1,0,0,0,0,0,0,10,58,1,9,9,0,91,669
hbase,0.90.1,0.92.0,F:/corpus/hbase/hbase#2011-02-18-09-37-19#0.90.1#ed25749/src/main/java/org/apache/hadoop/hbase/HRegionLocation.java,F:/corpus/hbase/hbase#2012-01-24-00-49-27#0.92.0#6ba4e7c/src/main/java/org/apache/hadoop/hbase/HRegionLocation.java,0,0,0,0,0,0,0,0,0,0,0,2,0,YES,0,0,0,0,3,4,0,0,0,0,0,0,0,0,0,0,0,0,0,3,0,0,1,2,1,0,0,0,0,0,0,0,0,0,0,1,1,0,0,0,0,0,6,9,0,1,2,0,24,99
hbase,0.90.1,0.92.0,F:/corpus/hbase/hbase#2011-02-18-09-37-19#0.90.1#ed25749/src/main/java/org/apache/hadoop/hbase/HServerAddress.java,F:/corpus/hbase/hbase#2012-01-24-00-49-27#0.92.0#6ba4e7c/src/main/java/org/apache/hadoop/hbase/HServerAddress.java,0,0,0,0,0,1,0,0,0,0,0,5,0,YES,0,0,0,0,4,1,2,0,0,0,0,0,1,0,0,3,0,0,1,3,0,0,1,1,0,0,0,0,0,0,0,0,0,0,1,1,0,0,0,0,0,0,22,6,0,2,9,0,84,193
hbase,0.90.1,0.92.0,F:/corpus/hbase/hbase#2011-02-18-09-37-19#0.90.1#ed25749/src/main/java/org/apache/hadoop/hbase/HServerInfo.java,F:/corpus/hbase/hbase#2012-01-24-00-49-27#0.92.0#6ba4e7c/src/main/java/org/apache/hadoop/hbase/HServerInfo.java,0,0,0,0,0,0,0,0,0,0,0,4,0,YES,0,0,0,0,2,1,0,0,1,0,0,0,0,0,0,0,0,0,0,3,0,0,4,2,1,0,0,0,0,1,0,0,0,1,10,5,0,0,0,0,0,0,13,17,2,0,6,0,185,282
hbase,0.90.1,0.92.0,F:/corpus/hbase/hbase#2011-02-18-09-37-19#0.90.1#ed25749/src/main/java/org/apache/hadoop/hbase/HServerLoad.java,F:/corpus/hbase/hbase#2012-01-24-00-49-27#0.92.0#6ba4e7c/src/main/java/org/apache/hadoop/hbase/HServerLoad.java,1,0,0,0,0,0,0,0,0,0,0,1,0,YES,0,0,0,0,14,14,0,0,1,0,0,0,0,0,0,4,0,0,0,6,0,1,1,9,0,0,0,1,0,1,0,0,0,0,7,1,0,0,0,1,0,1,8,81,1,1,11,0,299,493
hbase,0.90.1,0.92.0,F:/corpus/hbase/hbase#2011-02-18-09-37-19#0.90.1#ed25749/src/main/java/org/apache/hadoop/hbase/HTableDescriptor.java,F:/corpus/hbase/hbase#2012-01-24-00-49-27#0.92.0#6ba4e7c/src/main/java/org/apache/hadoop/hbase/HTableDescriptor.java,0,0,0,0,0,0,0,0,0,0,0,7,0,YES,0,0,0,0,8,2,0,0,1,0,0,0,0,0,0,4,10,0,15,18,0,0,3,3,0,0,0,0,0,0,0,0,0,0,0,1,0,0,0,0,0,0,1,4,0,0,4,0,386,691
hbase,0.90.1,0.92.0,F:/corpus/hbase/hbase#2011-02-18-09-37-19#0.90.1#ed25749/src/main/java/org/apache/hadoop/hbase/KeyValue.java,F:/corpus/hbase/hbase#2012-01-24-00-49-27#0.92.0#6ba4e7c/src/main/java/org/apache/hadoop/hbase/KeyValue.java,0,1,0,0,0,0,29,0,1,0,8,25,0,YES,0,0,0,0,4,0,0,0,0,0,0,0,2,0,0,1,0,1,1,2,0,1,0,0,0,0,0,0,0,0,0,0,0,0,1,0,0,0,0,0,0,1,17,12,0,0,9,0,138,1984
hbase,0.90.1,0.92.0,F:/corpus/hbase/hbase#2011-02-18-09-37-19#0.90.1#ed25749/src/main/java/org/apache/hadoop/hbase/LocalHBaseCluster.java,F:/corpus/hbase/hbase#2012-01-24-00-49-27#0.92.0#6ba4e7c/src/main/java/org/apache/hadoop/hbase/LocalHBaseCluster.java,0,0,0,0,1,2,0,0,0,0,0,0,0,YES,0,0,0,0,0,0,0,1,0,0,0,1,0,0,0,0,0,0,0,0,0,0,0,0,0,0,0,0,0,0,0,0,0,0,0,0,0,0,0,0,0,0,16,15,0,0,2,0,17,454
hbase,0.90.1,0.92.0,F:/corpus/hbase/hbase#2011-02-18-09-37-19#0.90.1#ed25749/src/main/java/org/apache/hadoop/hbase/MasterAddressTracker.java,F:/corpus/hbase/hbase#2012-01-24-00-49-27#0.92.0#6ba4e7c/src/main/java/org/apache/hadoop/hbase/MasterAddressTracker.java,0,0,0,0,1,0,0,0,0,0,0,0,0,YES,0,0,0,0,1,0,0,0,0,0,0,0,0,0,0,0,0,0,0,1,0,0,0,0,0,0,0,0,0,0,0,0,0,0,1,0,0,0,0,1,0,0,2,1,0,0,1,0,17,88
hbase,0.90.1,0.92.0,F:/corpus/hbase/hbase#2011-02-18-09-37-19#0.90.1#ed25749/src/main/java/org/apache/hadoop/hbase/Server.java,F:/corpus/hbase/hbase#2012-01-24-00-49-27#0.92.0#6ba4e7c/src/main/java/org/apache/hadoop/hbase/Server.java,0,0,0,0,0,0,0,0,0,0,0,0,0,YES,0,0,0,0,0,0,0,0,0,0,0,0,0,0,0,0,0,0,0,1,0,0,0,0,0,0,0,0,0,0,0,0,0,0,0,0,0,0,0,1,0,0,0,0,0,0,0,0,6,54
hbase,0.90.1,0.92.0,F:/corpus/hbase/hbase#2011-02-18-09-37-19#0.90.1#ed25749/src/main/java/org/apache/hadoop/hbase/ZooKeeperConnectionException.java,F:/corpus/hbase/hbase#2012-01-24-00-49-27#0.92.0#6ba4e7c/src/main/java/org/apache/hadoop/hbase/ZooKeeperConnectionException.java,0,0,0,0,0,0,0,0,0,0,0,0,0,YES,0,0,0,0,0,0,0,0,0,0,0,0,0,0,0,0,0,0,0,0,0,0,0,1,0,0,0,0,0,0,0,0,0,0,0,0,0,0,0,0,0,0,1,1,0,0,0,0,2,49
hbase,0.90.1,0.92.0,F:/corpus/hbase/hbase#2011-02-18-09-37-19#0.90.1#ed25749/src/main/java/org/apache/hadoop/hbase/avro/AvroServer.java,F:/corpus/hbase/hbase#2012-01-24-00-49-27#0.92.0#6ba4e7c/src/main/java/org/apache/hadoop/hbase/avro/AvroServer.java,0,0,0,0,1,0,0,0,0,0,0,0,0,YES,0,0,0,0,0,0,0,0,0,0,0,0,0,0,0,0,0,0,0,0,0,0,0,0,0,0,0,0,0,0,0,0,0,0,0,0,0,0,0,0,0,0,2,35,0,12,0,0,13,576
hbase,0.90.1,0.92.0,F:/corpus/hbase/hbase#2011-02-18-09-37-19#0.90.1#ed25749/src/main/java/org/apache/hadoop/hbase/avro/AvroUtil.java,F:/corpus/hbase/hbase#2012-01-24-00-49-27#0.92.0#6ba4e7c/src/main/java/org/apache/hadoop/hbase/avro/AvroUtil.java,0,0,0,0,0,1,0,0,12,0,0,0,0,YES,0,0,0,0,1,0,0,0,0,0,0,0,0,0,0,2,0,0,0,0,0,0,0,0,0,0,0,0,0,0,0,0,0,0,1,0,0,0,0,0,0,0,0,1,0,0,10,0,35,413
hbase,0.90.1,0.92.0,F:/corpus/hbase/hbase#2011-02-18-09-37-19#0.90.1#ed25749/src/main/java/org/apache/hadoop/hbase/catalog/CatalogTracker.java,F:/corpus/hbase/hbase#2012-01-24-00-49-27#0.92.0#6ba4e7c/src/main/java/org/apache/hadoop/hbase/catalog/CatalogTracker.java,0,0,0,0,1,0,0,0,0,0,0,1,0,YES,0,0,0,0,2,3,2,3,2,0,0,2,10,3,0,8,3,1,4,10,3,0,4,5,0,1,2,0,0,0,0,0,0,0,0,1,0,0,0,4,0,0,23,55,3,15,17,0,240,492
hbase,0.90.1,0.92.0,F:/corpus/hbase/hbase#2011-02-18-09-37-19#0.90.1#ed25749/src/main/java/org/apache/hadoop/hbase/catalog/MetaEditor.java,F:/corpus/hbase/hbase#2012-01-24-00-49-27#0.92.0#6ba4e7c/src/main/java/org/apache/hadoop/hbase/catalog/MetaEditor.java,0,0,0,0,0,0,0,0,0,0,0,0,0,YES,0,0,0,0,9,0,0,0,0,0,0,0,0,0,0,1,1,0,0,5,0,2,6,5,0,0,0,0,0,0,0,0,0,0,1,0,0,0,0,0,0,0,15,9,0,0,8,0,182,238
hbase,0.90.1,0.92.0,F:/corpus/hbase/hbase#2011-02-18-09-37-19#0.90.1#ed25749/src/main/java/org/apache/hadoop/hbase/catalog/MetaReader.java,F:/corpus/hbase/hbase#2012-01-24-00-49-27#0.92.0#6ba4e7c/src/main/java/org/apache/hadoop/hbase/catalog/MetaReader.java,0,0,0,0,1,5,0,2,3,0,0,2,0,YES,0,0,0,2,16,1,4,0,0,0,0,6,9,2,0,2,2,0,0,13,2,3,2,2,0,1,0,0,0,0,0,0,0,0,4,0,0,0,0,9,0,0,106,33,0,5,9,0,528,621
hbase,0.90.1,0.92.0,F:/corpus/hbase/hbase#2011-02-18-09-37-19#0.90.1#ed25749/src/main/java/org/apache/hadoop/hbase/catalog/RootLocationEditor.java,F:/corpus/hbase/hbase#2012-01-24-00-49-27#0.92.0#6ba4e7c/src/main/java/org/apache/hadoop/hbase/catalog/RootLocationEditor.java,0,0,0,0,0,0,0,0,0,0,0,0,0,YES,0,0,0,0,0,0,0,0,0,0,0,0,0,0,0,0,0,0,0,1,0,0,0,0,0,0,1,0,0,0,0,0,0,0,0,0,0,0,0,0,0,0,0,0,0,0,0,0,4,72
hbase,0.90.1,0.92.0,F:/corpus/hbase/hbase#2011-02-18-09-37-19#0.90.1#ed25749/src/main/java/org/apache/hadoop/hbase/client/Action.java,F:/corpus/hbase/hbase#2012-01-24-00-49-27#0.92.0#6ba4e7c/src/main/java/org/apache/hadoop/hbase/client/Action.java,1,0,0,0,0,0,0,0,0,0,0,0,0,YES,0,0,0,0,1,0,0,0,0,1,0,0,0,0,0,0,0,0,0,0,0,0,0,0,0,0,1,0,0,0,0,0,0,0,0,1,0,0,0,1,0,0,8,2,0,0,2,0,23,100
hbase,0.90.1,0.92.0,F:/corpus/hbase/hbase#2011-02-18-09-37-19#0.90.1#ed25749/src/main/java/org/apache/hadoop/hbase/client/Delete.java,F:/corpus/hbase/hbase#2012-01-24-00-49-27#0.92.0#6ba4e7c/src/main/java/org/apache/hadoop/hbase/client/Delete.java,0,0,0,0,0,0,0,0,0,0,0,5,0,YES,0,0,0,0,1,0,0,0,0,0,0,0,0,0,0,0,0,0,0,0,0,0,0,0,0,0,0,0,0,1,0,0,0,0,10,4,0,0,0,0,0,0,0,7,0,0,0,0,134,391
hbase,0.90.1,0.92.0,F:/corpus/hbase/hbase#2011-02-18-09-37-19#0.90.1#ed25749/src/main/java/org/apache/hadoop/hbase/client/Get.java,F:/corpus/hbase/hbase#2012-01-24-00-49-27#0.92.0#6ba4e7c/src/main/java/org/apache/hadoop/hbase/client/Get.java,0,0,0,0,0,0,0,0,0,0,0,8,0,YES,0,0,0,0,2,0,0,0,0,0,0,0,0,0,0,0,0,0,0,0,0,0,0,0,0,0,0,0,0,1,0,0,0,0,3,0,0,0,0,0,0,0,0,2,0,0,0,0,89,475
hbase,0.90.1,0.92.0,F:/corpus/hbase/hbase#2011-02-18-09-37-19#0.90.1#ed25749/src/main/java/org/apache/hadoop/hbase/client/HBaseAdmin.java,F:/corpus/hbase/hbase#2012-01-24-00-49-27#0.92.0#6ba4e7c/src/main/java/org/apache/hadoop/hbase/client/HBaseAdmin.java,0,1,0,0,2,0,0,1,0,0,0,9,0,YES,1,0,0,0,19,1,4,2,0,0,0,6,9,1,0,8,1,0,1,10,1,0,8,9,1,1,0,0,0,0,0,0,1,0,2,0,0,0,0,0,0,0,50,80,3,16,28,0,441,1204
hbase,0.90.1,0.92.0,F:/corpus/hbase/hbase#2011-02-18-09-37-19#0.90.1#ed25749/src/main/java/org/apache/hadoop/hbase/client/HConnection.java,F:/corpus/hbase/hbase#2012-01-24-00-49-27#0.92.0#6ba4e7c/src/main/java/org/apache/hadoop/hbase/client/HConnection.java,0,0,0,0,1,0,0,0,0,0,0,0,0,YES,0,0,0,0,6,0,0,0,0,0,0,0,0,0,0,0,0,0,0,3,0,1,1,4,0,0,1,0,0,0,0,0,1,0,0,0,0,0,0,0,0,0,0,0,0,0,0,0,34,299
hbase,0.90.1,0.92.0,F:/corpus/hbase/hbase#2011-02-18-09-37-19#0.90.1#ed25749/src/main/java/org/apache/hadoop/hbase/client/HConnectionManager.java,F:/corpus/hbase/hbase#2012-01-24-00-49-27#0.92.0#6ba4e7c/src/main/java/org/apache/hadoop/hbase/client/HConnectionManager.java,0,2,0,0,2,3,0,1,1,2,0,2,0,YES,0,0,0,3,22,9,2,0,0,1,0,16,1,0,1,7,0,0,0,2,1,1,2,6,1,3,2,0,0,0,0,0,1,1,0,1,0,0,0,1,0,0,133,93,2,3,34,0,577,1337
hbase,0.90.1,0.92.0,F:/corpus/hbase/hbase#2011-02-18-09-37-19#0.90.1#ed25749/src/main/java/org/apache/hadoop/hbase/client/HTable.java,F:/corpus/hbase/hbase#2012-01-24-00-49-27#0.92.0#6ba4e7c/src/main/java/org/apache/hadoop/hbase/client/HTable.java,0,1,0,0,0,2,0,0,0,0,0,10,0,YES,2,0,0,0,12,5,0,1,0,0,0,2,5,1,0,3,0,0,18,18,0,0,0,0,0,0,0,0,0,0,0,0,1,0,1,0,0,0,0,0,0,0,12,33,1,6,19,0,460,1328
hbase,0.90.1,0.92.0,F:/corpus/hbase/hbase#2011-02-18-09-37-19#0.90.1#ed25749/src/main/java/org/apache/hadoop/hbase/client/HTableFactory.java,F:/corpus/hbase/hbase#2012-01-24-00-49-27#0.92.0#6ba4e7c/src/main/java/org/apache/hadoop/hbase/client/HTableFactory.java,0,0,0,0,0,0,0,0,0,0,0,0,0,YES,0,0,0,0,0,0,0,0,0,0,0,0,0,0,0,0,0,0,0,0,0,0,0,0,0,0,0,0,0,0,0,0,0,0,0,0,0,0,0,0,0,0,3,0,0,1,0,0,6,50
hbase,0.90.1,0.92.0,F:/corpus/hbase/hbase#2011-02-18-09-37-19#0.90.1#ed25749/src/main/java/org/apache/hadoop/hbase/client/HTableInterface.java,F:/corpus/hbase/hbase#2012-01-24-00-49-27#0.92.0#6ba4e7c/src/main/java/org/apache/hadoop/hbase/client/HTableInterface.java,0,0,0,0,0,0,0,0,0,0,0,0,0,YES,0,0,0,0,3,0,0,0,0,0,0,0,0,0,0,0,0,0,0,3,0,0,0,0,0,0,0,0,0,0,0,0,0,0,0,0,0,0,0,0,0,0,0,0,0,0,0,0,102,353
hbase,0.90.1,0.92.0,F:/corpus/hbase/hbase#2011-02-18-09-37-19#0.90.1#ed25749/src/main/java/org/apache/hadoop/hbase/client/HTableInterfaceFactory.java,F:/corpus/hbase/hbase#2012-01-24-00-49-27#0.92.0#6ba4e7c/src/main/java/org/apache/hadoop/hbase/client/HTableInterfaceFactory.java,0,0,0,0,1,0,0,0,0,0,0,0,0,YES,0,0,0,0,0,0,0,0,0,0,0,0,0,0,0,0,0,0,0,0,0,0,0,0,0,0,0,0,0,0,0,0,0,0,0,0,0,0,0,0,0,0,0,0,0,0,0,0,3,47
hbase,0.90.1,0.92.0,F:/corpus/hbase/hbase#2011-02-18-09-37-19#0.90.1#ed25749/src/main/java/org/apache/hadoop/hbase/client/HTablePool.java,F:/corpus/hbase/hbase#2012-01-24-00-49-27#0.92.0#6ba4e7c/src/main/java/org/apache/hadoop/hbase/client/HTablePool.java,0,0,0,0,0,0,0,0,0,0,0,2,0,YES,0,0,0,1,5,2,0,1,0,0,0,1,4,0,0,0,0,0,1,3,0,0,0,0,0,0,0,0,0,0,0,0,1,0,0,1,0,0,0,0,0,0,27,12,0,1,3,0,119,168
hbase,0.90.1,0.92.0,F:/corpus/hbase/hbase#2011-02-18-09-37-19#0.90.1#ed25749/src/main/java/org/apache/hadoop/hbase/client/Increment.java,F:/corpus/hbase/hbase#2012-01-24-00-49-27#0.92.0#6ba4e7c/src/main/java/org/apache/hadoop/hbase/client/Increment.java,0,0,0,0,0,0,0,0,0,0,0,0,0,YES,0,0,0,0,0,0,0,0,0,0,0,0,0,0,0,0,0,0,0,0,0,0,0,0,0,0,0,0,0,0,0,0,0,0,0,0,0,0,0,0,0,0,0,3,0,0,2,0,7,327
hbase,0.90.1,0.92.0,F:/corpus/hbase/hbase#2011-02-18-09-37-19#0.90.1#ed25749/src/main/java/org/apache/hadoop/hbase/client/MetaScanner.java,F:/corpus/hbase/hbase#2012-01-24-00-49-27#0.92.0#6ba4e7c/src/main/java/org/apache/hadoop/hbase/client/MetaScanner.java,0,0,0,0,1,1,0,1,1,1,0,0,0,YES,0,0,0,0,2,0,2,0,0,0,0,12,0,0,0,0,0,0,0,0,0,0,0,0,0,0,0,0,0,0,0,0,0,0,0,0,0,0,0,0,0,0,46,1,0,0,0,0,76,267
hbase,0.90.1,0.92.0,F:/corpus/hbase/hbase#2011-02-18-09-37-19#0.90.1#ed25749/src/main/java/org/apache/hadoop/hbase/client/MultiAction.java,F:/corpus/hbase/hbase#2012-01-24-00-49-27#0.92.0#6ba4e7c/src/main/java/org/apache/hadoop/hbase/client/MultiAction.java,0,0,0,0,0,0,0,0,0,0,0,0,0,YES,0,0,0,0,0,0,0,0,0,1,0,0,0,0,0,2,0,0,0,0,0,0,0,0,0,0,1,0,0,0,0,0,0,0,0,0,0,0,0,1,0,0,0,0,0,0,6,0,15,122
hbase,0.90.1,0.92.0,F:/corpus/hbase/hbase#2011-02-18-09-37-19#0.90.1#ed25749/src/main/java/org/apache/hadoop/hbase/client/MultiPut.java,F:/corpus/hbase/hbase#2012-01-24-00-49-27#0.92.0#6ba4e7c/src/main/java/org/apache/hadoop/hbase/client/MultiPut.java,0,0,0,0,0,0,0,0,0,0,0,0,0,YES,0,0,0,0,2,1,0,0,0,0,0,0,0,0,0,0,0,0,0,0,0,0,0,0,0,0,0,0,0,1,0,0,0,0,0,0,0,0,0,0,0,0,0,0,0,0,0,0,119,118
hbase,0.90.1,0.92.0,F:/corpus/hbase/hbase#2011-02-18-09-37-19#0.90.1#ed25749/src/main/java/org/apache/hadoop/hbase/client/MultiResponse.java,F:/corpus/hbase/hbase#2012-01-24-00-49-27#0.92.0#6ba4e7c/src/main/java/org/apache/hadoop/hbase/client/MultiResponse.java,0,0,1,0,0,0,0,0,0,0,0,0,0,YES,0,0,0,0,0,0,0,0,0,0,0,0,0,0,0,0,0,0,0,0,0,0,0,0,0,0,0,0,0,0,0,0,0,0,0,0,0,0,0,0,0,0,0,0,0,0,1,0,1,166
hbase,0.90.1,0.92.0,F:/corpus/hbase/hbase#2011-02-18-09-37-19#0.90.1#ed25749/src/main/java/org/apache/hadoop/hbase/client/Put.java,F:/corpus/hbase/hbase#2012-01-24-00-49-27#0.92.0#6ba4e7c/src/main/java/org/apache/hadoop/hbase/client/Put.java,0,0,0,0,0,0,0,0,0,0,0,5,0,YES,0,0,0,0,0,0,0,0,0,0,0,0,0,0,0,0,0,0,0,0,0,0,0,0,0,0,0,0,0,1,0,0,0,0,11,5,0,0,0,0,0,0,0,4,0,0,7,0,140,545
hbase,0.90.1,0.92.0,F:/corpus/hbase/hbase#2011-02-18-09-37-19#0.90.1#ed25749/src/main/java/org/apache/hadoop/hbase/client/Result.java,F:/corpus/hbase/hbase#2012-01-24-00-49-27#0.92.0#6ba4e7c/src/main/java/org/apache/hadoop/hbase/client/Result.java,0,0,0,0,0,2,0,0,0,0,0,8,0,YES,0,0,0,0,0,0,0,0,0,0,0,0,0,0,0,1,0,0,0,1,0,0,0,0,0,0,0,0,0,0,0,0,0,0,3,0,0,0,0,0,0,0,0,0,0,0,3,0,63,683
hbase,0.90.1,0.92.0,F:/corpus/hbase/hbase#2011-02-18-09-37-19#0.90.1#ed25749/src/main/java/org/apache/hadoop/hbase/client/RetriesExhaustedException.java,F:/corpus/hbase/hbase#2012-01-24-00-49-27#0.92.0#6ba4e7c/src/main/java/org/apache/hadoop/hbase/client/RetriesExhaustedException.java,0,0,0,0,0,0,0,0,0,0,0,0,0,YES,0,0,0,1,2,0,0,0,0,0,0,0,0,0,0,0,0,0,0,1,0,0,6,2,0,0,0,0,0,0,0,0,0,0,0,0,0,0,0,0,0,0,5,1,0,0,3,0,52,69
hbase,0.90.1,0.92.0,F:/corpus/hbase/hbase#2011-02-18-09-37-19#0.90.1#ed25749/src/main/java/org/apache/hadoop/hbase/client/RetriesExhaustedWithDetailsException.java,F:/corpus/hbase/hbase#2012-01-24-00-49-27#0.92.0#6ba4e7c/src/main/java/org/apache/hadoop/hbase/client/RetriesExhaustedWithDetailsException.java,0,0,0,0,1,1,0,0,0,0,0,0,0,YES,0,0,0,0,1,1,0,1,0,0,0,0,0,0,0,1,0,0,0,0,0,0,2,2,0,0,0,0,0,0,0,0,0,0,0,1,0,0,0,0,0,0,3,6,0,0,3,0,14,138
hbase,0.90.1,0.92.0,F:/corpus/hbase/hbase#2011-02-18-09-37-19#0.90.1#ed25749/src/main/java/org/apache/hadoop/hbase/client/Scan.java,F:/corpus/hbase/hbase#2012-01-24-00-49-27#0.92.0#6ba4e7c/src/main/java/org/apache/hadoop/hbase/client/Scan.java,0,0,0,0,0,0,0,0,0,0,0,10,0,YES,0,0,0,0,2,0,0,0,0,0,0,0,0,0,0,0,0,0,0,0,0,0,0,0,0,0,0,0,0,1,0,0,0,0,5,0,0,0,0,0,0,0,0,3,0,0,0,0,144,663
hbase,0.90.1,0.92.0,F:/corpus/hbase/hbase#2011-02-18-09-37-19#0.90.1#ed25749/src/main/java/org/apache/hadoop/hbase/client/ScannerCallable.java,F:/corpus/hbase/hbase#2012-01-24-00-49-27#0.92.0#6ba4e7c/src/main/java/org/apache/hadoop/hbase/client/ScannerCallable.java,0,0,0,0,0,0,0,0,0,0,0,0,0,YES,0,0,0,0,1,0,0,1,0,0,0,0,1,0,0,1,0,0,0,0,0,0,0,0,0,0,0,0,0,0,0,0,0,0,1,0,0,0,0,0,0,0,0,2,0,1,0,0,8,154
hbase,0.90.1,0.92.0,F:/corpus/hbase/hbase#2011-02-18-09-37-19#0.90.1#ed25749/src/main/java/org/apache/hadoop/hbase/client/ServerCallable.java,F:/corpus/hbase/hbase#2012-01-24-00-49-27#0.92.0#6ba4e7c/src/main/java/org/apache/hadoop/hbase/client/ServerCallable.java,0,0,0,0,1,0,0,0,0,0,0,0,0,YES,0,0,0,0,5,3,0,0,0,0,0,0,0,0,0,0,0,0,0,5,0,0,0,0,0,0,0,0,0,0,0,0,0,0,1,0,0,0,0,0,0,0,5,2,0,0,0,0,59,81
hbase,0.90.1,0.92.0,F:/corpus/hbase/hbase#2011-02-18-09-37-19#0.90.1#ed25749/src/main/java/org/apache/hadoop/hbase/client/UnmodifyableHRegionInfo.java,F:/corpus/hbase/hbase#2012-01-24-00-49-27#0.92.0#6ba4e7c/src/main/java/org/apache/hadoop/hbase/client/UnmodifyableHRegionInfo.java,0,0,0,0,2,0,0,0,0,0,0,0,0,YES,0,0,0,0,0,0,0,0,0,0,0,0,0,0,0,0,0,0,0,0,0,0,0,0,0,0,0,0,0,0,0,0,0,0,0,0,0,0,0,0,0,0,1,0,0,0,0,0,1,51
hbase,0.90.1,0.92.0,F:/corpus/hbase/hbase#2011-02-18-09-37-19#0.90.1#ed25749/src/main/java/org/apache/hadoop/hbase/client/replication/ReplicationAdmin.java,F:/corpus/hbase/hbase#2012-01-24-00-49-27#0.92.0#6ba4e7c/src/main/java/org/apache/hadoop/hbase/client/replication/ReplicationAdmin.java,0,0,0,0,2,0,0,0,0,0,0,0,0,YES,0,0,0,0,2,0,0,0,0,0,0,0,0,0,0,0,0,0,0,0,0,0,0,0,0,0,0,0,0,0,0,0,1,0,0,0,0,0,0,0,0,0,0,0,0,0,0,0,18,172
hbase,0.90.1,0.92.0,F:/corpus/hbase/hbase#2011-02-18-09-37-19#0.90.1#ed25749/src/main/java/org/apache/hadoop/hbase/executor/EventHandler.java,F:/corpus/hbase/hbase#2012-01-24-00-49-27#0.92.0#6ba4e7c/src/main/java/org/apache/hadoop/hbase/executor/EventHandler.java,0,0,0,0,0,0,0,0,0,0,0,0,0,YES,0,0,0,0,2,1,0,0,0,0,0,0,0,0,0,0,0,0,0,0,0,0,0,0,0,0,0,0,0,0,0,0,0,0,0,0,0,0,0,0,0,0,0,1,0,0,0,0,36,224
hbase,0.90.1,0.92.0,F:/corpus/hbase/hbase#2011-02-18-09-37-19#0.90.1#ed25749/src/main/java/org/apache/hadoop/hbase/executor/ExecutorService.java,F:/corpus/hbase/hbase#2012-01-24-00-49-27#0.92.0#6ba4e7c/src/main/java/org/apache/hadoop/hbase/executor/ExecutorService.java,0,0,0,0,0,0,0,0,1,0,0,1,0,YES,0,0,0,3,3,2,0,1,0,1,0,0,1,0,0,0,0,0,0,0,0,0,0,0,0,0,0,0,0,0,0,0,0,0,0,0,0,0,0,0,0,0,3,8,0,0,2,0,164,286
hbase,0.90.1,0.92.0,F:/corpus/hbase/hbase#2011-02-18-09-37-19#0.90.1#ed25749/src/main/java/org/apache/hadoop/hbase/executor/RegionTransitionData.java,F:/corpus/hbase/hbase#2012-01-24-00-49-27#0.92.0#6ba4e7c/src/main/java/org/apache/hadoop/hbase/executor/RegionTransitionData.java,0,0,0,0,0,0,0,0,0,0,0,0,0,YES,0,0,0,0,3,2,1,0,0,0,0,0,0,0,0,0,0,0,0,2,0,0,0,1,0,0,1,0,0,0,0,0,0,0,1,1,0,0,0,0,0,0,5,11,0,0,3,0,29,210
hbase,0.90.1,0.92.0,F:/corpus/hbase/hbase#2011-02-18-09-37-19#0.90.1#ed25749/src/main/java/org/apache/hadoop/hbase/filter/ColumnCountGetFilter.java,F:/corpus/hbase/hbase#2012-01-24-00-49-27#0.92.0#6ba4e7c/src/main/java/org/apache/hadoop/hbase/filter/ColumnCountGetFilter.java,0,0,0,0,1,0,0,0,0,0,0,0,0,YES,0,0,0,0,1,0,0,0,0,0,0,0,0,0,0,0,0,0,0,0,0,0,0,0,0,0,0,0,0,0,0,0,0,0,0,0,0,0,0,0,0,0,0,1,0,0,0,0,11,80
hbase,0.90.1,0.92.0,F:/corpus/hbase/hbase#2011-02-18-09-37-19#0.90.1#ed25749/src/main/java/org/apache/hadoop/hbase/filter/ColumnPaginationFilter.java,F:/corpus/hbase/hbase#2012-01-24-00-49-27#0.92.0#6ba4e7c/src/main/java/org/apache/hadoop/hbase/filter/ColumnPaginationFilter.java,0,0,0,0,1,0,0,0,0,0,0,0,0,YES,0,0,0,0,3,0,0,0,0,0,0,0,0,0,0,0,0,0,0,0,0,0,0,0,0,0,0,0,0,0,0,0,0,0,0,0,0,0,0,0,0,0,0,2,0,0,0,0,26,84
hbase,0.90.1,0.92.0,F:/corpus/hbase/hbase#2011-02-18-09-37-19#0.90.1#ed25749/src/main/java/org/apache/hadoop/hbase/filter/ColumnPrefixFilter.java,F:/corpus/hbase/hbase#2012-01-24-00-49-27#0.92.0#6ba4e7c/src/main/java/org/apache/hadoop/hbase/filter/ColumnPrefixFilter.java,0,0,0,0,0,0,0,0,0,0,0,0,0,YES,0,0,0,0,1,0,0,0,0,0,0,0,0,0,0,0,0,0,0,1,0,0,0,0,0,0,0,0,0,0,0,0,0,0,0,0,0,0,0,0,0,0,0,0,0,0,0,0,12,94
hbase,0.90.1,0.92.0,F:/corpus/hbase/hbase#2011-02-18-09-37-19#0.90.1#ed25749/src/main/java/org/apache/hadoop/hbase/filter/CompareFilter.java,F:/corpus/hbase/hbase#2012-01-24-00-49-27#0.92.0#6ba4e7c/src/main/java/org/apache/hadoop/hbase/filter/CompareFilter.java,0,0,0,0,0,0,0,0,1,0,0,1,0,YES,0,0,0,0,1,0,0,0,0,0,0,0,0,0,0,0,0,0,0,0,0,0,0,0,0,0,0,0,0,0,0,0,0,0,0,0,0,0,0,0,0,0,0,0,0,0,0,0,23,139
hbase,0.90.1,0.92.0,F:/corpus/hbase/hbase#2011-02-18-09-37-19#0.90.1#ed25749/src/main/java/org/apache/hadoop/hbase/filter/DependentColumnFilter.java,F:/corpus/hbase/hbase#2012-01-24-00-49-27#0.92.0#6ba4e7c/src/main/java/org/apache/hadoop/hbase/filter/DependentColumnFilter.java,0,0,0,0,1,0,0,0,0,0,0,0,0,YES,0,0,0,0,5,0,0,0,0,0,0,0,0,0,0,0,0,0,0,0,0,0,0,0,0,0,0,0,0,0,0,0,0,0,0,0,0,0,0,0,0,0,0,0,0,0,0,0,36,182
hbase,0.90.1,0.92.0,F:/corpus/hbase/hbase#2011-02-18-09-37-19#0.90.1#ed25749/src/main/java/org/apache/hadoop/hbase/filter/FamilyFilter.java,F:/corpus/hbase/hbase#2012-01-24-00-49-27#0.92.0#6ba4e7c/src/main/java/org/apache/hadoop/hbase/filter/FamilyFilter.java,0,0,0,0,0,0,0,0,1,0,0,0,0,YES,0,0,0,0,1,0,0,0,0,0,0,0,0,0,0,0,0,0,0,0,0,0,0,0,0,0,0,0,0,0,0,0,0,0,0,0,0,0,0,0,0,0,0,0,0,0,0,0,9,67
hbase,0.90.1,0.92.0,F:/corpus/hbase/hbase#2011-02-18-09-37-19#0.90.1#ed25749/src/main/java/org/apache/hadoop/hbase/filter/Filter.java,F:/corpus/hbase/hbase#2012-01-24-00-49-27#0.92.0#6ba4e7c/src/main/java/org/apache/hadoop/hbase/filter/Filter.java,0,0,0,0,0,0,0,0,0,0,0,0,0,YES,0,0,0,0,1,0,0,0,0,0,0,0,0,0,0,0,0,0,0,0,0,0,0,0,0,0,0,0,0,0,0,0,0,0,0,0,0,0,0,0,0,0,0,0,0,0,0,0,2,151
hbase,0.90.1,0.92.0,F:/corpus/hbase/hbase#2011-02-18-09-37-19#0.90.1#ed25749/src/main/java/org/apache/hadoop/hbase/filter/FilterBase.java,F:/corpus/hbase/hbase#2012-01-24-00-49-27#0.92.0#6ba4e7c/src/main/java/org/apache/hadoop/hbase/filter/FilterBase.java,0,0,0,0,3,0,0,0,0,0,0,0,0,YES,0,0,0,0,2,0,0,0,0,0,0,0,0,0,0,0,0,0,0,0,0,0,0,0,0,0,0,0,0,0,0,0,0,0,0,0,0,0,0,0,0,0,0,0,0,0,0,0,20,122
hbase,0.90.1,0.92.0,F:/corpus/hbase/hbase#2011-02-18-09-37-19#0.90.1#ed25749/src/main/java/org/apache/hadoop/hbase/filter/FilterList.java,F:/corpus/hbase/hbase#2012-01-24-00-49-27#0.92.0#6ba4e7c/src/main/java/org/apache/hadoop/hbase/filter/FilterList.java,0,0,0,0,1,0,0,0,0,0,0,0,0,YES,0,0,0,0,3,0,0,1,0,0,0,0,5,1,0,0,0,0,0,0,0,0,0,0,0,0,0,0,0,0,0,0,0,0,0,0,0,0,0,0,0,0,1,17,4,7,0,0,34,255
hbase,0.90.1,0.92.0,F:/corpus/hbase/hbase#2011-02-18-09-37-19#0.90.1#ed25749/src/main/java/org/apache/hadoop/hbase/filter/FirstKeyOnlyFilter.java,F:/corpus/hbase/hbase#2012-01-24-00-49-27#0.92.0#6ba4e7c/src/main/java/org/apache/hadoop/hbase/filter/FirstKeyOnlyFilter.java,0,0,0,0,1,0,0,0,0,0,0,0,0,YES,0,0,0,0,1,0,0,0,0,0,0,0,0,0,0,0,0,0,0,0,0,0,0,0,0,0,0,0,0,0,0,0,0,0,0,0,0,0,0,0,0,0,0,0,0,0,0,0,9,55
hbase,0.90.1,0.92.0,F:/corpus/hbase/hbase#2011-02-18-09-37-19#0.90.1#ed25749/src/main/java/org/apache/hadoop/hbase/filter/InclusiveStopFilter.java,F:/corpus/hbase/hbase#2012-01-24-00-49-27#0.92.0#6ba4e7c/src/main/java/org/apache/hadoop/hbase/filter/InclusiveStopFilter.java,0,0,0,0,0,0,0,0,0,0,0,0,0,YES,0,0,0,0,1,0,0,0,0,0,0,0,0,0,0,0,0,0,0,0,0,0,0,0,0,0,0,0,0,0,0,0,0,0,0,0,0,0,0,0,0,0,0,0,0,0,0,0,10,82
hbase,0.90.1,0.92.0,F:/corpus/hbase/hbase#2011-02-18-09-37-19#0.90.1#ed25749/src/main/java/org/apache/hadoop/hbase/filter/KeyOnlyFilter.java,F:/corpus/hbase/hbase#2012-01-24-00-49-27#0.92.0#6ba4e7c/src/main/java/org/apache/hadoop/hbase/filter/KeyOnlyFilter.java,0,0,0,0,0,0,0,0,0,0,0,0,0,YES,0,0,0,0,2,0,0,0,0,0,0,0,0,0,0,0,0,0,0,0,0,0,0,0,0,0,0,0,0,0,0,0,0,0,1,0,0,0,0,0,0,0,0,0,0,0,0,0,7,54
hbase,0.90.1,0.92.0,F:/corpus/hbase/hbase#2011-02-18-09-37-19#0.90.1#ed25749/src/main/java/org/apache/hadoop/hbase/filter/PageFilter.java,F:/corpus/hbase/hbase#2012-01-24-00-49-27#0.92.0#6ba4e7c/src/main/java/org/apache/hadoop/hbase/filter/PageFilter.java,0,0,0,0,0,0,0,0,0,0,0,0,0,YES,0,0,0,0,1,0,0,0,0,0,0,0,0,0,0,0,0,0,0,0,0,0,0,0,0,0,0,0,0,0,0,0,0,0,0,0,0,0,0,0,0,0,0,1,0,0,0,0,10,81
hbase,0.90.1,0.92.0,F:/corpus/hbase/hbase#2011-02-18-09-37-19#0.90.1#ed25749/src/main/java/org/apache/hadoop/hbase/filter/PrefixFilter.java,F:/corpus/hbase/hbase#2012-01-24-00-49-27#0.92.0#6ba4e7c/src/main/java/org/apache/hadoop/hbase/filter/PrefixFilter.java,0,0,0,0,0,0,0,0,0,0,0,0,0,YES,0,0,0,0,1,0,0,0,0,0,0,0,0,0,0,0,0,0,0,0,0,0,0,0,0,0,0,0,0,0,0,0,0,0,0,0,0,0,0,0,0,0,0,0,0,0,0,0,10,77
hbase,0.90.1,0.92.0,F:/corpus/hbase/hbase#2011-02-18-09-37-19#0.90.1#ed25749/src/main/java/org/apache/hadoop/hbase/filter/QualifierFilter.java,F:/corpus/hbase/hbase#2012-01-24-00-49-27#0.92.0#6ba4e7c/src/main/java/org/apache/hadoop/hbase/filter/QualifierFilter.java,0,0,0,0,0,0,0,0,1,0,0,0,0,YES,0,0,0,0,1,0,0,0,0,0,0,0,0,0,0,0,0,0,0,1,0,0,0,0,0,1,0,0,0,0,0,0,0,0,0,0,0,0,0,0,0,0,0,0,0,0,1,0,12,68
hbase,0.90.1,0.92.0,F:/corpus/hbase/hbase#2011-02-18-09-37-19#0.90.1#ed25749/src/main/java/org/apache/hadoop/hbase/filter/RowFilter.java,F:/corpus/hbase/hbase#2012-01-24-00-49-27#0.92.0#6ba4e7c/src/main/java/org/apache/hadoop/hbase/filter/RowFilter.java,0,0,0,0,1,0,0,0,0,0,0,0,0,YES,0,0,0,0,1,0,0,0,0,0,0,0,0,0,0,0,0,0,0,0,0,0,0,0,0,0,0,0,0,0,0,0,0,0,0,0,0,0,0,0,0,0,0,0,0,0,0,0,11,86
hbase,0.90.1,0.92.0,F:/corpus/hbase/hbase#2011-02-18-09-37-19#0.90.1#ed25749/src/main/java/org/apache/hadoop/hbase/filter/SingleColumnValueExcludeFilter.java,F:/corpus/hbase/hbase#2012-01-24-00-49-27#0.92.0#6ba4e7c/src/main/java/org/apache/hadoop/hbase/filter/SingleColumnValueExcludeFilter.java,0,0,0,0,0,0,0,0,0,0,0,0,0,YES,0,0,0,0,1,0,0,0,0,0,0,0,0,0,0,0,0,0,0,0,0,0,0,0,0,0,0,0,0,0,0,0,0,0,0,0,0,0,0,0,0,0,0,0,0,0,0,0,16,88
hbase,0.90.1,0.92.0,F:/corpus/hbase/hbase#2011-02-18-09-37-19#0.90.1#ed25749/src/main/java/org/apache/hadoop/hbase/filter/SingleColumnValueFilter.java,F:/corpus/hbase/hbase#2012-01-24-00-49-27#0.92.0#6ba4e7c/src/main/java/org/apache/hadoop/hbase/filter/SingleColumnValueFilter.java,0,0,0,0,0,0,0,0,0,0,0,0,0,YES,0,0,0,0,1,0,0,0,0,0,0,0,0,0,0,0,0,0,0,0,0,0,0,0,0,0,0,0,0,0,0,0,0,0,0,0,0,0,0,0,0,0,0,0,0,0,0,0,35,276
hbase,0.90.1,0.92.0,F:/corpus/hbase/hbase#2011-02-18-09-37-19#0.90.1#ed25749/src/main/java/org/apache/hadoop/hbase/filter/SkipFilter.java,F:/corpus/hbase/hbase#2012-01-24-00-49-27#0.92.0#6ba4e7c/src/main/java/org/apache/hadoop/hbase/filter/SkipFilter.java,0,0,0,0,0,0,0,0,0,0,0,0,0,YES,0,0,0,0,1,0,0,0,0,0,0,0,0,0,0,0,0,0,0,0,0,0,0,0,0,0,0,0,0,0,0,0,0,0,0,0,0,0,0,0,0,0,0,0,0,0,0,0,5,101
hbase,0.90.1,0.92.0,F:/corpus/hbase/hbase#2011-02-18-09-37-19#0.90.1#ed25749/src/main/java/org/apache/hadoop/hbase/filter/TimestampsFilter.java,F:/corpus/hbase/hbase#2012-01-24-00-49-27#0.92.0#6ba4e7c/src/main/java/org/apache/hadoop/hbase/filter/TimestampsFilter.java,0,0,0,0,0,0,0,0,0,0,0,0,0,YES,0,0,0,0,2,0,0,0,0,0,0,0,0,0,0,0,0,0,0,0,0,0,0,0,0,0,0,0,0,0,0,0,0,0,0,0,0,0,0,0,0,0,0,2,0,0,0,0,41,91
hbase,0.90.1,0.92.0,F:/corpus/hbase/hbase#2011-02-18-09-37-19#0.90.1#ed25749/src/main/java/org/apache/hadoop/hbase/filter/ValueFilter.java,F:/corpus/hbase/hbase#2012-01-24-00-49-27#0.92.0#6ba4e7c/src/main/java/org/apache/hadoop/hbase/filter/ValueFilter.java,0,0,0,0,0,0,0,0,1,0,0,0,0,YES,0,0,0,0,1,0,0,0,0,0,0,0,0,0,0,0,0,0,0,0,0,0,0,0,0,0,0,0,0,0,0,0,0,0,0,0,0,0,0,0,0,0,0,0,0,0,0,0,9,64
hbase,0.90.1,0.92.0,F:/corpus/hbase/hbase#2011-02-18-09-37-19#0.90.1#ed25749/src/main/java/org/apache/hadoop/hbase/filter/WhileMatchFilter.java,F:/corpus/hbase/hbase#2012-01-24-00-49-27#0.92.0#6ba4e7c/src/main/java/org/apache/hadoop/hbase/filter/WhileMatchFilter.java,0,0,0,0,0,0,0,0,0,0,0,0,0,YES,0,0,0,0,1,0,0,0,0,0,0,0,0,0,0,0,0,0,0,0,0,0,0,0,0,0,0,0,0,0,0,0,0,0,0,0,0,0,0,0,0,0,0,0,0,0,0,0,5,102
hbase,0.90.1,0.92.0,F:/corpus/hbase/hbase#2011-02-18-09-37-19#0.90.1#ed25749/src/main/java/org/apache/hadoop/hbase/io/HalfStoreFileReader.java,F:/corpus/hbase/hbase#2012-01-24-00-49-27#0.92.0#6ba4e7c/src/main/java/org/apache/hadoop/hbase/io/HalfStoreFileReader.java,0,0,0,1,0,0,0,0,0,1,0,0,0,YES,0,0,0,0,0,0,0,0,0,0,0,0,0,0,0,0,0,0,0,1,0,0,1,2,0,0,0,0,0,0,0,0,0,0,0,0,0,0,0,0,0,0,0,0,0,0,3,0,8,271
hbase,0.90.1,0.92.0,F:/corpus/hbase/hbase#2011-02-18-09-37-19#0.90.1#ed25749/src/main/java/org/apache/hadoop/hbase/io/HbaseObjectWritable.java,F:/corpus/hbase/hbase#2012-01-24-00-49-27#0.92.0#6ba4e7c/src/main/java/org/apache/hadoop/hbase/io/HbaseObjectWritable.java,0,0,0,0,1,0,0,0,0,0,0,2,0,YES,0,0,0,0,0,0,0,4,0,2,0,1,1,0,0,4,0,0,0,0,0,0,0,0,0,0,1,0,0,0,0,0,0,0,0,0,0,0,0,0,0,0,2,41,2,7,4,0,91,564
hbase,0.90.1,0.92.0,F:/corpus/hbase/hbase#2011-02-18-09-37-19#0.90.1#ed25749/src/main/java/org/apache/hadoop/hbase/io/Reference.java,F:/corpus/hbase/hbase#2012-01-24-00-49-27#0.92.0#6ba4e7c/src/main/java/org/apache/hadoop/hbase/io/Reference.java,0,0,0,0,0,0,0,0,0,0,0,0,0,YES,0,0,0,0,0,0,0,0,0,0,0,0,0,0,0,0,0,0,0,0,0,0,0,0,0,0,0,0,0,0,0,0,0,0,0,0,0,0,0,0,0,0,1,0,0,0,1,0,3,156
hbase,0.90.1,0.92.0,F:/corpus/hbase/hbase#2011-02-18-09-37-19#0.90.1#ed25749/src/main/java/org/apache/hadoop/hbase/io/hfile/BlockCache.java,F:/corpus/hbase/hbase#2012-01-24-00-49-27#0.92.0#6ba4e7c/src/main/java/org/apache/hadoop/hbase/io/hfile/BlockCache.java,0,0,0,0,0,0,0,0,0,0,0,0,0,YES,0,0,0,0,11,0,0,0,0,0,0,0,0,0,0,0,0,0,0,2,0,0,1,1,0,0,0,0,0,0,0,0,0,0,2,0,0,0,0,1,0,0,0,0,0,0,0,0,12,56
hbase,0.90.1,0.92.0,F:/corpus/hbase/hbase#2011-02-18-09-37-19#0.90.1#ed25749/src/main/java/org/apache/hadoop/hbase/io/hfile/CachedBlock.java,F:/corpus/hbase/hbase#2012-01-24-00-49-27#0.92.0#6ba4e7c/src/main/java/org/apache/hadoop/hbase/io/hfile/CachedBlock.java,1,0,0,0,0,0,0,0,0,0,0,0,0,YES,0,0,0,0,2,1,0,0,0,1,0,0,0,0,0,0,0,0,0,0,0,0,1,1,0,0,1,0,0,0,0,0,0,0,2,1,0,0,0,1,0,0,1,1,0,0,1,0,14,111
hbase,0.90.1,0.92.0,F:/corpus/hbase/hbase#2011-02-18-09-37-19#0.90.1#ed25749/src/main/java/org/apache/hadoop/hbase/io/hfile/Compression.java,F:/corpus/hbase/hbase#2012-01-24-00-49-27#0.92.0#6ba4e7c/src/main/java/org/apache/hadoop/hbase/io/hfile/Compression.java,0,0,1,0,0,0,0,0,0,0,0,0,0,YES,0,0,0,0,1,0,0,0,0,0,0,0,0,0,0,0,0,0,0,0,0,0,0,0,0,0,0,0,0,0,0,0,0,0,0,0,0,0,0,0,0,0,0,0,0,0,0,0,63,279
hbase,0.90.1,0.92.0,F:/corpus/hbase/hbase#2011-02-18-09-37-19#0.90.1#ed25749/src/main/java/org/apache/hadoop/hbase/io/hfile/HFile.java,F:/corpus/hbase/hbase#2012-01-24-00-49-27#0.92.0#6ba4e7c/src/main/java/org/apache/hadoop/hbase/io/hfile/HFile.java,0,1,0,0,1,1,2,1,0,1,0,6,0,YES,0,0,0,4,9,7,4,0,0,0,0,10,0,0,0,0,0,0,0,0,0,2,0,0,0,0,0,0,0,0,0,0,0,4,0,8,0,0,0,0,0,0,115,6,0,0,0,0,1754,1991
hbase,0.90.1,0.92.0,F:/corpus/hbase/hbase#2011-02-18-09-37-19#0.90.1#ed25749/src/main/java/org/apache/hadoop/hbase/io/hfile/LruBlockCache.java,F:/corpus/hbase/hbase#2012-01-24-00-49-27#0.92.0#6ba4e7c/src/main/java/org/apache/hadoop/hbase/io/hfile/LruBlockCache.java,0,0,0,0,0,0,0,0,0,0,1,0,0,YES,0,0,0,0,6,0,0,0,0,1,0,0,0,0,0,0,0,0,0,1,0,0,1,1,0,0,0,0,0,0,0,0,0,1,2,0,0,0,0,1,0,0,0,0,0,0,4,0,198,715
hbase,0.90.1,0.92.0,F:/corpus/hbase/hbase#2011-02-18-09-37-19#0.90.1#ed25749/src/main/java/org/apache/hadoop/hbase/io/hfile/SimpleBlockCache.java,F:/corpus/hbase/hbase#2012-01-24-00-49-27#0.92.0#6ba4e7c/src/main/java/org/apache/hadoop/hbase/io/hfile/SimpleBlockCache.java,0,0,1,0,2,0,0,0,0,0,0,0,0,YES,0,0,0,0,11,2,0,0,0,0,0,0,0,0,0,0,0,0,0,0,0,0,1,1,0,0,0,1,0,0,0,0,0,0,3,2,0,0,0,2,0,0,0,0,0,0,1,0,59,89
hbase,0.90.1,0.92.0,F:/corpus/hbase/hbase#2011-02-18-09-37-19#0.90.1#ed25749/src/main/java/org/apache/hadoop/hbase/ipc/HBaseClient.java,F:/corpus/hbase/hbase#2012-01-24-00-49-27#0.92.0#6ba4e7c/src/main/java/org/apache/hadoop/hbase/ipc/HBaseClient.java,0,0,1,0,0,0,0,0,0,0,0,0,0,YES,0,0,0,0,9,8,0,1,0,0,0,20,7,6,1,0,0,0,1,1,18,0,0,2,0,0,3,0,0,0,0,0,0,0,1,3,0,0,0,1,0,0,70,23,6,12,9,0,233,926
hbase,0.90.1,0.92.0,F:/corpus/hbase/hbase#2011-02-18-09-37-19#0.90.1#ed25749/src/main/java/org/apache/hadoop/hbase/ipc/HBaseRPC.java,F:/corpus/hbase/hbase#2012-01-24-00-49-27#0.92.0#6ba4e7c/src/main/java/org/apache/hadoop/hbase/ipc/HBaseRPC.java,1,0,0,0,1,0,0,0,0,0,2,0,0,YES,0,0,0,1,7,5,0,0,0,0,0,0,0,0,0,0,0,0,0,1,0,0,0,2,0,0,4,0,0,0,0,0,0,4,1,1,0,0,0,1,0,0,20,3,0,0,3,0,349,607
hbase,0.90.1,0.92.0,F:/corpus/hbase/hbase#2011-02-18-09-37-19#0.90.1#ed25749/src/main/java/org/apache/hadoop/hbase/ipc/HBaseRpcMetrics.java,F:/corpus/hbase/hbase#2012-01-24-00-49-27#0.92.0#6ba4e7c/src/main/java/org/apache/hadoop/hbase/ipc/HBaseRpcMetrics.java,0,0,0,0,1,0,0,0,0,0,0,0,0,YES,0,0,0,0,1,10,0,0,0,0,0,1,1,0,0,1,1,1,0,1,0,0,0,1,0,0,1,0,0,0,0,0,0,0,0,0,2,0,0,0,0,0,10,5,0,1,1,0,60,170
hbase,0.90.1,0.92.0,F:/corpus/hbase/hbase#2011-02-18-09-37-19#0.90.1#ed25749/src/main/java/org/apache/hadoop/hbase/ipc/HBaseServer.java,F:/corpus/hbase/hbase#2012-01-24-00-49-27#0.92.0#6ba4e7c/src/main/java/org/apache/hadoop/hbase/ipc/HBaseServer.java,0,1,0,0,1,2,0,0,0,0,1,0,0,YES,0,0,0,0,18,13,3,0,3,1,0,13,3,4,0,1,0,1,1,5,8,0,0,3,0,0,0,0,0,0,0,0,2,0,3,3,2,0,0,1,0,0,93,63,3,9,17,3,366,1401
hbase,0.90.1,0.92.0,F:/corpus/hbase/hbase#2011-02-18-09-37-19#0.90.1#ed25749/src/main/java/org/apache/hadoop/hbase/ipc/HMasterInterface.java,F:/corpus/hbase/hbase#2012-01-24-00-49-27#0.92.0#6ba4e7c/src/main/java/org/apache/hadoop/hbase/ipc/HMasterInterface.java,0,0,0,0,1,0,0,0,0,0,0,0,0,YES,0,0,0,0,4,1,0,0,0,0,0,0,0,0,0,0,0,0,0,1,0,0,0,0,0,0,0,0,0,0,1,0,0,0,0,0,0,0,0,0,0,0,0,0,0,0,0,0,34,190
hbase,0.90.1,0.92.0,F:/corpus/hbase/hbase#2011-02-18-09-37-19#0.90.1#ed25749/src/main/java/org/apache/hadoop/hbase/ipc/HMasterRegionInterface.java,F:/corpus/hbase/hbase#2012-01-24-00-49-27#0.92.0#6ba4e7c/src/main/java/org/apache/hadoop/hbase/ipc/HMasterRegionInterface.java,0,0,0,0,1,0,0,0,0,0,0,0,0,YES,0,0,0,0,1,1,0,0,0,0,0,0,0,0,0,0,0,0,0,3,0,0,4,4,1,0,0,0,0,0,1,0,0,0,0,0,0,0,0,0,0,0,0,0,0,0,0,0,37,66
hbase,0.90.1,0.92.0,F:/corpus/hbase/hbase#2011-02-18-09-37-19#0.90.1#ed25749/src/main/java/org/apache/hadoop/hbase/ipc/HRegionInterface.java,F:/corpus/hbase/hbase#2012-01-24-00-49-27#0.92.0#6ba4e7c/src/main/java/org/apache/hadoop/hbase/ipc/HRegionInterface.java,0,0,0,0,1,0,0,0,0,0,0,0,0,YES,0,0,0,0,10,1,0,0,0,0,0,0,0,0,0,0,0,0,0,3,0,1,2,1,1,0,1,0,0,0,1,0,0,0,1,0,0,0,0,0,0,2,0,0,0,0,0,0,172,394
hbase,0.90.1,0.92.0,F:/corpus/hbase/hbase#2011-02-18-09-37-19#0.90.1#ed25749/src/main/java/org/apache/hadoop/hbase/mapred/Driver.java,F:/corpus/hbase/hbase#2012-01-24-00-49-27#0.92.0#6ba4e7c/src/main/java/org/apache/hadoop/hbase/mapred/Driver.java,0,0,0,0,0,0,0,0,0,0,0,0,0,YES,0,0,0,0,0,0,0,0,0,0,0,0,0,0,0,0,0,0,0,0,0,0,0,0,0,0,0,0,0,0,0,0,0,0,0,0,0,0,0,0,0,0,1,1,0,0,0,0,2,40
hbase,0.90.1,0.92.0,F:/corpus/hbase/hbase#2011-02-18-09-37-19#0.90.1#ed25749/src/main/java/org/apache/hadoop/hbase/mapred/RowCounter.java,F:/corpus/hbase/hbase#2012-01-24-00-49-27#0.92.0#6ba4e7c/src/main/java/org/apache/hadoop/hbase/mapred/RowCounter.java,0,0,0,0,1,0,0,0,0,0,0,0,0,YES,0,0,0,0,0,0,0,0,0,0,0,2,1,0,0,0,0,0,0,0,0,0,0,0,0,0,0,0,0,0,0,0,0,0,0,0,0,0,0,0,0,0,7,0,0,0,0,0,14,136
hbase,0.90.1,0.92.0,F:/corpus/hbase/hbase#2011-02-18-09-37-19#0.90.1#ed25749/src/main/java/org/apache/hadoop/hbase/mapred/TableInputFormatBase.java,F:/corpus/hbase/hbase#2012-01-24-00-49-27#0.92.0#6ba4e7c/src/main/java/org/apache/hadoop/hbase/mapred/TableInputFormatBase.java,0,0,0,0,2,1,0,0,0,0,0,0,0,YES,0,0,0,0,0,0,0,0,0,0,0,0,0,0,0,0,0,0,0,0,0,0,0,0,0,0,0,0,0,0,0,0,0,0,0,0,0,0,0,0,0,0,0,0,0,0,1,0,1,189
hbase,0.90.1,0.92.0,F:/corpus/hbase/hbase#2011-02-18-09-37-19#0.90.1#ed25749/src/main/java/org/apache/hadoop/hbase/mapred/TableMapReduceUtil.java,F:/corpus/hbase/hbase#2012-01-24-00-49-27#0.92.0#6ba4e7c/src/main/java/org/apache/hadoop/hbase/mapred/TableMapReduceUtil.java,0,0,0,0,0,0,0,0,0,0,0,0,0,YES,0,0,0,0,1,0,0,0,0,0,0,0,1,0,0,0,0,0,0,0,0,0,0,0,0,0,0,0,0,0,0,0,0,0,0,0,0,0,0,0,0,0,0,5,0,0,0,0,19,255
hbase,0.90.1,0.92.0,F:/corpus/hbase/hbase#2011-02-18-09-37-19#0.90.1#ed25749/src/main/java/org/apache/hadoop/hbase/mapred/TableOutputFormat.java,F:/corpus/hbase/hbase#2012-01-24-00-49-27#0.92.0#6ba4e7c/src/main/java/org/apache/hadoop/hbase/mapred/TableOutputFormat.java,0,0,1,0,4,0,0,0,0,0,0,0,0,YES,0,0,0,0,0,0,0,0,0,0,0,0,0,0,0,0,0,0,0,0,0,0,0,0,0,0,0,0,0,0,0,0,0,0,0,0,0,0,0,0,0,0,1,1,0,0,0,0,1,106
hbase,0.90.1,0.92.0,F:/corpus/hbase/hbase#2011-02-18-09-37-19#0.90.1#ed25749/src/main/java/org/apache/hadoop/hbase/mapred/TableRecordReaderImpl.java,F:/corpus/hbase/hbase#2012-01-24-00-49-27#0.92.0#6ba4e7c/src/main/java/org/apache/hadoop/hbase/mapred/TableRecordReaderImpl.java,0,0,0,0,0,0,0,0,0,0,0,0,0,YES,0,0,0,0,0,0,0,1,1,0,0,0,0,1,0,0,0,0,0,0,0,0,0,0,0,0,0,0,0,0,0,0,0,0,0,0,0,0,0,0,0,0,1,8,0,4,5,0,12,193
hbase,0.90.1,0.92.0,F:/corpus/hbase/hbase#2011-02-18-09-37-19#0.90.1#ed25749/src/main/java/org/apache/hadoop/hbase/mapreduce/CopyTable.java,F:/corpus/hbase/hbase#2012-01-24-00-49-27#0.92.0#6ba4e7c/src/main/java/org/apache/hadoop/hbase/mapreduce/CopyTable.java,0,0,0,0,0,0,0,0,0,0,0,0,0,YES,0,0,0,0,0,0,0,1,0,0,0,0,2,0,0,0,0,0,0,0,0,0,0,0,0,0,0,0,0,0,0,0,0,0,0,0,0,0,0,0,0,0,0,11,0,0,3,0,7,204
hbase,0.90.1,0.92.0,F:/corpus/hbase/hbase#2011-02-18-09-37-19#0.90.1#ed25749/src/main/java/org/apache/hadoop/hbase/mapreduce/Driver.java,F:/corpus/hbase/hbase#2012-01-24-00-49-27#0.92.0#6ba4e7c/src/main/java/org/apache/hadoop/hbase/mapreduce/Driver.java,0,0,0,0,0,0,0,0,0,0,0,0,0,YES,0,0,0,0,0,0,0,0,0,0,0,0,0,0,0,0,0,0,0,0,0,0,0,0,0,0,0,0,0,0,0,0,0,0,0,0,0,0,0,0,0,0,1,2,0,0,0,0,3,51
hbase,0.90.1,0.92.0,F:/corpus/hbase/hbase#2011-02-18-09-37-19#0.90.1#ed25749/src/main/java/org/apache/hadoop/hbase/mapreduce/Export.java,F:/corpus/hbase/hbase#2012-01-24-00-49-27#0.92.0#6ba4e7c/src/main/java/org/apache/hadoop/hbase/mapreduce/Export.java,0,0,0,0,0,0,0,0,0,0,0,0,0,YES,0,0,0,0,2,0,0,0,0,0,0,2,1,0,0,0,0,0,0,0,0,0,0,0,0,0,0,0,0,0,0,0,0,0,0,0,0,0,0,0,0,0,10,1,0,0,1,0,83,147
hbase,0.90.1,0.92.0,F:/corpus/hbase/hbase#2011-02-18-09-37-19#0.90.1#ed25749/src/main/java/org/apache/hadoop/hbase/mapreduce/HFileOutputFormat.java,F:/corpus/hbase/hbase#2012-01-24-00-49-27#0.92.0#6ba4e7c/src/main/java/org/apache/hadoop/hbase/mapreduce/HFileOutputFormat.java,0,0,0,0,0,0,0,0,0,0,0,0,0,YES,0,0,0,0,3,2,0,0,0,0,0,0,3,0,0,0,0,0,0,1,0,0,0,0,0,0,0,0,0,0,0,0,0,0,0,0,0,0,0,0,0,0,0,7,0,0,7,0,97,275
hbase,0.90.1,0.92.0,F:/corpus/hbase/hbase#2011-02-18-09-37-19#0.90.1#ed25749/src/main/java/org/apache/hadoop/hbase/mapreduce/Import.java,F:/corpus/hbase/hbase#2012-01-24-00-49-27#0.92.0#6ba4e7c/src/main/java/org/apache/hadoop/hbase/mapreduce/Import.java,0,0,0,0,0,0,0,0,0,0,0,0,0,YES,0,0,0,0,2,2,0,0,0,0,0,0,15,0,0,0,0,0,0,0,0,0,0,0,0,0,0,0,0,0,0,0,0,0,0,0,0,0,0,0,0,0,0,4,0,0,0,1,83,126
hbase,0.90.1,0.92.0,F:/corpus/hbase/hbase#2011-02-18-09-37-19#0.90.1#ed25749/src/main/java/org/apache/hadoop/hbase/mapreduce/ImportTsv.java,F:/corpus/hbase/hbase#2012-01-24-00-49-27#0.92.0#6ba4e7c/src/main/java/org/apache/hadoop/hbase/mapreduce/ImportTsv.java,0,0,0,0,0,1,0,0,0,0,0,0,0,YES,0,0,0,0,0,3,0,0,0,0,0,0,2,0,0,0,0,0,0,0,0,0,0,0,0,0,0,0,0,0,0,0,0,1,0,0,0,0,0,0,0,0,0,5,0,0,3,0,106,374
hbase,0.90.1,0.92.0,F:/corpus/hbase/hbase#2011-02-18-09-37-19#0.90.1#ed25749/src/main/java/org/apache/hadoop/hbase/mapreduce/LoadIncrementalHFiles.java,F:/corpus/hbase/hbase#2012-01-24-00-49-27#0.92.0#6ba4e7c/src/main/java/org/apache/hadoop/hbase/mapreduce/LoadIncrementalHFiles.java,0,0,0,0,0,1,0,0,0,0,0,0,0,YES,0,0,0,0,9,5,0,0,0,0,0,1,8,0,0,0,1,0,0,2,2,1,2,3,0,1,0,0,0,0,0,0,0,0,1,0,0,0,0,0,0,0,25,49,0,0,5,0,258,321
hbase,0.90.1,0.92.0,F:/corpus/hbase/hbase#2011-02-18-09-37-19#0.90.1#ed25749/src/main/java/org/apache/hadoop/hbase/mapreduce/PutSortReducer.java,F:/corpus/hbase/hbase#2012-01-24-00-49-27#0.92.0#6ba4e7c/src/main/java/org/apache/hadoop/hbase/mapreduce/PutSortReducer.java,0,0,0,0,0,0,0,0,0,0,0,0,0,YES,0,0,0,0,0,0,0,0,0,0,0,0,4,0,0,0,0,0,0,0,0,0,0,0,0,0,0,0,0,0,0,0,0,0,0,0,0,0,0,0,0,0,1,9,0,5,2,0,15,66
hbase,0.90.1,0.92.0,F:/corpus/hbase/hbase#2011-02-18-09-37-19#0.90.1#ed25749/src/main/java/org/apache/hadoop/hbase/mapreduce/RowCounter.java,F:/corpus/hbase/hbase#2012-01-24-00-49-27#0.92.0#6ba4e7c/src/main/java/org/apache/hadoop/hbase/mapreduce/RowCounter.java,0,0,0,0,1,0,0,0,0,0,0,0,0,YES,0,0,0,0,0,0,0,0,0,0,0,0,1,0,0,0,0,0,0,0,0,0,0,0,0,0,0,0,0,0,0,0,0,0,0,0,0,0,0,0,0,0,3,0,0,1,0,0,6,136
hbase,0.90.1,0.92.0,F:/corpus/hbase/hbase#2011-02-18-09-37-19#0.90.1#ed25749/src/main/java/org/apache/hadoop/hbase/mapreduce/SimpleTotalOrderPartitioner.java,F:/corpus/hbase/hbase#2012-01-24-00-49-27#0.92.0#6ba4e7c/src/main/java/org/apache/hadoop/hbase/mapreduce/SimpleTotalOrderPartitioner.java,0,0,0,0,1,0,0,0,0,0,0,0,0,YES,0,0,0,0,0,0,0,0,0,0,0,0,0,0,0,0,0,0,0,0,0,0,0,0,0,0,0,0,0,0,0,0,0,0,0,0,0,0,0,0,0,0,0,0,0,0,1,0,1,139
hbase,0.90.1,0.92.0,F:/corpus/hbase/hbase#2011-02-18-09-37-19#0.90.1#ed25749/src/main/java/org/apache/hadoop/hbase/mapreduce/TableInputFormat.java,F:/corpus/hbase/hbase#2012-01-24-00-49-27#0.92.0#6ba4e7c/src/main/java/org/apache/hadoop/hbase/mapreduce/TableInputFormat.java,1,0,0,0,0,0,0,0,0,0,0,0,0,YES,0,0,0,0,3,0,0,0,0,0,0,0,0,0,0,0,0,0,0,0,0,0,0,0,0,0,0,0,0,0,0,0,0,0,0,0,0,0,0,0,0,0,0,0,0,0,1,0,3,143
hbase,0.90.1,0.92.0,F:/corpus/hbase/hbase#2011-02-18-09-37-19#0.90.1#ed25749/src/main/java/org/apache/hadoop/hbase/mapreduce/TableInputFormatBase.java,F:/corpus/hbase/hbase#2012-01-24-00-49-27#0.92.0#6ba4e7c/src/main/java/org/apache/hadoop/hbase/mapreduce/TableInputFormatBase.java,0,0,0,0,3,1,0,0,0,0,0,0,0,YES,0,0,0,0,0,0,0,0,0,0,0,0,0,0,0,0,0,0,0,0,0,0,0,0,0,0,0,0,0,0,0,0,0,0,0,0,0,0,0,0,0,0,0,0,0,0,1,0,1,239
hbase,0.90.1,0.92.0,F:/corpus/hbase/hbase#2011-02-18-09-37-19#0.90.1#ed25749/src/main/java/org/apache/hadoop/hbase/mapreduce/TableMapReduceUtil.java,F:/corpus/hbase/hbase#2012-01-24-00-49-27#0.92.0#6ba4e7c/src/main/java/org/apache/hadoop/hbase/mapreduce/TableMapReduceUtil.java,0,0,0,0,0,0,0,0,0,0,1,1,0,YES,0,0,0,0,5,0,0,0,0,0,0,0,0,0,0,0,0,0,0,0,0,0,0,0,0,0,0,0,0,0,0,0,0,0,0,0,0,0,0,0,0,0,10,3,0,0,0,0,124,411
hbase,0.90.1,0.92.0,F:/corpus/hbase/hbase#2011-02-18-09-37-19#0.90.1#ed25749/src/main/java/org/apache/hadoop/hbase/mapreduce/TableOutputFormat.java,F:/corpus/hbase/hbase#2012-01-24-00-49-27#0.92.0#6ba4e7c/src/main/java/org/apache/hadoop/hbase/mapreduce/TableOutputFormat.java,0,0,0,0,4,0,0,0,0,0,0,0,0,YES,0,0,0,0,0,0,0,0,0,0,0,1,0,0,0,0,0,0,0,0,0,0,0,0,0,1,0,0,0,0,0,0,0,0,0,0,0,0,0,0,0,0,2,5,0,0,9,0,19,203
hbase,0.90.1,0.92.0,F:/corpus/hbase/hbase#2011-02-18-09-37-19#0.90.1#ed25749/src/main/java/org/apache/hadoop/hbase/mapreduce/TableRecordReaderImpl.java,F:/corpus/hbase/hbase#2012-01-24-00-49-27#0.92.0#6ba4e7c/src/main/java/org/apache/hadoop/hbase/mapreduce/TableRecordReaderImpl.java,0,0,0,0,0,0,0,0,0,0,0,0,0,YES,0,0,0,0,0,0,0,1,1,0,0,0,0,1,0,1,0,0,0,0,0,0,0,0,0,0,0,0,0,0,0,0,0,0,0,0,0,0,0,0,0,0,1,4,3,2,3,0,9,164
hbase,0.90.1,0.92.0,F:/corpus/hbase/hbase#2011-02-18-09-37-19#0.90.1#ed25749/src/main/java/org/apache/hadoop/hbase/mapreduce/TableSplit.java,F:/corpus/hbase/hbase#2012-01-24-00-49-27#0.92.0#6ba4e7c/src/main/java/org/apache/hadoop/hbase/mapreduce/TableSplit.java,0,0,0,0,0,0,0,0,0,0,0,0,0,YES,0,0,0,0,1,0,0,0,0,0,0,0,0,0,0,0,0,0,0,0,0,0,0,0,0,0,0,0,0,0,0,0,0,0,0,0,0,0,0,0,0,0,0,0,0,0,0,0,10,186
hbase,0.90.1,0.92.0,F:/corpus/hbase/hbase#2011-02-18-09-37-19#0.90.1#ed25749/src/main/java/org/apache/hadoop/hbase/mapreduce/hadoopbackport/InputSampler.java,F:/corpus/hbase/hbase#2012-01-24-00-49-27#0.92.0#6ba4e7c/src/main/java/org/apache/hadoop/hbase/mapreduce/hadoopbackport/InputSampler.java,0,0,0,0,1,0,0,0,0,0,0,0,0,YES,0,0,0,0,1,0,0,0,0,0,0,0,0,0,0,0,0,0,0,0,0,0,0,0,0,0,0,0,0,0,0,0,0,0,0,0,0,0,0,0,0,0,0,0,0,0,3,0,33,419
hbase,0.90.1,0.92.0,F:/corpus/hbase/hbase#2011-02-18-09-37-19#0.90.1#ed25749/src/main/java/org/apache/hadoop/hbase/mapreduce/replication/VerifyReplication.java,F:/corpus/hbase/hbase#2012-01-24-00-49-27#0.92.0#6ba4e7c/src/main/java/org/apache/hadoop/hbase/mapreduce/replication/VerifyReplication.java,0,0,0,0,2,0,0,1,0,0,0,0,0,YES,0,0,0,0,0,0,0,0,0,0,0,0,0,1,0,0,0,0,0,0,0,0,0,0,0,0,0,0,0,0,0,0,0,0,0,0,0,0,0,0,0,0,17,2,2,1,1,0,28,283
hbase,0.90.1,0.92.0,F:/corpus/hbase/hbase#2011-02-18-09-37-19#0.90.1#ed25749/src/main/java/org/apache/hadoop/hbase/master/ActiveMasterManager.java,F:/corpus/hbase/hbase#2012-01-24-00-49-27#0.92.0#6ba4e7c/src/main/java/org/apache/hadoop/hbase/master/ActiveMasterManager.java,0,0,0,0,0,0,0,0,0,0,0,0,0,YES,0,0,0,0,0,1,1,1,0,0,0,0,0,1,1,2,0,0,1,2,0,0,1,2,0,0,0,0,0,0,0,0,0,0,0,1,0,0,0,0,0,0,5,18,0,1,4,0,31,191
hbase,0.90.1,0.92.0,F:/corpus/hbase/hbase#2011-02-18-09-37-19#0.90.1#ed25749/src/main/java/org/apache/hadoop/hbase/master/AssignmentManager.java,F:/corpus/hbase/hbase#2012-01-24-00-49-27#0.92.0#6ba4e7c/src/main/java/org/apache/hadoop/hbase/master/AssignmentManager.java,0,1,0,0,2,7,1,0,0,2,0,1,3,YES,0,0,0,2,48,11,5,5,0,4,0,28,37,5,2,23,2,0,1,17,2,2,5,14,1,2,6,0,0,0,0,1,1,1,1,1,0,0,0,4,0,0,165,202,20,35,80,0,1193,1940
hbase,0.90.1,0.92.0,F:/corpus/hbase/hbase#2011-02-18-09-37-19#0.90.1#ed25749/src/main/java/org/apache/hadoop/hbase/master/BulkAssigner.java,F:/corpus/hbase/hbase#2012-01-24-00-49-27#0.92.0#6ba4e7c/src/main/java/org/apache/hadoop/hbase/master/BulkAssigner.java,0,0,0,0,0,2,0,0,0,0,0,0,0,YES,0,0,0,0,1,0,0,0,0,0,0,2,0,0,0,0,0,1,1,1,0,0,0,0,0,0,0,0,0,0,0,0,0,0,0,0,0,0,0,0,0,0,12,1,0,0,2,0,14,105
hbase,0.90.1,0.92.0,F:/corpus/hbase/hbase#2011-02-18-09-37-19#0.90.1#ed25749/src/main/java/org/apache/hadoop/hbase/master/CatalogJanitor.java,F:/corpus/hbase/hbase#2012-01-24-00-49-27#0.92.0#6ba4e7c/src/main/java/org/apache/hadoop/hbase/master/CatalogJanitor.java,0,0,0,0,1,7,0,0,0,0,0,0,0,YES,0,0,0,1,2,0,0,0,0,0,0,0,2,0,1,1,0,0,0,2,0,2,3,1,1,0,0,0,0,0,0,0,0,0,1,0,0,0,0,0,0,0,2,25,0,0,4,0,96,279
hbase,0.90.1,0.92.0,F:/corpus/hbase/hbase#2011-02-18-09-37-19#0.90.1#ed25749/src/main/java/org/apache/hadoop/hbase/master/DeadServer.java,F:/corpus/hbase/hbase#2012-01-24-00-49-27#0.92.0#6ba4e7c/src/main/java/org/apache/hadoop/hbase/master/DeadServer.java,0,0,0,0,2,0,0,0,0,0,0,0,0,YES,0,0,0,0,5,0,0,0,0,1,0,0,0,0,0,0,0,0,0,1,0,0,1,0,0,0,1,0,0,0,0,1,1,0,3,2,0,0,0,2,0,0,2,1,0,0,2,0,34,169
hbase,0.90.1,0.92.0,F:/corpus/hbase/hbase#2011-02-18-09-37-19#0.90.1#ed25749/src/main/java/org/apache/hadoop/hbase/master/HMaster.java,F:/corpus/hbase/hbase#2012-01-24-00-49-27#0.92.0#6ba4e7c/src/main/java/org/apache/hadoop/hbase/master/HMaster.java,0,0,0,0,3,4,0,2,0,0,0,1,0,YES,0,0,0,0,23,8,1,6,0,2,0,6,27,6,2,2,1,0,0,2,0,1,5,6,1,2,0,1,0,0,0,0,0,0,4,2,0,0,0,2,0,0,60,184,1,25,39,0,578,1080
hbase,0.90.1,0.92.0,F:/corpus/hbase/hbase#2011-02-18-09-37-19#0.90.1#ed25749/src/main/java/org/apache/hadoop/hbase/master/HMasterCommandLine.java,F:/corpus/hbase/hbase#2012-01-24-00-49-27#0.92.0#6ba4e7c/src/main/java/org/apache/hadoop/hbase/master/HMasterCommandLine.java,0,0,0,0,0,0,0,0,0,0,0,0,0,YES,0,0,0,0,2,0,0,0,0,0,0,0,0,0,0,0,0,0,0,0,0,0,0,0,0,0,0,0,0,0,0,0,0,0,0,0,0,0,0,0,0,0,0,3,0,0,1,0,27,207
hbase,0.90.1,0.92.0,F:/corpus/hbase/hbase#2011-02-18-09-37-19#0.90.1#ed25749/src/main/java/org/apache/hadoop/hbase/master/LoadBalancer.java,F:/corpus/hbase/hbase#2012-01-24-00-49-27#0.92.0#6ba4e7c/src/main/java/org/apache/hadoop/hbase/master/LoadBalancer.java,0,0,0,0,0,9,0,0,0,1,0,0,0,YES,0,0,0,0,0,0,0,0,0,0,0,0,0,0,0,0,0,0,0,0,0,0,0,0,0,0,0,0,0,0,0,0,0,0,0,0,0,0,0,0,0,0,0,0,0,0,0,0,597,657
hbase,0.90.1,0.92.0,F:/corpus/hbase/hbase#2011-02-18-09-37-19#0.90.1#ed25749/src/main/java/org/apache/hadoop/hbase/master/LogCleaner.java,F:/corpus/hbase/hbase#2012-01-24-00-49-27#0.92.0#6ba4e7c/src/main/java/org/apache/hadoop/hbase/master/LogCleaner.java,0,0,0,0,0,0,0,0,0,0,0,0,0,YES,0,0,0,0,0,0,0,0,0,0,0,0,0,0,0,0,0,0,0,0,0,0,0,0,0,0,0,0,0,0,0,0,0,0,0,0,0,0,0,0,0,0,0,0,0,0,1,0,3,165
hbase,0.90.1,0.92.0,F:/corpus/hbase/hbase#2011-02-18-09-37-19#0.90.1#ed25749/src/main/java/org/apache/hadoop/hbase/master/MasterFileSystem.java,F:/corpus/hbase/hbase#2012-01-24-00-49-27#0.92.0#6ba4e7c/src/main/java/org/apache/hadoop/hbase/master/MasterFileSystem.java,0,0,0,0,0,1,0,0,0,0,0,0,0,YES,0,0,0,0,10,4,1,2,0,0,0,1,4,0,1,2,0,0,0,3,1,1,1,1,0,0,1,0,0,0,0,0,0,0,2,0,0,0,0,0,0,0,7,34,2,5,11,1,148,307
hbase,0.90.1,0.92.0,F:/corpus/hbase/hbase#2011-02-18-09-37-19#0.90.1#ed25749/src/main/java/org/apache/hadoop/hbase/master/MasterServices.java,F:/corpus/hbase/hbase#2012-01-24-00-49-27#0.92.0#6ba4e7c/src/main/java/org/apache/hadoop/hbase/master/MasterServices.java,0,0,0,0,0,0,0,0,0,0,0,0,0,YES,0,0,0,0,2,0,0,0,0,0,0,0,0,0,0,0,0,0,0,0,0,0,0,0,0,0,0,0,0,0,0,0,1,0,0,0,0,0,0,0,0,0,0,0,0,0,0,0,18,59
hbase,0.90.1,0.92.0,F:/corpus/hbase/hbase#2011-02-18-09-37-19#0.90.1#ed25749/src/main/java/org/apache/hadoop/hbase/master/ServerManager.java,F:/corpus/hbase/hbase#2012-01-24-00-49-27#0.92.0#6ba4e7c/src/main/java/org/apache/hadoop/hbase/master/ServerManager.java,0,0,0,0,1,8,0,1,0,0,0,0,0,YES,0,0,0,0,7,2,1,1,0,2,0,5,2,0,1,6,0,0,0,13,0,1,6,10,2,1,5,0,0,0,0,0,0,0,8,1,0,0,0,4,1,2,43,25,1,3,21,0,379,695
hbase,0.90.1,0.92.0,F:/corpus/hbase/hbase#2011-02-18-09-37-19#0.90.1#ed25749/src/main/java/org/apache/hadoop/hbase/master/TimeToLiveLogCleaner.java,F:/corpus/hbase/hbase#2012-01-24-00-49-27#0.92.0#6ba4e7c/src/main/java/org/apache/hadoop/hbase/master/TimeToLiveLogCleaner.java,0,0,0,0,1,0,0,0,0,0,0,0,0,YES,0,0,0,0,0,0,0,0,0,0,0,0,0,0,0,0,0,0,0,0,0,0,0,0,0,0,0,0,0,0,0,0,0,0,0,0,0,0,0,0,0,0,4,4,0,2,1,0,9,79
hbase,0.90.1,0.92.0,F:/corpus/hbase/hbase#2011-02-18-09-37-19#0.90.1#ed25749/src/main/java/org/apache/hadoop/hbase/master/handler/ClosedRegionHandler.java,F:/corpus/hbase/hbase#2012-01-24-00-49-27#0.92.0#6ba4e7c/src/main/java/org/apache/hadoop/hbase/master/handler/ClosedRegionHandler.java,0,0,0,0,0,0,0,0,0,0,0,0,0,YES,0,0,0,0,1,0,0,0,0,0,0,0,0,0,0,1,0,0,0,0,0,0,0,0,0,0,0,0,0,0,0,0,0,0,0,0,0,0,0,0,0,0,0,1,0,0,0,0,12,94
hbase,0.90.1,0.92.0,F:/corpus/hbase/hbase#2011-02-18-09-37-19#0.90.1#ed25749/src/main/java/org/apache/hadoop/hbase/master/handler/DeleteTableHandler.java,F:/corpus/hbase/hbase#2012-01-24-00-49-27#0.92.0#6ba4e7c/src/main/java/org/apache/hadoop/hbase/master/handler/DeleteTableHandler.java,0,0,0,0,0,1,0,1,0,0,0,0,0,YES,0,0,0,0,1,0,0,0,0,0,0,0,2,0,0,0,0,0,0,0,0,0,0,0,0,0,0,0,0,0,0,0,0,0,0,0,0,0,0,0,0,0,1,3,0,0,0,0,6,78
hbase,0.90.1,0.92.0,F:/corpus/hbase/hbase#2011-02-18-09-37-19#0.90.1#ed25749/src/main/java/org/apache/hadoop/hbase/master/handler/DisableTableHandler.java,F:/corpus/hbase/hbase#2012-01-24-00-49-27#0.92.0#6ba4e7c/src/main/java/org/apache/hadoop/hbase/master/handler/DisableTableHandler.java,0,0,0,0,0,0,0,0,0,0,0,0,0,YES,0,0,0,0,1,0,0,0,0,0,0,0,1,0,0,0,0,0,0,0,0,0,0,1,0,0,0,0,0,0,0,0,0,0,0,0,0,0,0,0,0,0,4,8,0,0,1,0,40,153
hbase,0.90.1,0.92.0,F:/corpus/hbase/hbase#2011-02-18-09-37-19#0.90.1#ed25749/src/main/java/org/apache/hadoop/hbase/master/handler/EnableTableHandler.java,F:/corpus/hbase/hbase#2012-01-24-00-49-27#0.92.0#6ba4e7c/src/main/java/org/apache/hadoop/hbase/master/handler/EnableTableHandler.java,0,0,0,0,0,0,0,0,0,0,0,0,0,YES,0,0,0,0,1,0,0,0,0,0,0,0,2,1,1,1,0,0,0,0,0,0,0,1,0,0,0,0,0,0,0,0,0,0,0,0,0,0,0,0,0,0,9,15,0,6,1,0,74,179
hbase,0.90.1,0.92.0,F:/corpus/hbase/hbase#2011-02-18-09-37-19#0.90.1#ed25749/src/main/java/org/apache/hadoop/hbase/master/handler/MetaServerShutdownHandler.java,F:/corpus/hbase/hbase#2012-01-24-00-49-27#0.92.0#6ba4e7c/src/main/java/org/apache/hadoop/hbase/master/handler/MetaServerShutdownHandler.java,0,0,0,0,0,0,0,0,0,0,0,0,0,YES,0,0,0,0,1,0,0,0,0,0,0,0,0,0,0,0,0,0,0,0,0,0,1,1,0,0,0,0,0,0,0,0,0,0,0,0,0,0,0,0,0,0,0,0,0,0,1,0,14,53
hbase,0.90.1,0.92.0,F:/corpus/hbase/hbase#2011-02-18-09-37-19#0.90.1#ed25749/src/main/java/org/apache/hadoop/hbase/master/handler/ModifyTableHandler.java,F:/corpus/hbase/hbase#2012-01-24-00-49-27#0.92.0#6ba4e7c/src/main/java/org/apache/hadoop/hbase/master/handler/ModifyTableHandler.java,0,0,0,0,0,0,0,0,0,0,0,0,0,YES,0,0,0,0,1,0,0,0,0,0,0,2,3,0,0,0,0,0,0,0,0,0,0,0,0,0,0,0,0,0,0,0,0,0,0,0,0,0,0,0,0,0,4,2,0,0,0,0,13,52
hbase,0.90.1,0.92.0,F:/corpus/hbase/hbase#2011-02-18-09-37-19#0.90.1#ed25749/src/main/java/org/apache/hadoop/hbase/master/handler/OpenedRegionHandler.java,F:/corpus/hbase/hbase#2012-01-24-00-49-27#0.92.0#6ba4e7c/src/main/java/org/apache/hadoop/hbase/master/handler/OpenedRegionHandler.java,0,0,0,0,0,0,0,1,0,0,0,0,0,YES,0,0,0,0,3,2,1,1,0,0,0,1,1,0,0,1,0,0,0,0,0,0,1,2,0,0,0,0,0,0,0,0,0,0,0,1,0,0,0,0,0,0,7,9,0,2,2,0,36,105
hbase,0.90.1,0.92.0,F:/corpus/hbase/hbase#2011-02-18-09-37-19#0.90.1#ed25749/src/main/java/org/apache/hadoop/hbase/master/handler/ServerShutdownHandler.java,F:/corpus/hbase/hbase#2012-01-24-00-49-27#0.92.0#6ba4e7c/src/main/java/org/apache/hadoop/hbase/master/handler/ServerShutdownHandler.java,0,0,0,0,0,0,0,1,0,0,0,0,0,YES,0,0,0,0,4,1,0,2,1,1,0,2,6,6,0,4,0,0,0,3,1,0,2,4,0,0,0,0,0,0,0,0,0,0,1,1,0,0,0,0,0,2,8,34,3,16,12,0,289,303
hbase,0.90.1,0.92.0,F:/corpus/hbase/hbase#2011-02-18-09-37-19#0.90.1#ed25749/src/main/java/org/apache/hadoop/hbase/master/handler/TableAddFamilyHandler.java,F:/corpus/hbase/hbase#2012-01-24-00-49-27#0.92.0#6ba4e7c/src/main/java/org/apache/hadoop/hbase/master/handler/TableAddFamilyHandler.java,0,0,0,0,0,1,0,0,0,0,0,0,0,YES,0,0,0,0,1,0,0,0,0,0,0,2,1,1,1,0,0,0,0,0,0,0,0,0,0,0,0,0,0,0,0,0,0,0,0,0,0,0,0,0,0,0,8,5,0,0,0,0,23,66
hbase,0.90.1,0.92.0,F:/corpus/hbase/hbase#2011-02-18-09-37-19#0.90.1#ed25749/src/main/java/org/apache/hadoop/hbase/master/handler/TableDeleteFamilyHandler.java,F:/corpus/hbase/hbase#2012-01-24-00-49-27#0.92.0#6ba4e7c/src/main/java/org/apache/hadoop/hbase/master/handler/TableDeleteFamilyHandler.java,0,0,0,0,0,1,0,0,0,0,0,0,0,YES,0,0,0,0,1,0,0,0,0,0,0,4,1,1,1,0,0,0,0,0,0,0,0,0,0,0,0,0,0,0,0,0,0,0,0,0,0,0,0,0,0,0,9,2,0,1,2,0,24,69
hbase,0.90.1,0.92.0,F:/corpus/hbase/hbase#2011-02-18-09-37-19#0.90.1#ed25749/src/main/java/org/apache/hadoop/hbase/master/handler/TableEventHandler.java,F:/corpus/hbase/hbase#2012-01-24-00-49-27#0.92.0#6ba4e7c/src/main/java/org/apache/hadoop/hbase/master/handler/TableEventHandler.java,0,0,0,0,0,0,0,0,0,0,0,0,0,YES,0,0,0,0,4,0,0,2,0,0,0,0,0,0,0,0,0,0,0,0,0,0,0,0,0,0,0,0,0,0,0,0,0,0,0,0,0,0,0,0,0,0,0,9,0,1,0,0,106,76
hbase,0.90.1,0.92.0,F:/corpus/hbase/hbase#2011-02-18-09-37-19#0.90.1#ed25749/src/main/java/org/apache/hadoop/hbase/master/handler/TableModifyFamilyHandler.java,F:/corpus/hbase/hbase#2012-01-24-00-49-27#0.92.0#6ba4e7c/src/main/java/org/apache/hadoop/hbase/master/handler/TableModifyFamilyHandler.java,0,0,0,0,0,1,0,0,0,0,0,0,0,YES,0,0,0,0,1,0,0,0,0,0,0,2,1,1,1,0,0,0,0,0,0,0,0,0,0,0,0,0,0,0,0,0,0,0,0,0,0,0,0,0,0,0,8,4,0,0,0,0,19,65
hbase,0.90.1,0.92.0,F:/corpus/hbase/hbase#2011-02-18-09-37-19#0.90.1#ed25749/src/main/java/org/apache/hadoop/hbase/metrics/MetricsRate.java,F:/corpus/hbase/hbase#2012-01-24-00-49-27#0.92.0#6ba4e7c/src/main/java/org/apache/hadoop/hbase/metrics/MetricsRate.java,0,0,0,0,0,0,0,0,0,0,0,2,0,YES,0,0,0,0,0,0,0,0,0,0,0,1,1,0,0,0,0,0,0,0,1,0,0,0,0,0,0,0,0,0,0,0,0,0,0,0,0,0,0,0,0,0,2,2,0,0,0,0,3,82
hbase,0.90.1,0.92.0,F:/corpus/hbase/hbase#2011-02-18-09-37-19#0.90.1#ed25749/src/main/java/org/apache/hadoop/hbase/regionserver/ColumnTracker.java,F:/corpus/hbase/hbase#2012-01-24-00-49-27#0.92.0#6ba4e7c/src/main/java/org/apache/hadoop/hbase/regionserver/ColumnTracker.java,0,0,0,0,0,0,0,0,0,0,0,0,0,YES,0,0,0,0,2,0,0,0,0,0,0,0,0,0,0,0,0,0,0,2,0,0,1,2,0,0,0,0,0,0,0,0,0,0,0,0,0,0,0,0,0,0,0,0,0,0,0,0,25,79
hbase,0.90.1,0.92.0,F:/corpus/hbase/hbase#2011-02-18-09-37-19#0.90.1#ed25749/src/main/java/org/apache/hadoop/hbase/regionserver/CompactSplitThread.java,F:/corpus/hbase/hbase#2012-01-24-00-49-27#0.92.0#6ba4e7c/src/main/java/org/apache/hadoop/hbase/regionserver/CompactSplitThread.java,0,0,0,0,0,0,0,0,0,0,0,0,0,YES,0,0,0,0,5,4,0,2,1,0,0,4,3,0,0,0,1,0,0,1,1,1,1,1,0,1,0,0,1,0,0,0,0,0,1,2,0,0,0,0,0,0,22,45,0,6,5,0,122,218
hbase,0.90.1,0.92.0,F:/corpus/hbase/hbase#2011-02-18-09-37-19#0.90.1#ed25749/src/main/java/org/apache/hadoop/hbase/regionserver/CompactionRequestor.java,F:/corpus/hbase/hbase#2012-01-24-00-49-27#0.92.0#6ba4e7c/src/main/java/org/apache/hadoop/hbase/regionserver/CompactionRequestor.java,0,0,0,0,1,0,0,0,0,0,0,0,0,YES,0,0,0,0,2,0,0,0,0,0,0,0,0,0,0,0,0,0,0,0,0,0,0,0,0,0,0,0,0,0,0,0,0,0,0,0,0,0,0,0,0,0,0,0,0,0,0,0,8,35
hbase,0.90.1,0.92.0,F:/corpus/hbase/hbase#2011-02-18-09-37-19#0.90.1#ed25749/src/main/java/org/apache/hadoop/hbase/regionserver/ExplicitColumnTracker.java,F:/corpus/hbase/hbase#2012-01-24-00-49-27#0.92.0#6ba4e7c/src/main/java/org/apache/hadoop/hbase/regionserver/ExplicitColumnTracker.java,0,0,0,0,0,0,0,0,0,0,0,0,0,YES,0,0,0,0,3,2,0,0,0,0,0,4,5,0,2,0,0,0,1,1,0,0,0,3,0,0,0,0,0,0,0,0,0,0,0,0,0,0,0,0,0,0,3,11,0,4,1,0,57,230
hbase,0.90.1,0.92.0,F:/corpus/hbase/hbase#2011-02-18-09-37-19#0.90.1#ed25749/src/main/java/org/apache/hadoop/hbase/regionserver/HRegion.java,F:/corpus/hbase/hbase#2012-01-24-00-49-27#0.92.0#6ba4e7c/src/main/java/org/apache/hadoop/hbase/regionserver/HRegion.java,0,1,0,0,1,1,0,3,0,4,0,13,0,YES,2,0,0,0,31,16,4,5,2,3,1,12,36,6,1,16,0,0,2,12,2,4,6,17,0,2,0,0,0,0,0,1,1,0,7,6,0,0,0,6,1,1,158,291,11,31,70,0,1210,3418
hbase,0.90.1,0.92.0,F:/corpus/hbase/hbase#2011-02-18-09-37-19#0.90.1#ed25749/src/main/java/org/apache/hadoop/hbase/regionserver/HRegionServer.java,F:/corpus/hbase/hbase#2012-01-24-00-49-27#0.92.0#6ba4e7c/src/main/java/org/apache/hadoop/hbase/regionserver/HRegionServer.java,0,1,0,0,2,6,0,1,0,1,0,2,0,YES,0,0,0,0,31,12,5,4,1,1,1,18,27,4,5,27,0,1,2,8,4,2,6,5,2,1,1,0,0,0,0,1,0,0,10,5,0,0,0,3,0,2,178,262,12,52,81,1,1171,2725
hbase,0.90.1,0.92.0,F:/corpus/hbase/hbase#2011-02-18-09-37-19#0.90.1#ed25749/src/main/java/org/apache/hadoop/hbase/regionserver/KeyValueHeap.java,F:/corpus/hbase/hbase#2012-01-24-00-49-27#0.92.0#6ba4e7c/src/main/java/org/apache/hadoop/hbase/regionserver/KeyValueHeap.java,0,0,0,0,0,0,0,0,0,0,0,0,0,YES,0,0,0,0,3,0,2,0,0,0,0,5,0,0,0,1,0,0,1,0,0,0,0,0,0,0,0,0,0,0,0,0,0,0,0,0,0,0,0,0,0,0,28,2,0,0,1,0,74,276
hbase,0.90.1,0.92.0,F:/corpus/hbase/hbase#2011-02-18-09-37-19#0.90.1#ed25749/src/main/java/org/apache/hadoop/hbase/regionserver/KeyValueScanner.java,F:/corpus/hbase/hbase#2012-01-24-00-49-27#0.92.0#6ba4e7c/src/main/java/org/apache/hadoop/hbase/regionserver/KeyValueScanner.java,0,0,0,0,0,0,0,0,0,0,0,0,0,YES,0,0,0,0,1,0,0,0,0,0,0,0,0,0,0,0,0,0,0,0,0,0,0,0,0,0,0,0,0,0,0,0,0,0,0,0,0,0,0,0,0,0,0,0,0,0,0,0,11,71
hbase,0.90.1,0.92.0,F:/corpus/hbase/hbase#2011-02-18-09-37-19#0.90.1#ed25749/src/main/java/org/apache/hadoop/hbase/regionserver/KeyValueSkipListSet.java,F:/corpus/hbase/hbase#2012-01-24-00-49-27#0.92.0#6ba4e7c/src/main/java/org/apache/hadoop/hbase/regionserver/KeyValueSkipListSet.java,0,0,0,0,11,0,0,0,0,0,0,0,0,YES,0,0,0,0,0,0,0,0,0,0,0,0,0,0,0,0,0,0,0,0,0,0,0,0,0,0,0,0,0,0,0,0,0,1,0,0,0,0,0,0,0,0,0,0,0,0,2,0,28,205
hbase,0.90.1,0.92.0,F:/corpus/hbase/hbase#2011-02-18-09-37-19#0.90.1#ed25749/src/main/java/org/apache/hadoop/hbase/regionserver/Leases.java,F:/corpus/hbase/hbase#2012-01-24-00-49-27#0.92.0#6ba4e7c/src/main/java/org/apache/hadoop/hbase/regionserver/Leases.java,0,0,0,0,0,0,0,0,0,0,0,0,0,YES,0,0,0,0,3,0,0,0,0,0,0,0,0,0,0,0,0,0,0,0,1,0,0,0,0,0,0,1,0,0,0,0,0,0,1,0,0,0,0,0,0,0,12,1,0,1,1,0,41,282
hbase,0.90.1,0.92.0,F:/corpus/hbase/hbase#2011-02-18-09-37-19#0.90.1#ed25749/src/main/java/org/apache/hadoop/hbase/regionserver/LogRoller.java,F:/corpus/hbase/hbase#2012-01-24-00-49-27#0.92.0#6ba4e7c/src/main/java/org/apache/hadoop/hbase/regionserver/LogRoller.java,0,0,0,0,0,2,0,0,0,0,0,0,0,YES,0,0,0,0,1,0,0,1,0,0,0,0,0,0,0,0,0,0,0,1,0,0,1,1,0,0,0,1,0,0,0,1,1,0,0,0,0,0,0,0,0,0,0,2,0,0,3,0,21,172
hbase,0.90.1,0.92.0,F:/corpus/hbase/hbase#2011-02-18-09-37-19#0.90.1#ed25749/src/main/java/org/apache/hadoop/hbase/regionserver/MemStore.java,F:/corpus/hbase/hbase#2012-01-24-00-49-27#0.92.0#6ba4e7c/src/main/java/org/apache/hadoop/hbase/regionserver/MemStore.java,0,0,0,0,1,0,0,0,1,0,0,0,0,YES,0,0,0,0,1,5,0,0,0,0,0,3,2,0,1,2,2,0,2,0,0,1,0,0,0,0,0,1,0,0,0,0,0,0,1,0,0,0,0,0,0,0,21,15,1,2,4,0,90,874
hbase,0.90.1,0.92.0,F:/corpus/hbase/hbase#2011-02-18-09-37-19#0.90.1#ed25749/src/main/java/org/apache/hadoop/hbase/regionserver/MemStoreFlusher.java,F:/corpus/hbase/hbase#2012-01-24-00-49-27#0.92.0#6ba4e7c/src/main/java/org/apache/hadoop/hbase/regionserver/MemStoreFlusher.java,0,0,0,0,2,1,0,0,0,0,0,0,0,YES,0,0,0,0,0,0,0,1,0,0,0,1,0,0,1,2,0,0,0,0,0,0,0,0,0,1,1,1,0,0,0,0,0,0,0,0,0,0,0,0,0,0,2,8,0,2,11,0,67,532
hbase,0.90.1,0.92.0,F:/corpus/hbase/hbase#2011-02-18-09-37-19#0.90.1#ed25749/src/main/java/org/apache/hadoop/hbase/regionserver/MemStoreLAB.java,F:/corpus/hbase/hbase#2012-01-24-00-49-27#0.92.0#6ba4e7c/src/main/java/org/apache/hadoop/hbase/regionserver/MemStoreLAB.java,0,0,0,0,0,0,0,0,0,0,0,0,0,YES,0,0,0,0,0,1,0,0,0,0,0,0,2,0,0,1,0,0,0,0,0,0,0,0,0,0,0,0,0,0,0,0,0,0,0,0,0,0,0,0,0,0,0,7,0,1,0,0,6,262
hbase,0.90.1,0.92.0,F:/corpus/hbase/hbase#2011-02-18-09-37-19#0.90.1#ed25749/src/main/java/org/apache/hadoop/hbase/regionserver/OnlineRegions.java,F:/corpus/hbase/hbase#2012-01-24-00-49-27#0.92.0#6ba4e7c/src/main/java/org/apache/hadoop/hbase/regionserver/OnlineRegions.java,0,0,0,0,1,0,0,0,0,0,0,0,0,YES,0,0,0,0,0,0,0,0,0,0,0,0,0,0,0,0,0,0,0,0,0,0,0,0,0,0,0,0,0,0,0,0,0,0,0,0,0,0,0,0,0,0,0,0,0,0,0,0,3,50
hbase,0.90.1,0.92.0,F:/corpus/hbase/hbase#2011-02-18-09-37-19#0.90.1#ed25749/src/main/java/org/apache/hadoop/hbase/regionserver/RegionServerServices.java,F:/corpus/hbase/hbase#2012-01-24-00-49-27#0.92.0#6ba4e7c/src/main/java/org/apache/hadoop/hbase/regionserver/RegionServerServices.java,0,0,0,0,1,0,0,0,0,0,0,0,0,YES,0,0,0,0,3,0,0,0,0,0,0,0,0,0,0,0,0,0,0,0,0,0,0,0,0,0,0,0,0,0,0,0,0,0,2,0,0,0,0,0,0,0,0,0,0,0,0,0,11,75
hbase,0.90.1,0.92.0,F:/corpus/hbase/hbase#2011-02-18-09-37-19#0.90.1#ed25749/src/main/java/org/apache/hadoop/hbase/regionserver/RegionServerStoppedException.java,F:/corpus/hbase/hbase#2012-01-24-00-49-27#0.92.0#6ba4e7c/src/main/java/org/apache/hadoop/hbase/regionserver/RegionServerStoppedException.java,0,0,0,0,0,0,0,0,0,0,0,0,0,YES,0,0,0,0,0,0,0,0,0,0,0,0,0,0,0,0,0,0,0,1,1,0,0,1,0,0,0,1,0,0,0,0,0,0,0,0,0,0,0,0,0,0,0,0,0,0,1,0,6,32
hbase,0.90.1,0.92.0,F:/corpus/hbase/hbase#2011-02-18-09-37-19#0.90.1#ed25749/src/main/java/org/apache/hadoop/hbase/regionserver/ScanDeleteTracker.java,F:/corpus/hbase/hbase#2012-01-24-00-49-27#0.92.0#6ba4e7c/src/main/java/org/apache/hadoop/hbase/regionserver/ScanDeleteTracker.java,0,0,0,0,0,0,0,0,0,0,0,0,0,YES,0,0,0,0,0,0,1,1,0,0,0,1,0,0,0,1,0,0,0,0,0,0,0,0,0,0,0,0,0,0,0,0,0,0,0,0,0,0,0,0,0,0,0,1,0,0,0,0,4,157
hbase,0.90.1,0.92.0,F:/corpus/hbase/hbase#2011-02-18-09-37-19#0.90.1#ed25749/src/main/java/org/apache/hadoop/hbase/regionserver/ScanQueryMatcher.java,F:/corpus/hbase/hbase#2012-01-24-00-49-27#0.92.0#6ba4e7c/src/main/java/org/apache/hadoop/hbase/regionserver/ScanQueryMatcher.java,0,0,0,0,1,0,0,0,0,1,0,0,0,YES,0,0,0,0,3,2,0,0,0,0,0,3,1,0,0,1,0,0,0,1,0,0,0,2,0,0,0,0,0,0,0,0,0,0,2,1,0,0,0,0,0,0,1,2,0,0,7,0,83,374
hbase,0.90.1,0.92.0,F:/corpus/hbase/hbase#2011-02-18-09-37-19#0.90.1#ed25749/src/main/java/org/apache/hadoop/hbase/regionserver/ScanWildcardColumnTracker.java,F:/corpus/hbase/hbase#2012-01-24-00-49-27#0.92.0#6ba4e7c/src/main/java/org/apache/hadoop/hbase/regionserver/ScanWildcardColumnTracker.java,0,0,0,0,0,0,0,0,0,0,0,0,0,YES,0,0,0,0,5,2,0,0,0,0,0,2,0,0,1,0,0,0,0,2,0,0,0,3,1,0,0,0,0,0,0,0,0,0,0,0,0,0,0,0,0,0,26,11,0,3,0,0,60,173
hbase,0.90.1,0.92.0,F:/corpus/hbase/hbase#2011-02-18-09-37-19#0.90.1#ed25749/src/main/java/org/apache/hadoop/hbase/regionserver/ShutdownHook.java,F:/corpus/hbase/hbase#2012-01-24-00-49-27#0.92.0#6ba4e7c/src/main/java/org/apache/hadoop/hbase/regionserver/ShutdownHook.java,0,0,0,0,1,0,0,0,0,0,0,0,0,YES,0,0,0,0,0,1,0,0,0,0,0,0,0,0,0,2,0,0,0,0,2,0,0,0,0,0,0,0,0,0,0,0,0,0,0,0,0,0,0,0,0,0,0,8,0,1,0,0,21,234
hbase,0.90.1,0.92.0,F:/corpus/hbase/hbase#2011-02-18-09-37-19#0.90.1#ed25749/src/main/java/org/apache/hadoop/hbase/regionserver/SplitTransaction.java,F:/corpus/hbase/hbase#2012-01-24-00-49-27#0.92.0#6ba4e7c/src/main/java/org/apache/hadoop/hbase/regionserver/SplitTransaction.java,0,0,0,0,1,3,0,1,0,0,0,0,0,YES,0,0,0,0,10,3,0,1,0,0,0,9,7,0,0,1,0,0,0,4,3,1,2,2,0,1,0,1,0,0,0,0,0,0,1,1,0,0,0,0,0,0,43,41,0,4,9,0,314,616
hbase,0.90.1,0.92.0,F:/corpus/hbase/hbase#2011-02-18-09-37-19#0.90.1#ed25749/src/main/java/org/apache/hadoop/hbase/regionserver/Store.java,F:/corpus/hbase/hbase#2012-01-24-00-49-27#0.92.0#6ba4e7c/src/main/java/org/apache/hadoop/hbase/regionserver/Store.java,0,1,0,0,0,2,0,0,0,1,0,1,0,YES,0,0,0,0,21,8,1,2,3,0,0,3,19,7,2,3,1,0,1,2,5,1,3,4,0,0,2,0,0,0,0,0,0,1,4,2,0,0,0,1,0,0,57,98,8,27,23,0,631,1546
hbase,0.90.1,0.92.0,F:/corpus/hbase/hbase#2011-02-18-09-37-19#0.90.1#ed25749/src/main/java/org/apache/hadoop/hbase/regionserver/StoreFile.java,F:/corpus/hbase/hbase#2012-01-24-00-49-27#0.92.0#6ba4e7c/src/main/java/org/apache/hadoop/hbase/regionserver/StoreFile.java,0,1,0,0,1,4,0,0,0,0,2,0,1,YES,0,0,0,0,21,10,2,3,2,1,0,5,6,0,2,6,0,0,3,7,1,0,5,8,0,1,2,0,0,0,0,0,0,0,5,13,0,0,0,2,0,0,63,48,8,6,24,0,402,1127
hbase,0.90.1,0.92.0,F:/corpus/hbase/hbase#2011-02-18-09-37-19#0.90.1#ed25749/src/main/java/org/apache/hadoop/hbase/regionserver/StoreFileScanner.java,F:/corpus/hbase/hbase#2012-01-24-00-49-27#0.92.0#6ba4e7c/src/main/java/org/apache/hadoop/hbase/regionserver/StoreFileScanner.java,0,0,0,0,0,0,0,0,0,0,0,0,0,YES,0,0,0,0,4,1,0,0,0,0,0,0,0,0,1,0,0,0,0,0,0,0,0,1,0,0,0,0,0,0,0,0,0,0,0,0,0,0,0,0,0,0,10,6,1,1,0,0,75,171
hbase,0.90.1,0.92.0,F:/corpus/hbase/hbase#2011-02-18-09-37-19#0.90.1#ed25749/src/main/java/org/apache/hadoop/hbase/regionserver/StoreFlusher.java,F:/corpus/hbase/hbase#2012-01-24-00-49-27#0.92.0#6ba4e7c/src/main/java/org/apache/hadoop/hbase/regionserver/StoreFlusher.java,0,0,0,0,1,0,0,0,0,0,0,0,0,YES,0,0,0,0,1,0,0,0,0,0,0,0,0,0,0,0,0,0,0,0,0,0,0,0,0,0,0,0,0,0,0,0,0,0,1,0,0,0,0,0,0,0,0,0,0,0,0,0,3,62
hbase,0.90.1,0.92.0,F:/corpus/hbase/hbase#2011-02-18-09-37-19#0.90.1#ed25749/src/main/java/org/apache/hadoop/hbase/regionserver/StoreScanner.java,F:/corpus/hbase/hbase#2012-01-24-00-49-27#0.92.0#6ba4e7c/src/main/java/org/apache/hadoop/hbase/regionserver/StoreScanner.java,0,0,0,0,0,2,0,0,0,1,0,0,1,YES,0,0,0,0,2,0,0,4,0,0,0,5,5,2,1,1,0,0,1,1,0,0,0,1,0,0,0,0,0,0,0,0,0,0,0,0,0,0,0,0,0,1,15,34,1,15,7,0,82,401
hbase,0.90.1,0.92.0,F:/corpus/hbase/hbase#2011-02-18-09-37-19#0.90.1#ed25749/src/main/java/org/apache/hadoop/hbase/regionserver/handler/CloseMetaHandler.java,F:/corpus/hbase/hbase#2012-01-24-00-49-27#0.92.0#6ba4e7c/src/main/java/org/apache/hadoop/hbase/regionserver/handler/CloseMetaHandler.java,0,0,0,0,0,0,0,0,0,0,0,0,0,YES,0,0,0,0,0,0,0,0,0,0,0,0,0,0,0,0,0,0,0,0,0,0,0,1,0,0,0,0,0,0,0,0,0,0,0,0,0,0,0,0,0,0,0,0,0,0,2,0,4,43
hbase,0.90.1,0.92.0,F:/corpus/hbase/hbase#2011-02-18-09-37-19#0.90.1#ed25749/src/main/java/org/apache/hadoop/hbase/regionserver/handler/CloseRegionHandler.java,F:/corpus/hbase/hbase#2012-01-24-00-49-27#0.92.0#6ba4e7c/src/main/java/org/apache/hadoop/hbase/regionserver/handler/CloseRegionHandler.java,0,0,0,0,0,0,0,0,0,0,0,0,0,YES,0,0,0,0,0,1,0,1,0,0,0,0,1,3,1,0,0,0,0,1,0,0,0,2,0,0,0,0,0,0,0,0,0,0,1,0,0,0,0,0,0,1,11,14,0,10,3,0,67,183
hbase,0.90.1,0.92.0,F:/corpus/hbase/hbase#2011-02-18-09-37-19#0.90.1#ed25749/src/main/java/org/apache/hadoop/hbase/regionserver/handler/CloseRootHandler.java,F:/corpus/hbase/hbase#2012-01-24-00-49-27#0.92.0#6ba4e7c/src/main/java/org/apache/hadoop/hbase/regionserver/handler/CloseRootHandler.java,0,0,0,0,0,0,0,0,0,0,0,0,0,YES,0,0,0,0,0,0,0,0,0,0,0,0,0,0,0,0,0,0,0,0,0,0,0,1,0,0,0,0,0,0,0,0,0,0,0,0,0,0,0,0,0,0,0,0,0,0,2,0,4,43
hbase,0.90.1,0.92.0,F:/corpus/hbase/hbase#2011-02-18-09-37-19#0.90.1#ed25749/src/main/java/org/apache/hadoop/hbase/regionserver/handler/OpenMetaHandler.java,F:/corpus/hbase/hbase#2012-01-24-00-49-27#0.92.0#6ba4e7c/src/main/java/org/apache/hadoop/hbase/regionserver/handler/OpenMetaHandler.java,0,0,0,0,0,0,0,0,0,0,0,0,0,YES,0,0,0,0,1,0,0,0,0,0,0,0,0,0,0,0,0,0,0,0,0,0,0,1,0,0,0,0,0,0,0,0,0,0,0,0,0,0,0,0,0,0,1,1,0,0,0,0,4,36
hbase,0.90.1,0.92.0,F:/corpus/hbase/hbase#2011-02-18-09-37-19#0.90.1#ed25749/src/main/java/org/apache/hadoop/hbase/regionserver/handler/OpenRegionHandler.java,F:/corpus/hbase/hbase#2012-01-24-00-49-27#0.92.0#6ba4e7c/src/main/java/org/apache/hadoop/hbase/regionserver/handler/OpenRegionHandler.java,0,0,0,0,0,1,0,0,0,0,0,0,0,YES,0,0,0,0,2,2,0,0,0,0,0,1,3,4,1,0,0,0,0,2,2,0,0,4,0,0,0,0,0,0,0,0,0,0,0,0,0,0,0,0,0,0,10,14,1,13,8,0,106,341
hbase,0.90.1,0.92.0,F:/corpus/hbase/hbase#2011-02-18-09-37-19#0.90.1#ed25749/src/main/java/org/apache/hadoop/hbase/regionserver/handler/OpenRootHandler.java,F:/corpus/hbase/hbase#2012-01-24-00-49-27#0.92.0#6ba4e7c/src/main/java/org/apache/hadoop/hbase/regionserver/handler/OpenRootHandler.java,0,0,0,0,0,0,0,0,0,0,0,0,0,YES,0,0,0,0,1,0,0,0,0,0,0,0,0,0,0,0,0,0,0,0,0,0,0,1,0,0,0,0,0,0,0,0,0,0,0,0,0,0,0,0,0,0,0,0,0,0,1,0,3,36
hbase,0.90.1,0.92.0,F:/corpus/hbase/hbase#2011-02-18-09-37-19#0.90.1#ed25749/src/main/java/org/apache/hadoop/hbase/regionserver/metrics/RegionServerMetrics.java,F:/corpus/hbase/hbase#2012-01-24-00-49-27#0.92.0#6ba4e7c/src/main/java/org/apache/hadoop/hbase/regionserver/metrics/RegionServerMetrics.java,1,0,0,0,1,2,0,0,0,0,0,0,0,YES,0,0,0,0,0,6,0,0,0,0,0,0,0,0,0,0,0,0,0,1,1,0,1,2,0,0,0,0,0,0,0,0,0,0,0,0,0,0,0,0,0,0,3,12,1,0,16,0,56,378
hbase,0.90.1,0.92.0,F:/corpus/hbase/hbase#2011-02-18-09-37-19#0.90.1#ed25749/src/main/java/org/apache/hadoop/hbase/regionserver/wal/HLog.java,F:/corpus/hbase/hbase#2012-01-24-00-49-27#0.92.0#6ba4e7c/src/main/java/org/apache/hadoop/hbase/regionserver/wal/HLog.java,0,1,0,0,4,3,0,0,0,0,0,6,0,YES,0,0,0,0,8,10,3,4,2,2,0,15,14,2,1,9,0,0,1,6,1,0,1,9,0,2,4,1,0,0,0,0,0,0,3,3,0,0,0,0,0,0,94,67,6,21,16,1,434,1485
hbase,0.90.1,0.92.0,F:/corpus/hbase/hbase#2011-02-18-09-37-19#0.90.1#ed25749/src/main/java/org/apache/hadoop/hbase/regionserver/wal/HLogKey.java,F:/corpus/hbase/hbase#2012-01-24-00-49-27#0.92.0#6ba4e7c/src/main/java/org/apache/hadoop/hbase/regionserver/wal/HLogKey.java,0,0,0,0,0,0,0,0,0,0,0,0,0,YES,0,0,0,0,1,1,0,2,0,1,0,0,4,0,0,0,0,0,0,1,0,0,0,1,0,0,1,0,0,0,0,0,0,0,0,0,0,0,0,1,0,0,2,17,0,2,4,0,40,208
hbase,0.90.1,0.92.0,F:/corpus/hbase/hbase#2011-02-18-09-37-19#0.90.1#ed25749/src/main/java/org/apache/hadoop/hbase/regionserver/wal/HLogSplitter.java,F:/corpus/hbase/hbase#2012-01-24-00-49-27#0.92.0#6ba4e7c/src/main/java/org/apache/hadoop/hbase/regionserver/wal/HLogSplitter.java,0,0,0,0,1,1,0,0,0,0,0,2,0,YES,0,0,0,1,13,1,3,0,0,0,0,7,4,0,0,5,0,0,0,2,0,0,1,4,0,0,0,0,0,0,0,0,0,0,1,0,0,0,0,0,0,0,39,46,6,10,11,0,657,880
hbase,0.90.1,0.92.0,F:/corpus/hbase/hbase#2011-02-18-09-37-19#0.90.1#ed25749/src/main/java/org/apache/hadoop/hbase/regionserver/wal/SequenceFileLogReader.java,F:/corpus/hbase/hbase#2012-01-24-00-49-27#0.92.0#6ba4e7c/src/main/java/org/apache/hadoop/hbase/regionserver/wal/SequenceFileLogReader.java,0,0,0,0,0,2,0,0,0,0,0,0,0,YES,0,0,0,0,0,0,0,1,0,0,0,0,1,0,0,0,0,0,0,0,0,0,0,0,0,0,0,0,0,0,0,0,0,0,0,0,0,0,0,0,0,0,0,2,0,5,1,0,16,252
hbase,0.90.1,0.92.0,F:/corpus/hbase/hbase#2011-02-18-09-37-19#0.90.1#ed25749/src/main/java/org/apache/hadoop/hbase/regionserver/wal/SequenceFileLogWriter.java,F:/corpus/hbase/hbase#2012-01-24-00-49-27#0.92.0#6ba4e7c/src/main/java/org/apache/hadoop/hbase/regionserver/wal/SequenceFileLogWriter.java,0,0,0,0,0,2,0,0,0,0,0,0,0,YES,0,0,0,0,3,2,0,3,0,0,0,5,6,0,0,0,0,0,0,0,0,1,0,0,0,0,0,0,0,0,0,0,0,0,0,1,0,0,0,1,0,0,22,24,0,3,2,0,60,164
hbase,0.90.1,0.92.0,F:/corpus/hbase/hbase#2011-02-18-09-37-19#0.90.1#ed25749/src/main/java/org/apache/hadoop/hbase/replication/ReplicationPeer.java,F:/corpus/hbase/hbase#2012-01-24-00-49-27#0.92.0#6ba4e7c/src/main/java/org/apache/hadoop/hbase/replication/ReplicationPeer.java,1,0,0,0,0,0,0,0,0,0,0,0,0,YES,0,0,0,0,3,1,0,0,0,1,0,0,0,0,0,0,0,0,0,2,0,0,1,0,0,0,1,0,0,0,0,0,1,0,0,0,0,0,0,1,0,0,1,1,0,0,0,0,38,120
hbase,0.90.1,0.92.0,F:/corpus/hbase/hbase#2011-02-18-09-37-19#0.90.1#ed25749/src/main/java/org/apache/hadoop/hbase/replication/ReplicationZookeeper.java,F:/corpus/hbase/hbase#2012-01-24-00-49-27#0.92.0#6ba4e7c/src/main/java/org/apache/hadoop/hbase/replication/ReplicationZookeeper.java,0,0,0,0,0,1,0,0,0,0,0,0,0,YES,0,0,0,0,1,0,2,1,0,0,0,1,4,0,0,0,0,0,1,2,1,1,0,0,0,1,0,0,0,0,0,0,0,0,1,1,0,0,0,2,0,0,24,34,0,5,8,0,97,704
hbase,0.90.1,0.92.0,F:/corpus/hbase/hbase#2011-02-18-09-37-19#0.90.1#ed25749/src/main/java/org/apache/hadoop/hbase/replication/master/ReplicationLogCleaner.java,F:/corpus/hbase/hbase#2012-01-24-00-49-27#0.92.0#6ba4e7c/src/main/java/org/apache/hadoop/hbase/replication/master/ReplicationLogCleaner.java,0,0,0,0,1,0,0,0,0,0,0,0,0,YES,0,0,0,0,1,1,0,0,0,0,0,0,0,0,0,0,0,0,0,0,0,0,0,0,0,0,0,0,0,0,0,0,0,0,0,0,0,0,0,0,0,0,0,1,0,0,0,0,8,170
hbase,0.90.1,0.92.0,F:/corpus/hbase/hbase#2011-02-18-09-37-19#0.90.1#ed25749/src/main/java/org/apache/hadoop/hbase/replication/regionserver/Replication.java,F:/corpus/hbase/hbase#2012-01-24-00-49-27#0.92.0#6ba4e7c/src/main/java/org/apache/hadoop/hbase/replication/regionserver/Replication.java,0,0,0,0,1,1,0,0,0,0,0,0,0,YES,0,0,0,0,1,0,0,0,0,0,0,0,0,0,0,0,0,0,0,0,0,0,0,0,0,0,0,0,0,0,0,1,1,0,0,0,0,0,0,0,0,0,9,0,0,0,0,0,11,181
hbase,0.90.1,0.92.0,F:/corpus/hbase/hbase#2011-02-18-09-37-19#0.90.1#ed25749/src/main/java/org/apache/hadoop/hbase/replication/regionserver/ReplicationSink.java,F:/corpus/hbase/hbase#2012-01-24-00-49-27#0.92.0#6ba4e7c/src/main/java/org/apache/hadoop/hbase/replication/regionserver/ReplicationSink.java,0,0,0,0,0,6,0,1,0,0,0,0,0,YES,0,0,0,0,0,0,1,0,0,0,0,0,3,0,0,0,0,0,0,0,0,0,0,0,0,0,0,0,0,0,0,0,0,0,0,0,0,0,0,0,0,0,2,11,0,2,2,0,9,194
hbase,0.90.1,0.92.0,F:/corpus/hbase/hbase#2011-02-18-09-37-19#0.90.1#ed25749/src/main/java/org/apache/hadoop/hbase/replication/regionserver/ReplicationSource.java,F:/corpus/hbase/hbase#2012-01-24-00-49-27#0.92.0#6ba4e7c/src/main/java/org/apache/hadoop/hbase/replication/regionserver/ReplicationSource.java,0,0,0,0,1,1,0,0,0,1,0,0,0,YES,0,0,0,0,1,2,0,1,0,3,0,0,5,3,0,7,0,0,0,0,0,0,0,0,0,0,0,0,0,0,0,0,0,0,0,0,0,0,0,0,0,0,12,29,6,17,18,0,94,729
hbase,0.90.1,0.92.0,F:/corpus/hbase/hbase#2011-02-18-09-37-19#0.90.1#ed25749/src/main/java/org/apache/hadoop/hbase/replication/regionserver/ReplicationSourceManager.java,F:/corpus/hbase/hbase#2012-01-24-00-49-27#0.92.0#6ba4e7c/src/main/java/org/apache/hadoop/hbase/replication/regionserver/ReplicationSourceManager.java,0,0,0,0,0,0,0,0,0,0,0,0,0,YES,0,0,0,1,0,2,0,0,1,1,0,3,3,1,1,1,0,0,0,1,0,0,0,0,0,1,0,0,0,0,0,0,0,0,0,0,0,0,0,1,0,0,28,34,0,4,13,0,160,535
hbase,0.90.1,0.92.0,F:/corpus/hbase/hbase#2011-02-18-09-37-19#0.90.1#ed25749/src/main/java/org/apache/hadoop/hbase/replication/regionserver/ReplicationSourceMetrics.java,F:/corpus/hbase/hbase#2012-01-24-00-49-27#0.92.0#6ba4e7c/src/main/java/org/apache/hadoop/hbase/replication/regionserver/ReplicationSourceMetrics.java,1,0,1,0,1,0,0,0,0,0,0,0,0,YES,0,0,0,0,1,1,0,0,0,0,0,0,0,0,0,0,0,0,0,0,0,0,0,0,0,0,0,0,0,0,0,0,0,0,0,0,0,0,0,0,0,0,0,1,0,0,1,0,6,108
hbase,0.90.1,0.92.0,F:/corpus/hbase/hbase#2011-02-18-09-37-19#0.90.1#ed25749/src/main/java/org/apache/hadoop/hbase/rest/Main.java,F:/corpus/hbase/hbase#2012-01-24-00-49-27#0.92.0#6ba4e7c/src/main/java/org/apache/hadoop/hbase/rest/Main.java,0,0,0,0,0,1,0,0,0,0,0,0,0,YES,0,0,0,0,0,0,0,0,0,0,0,0,2,0,0,0,0,0,0,0,0,0,0,0,0,0,0,0,0,0,0,0,0,0,0,0,0,0,0,0,0,0,0,4,0,0,0,0,15,141
hbase,0.90.1,0.92.0,F:/corpus/hbase/hbase#2011-02-18-09-37-19#0.90.1#ed25749/src/main/java/org/apache/hadoop/hbase/rest/RowResource.java,F:/corpus/hbase/hbase#2012-01-24-00-49-27#0.92.0#6ba4e7c/src/main/java/org/apache/hadoop/hbase/rest/RowResource.java,0,0,0,0,2,0,0,4,0,0,0,0,0,YES,0,0,0,0,0,0,0,0,0,0,0,0,0,0,0,0,0,0,0,0,0,0,0,0,0,0,0,0,0,0,0,0,0,0,0,0,0,0,0,0,0,0,2,24,6,7,2,0,16,345
hbase,0.90.1,0.92.0,F:/corpus/hbase/hbase#2011-02-18-09-37-19#0.90.1#ed25749/src/main/java/org/apache/hadoop/hbase/rest/RowSpec.java,F:/corpus/hbase/hbase#2012-01-24-00-49-27#0.92.0#6ba4e7c/src/main/java/org/apache/hadoop/hbase/rest/RowSpec.java,0,0,0,0,0,0,0,0,0,0,0,0,0,YES,0,0,0,0,0,0,0,0,0,0,0,0,0,0,0,0,0,0,0,0,0,0,0,0,0,0,0,0,0,0,0,0,0,0,0,0,0,0,0,0,0,0,1,1,0,0,3,0,4,401
hbase,0.90.1,0.92.0,F:/corpus/hbase/hbase#2011-02-18-09-37-19#0.90.1#ed25749/src/main/java/org/apache/hadoop/hbase/rest/ScannerResource.java,F:/corpus/hbase/hbase#2012-01-24-00-49-27#0.92.0#6ba4e7c/src/main/java/org/apache/hadoop/hbase/rest/ScannerResource.java,0,0,0,0,1,0,0,0,0,0,0,0,0,YES,0,0,0,0,0,0,0,0,0,0,0,0,0,0,0,0,0,0,0,0,0,0,0,0,0,0,0,0,0,0,0,0,0,0,0,0,0,0,0,0,0,0,0,0,0,0,1,0,1,139
hbase,0.90.1,0.92.0,F:/corpus/hbase/hbase#2011-02-18-09-37-19#0.90.1#ed25749/src/main/java/org/apache/hadoop/hbase/rest/StorageClusterStatusResource.java,F:/corpus/hbase/hbase#2012-01-24-00-49-27#0.92.0#6ba4e7c/src/main/java/org/apache/hadoop/hbase/rest/StorageClusterStatusResource.java,0,0,0,0,0,0,0,1,0,0,0,0,0,YES,0,0,0,0,0,0,0,0,0,0,0,0,0,0,0,3,0,0,0,0,0,0,0,0,0,0,0,0,0,0,0,0,0,0,0,0,0,0,0,0,0,0,0,0,0,0,3,0,11,102
hbase,0.90.1,0.92.0,F:/corpus/hbase/hbase#2011-02-18-09-37-19#0.90.1#ed25749/src/main/java/org/apache/hadoop/hbase/rest/TableResource.java,F:/corpus/hbase/hbase#2012-01-24-00-49-27#0.92.0#6ba4e7c/src/main/java/org/apache/hadoop/hbase/rest/TableResource.java,0,0,0,0,0,2,0,0,0,0,0,0,0,YES,0,0,0,0,1,0,0,0,0,0,0,0,0,0,0,0,0,0,0,0,0,0,0,0,0,0,0,0,0,0,0,0,0,0,0,0,0,0,0,0,0,0,0,0,0,0,0,0,6,280
hbase,0.90.1,0.92.0,F:/corpus/hbase/hbase#2011-02-18-09-37-19#0.90.1#ed25749/src/main/java/org/apache/hadoop/hbase/rest/client/RemoteHTable.java,F:/corpus/hbase/hbase#2012-01-24-00-49-27#0.92.0#6ba4e7c/src/main/java/org/apache/hadoop/hbase/rest/client/RemoteHTable.java,0,0,0,0,11,0,0,0,1,0,0,0,3,YES,0,0,0,0,3,0,0,0,0,0,0,0,0,0,0,0,0,0,0,0,0,0,0,0,0,0,0,0,0,0,0,0,0,0,0,0,0,0,0,0,0,0,0,0,0,0,0,0,25,621
hbase,0.90.1,0.92.0,F:/corpus/hbase/hbase#2011-02-18-09-37-19#0.90.1#ed25749/src/main/java/org/apache/hadoop/hbase/rest/filter/GZIPResponseWrapper.java,F:/corpus/hbase/hbase#2012-01-24-00-49-27#0.92.0#6ba4e7c/src/main/java/org/apache/hadoop/hbase/rest/filter/GZIPResponseWrapper.java,0,0,0,0,0,0,0,0,0,0,0,0,0,YES,0,0,0,0,0,1,1,1,0,0,0,0,0,0,0,0,0,0,0,0,0,0,0,0,0,0,0,0,0,0,0,0,0,0,0,1,0,0,0,0,0,0,8,9,0,2,1,0,15,144
hbase,0.90.1,0.92.0,F:/corpus/hbase/hbase#2011-02-18-09-37-19#0.90.1#ed25749/src/main/java/org/apache/hadoop/hbase/rest/filter/GzipFilter.java,F:/corpus/hbase/hbase#2012-01-24-00-49-27#0.92.0#6ba4e7c/src/main/java/org/apache/hadoop/hbase/rest/filter/GzipFilter.java,0,0,0,0,0,0,0,0,0,0,0,0,0,YES,0,0,0,0,0,0,0,0,0,0,0,0,0,0,0,1,0,0,0,0,0,0,0,0,0,0,0,0,0,0,0,0,0,0,0,0,0,0,0,0,0,0,0,2,0,1,1,0,24,57
hbase,0.90.1,0.92.0,F:/corpus/hbase/hbase#2011-02-18-09-37-19#0.90.1#ed25749/src/main/java/org/apache/hadoop/hbase/rest/model/ScannerModel.java,F:/corpus/hbase/hbase#2012-01-24-00-49-27#0.92.0#6ba4e7c/src/main/java/org/apache/hadoop/hbase/rest/model/ScannerModel.java,2,0,0,0,0,2,0,1,0,0,0,0,1,YES,0,0,0,0,0,11,0,1,0,0,0,0,0,0,0,0,0,0,0,0,0,0,0,0,0,0,0,0,0,0,0,0,0,0,0,0,0,0,0,0,0,0,1,92,24,1,2,0,136,628
hbase,0.90.1,0.92.0,F:/corpus/hbase/hbase#2011-02-18-09-37-19#0.90.1#ed25749/src/main/java/org/apache/hadoop/hbase/rest/protobuf/generated/CellMessage.java,F:/corpus/hbase/hbase#2012-01-24-00-49-27#0.92.0#6ba4e7c/src/main/java/org/apache/hadoop/hbase/rest/protobuf/generated/CellMessage.java,0,0,0,0,0,1,0,0,0,0,0,0,0,YES,0,0,0,1,7,8,0,0,0,0,0,0,0,0,0,10,0,0,0,0,0,0,0,0,0,0,0,0,0,0,0,0,2,0,3,5,0,0,1,0,0,0,37,79,0,0,18,0,150,465
hbase,0.90.1,0.92.0,F:/corpus/hbase/hbase#2011-02-18-09-37-19#0.90.1#ed25749/src/main/java/org/apache/hadoop/hbase/rest/protobuf/generated/CellSetMessage.java,F:/corpus/hbase/hbase#2012-01-24-00-49-27#0.92.0#6ba4e7c/src/main/java/org/apache/hadoop/hbase/rest/protobuf/generated/CellSetMessage.java,0,0,0,0,0,2,0,0,0,0,0,0,0,YES,0,0,0,2,39,12,0,28,0,0,0,0,0,0,0,10,0,0,0,0,0,0,0,1,0,0,0,0,0,0,0,0,4,0,4,3,0,0,2,0,0,0,56,183,0,33,33,0,397,780
hbase,0.90.1,0.92.0,F:/corpus/hbase/hbase#2011-02-18-09-37-19#0.90.1#ed25749/src/main/java/org/apache/hadoop/hbase/rest/protobuf/generated/ColumnSchemaMessage.java,F:/corpus/hbase/hbase#2012-01-24-00-49-27#0.92.0#6ba4e7c/src/main/java/org/apache/hadoop/hbase/rest/protobuf/generated/ColumnSchemaMessage.java,0,0,0,0,0,2,0,0,0,0,0,0,0,YES,0,0,0,2,33,16,0,22,0,4,0,0,0,0,0,20,0,0,0,0,0,0,0,2,0,0,4,0,0,0,0,0,4,0,3,8,0,0,2,0,0,0,80,255,0,17,42,0,415,899
hbase,0.90.1,0.92.0,F:/corpus/hbase/hbase#2011-02-18-09-37-19#0.90.1#ed25749/src/main/java/org/apache/hadoop/hbase/rest/protobuf/generated/ScannerMessage.java,F:/corpus/hbase/hbase#2012-01-24-00-49-27#0.92.0#6ba4e7c/src/main/java/org/apache/hadoop/hbase/rest/protobuf/generated/ScannerMessage.java,0,0,0,0,0,1,0,0,0,0,0,0,0,YES,0,0,0,1,9,12,0,3,0,1,0,0,0,0,0,17,0,0,0,0,0,0,0,1,0,0,1,0,0,0,0,0,2,0,2,8,0,0,1,0,0,0,66,163,0,5,42,0,256,662
hbase,0.90.1,0.92.0,F:/corpus/hbase/hbase#2011-02-18-09-37-19#0.90.1#ed25749/src/main/java/org/apache/hadoop/hbase/rest/protobuf/generated/StorageClusterStatusMessage.java,F:/corpus/hbase/hbase#2012-01-24-00-49-27#0.92.0#6ba4e7c/src/main/java/org/apache/hadoop/hbase/rest/protobuf/generated/StorageClusterStatusMessage.java,0,2,0,0,0,3,0,0,0,0,0,0,0,YES,0,0,0,3,50,31,0,31,1,2,0,0,0,0,0,42,0,0,0,0,0,0,0,1,0,0,4,0,0,0,0,0,6,0,6,17,0,0,3,0,0,0,156,448,0,40,100,0,802,1638
hbase,0.90.1,0.92.0,F:/corpus/hbase/hbase#2011-02-18-09-37-19#0.90.1#ed25749/src/main/java/org/apache/hadoop/hbase/rest/protobuf/generated/TableInfoMessage.java,F:/corpus/hbase/hbase#2012-01-24-00-49-27#0.92.0#6ba4e7c/src/main/java/org/apache/hadoop/hbase/rest/protobuf/generated/TableInfoMessage.java,0,0,0,0,0,2,0,0,0,0,0,0,0,YES,0,0,0,2,32,16,0,20,0,3,0,0,0,0,0,20,0,0,0,0,0,0,0,1,0,0,3,0,0,0,0,0,4,0,4,8,0,0,2,0,0,0,77,241,0,18,42,0,414,901
hbase,0.90.1,0.92.0,F:/corpus/hbase/hbase#2011-02-18-09-37-19#0.90.1#ed25749/src/main/java/org/apache/hadoop/hbase/rest/protobuf/generated/TableListMessage.java,F:/corpus/hbase/hbase#2012-01-24-00-49-27#0.92.0#6ba4e7c/src/main/java/org/apache/hadoop/hbase/rest/protobuf/generated/TableListMessage.java,0,0,0,0,0,1,0,0,0,0,0,0,0,YES,0,0,0,1,8,5,0,1,0,0,0,0,0,0,0,3,0,0,0,0,0,0,0,1,0,0,3,0,0,0,0,0,2,0,2,2,0,0,1,0,0,0,25,45,0,4,12,0,111,377
hbase,0.90.1,0.92.0,F:/corpus/hbase/hbase#2011-02-18-09-37-19#0.90.1#ed25749/src/main/java/org/apache/hadoop/hbase/rest/protobuf/generated/TableSchemaMessage.java,F:/corpus/hbase/hbase#2012-01-24-00-49-27#0.92.0#6ba4e7c/src/main/java/org/apache/hadoop/hbase/rest/protobuf/generated/TableSchemaMessage.java,0,0,0,0,0,2,0,0,0,0,0,0,0,YES,0,0,0,2,44,17,0,34,0,3,0,0,0,0,0,21,0,0,0,0,0,0,0,2,0,0,3,0,0,0,0,0,4,0,3,7,0,0,2,0,0,0,84,295,0,35,51,0,516,949
hbase,0.90.1,0.92.0,F:/corpus/hbase/hbase#2011-02-18-09-37-19#0.90.1#ed25749/src/main/java/org/apache/hadoop/hbase/rest/protobuf/generated/VersionMessage.java,F:/corpus/hbase/hbase#2012-01-24-00-49-27#0.92.0#6ba4e7c/src/main/java/org/apache/hadoop/hbase/rest/protobuf/generated/VersionMessage.java,0,0,0,0,0,1,0,0,0,0,0,0,0,YES,0,0,0,1,16,9,0,10,0,5,0,0,0,0,0,12,0,0,0,0,0,0,0,1,0,0,5,0,0,0,0,0,2,0,2,6,0,0,1,0,0,0,49,159,0,0,23,0,206,511
hbase,0.90.1,0.92.0,F:/corpus/hbase/hbase#2011-02-18-09-37-19#0.90.1#ed25749/src/main/java/org/apache/hadoop/hbase/security/User.java,F:/corpus/hbase/hbase#2012-01-24-00-49-27#0.92.0#6ba4e7c/src/main/java/org/apache/hadoop/hbase/security/User.java,0,0,0,0,1,0,0,0,0,0,0,0,0,YES,0,0,0,0,16,2,1,1,0,0,0,0,1,0,0,0,0,0,3,1,0,0,0,0,0,0,0,0,0,0,0,0,0,0,0,0,0,0,0,0,0,0,20,71,0,10,2,0,240,279
hbase,0.90.1,0.92.0,F:/corpus/hbase/hbase#2011-02-18-09-37-19#0.90.1#ed25749/src/main/java/org/apache/hadoop/hbase/thrift/ThriftServer.java,F:/corpus/hbase/hbase#2012-01-24-00-49-27#0.92.0#6ba4e7c/src/main/java/org/apache/hadoop/hbase/thrift/ThriftServer.java,0,0,0,0,0,1,0,0,2,1,0,0,0,YES,0,0,0,0,12,0,4,5,0,0,0,0,1,0,0,7,3,0,0,0,0,0,9,10,6,0,56,0,0,0,0,0,0,0,6,0,0,0,0,2,0,0,43,67,0,1,35,0,181,883
hbase,0.90.1,0.92.0,F:/corpus/hbase/hbase#2011-02-18-09-37-19#0.90.1#ed25749/src/main/java/org/apache/hadoop/hbase/thrift/ThriftUtilities.java,F:/corpus/hbase/hbase#2012-01-24-00-49-27#0.92.0#6ba4e7c/src/main/java/org/apache/hadoop/hbase/thrift/ThriftUtilities.java,0,0,0,0,0,0,0,0,2,0,0,0,0,YES,0,0,0,0,0,0,0,0,0,0,0,0,0,0,0,2,0,0,0,0,0,0,0,0,0,0,0,0,0,0,0,0,0,0,0,0,0,0,0,0,0,0,0,0,0,0,7,0,12,150
hbase,0.90.1,0.92.0,F:/corpus/hbase/hbase#2011-02-18-09-37-19#0.90.1#ed25749/src/main/java/org/apache/hadoop/hbase/thrift/generated/AlreadyExists.java,F:/corpus/hbase/hbase#2012-01-24-00-49-27#0.92.0#6ba4e7c/src/main/java/org/apache/hadoop/hbase/thrift/generated/AlreadyExists.java,0,0,0,0,0,1,0,0,0,0,0,0,0,YES,0,0,0,0,6,3,0,0,0,0,0,0,0,0,0,0,0,0,0,1,0,0,0,0,0,0,0,0,0,2,0,2,1,0,6,3,0,0,0,0,0,0,6,4,0,2,2,0,104,321
hbase,0.90.1,0.92.0,F:/corpus/hbase/hbase#2011-02-18-09-37-19#0.90.1#ed25749/src/main/java/org/apache/hadoop/hbase/thrift/generated/BatchMutation.java,F:/corpus/hbase/hbase#2012-01-24-00-49-27#0.92.0#6ba4e7c/src/main/java/org/apache/hadoop/hbase/thrift/generated/BatchMutation.java,0,0,0,0,0,1,0,0,0,0,0,0,0,YES,0,0,0,0,8,4,0,0,0,1,0,0,0,0,0,1,0,0,0,1,0,0,0,0,0,0,1,0,0,2,0,2,1,0,6,4,0,0,0,0,0,0,12,8,0,4,5,0,144,458
hbase,0.90.1,0.92.0,F:/corpus/hbase/hbase#2011-02-18-09-37-19#0.90.1#ed25749/src/main/java/org/apache/hadoop/hbase/thrift/generated/ColumnDescriptor.java,F:/corpus/hbase/hbase#2012-01-24-00-49-27#0.92.0#6ba4e7c/src/main/java/org/apache/hadoop/hbase/thrift/generated/ColumnDescriptor.java,0,0,0,0,0,0,0,0,0,0,1,0,0,YES,0,0,0,0,8,11,0,0,0,1,0,0,0,0,0,1,0,0,0,1,0,0,0,0,0,0,1,0,0,2,0,2,1,0,6,11,0,0,0,0,0,0,40,15,0,18,25,0,302,1028
hbase,0.90.1,0.92.0,F:/corpus/hbase/hbase#2011-02-18-09-37-19#0.90.1#ed25749/src/main/java/org/apache/hadoop/hbase/thrift/generated/IOError.java,F:/corpus/hbase/hbase#2012-01-24-00-49-27#0.92.0#6ba4e7c/src/main/java/org/apache/hadoop/hbase/thrift/generated/IOError.java,0,0,0,0,0,1,0,0,0,0,0,0,0,YES,0,0,0,0,6,3,0,0,0,0,0,0,0,0,0,0,0,0,0,1,0,0,0,0,0,0,0,0,0,2,0,2,1,0,6,3,0,0,0,0,0,0,6,4,0,2,2,0,103,333
hbase,0.90.1,0.92.0,F:/corpus/hbase/hbase#2011-02-18-09-37-19#0.90.1#ed25749/src/main/java/org/apache/hadoop/hbase/thrift/generated/IllegalArgument.java,F:/corpus/hbase/hbase#2012-01-24-00-49-27#0.92.0#6ba4e7c/src/main/java/org/apache/hadoop/hbase/thrift/generated/IllegalArgument.java,0,0,0,0,0,1,0,0,0,0,0,0,0,YES,0,0,0,0,6,3,0,0,0,0,0,0,0,0,0,0,0,0,0,1,0,0,0,0,0,0,0,0,0,2,0,2,1,0,6,3,0,0,0,0,0,0,6,4,0,2,2,0,103,332
hbase,0.90.1,0.92.0,F:/corpus/hbase/hbase#2011-02-18-09-37-19#0.90.1#ed25749/src/main/java/org/apache/hadoop/hbase/thrift/generated/Mutation.java,F:/corpus/hbase/hbase#2012-01-24-00-49-27#0.92.0#6ba4e7c/src/main/java/org/apache/hadoop/hbase/thrift/generated/Mutation.java,0,0,0,0,0,1,0,0,0,0,0,0,0,YES,0,0,0,0,10,5,0,0,0,2,0,0,0,0,0,2,0,0,0,1,0,0,0,0,1,0,2,0,0,2,0,2,1,0,6,5,0,0,0,0,0,0,18,12,0,6,9,0,169,508
hbase,0.90.1,0.92.0,F:/corpus/hbase/hbase#2011-02-18-09-37-19#0.90.1#ed25749/src/main/java/org/apache/hadoop/hbase/thrift/generated/TCell.java,F:/corpus/hbase/hbase#2012-01-24-00-49-27#0.92.0#6ba4e7c/src/main/java/org/apache/hadoop/hbase/thrift/generated/TCell.java,0,0,0,0,0,1,0,0,0,0,0,0,0,YES,0,0,0,0,8,4,0,0,0,1,0,0,0,0,0,1,0,0,0,1,0,0,0,0,0,0,1,0,0,2,0,2,1,0,6,4,0,0,0,0,0,0,12,8,0,4,6,0,138,420
hbase,0.90.1,0.92.0,F:/corpus/hbase/hbase#2011-02-18-09-37-19#0.90.1#ed25749/src/main/java/org/apache/hadoop/hbase/thrift/generated/TRegionInfo.java,F:/corpus/hbase/hbase#2012-01-24-00-49-27#0.92.0#6ba4e7c/src/main/java/org/apache/hadoop/hbase/thrift/generated/TRegionInfo.java,0,0,0,0,0,0,0,0,0,0,0,0,0,YES,0,0,0,0,12,7,0,0,0,3,0,0,0,0,0,3,0,0,0,1,0,0,0,0,0,0,3,0,0,2,0,2,1,0,6,7,0,0,0,0,0,0,28,17,0,10,15,0,224,678
hbase,0.90.1,0.92.0,F:/corpus/hbase/hbase#2011-02-18-09-37-19#0.90.1#ed25749/src/main/java/org/apache/hadoop/hbase/thrift/generated/TRowResult.java,F:/corpus/hbase/hbase#2012-01-24-00-49-27#0.92.0#6ba4e7c/src/main/java/org/apache/hadoop/hbase/thrift/generated/TRowResult.java,0,0,0,0,0,0,0,0,0,0,0,0,0,YES,0,0,0,0,9,4,0,0,0,2,0,0,0,0,0,2,0,0,0,1,0,0,0,0,0,0,4,0,0,2,0,1,1,0,6,4,0,0,0,1,0,0,12,6,0,0,6,0,149,439
hbase,0.90.1,0.92.0,F:/corpus/hbase/hbase#2011-02-18-09-37-19#0.90.1#ed25749/src/main/java/org/apache/hadoop/hbase/util/BloomFilter.java,F:/corpus/hbase/hbase#2012-01-24-00-49-27#0.92.0#6ba4e7c/src/main/java/org/apache/hadoop/hbase/util/BloomFilter.java,0,0,0,0,0,0,0,0,0,0,0,0,0,YES,0,0,0,0,1,0,0,0,0,0,0,0,0,0,0,0,0,0,0,1,0,0,0,0,0,0,0,0,0,0,0,0,1,0,10,0,0,0,0,0,0,0,0,0,0,0,0,0,79,121
hbase,0.90.1,0.92.0,F:/corpus/hbase/hbase#2011-02-18-09-37-19#0.90.1#ed25749/src/main/java/org/apache/hadoop/hbase/util/ByteBloomFilter.java,F:/corpus/hbase/hbase#2012-01-24-00-49-27#0.92.0#6ba4e7c/src/main/java/org/apache/hadoop/hbase/util/ByteBloomFilter.java,0,0,0,0,2,0,0,0,0,0,0,0,0,YES,1,0,0,0,20,3,0,0,0,0,0,2,1,0,0,2,2,0,1,3,0,0,3,0,0,1,1,0,0,0,0,0,1,0,1,0,0,0,0,3,0,0,24,4,1,0,10,0,234,390
hbase,0.90.1,0.92.0,F:/corpus/hbase/hbase#2011-02-18-09-37-19#0.90.1#ed25749/src/main/java/org/apache/hadoop/hbase/util/Bytes.java,F:/corpus/hbase/hbase#2012-01-24-00-49-27#0.92.0#6ba4e7c/src/main/java/org/apache/hadoop/hbase/util/Bytes.java,0,1,0,0,0,0,0,0,0,0,0,15,0,YES,0,0,0,2,10,0,0,0,0,0,0,1,1,0,0,1,0,0,0,2,0,0,0,0,0,0,0,0,0,0,0,0,0,0,0,0,0,0,0,0,0,0,13,12,0,0,3,0,169,1258
hbase,0.90.1,0.92.0,F:/corpus/hbase/hbase#2011-02-18-09-37-19#0.90.1#ed25749/src/main/java/org/apache/hadoop/hbase/util/ClassSize.java,F:/corpus/hbase/hbase#2012-01-24-00-49-27#0.92.0#6ba4e7c/src/main/java/org/apache/hadoop/hbase/util/ClassSize.java,1,0,0,0,0,0,0,0,1,0,0,1,0,YES,0,0,0,0,0,0,0,0,0,0,0,0,0,0,0,1,0,0,0,0,0,0,0,0,0,0,0,0,0,0,0,0,0,0,0,0,0,0,0,0,0,0,1,4,0,3,3,0,39,296
hbase,0.90.1,0.92.0,F:/corpus/hbase/hbase#2011-02-18-09-37-19#0.90.1#ed25749/src/main/java/org/apache/hadoop/hbase/util/CompressionTest.java,F:/corpus/hbase/hbase#2012-01-24-00-49-27#0.92.0#6ba4e7c/src/main/java/org/apache/hadoop/hbase/util/CompressionTest.java,0,0,0,0,0,0,0,0,0,0,0,0,0,YES,0,0,0,0,1,0,0,0,0,0,0,0,0,0,0,0,0,0,0,0,0,0,0,0,0,0,0,0,0,0,0,0,0,0,2,0,0,0,0,0,0,0,17,6,0,2,2,0,51,146
hbase,0.90.1,0.92.0,F:/corpus/hbase/hbase#2011-02-18-09-37-19#0.90.1#ed25749/src/main/java/org/apache/hadoop/hbase/util/FSUtils.java,F:/corpus/hbase/hbase#2012-01-24-00-49-27#0.92.0#6ba4e7c/src/main/java/org/apache/hadoop/hbase/util/FSUtils.java,0,0,0,0,0,3,0,0,0,0,0,2,0,YES,0,0,0,0,14,0,4,1,0,0,0,10,1,0,0,0,0,1,1,2,1,0,0,1,0,0,0,0,0,0,0,0,0,0,0,0,0,0,0,0,0,0,47,21,0,7,4,1,185,667
hbase,0.90.1,0.92.0,F:/corpus/hbase/hbase#2011-02-18-09-37-19#0.90.1#ed25749/src/main/java/org/apache/hadoop/hbase/util/HBaseFsck.java,F:/corpus/hbase/hbase#2012-01-24-00-49-27#0.92.0#6ba4e7c/src/main/java/org/apache/hadoop/hbase/util/HBaseFsck.java,0,0,0,0,2,3,0,0,0,1,0,0,0,YES,0,0,0,3,38,12,1,2,0,3,0,12,3,1,2,17,0,0,0,2,8,0,1,0,0,0,2,0,0,0,0,0,1,0,3,1,0,0,0,0,0,0,50,46,0,13,36,0,676,1009
hbase,0.90.1,0.92.0,F:/corpus/hbase/hbase#2011-02-18-09-37-19#0.90.1#ed25749/src/main/java/org/apache/hadoop/hbase/util/HBaseFsckRepair.java,F:/corpus/hbase/hbase#2012-01-24-00-49-27#0.92.0#6ba4e7c/src/main/java/org/apache/hadoop/hbase/util/HBaseFsckRepair.java,0,0,0,0,0,1,0,0,0,0,0,0,0,YES,0,0,0,0,0,0,0,0,0,0,0,0,0,0,0,1,0,0,0,2,0,0,3,3,0,0,2,0,0,0,0,0,0,0,0,0,0,0,0,0,0,0,1,10,0,6,4,0,36,108
hbase,0.90.1,0.92.0,F:/corpus/hbase/hbase#2011-02-18-09-37-19#0.90.1#ed25749/src/main/java/org/apache/hadoop/hbase/util/HMerge.java,F:/corpus/hbase/hbase#2012-01-24-00-49-27#0.92.0#6ba4e7c/src/main/java/org/apache/hadoop/hbase/util/HMerge.java,0,0,0,0,0,0,3,0,1,0,0,0,0,YES,0,0,0,0,0,1,0,0,0,0,0,0,0,0,0,1,0,0,0,0,0,0,0,0,0,0,0,0,0,0,0,0,0,0,0,0,0,0,0,0,0,0,5,6,0,1,9,0,37,429
hbase,0.90.1,0.92.0,F:/corpus/hbase/hbase#2011-02-18-09-37-19#0.90.1#ed25749/src/main/java/org/apache/hadoop/hbase/util/Hash.java,F:/corpus/hbase/hbase#2012-01-24-00-49-27#0.92.0#6ba4e7c/src/main/java/org/apache/hadoop/hbase/util/Hash.java,0,0,0,0,0,0,0,0,0,0,0,0,0,YES,0,0,0,0,0,0,0,0,0,0,0,0,0,0,0,0,0,0,0,0,0,0,0,0,0,0,0,0,0,0,0,0,0,0,0,0,0,0,0,0,0,0,0,0,0,0,0,0,2,134
hbase,0.90.1,0.92.0,F:/corpus/hbase/hbase#2011-02-18-09-37-19#0.90.1#ed25749/src/main/java/org/apache/hadoop/hbase/util/InfoServer.java,F:/corpus/hbase/hbase#2012-01-24-00-49-27#0.92.0#6ba4e7c/src/main/java/org/apache/hadoop/hbase/util/InfoServer.java,0,0,0,0,0,2,0,0,0,0,0,0,0,YES,0,0,0,0,1,1,0,0,0,0,0,0,1,0,1,0,0,0,1,0,1,0,1,2,0,0,0,0,0,0,0,0,0,0,2,0,0,0,0,0,0,0,3,7,0,0,3,1,62,123
hbase,0.90.1,0.92.0,F:/corpus/hbase/hbase#2011-02-18-09-37-19#0.90.1#ed25749/src/main/java/org/apache/hadoop/hbase/util/JVMClusterUtil.java,F:/corpus/hbase/hbase#2012-01-24-00-49-27#0.92.0#6ba4e7c/src/main/java/org/apache/hadoop/hbase/util/JVMClusterUtil.java,0,0,0,0,0,2,0,0,0,0,0,1,0,YES,0,0,0,0,0,0,0,0,0,0,0,0,0,0,0,1,0,0,0,0,0,0,0,0,0,0,0,0,0,0,0,0,0,0,0,0,0,0,0,0,0,0,2,5,1,0,3,0,11,249
hbase,0.90.1,0.92.0,F:/corpus/hbase/hbase#2011-02-18-09-37-19#0.90.1#ed25749/src/main/java/org/apache/hadoop/hbase/util/JenkinsHash.java,F:/corpus/hbase/hbase#2012-01-24-00-49-27#0.92.0#6ba4e7c/src/main/java/org/apache/hadoop/hbase/util/JenkinsHash.java,0,0,0,0,0,0,0,0,0,1,0,0,0,YES,0,0,0,0,0,1,0,0,0,0,0,2,0,1,0,0,0,0,0,0,0,0,0,0,0,0,0,0,0,0,0,0,0,0,1,2,0,0,0,0,0,0,24,24,0,2,31,0,53,263
hbase,0.90.1,0.92.0,F:/corpus/hbase/hbase#2011-02-18-09-37-19#0.90.1#ed25749/src/main/java/org/apache/hadoop/hbase/util/Merge.java,F:/corpus/hbase/hbase#2012-01-24-00-49-27#0.92.0#6ba4e7c/src/main/java/org/apache/hadoop/hbase/util/Merge.java,0,0,0,0,0,0,0,1,0,0,0,0,0,YES,0,0,0,0,0,0,0,0,0,0,0,0,0,0,0,0,0,0,0,0,0,0,0,1,0,0,0,0,0,0,0,0,0,0,0,0,0,0,0,0,0,0,0,1,0,0,13,0,22,386
hbase,0.90.1,0.92.0,F:/corpus/hbase/hbase#2011-02-18-09-37-19#0.90.1#ed25749/src/main/java/org/apache/hadoop/hbase/util/MetaUtils.java,F:/corpus/hbase/hbase#2012-01-24-00-49-27#0.92.0#6ba4e7c/src/main/java/org/apache/hadoop/hbase/util/MetaUtils.java,0,0,0,0,1,0,0,2,1,0,0,0,0,YES,0,0,0,0,0,0,0,0,0,0,0,1,0,0,0,0,0,0,0,0,0,0,0,0,0,0,0,0,0,0,0,0,0,0,2,1,0,0,0,0,0,0,1,0,0,0,4,0,100,478
hbase,0.90.1,0.92.0,F:/corpus/hbase/hbase#2011-02-18-09-37-19#0.90.1#ed25749/src/main/java/org/apache/hadoop/hbase/util/Pair.java,F:/corpus/hbase/hbase#2012-01-24-00-49-27#0.92.0#6ba4e7c/src/main/java/org/apache/hadoop/hbase/util/Pair.java,0,0,0,0,0,0,0,0,0,0,0,2,0,YES,0,0,0,0,1,0,0,0,0,0,0,0,0,0,0,0,0,0,0,0,0,0,0,0,0,0,0,0,0,0,0,0,0,0,0,0,0,0,0,0,0,0,0,0,0,0,0,0,1,119
hbase,0.90.1,0.92.0,F:/corpus/hbase/hbase#2011-02-18-09-37-19#0.90.1#ed25749/src/main/java/org/apache/hadoop/hbase/util/Sleeper.java,F:/corpus/hbase/hbase#2012-01-24-00-49-27#0.92.0#6ba4e7c/src/main/java/org/apache/hadoop/hbase/util/Sleeper.java,0,0,0,0,0,0,0,0,0,0,0,0,0,YES,0,0,0,0,0,0,0,0,0,0,0,0,0,0,0,0,0,0,0,0,0,0,0,0,0,0,0,0,0,0,0,0,0,0,0,0,0,0,0,0,0,0,0,0,0,0,1,0,2,114
hbase,0.90.1,0.92.0,F:/corpus/hbase/hbase#2011-02-18-09-37-19#0.90.1#ed25749/src/main/java/org/apache/hadoop/hbase/util/SoftValueSortedMap.java,F:/corpus/hbase/hbase#2012-01-24-00-49-27#0.92.0#6ba4e7c/src/main/java/org/apache/hadoop/hbase/util/SoftValueSortedMap.java,0,0,1,0,2,0,0,0,0,0,0,0,0,YES,0,0,0,0,5,1,0,0,0,1,0,1,2,0,0,2,0,0,0,1,0,0,0,0,0,0,1,0,0,2,0,0,1,0,1,0,0,0,0,0,0,0,5,22,0,35,5,17,104,196
hbase,0.90.1,0.92.0,F:/corpus/hbase/hbase#2011-02-18-09-37-19#0.90.1#ed25749/src/main/java/org/apache/hadoop/hbase/util/Strings.java,F:/corpus/hbase/hbase#2012-01-24-00-49-27#0.92.0#6ba4e7c/src/main/java/org/apache/hadoop/hbase/util/Strings.java,0,0,0,0,0,0,0,0,0,0,0,0,0,YES,0,0,0,0,1,0,0,0,0,0,0,0,0,0,0,0,0,0,0,0,0,0,0,0,0,0,0,0,0,0,0,0,0,0,0,0,0,0,0,0,0,0,0,0,0,0,0,0,14,61
hbase,0.90.1,0.92.0,F:/corpus/hbase/hbase#2011-02-18-09-37-19#0.90.1#ed25749/src/main/java/org/apache/hadoop/hbase/util/Threads.java,F:/corpus/hbase/hbase#2012-01-24-00-49-27#0.92.0#6ba4e7c/src/main/java/org/apache/hadoop/hbase/util/Threads.java,0,0,0,0,0,0,0,0,0,0,0,1,0,YES,0,0,0,0,0,0,0,0,0,0,0,0,0,0,0,0,0,0,0,0,0,0,0,0,0,0,0,0,0,0,0,0,0,0,0,0,0,0,0,0,0,0,5,3,0,1,0,0,4,131
hbase,0.90.1,0.92.0,F:/corpus/hbase/hbase#2011-02-18-09-37-19#0.90.1#ed25749/src/main/java/org/apache/hadoop/hbase/util/VersionInfo.java,F:/corpus/hbase/hbase#2012-01-24-00-49-27#0.92.0#6ba4e7c/src/main/java/org/apache/hadoop/hbase/util/VersionInfo.java,0,0,0,0,1,0,0,0,0,0,0,0,0,YES,0,0,0,0,3,1,0,0,0,0,0,0,0,0,0,0,0,0,0,0,0,0,0,0,0,0,0,0,0,0,0,0,0,0,0,0,0,0,0,0,0,0,3,1,0,0,0,0,29,91
hbase,0.90.1,0.92.0,F:/corpus/hbase/hbase#2011-02-18-09-37-19#0.90.1#ed25749/src/main/java/org/apache/hadoop/hbase/util/Writables.java,F:/corpus/hbase/hbase#2012-01-24-00-49-27#0.92.0#6ba4e7c/src/main/java/org/apache/hadoop/hbase/util/Writables.java,0,0,0,0,0,0,0,0,0,0,0,4,0,YES,0,0,0,0,2,0,0,0,0,0,0,0,0,0,0,0,0,0,0,0,0,0,0,0,0,0,0,0,0,0,0,0,0,0,0,0,0,0,0,0,0,0,0,0,0,0,0,0,56,163
hbase,0.90.1,0.92.0,F:/corpus/hbase/hbase#2011-02-18-09-37-19#0.90.1#ed25749/src/main/java/org/apache/hadoop/hbase/zookeeper/ClusterStatusTracker.java,F:/corpus/hbase/hbase#2012-01-24-00-49-27#0.92.0#6ba4e7c/src/main/java/org/apache/hadoop/hbase/zookeeper/ClusterStatusTracker.java,0,0,0,0,0,0,0,0,0,0,0,0,0,YES,0,0,0,0,0,0,0,0,0,0,0,0,0,0,0,0,0,0,0,0,0,0,0,0,0,0,0,0,0,0,0,0,0,0,0,0,0,0,0,0,0,0,0,0,0,0,1,0,2,86
hbase,0.90.1,0.92.0,F:/corpus/hbase/hbase#2011-02-18-09-37-19#0.90.1#ed25749/src/main/java/org/apache/hadoop/hbase/zookeeper/MetaNodeTracker.java,F:/corpus/hbase/hbase#2012-01-24-00-49-27#0.92.0#6ba4e7c/src/main/java/org/apache/hadoop/hbase/zookeeper/MetaNodeTracker.java,0,0,0,0,0,0,0,0,0,0,0,0,0,YES,0,0,0,0,0,0,0,0,0,0,0,0,0,0,0,0,0,0,0,1,0,0,1,0,0,0,0,0,0,0,0,0,0,0,0,2,0,0,0,0,0,0,8,0,0,0,0,0,24,70
hbase,0.90.1,0.92.0,F:/corpus/hbase/hbase#2011-02-18-09-37-19#0.90.1#ed25749/src/main/java/org/apache/hadoop/hbase/zookeeper/MiniZooKeeperCluster.java,F:/corpus/hbase/hbase#2012-01-24-00-49-27#0.92.0#6ba4e7c/src/main/java/org/apache/hadoop/hbase/zookeeper/MiniZooKeeperCluster.java,0,0,0,0,0,0,0,0,0,0,0,1,0,YES,0,0,0,0,6,5,1,0,1,1,0,1,2,0,0,0,0,2,0,0,0,2,0,0,0,0,0,0,0,0,0,0,0,0,0,0,0,0,0,0,0,0,25,12,0,2,2,0,106,225
hbase,0.90.1,0.92.0,F:/corpus/hbase/hbase#2011-02-18-09-37-19#0.90.1#ed25749/src/main/java/org/apache/hadoop/hbase/zookeeper/RegionServerTracker.java,F:/corpus/hbase/hbase#2012-01-24-00-49-27#0.92.0#6ba4e7c/src/main/java/org/apache/hadoop/hbase/zookeeper/RegionServerTracker.java,0,0,0,0,0,0,0,0,0,0,0,0,0,YES,0,0,0,0,2,1,0,0,0,0,0,0,0,0,0,0,0,0,0,3,0,0,0,0,0,0,0,0,0,0,0,0,0,0,0,0,0,0,0,1,0,0,6,12,0,1,2,0,23,101
hbase,0.90.1,0.92.0,F:/corpus/hbase/hbase#2011-02-18-09-37-19#0.90.1#ed25749/src/main/java/org/apache/hadoop/hbase/zookeeper/RootRegionTracker.java,F:/corpus/hbase/hbase#2012-01-24-00-49-27#0.92.0#6ba4e7c/src/main/java/org/apache/hadoop/hbase/zookeeper/RootRegionTracker.java,0,0,0,0,0,0,0,0,0,0,0,0,0,YES,0,0,0,0,0,0,0,0,0,0,0,0,3,0,0,0,0,0,0,2,0,1,0,0,0,0,0,0,0,0,0,0,0,0,0,0,0,0,0,3,0,0,1,13,0,0,3,0,16,84
hbase,0.90.1,0.92.0,F:/corpus/hbase/hbase#2011-02-18-09-37-19#0.90.1#ed25749/src/main/java/org/apache/hadoop/hbase/zookeeper/ZKAssign.java,F:/corpus/hbase/hbase#2012-01-24-00-49-27#0.92.0#6ba4e7c/src/main/java/org/apache/hadoop/hbase/zookeeper/ZKAssign.java,0,0,0,0,0,0,0,0,0,0,0,0,0,YES,0,0,0,0,5,0,2,0,0,0,0,7,0,0,0,0,0,0,0,3,1,0,0,0,0,0,12,0,0,0,0,0,0,0,0,0,0,0,0,1,0,0,72,3,0,8,3,0,184,868
hbase,0.90.1,0.92.0,F:/corpus/hbase/hbase#2011-02-18-09-37-19#0.90.1#ed25749/src/main/java/org/apache/hadoop/hbase/zookeeper/ZKConfig.java,F:/corpus/hbase/hbase#2012-01-24-00-49-27#0.92.0#6ba4e7c/src/main/java/org/apache/hadoop/hbase/zookeeper/ZKConfig.java,0,0,0,0,0,0,0,0,0,0,0,2,0,YES,0,0,0,0,0,0,0,0,0,0,0,0,0,0,0,0,0,0,0,0,0,0,0,0,0,0,0,0,0,0,0,0,0,0,0,0,0,0,0,0,0,0,0,0,0,0,0,0,2,252
hbase,0.90.1,0.92.0,F:/corpus/hbase/hbase#2011-02-18-09-37-19#0.90.1#ed25749/src/main/java/org/apache/hadoop/hbase/zookeeper/ZKTable.java,F:/corpus/hbase/hbase#2012-01-24-00-49-27#0.92.0#6ba4e7c/src/main/java/org/apache/hadoop/hbase/zookeeper/ZKTable.java,0,0,0,0,0,0,0,0,0,0,0,1,0,YES,0,0,0,0,3,0,0,0,0,0,0,0,0,0,0,0,0,0,0,1,0,0,0,0,0,0,0,0,0,0,0,0,0,0,0,0,0,0,0,0,0,0,0,2,0,0,1,0,60,351
hbase,0.90.1,0.92.0,F:/corpus/hbase/hbase#2011-02-18-09-37-19#0.90.1#ed25749/src/main/java/org/apache/hadoop/hbase/zookeeper/ZKUtil.java,F:/corpus/hbase/hbase#2012-01-24-00-49-27#0.92.0#6ba4e7c/src/main/java/org/apache/hadoop/hbase/zookeeper/ZKUtil.java,0,1,0,0,0,4,0,0,0,0,0,4,0,YES,0,0,0,0,4,1,0,2,0,0,0,0,2,0,0,2,1,1,0,3,0,3,1,1,0,1,0,0,0,0,0,0,0,0,3,0,0,0,0,3,0,0,30,44,1,8,27,0,256,1115
hbase,0.90.1,0.92.0,F:/corpus/hbase/hbase#2011-02-18-09-37-19#0.90.1#ed25749/src/main/java/org/apache/hadoop/hbase/zookeeper/ZooKeeperListener.java,F:/corpus/hbase/hbase#2012-01-24-00-49-27#0.92.0#6ba4e7c/src/main/java/org/apache/hadoop/hbase/zookeeper/ZooKeeperListener.java,0,0,0,0,0,0,0,0,0,0,0,0,0,YES,0,0,0,0,0,0,0,0,0,0,0,0,0,0,0,0,0,0,0,0,0,0,0,0,0,0,0,0,0,0,0,0,0,0,0,0,0,0,0,0,0,0,0,0,0,0,0,0,2,78
hbase,0.90.1,0.92.0,F:/corpus/hbase/hbase#2011-02-18-09-37-19#0.90.1#ed25749/src/main/java/org/apache/hadoop/hbase/zookeeper/ZooKeeperNodeTracker.java,F:/corpus/hbase/hbase#2012-01-24-00-49-27#0.92.0#6ba4e7c/src/main/java/org/apache/hadoop/hbase/zookeeper/ZooKeeperNodeTracker.java,0,0,0,0,0,0,0,0,0,0,0,1,0,YES,0,0,0,0,1,1,0,0,0,0,0,0,0,0,0,0,0,0,0,2,0,0,0,2,0,0,0,0,0,0,0,0,0,0,0,0,0,0,0,0,0,0,0,11,0,0,3,0,39,182
hbase,0.90.1,0.92.0,F:/corpus/hbase/hbase#2011-02-18-09-37-19#0.90.1#ed25749/src/main/java/org/apache/hadoop/hbase/zookeeper/ZooKeeperWatcher.java,F:/corpus/hbase/hbase#2012-01-24-00-49-27#0.92.0#6ba4e7c/src/main/java/org/apache/hadoop/hbase/zookeeper/ZooKeeperWatcher.java,0,0,0,0,0,0,0,0,0,0,0,3,1,YES,0,0,0,0,4,6,0,0,0,0,0,4,3,0,2,3,0,0,0,1,0,1,0,0,0,0,0,0,0,0,0,0,0,0,1,1,0,0,0,1,0,0,33,15,2,0,3,0,118,410
hbase,0.90.1,0.92.0,F:/corpus/hbase/hbase#2011-02-18-09-37-19#0.90.1#ed25749/src/main/java/org/apache/hadoop/hbase/client/MultiPutResponse.java,F:/corpus/hbase/hbase#2011-02-18-09-37-19#0.90.1#ed25749/src/main/java/org/apache/hadoop/hbase/client/MultiPutResponse.java,0,0,1,0,0,0,0,0,0,0,0,0,0,NO,0,0,0,0,0,0,0,0,0,0,0,0,0,0,0,0,0,0,0,0,0,0,0,0,0,0,0,0,0,0,0,0,0,0,0,0,0,0,0,0,0,0,0,0,0,0,0,0,0,73
hbase,0.90.1,0.92.0,F:/corpus/hbase/hbase#2011-02-18-09-37-19#0.90.1#ed25749/src/main/java/org/apache/hadoop/hbase/client/NoServerForRegionException.java,F:/corpus/hbase/hbase#2011-02-18-09-37-19#0.90.1#ed25749/src/main/java/org/apache/hadoop/hbase/client/NoServerForRegionException.java,0,0,0,0,0,0,0,0,0,0,0,0,0,NO,0,0,0,0,0,0,0,0,0,0,0,0,0,0,0,0,0,0,0,0,0,0,0,0,0,0,0,0,0,0,0,0,0,0,0,0,0,0,0,0,0,0,0,0,0,0,0,0,0,42
hbase,0.90.1,0.92.0,F:/corpus/hbase/hbase#2011-02-18-09-37-19#0.90.1#ed25749/src/main/java/org/apache/hadoop/hbase/client/package-info.java,F:/corpus/hbase/hbase#2011-02-18-09-37-19#0.90.1#ed25749/src/main/java/org/apache/hadoop/hbase/client/package-info.java,0,0,0,0,0,0,0,0,0,0,0,0,0,NO,0,0,0,0,0,0,0,0,0,0,0,0,0,0,0,0,0,0,0,0,0,0,0,0,0,0,0,0,0,0,0,0,0,0,0,0,0,0,0,0,0,0,0,0,0,0,0,0,0,186
hbase,0.90.1,0.92.0,F:/corpus/hbase/hbase#2011-02-18-09-37-19#0.90.1#ed25749/src/main/java/org/apache/hadoop/hbase/client/RegionOfflineException.java,F:/corpus/hbase/hbase#2011-02-18-09-37-19#0.90.1#ed25749/src/main/java/org/apache/hadoop/hbase/client/RegionOfflineException.java,0,0,0,0,0,0,0,0,0,0,0,0,0,NO,0,0,0,0,0,0,0,0,0,0,0,0,0,0,0,0,0,0,0,0,0,0,0,0,0,0,0,0,0,0,0,0,0,0,0,0,0,0,0,0,0,0,0,0,0,0,0,0,0,36
hbase,0.90.1,0.92.0,F:/corpus/hbase/hbase#2011-02-18-09-37-19#0.90.1#ed25749/src/main/java/org/apache/hadoop/hbase/client/ResultScanner.java,F:/corpus/hbase/hbase#2011-02-18-09-37-19#0.90.1#ed25749/src/main/java/org/apache/hadoop/hbase/client/ResultScanner.java,0,0,0,0,0,0,0,0,0,0,0,0,0,NO,0,0,0,0,0,0,0,0,0,0,0,0,0,0,0,0,0,0,0,0,0,0,0,0,0,0,0,0,0,0,0,0,0,0,0,0,0,0,0,0,0,0,0,0,0,0,0,0,0,50
hbase,0.90.1,0.92.0,F:/corpus/hbase/hbase#2011-02-18-09-37-19#0.90.1#ed25749/src/main/java/org/apache/hadoop/hbase/client/Row.java,F:/corpus/hbase/hbase#2011-02-18-09-37-19#0.90.1#ed25749/src/main/java/org/apache/hadoop/hbase/client/Row.java,0,0,0,0,0,0,0,0,0,0,0,0,0,NO,0,0,0,0,0,0,0,0,0,0,0,0,0,0,0,0,0,0,0,0,0,0,0,0,0,0,0,0,0,0,0,0,0,0,0,0,0,0,0,0,0,0,0,0,0,0,0,0,0,32
hbase,0.90.1,0.92.0,F:/corpus/hbase/hbase#2011-02-18-09-37-19#0.90.1#ed25749/src/main/java/org/apache/hadoop/hbase/client/RowLock.java,F:/corpus/hbase/hbase#2011-02-18-09-37-19#0.90.1#ed25749/src/main/java/org/apache/hadoop/hbase/client/RowLock.java,0,0,0,0,0,0,0,0,0,0,0,1,0,NO,0,0,0,0,0,0,0,0,0,0,0,0,0,0,0,0,0,0,0,0,0,0,0,0,0,0,0,0,0,0,0,0,0,0,0,0,0,0,0,0,0,0,0,0,0,0,0,0,0,62
hbase,0.90.1,0.92.0,F:/corpus/hbase/hbase#2011-02-18-09-37-19#0.90.1#ed25749/src/main/java/org/apache/hadoop/hbase/client/ScannerTimeoutException.java,F:/corpus/hbase/hbase#2011-02-18-09-37-19#0.90.1#ed25749/src/main/java/org/apache/hadoop/hbase/client/ScannerTimeoutException.java,0,0,0,0,0,0,0,0,0,0,0,0,0,NO,0,0,0,0,0,0,0,0,0,0,0,0,0,0,0,0,0,0,0,0,0,0,0,0,0,0,0,0,0,0,0,0,0,0,0,0,0,0,0,0,0,0,0,0,0,0,0,0,0,41
hbase,0.90.1,0.92.0,F:/corpus/hbase/hbase#2011-02-18-09-37-19#0.90.1#ed25749/src/main/java/org/apache/hadoop/hbase/client/UnmodifyableHColumnDescriptor.java,F:/corpus/hbase/hbase#2011-02-18-09-37-19#0.90.1#ed25749/src/main/java/org/apache/hadoop/hbase/client/UnmodifyableHColumnDescriptor.java,0,0,0,0,7,0,0,0,0,0,0,0,0,NO,0,0,0,0,0,0,0,0,0,0,0,0,0,0,0,0,0,0,0,0,0,0,0,0,0,0,0,0,0,0,0,0,0,0,0,0,0,0,0,0,0,0,0,0,0,0,0,0,0,93
hbase,0.90.1,0.92.0,F:/corpus/hbase/hbase#2011-02-18-09-37-19#0.90.1#ed25749/src/main/java/org/apache/hadoop/hbase/client/UnmodifyableHTableDescriptor.java,F:/corpus/hbase/hbase#2011-02-18-09-37-19#0.90.1#ed25749/src/main/java/org/apache/hadoop/hbase/client/UnmodifyableHTableDescriptor.java,0,0,0,0,7,0,0,0,0,0,0,0,0,NO,0,0,0,0,0,0,0,0,0,0,0,0,0,0,0,0,0,0,0,0,0,0,0,0,0,0,0,0,0,0,0,0,0,0,0,0,0,0,0,0,0,0,0,0,0,0,0,0,0,124
hbase,0.90.1,0.92.0,F:/corpus/hbase/hbase#2011-02-18-09-37-19#0.90.1#ed25749/src/main/java/org/apache/hadoop/hbase/ClockOutOfSyncException.java,F:/corpus/hbase/hbase#2011-02-18-09-37-19#0.90.1#ed25749/src/main/java/org/apache/hadoop/hbase/ClockOutOfSyncException.java,0,0,0,0,0,0,0,0,0,0,0,0,0,NO,0,0,0,0,0,0,0,0,0,0,0,0,0,0,0,0,0,0,0,0,0,0,0,0,0,0,0,0,0,0,0,0,0,0,0,0,0,0,0,0,0,0,0,0,0,0,0,0,0,33
hbase,0.90.1,0.92.0,F:/corpus/hbase/hbase#2011-02-18-09-37-19#0.90.1#ed25749/src/main/java/org/apache/hadoop/hbase/DoNotRetryIOException.java,F:/corpus/hbase/hbase#2011-02-18-09-37-19#0.90.1#ed25749/src/main/java/org/apache/hadoop/hbase/DoNotRetryIOException.java,0,0,0,0,0,0,0,0,0,0,0,0,0,NO,0,0,0,0,0,0,0,0,0,0,0,0,0,0,0,0,0,0,0,0,0,0,0,0,0,0,0,0,0,0,0,0,0,0,0,0,0,0,0,0,0,0,0,0,0,0,0,0,0,53
hbase,0.90.1,0.92.0,F:/corpus/hbase/hbase#2011-02-18-09-37-19#0.90.1#ed25749/src/main/java/org/apache/hadoop/hbase/DroppedSnapshotException.java,F:/corpus/hbase/hbase#2011-02-18-09-37-19#0.90.1#ed25749/src/main/java/org/apache/hadoop/hbase/DroppedSnapshotException.java,0,0,0,0,0,0,0,0,0,0,0,0,0,NO,0,0,0,0,0,0,0,0,0,0,0,0,0,0,0,0,0,0,0,0,0,0,0,0,0,0,0,0,0,0,0,0,0,0,0,0,0,0,0,0,0,0,0,0,0,0,0,0,0,41
hbase,0.90.1,0.92.0,F:/corpus/hbase/hbase#2011-02-18-09-37-19#0.90.1#ed25749/src/main/java/org/apache/hadoop/hbase/filter/BinaryComparator.java,F:/corpus/hbase/hbase#2011-02-18-09-37-19#0.90.1#ed25749/src/main/java/org/apache/hadoop/hbase/filter/BinaryComparator.java,0,0,0,0,0,0,0,0,0,0,0,0,0,NO,0,0,0,0,0,0,0,0,0,0,0,0,0,0,0,0,0,0,0,0,0,0,0,0,0,0,0,0,0,0,0,0,0,0,0,0,0,0,0,0,0,0,0,0,0,0,0,0,0,40
hbase,0.90.1,0.92.0,F:/corpus/hbase/hbase#2011-02-18-09-37-19#0.90.1#ed25749/src/main/java/org/apache/hadoop/hbase/filter/BinaryPrefixComparator.java,F:/corpus/hbase/hbase#2011-02-18-09-37-19#0.90.1#ed25749/src/main/java/org/apache/hadoop/hbase/filter/BinaryPrefixComparator.java,0,0,0,0,0,0,0,0,0,0,0,0,0,NO,0,0,0,0,0,0,0,0,0,0,0,0,0,0,0,0,0,0,0,0,0,0,0,0,0,0,0,0,0,0,0,0,0,0,0,0,0,0,0,0,0,0,0,0,0,0,0,0,0,53
hbase,0.90.1,0.92.0,F:/corpus/hbase/hbase#2011-02-18-09-37-19#0.90.1#ed25749/src/main/java/org/apache/hadoop/hbase/filter/IncompatibleFilterException.java,F:/corpus/hbase/hbase#2011-02-18-09-37-19#0.90.1#ed25749/src/main/java/org/apache/hadoop/hbase/filter/IncompatibleFilterException.java,0,0,0,0,0,0,0,0,0,0,0,0,0,NO,0,0,0,0,0,0,0,0,0,0,0,0,0,0,0,0,0,0,0,0,0,0,0,0,0,0,0,0,0,0,0,0,0,0,0,0,0,0,0,0,0,0,0,0,0,0,0,0,0,40
hbase,0.90.1,0.92.0,F:/corpus/hbase/hbase#2011-02-18-09-37-19#0.90.1#ed25749/src/main/java/org/apache/hadoop/hbase/filter/InvalidRowFilterException.java,F:/corpus/hbase/hbase#2011-02-18-09-37-19#0.90.1#ed25749/src/main/java/org/apache/hadoop/hbase/filter/InvalidRowFilterException.java,0,0,0,0,0,0,0,0,0,0,0,0,0,NO,0,0,0,0,0,0,0,0,0,0,0,0,0,0,0,0,0,0,0,0,0,0,0,0,0,0,0,0,0,0,0,0,0,0,0,0,0,0,0,0,0,0,0,0,0,0,0,0,0,41
hbase,0.90.1,0.92.0,F:/corpus/hbase/hbase#2011-02-18-09-37-19#0.90.1#ed25749/src/main/java/org/apache/hadoop/hbase/filter/package-info.java,F:/corpus/hbase/hbase#2011-02-18-09-37-19#0.90.1#ed25749/src/main/java/org/apache/hadoop/hbase/filter/package-info.java,0,0,0,0,0,0,0,0,0,0,0,0,0,NO,0,0,0,0,0,0,0,0,0,0,0,0,0,0,0,0,0,0,0,0,0,0,0,0,0,0,0,0,0,0,0,0,0,0,0,0,0,0,0,0,0,0,0,0,0,0,0,0,0,35
hbase,0.90.1,0.92.0,F:/corpus/hbase/hbase#2011-02-18-09-37-19#0.90.1#ed25749/src/main/java/org/apache/hadoop/hbase/filter/RegexStringComparator.java,F:/corpus/hbase/hbase#2011-02-18-09-37-19#0.90.1#ed25749/src/main/java/org/apache/hadoop/hbase/filter/RegexStringComparator.java,0,0,0,0,0,0,0,0,0,0,0,0,0,NO,0,0,0,0,0,0,0,0,0,0,0,0,0,0,0,0,0,0,0,0,0,0,0,0,0,0,0,0,0,0,0,0,0,0,0,0,0,0,0,0,0,0,0,0,0,0,0,0,0,120
hbase,0.90.1,0.92.0,F:/corpus/hbase/hbase#2011-02-18-09-37-19#0.90.1#ed25749/src/main/java/org/apache/hadoop/hbase/filter/SubstringComparator.java,F:/corpus/hbase/hbase#2011-02-18-09-37-19#0.90.1#ed25749/src/main/java/org/apache/hadoop/hbase/filter/SubstringComparator.java,0,0,0,0,0,0,0,0,0,0,0,0,0,NO,0,0,0,0,0,0,0,0,0,0,0,0,0,0,0,0,0,0,0,0,0,0,0,0,0,0,0,0,0,0,0,0,0,0,0,0,0,0,0,0,0,0,0,0,0,0,0,0,0,83
hbase,0.90.1,0.92.0,F:/corpus/hbase/hbase#2011-02-18-09-37-19#0.90.1#ed25749/src/main/java/org/apache/hadoop/hbase/filter/WritableByteArrayComparable.java,F:/corpus/hbase/hbase#2011-02-18-09-37-19#0.90.1#ed25749/src/main/java/org/apache/hadoop/hbase/filter/WritableByteArrayComparable.java,0,0,0,0,0,0,0,0,0,0,0,0,0,NO,0,0,0,0,0,0,0,0,0,0,0,0,0,0,0,0,0,0,0,0,0,0,0,0,0,0,0,0,0,0,0,0,0,0,0,0,0,0,0,0,0,0,0,0,0,0,0,0,0,66
hbase,0.90.1,0.92.0,F:/corpus/hbase/hbase#2011-02-18-09-37-19#0.90.1#ed25749/src/main/java/org/apache/hadoop/hbase/InvalidFamilyOperationException.java,F:/corpus/hbase/hbase#2011-02-18-09-37-19#0.90.1#ed25749/src/main/java/org/apache/hadoop/hbase/InvalidFamilyOperationException.java,0,0,0,0,0,0,0,0,0,0,0,0,0,NO,0,0,0,0,0,0,0,0,0,0,0,0,0,0,0,0,0,0,0,0,0,0,0,0,0,0,0,0,0,0,0,0,0,0,0,0,0,0,0,0,0,0,0,0,0,0,0,0,0,50
hbase,0.90.1,0.92.0,F:/corpus/hbase/hbase#2011-02-18-09-37-19#0.90.1#ed25749/src/main/java/org/apache/hadoop/hbase/io/CodeToClassAndBack.java,F:/corpus/hbase/hbase#2011-02-18-09-37-19#0.90.1#ed25749/src/main/java/org/apache/hadoop/hbase/io/CodeToClassAndBack.java,0,0,0,0,1,0,0,0,0,0,0,0,0,NO,0,0,0,0,0,0,0,0,0,0,0,0,0,0,0,0,0,0,0,0,0,0,0,0,0,0,0,0,0,0,0,0,0,0,0,0,0,0,0,0,0,0,0,0,0,0,0,0,0,71
hbase,0.90.1,0.92.0,F:/corpus/hbase/hbase#2011-02-18-09-37-19#0.90.1#ed25749/src/main/java/org/apache/hadoop/hbase/io/HbaseMapWritable.java,F:/corpus/hbase/hbase#2011-02-18-09-37-19#0.90.1#ed25749/src/main/java/org/apache/hadoop/hbase/io/HbaseMapWritable.java,0,0,0,0,0,0,0,0,0,0,0,0,0,NO,0,0,0,0,0,0,0,0,0,0,0,0,0,0,0,0,0,0,0,0,0,0,0,0,0,0,0,0,0,0,0,0,0,0,0,0,0,0,0,0,0,0,0,0,0,0,0,0,0,221
hbase,0.90.1,0.92.0,F:/corpus/hbase/hbase#2011-02-18-09-37-19#0.90.1#ed25749/src/main/java/org/apache/hadoop/hbase/io/HeapSize.java,F:/corpus/hbase/hbase#2011-02-18-09-37-19#0.90.1#ed25749/src/main/java/org/apache/hadoop/hbase/io/HeapSize.java,0,0,0,0,0,0,0,0,0,0,0,0,0,NO,0,0,0,0,0,0,0,0,0,0,0,0,0,0,0,0,0,0,0,0,0,0,0,0,0,0,0,0,0,0,0,0,0,0,0,0,0,0,0,0,0,0,0,0,0,0,0,0,0,47
hbase,0.90.1,0.92.0,F:/corpus/hbase/hbase#2011-02-18-09-37-19#0.90.1#ed25749/src/main/java/org/apache/hadoop/hbase/io/hfile/BoundedRangeFileInputStream.java,F:/corpus/hbase/hbase#2011-02-18-09-37-19#0.90.1#ed25749/src/main/java/org/apache/hadoop/hbase/io/hfile/BoundedRangeFileInputStream.java,0,0,0,0,1,0,0,0,0,0,0,0,0,NO,0,0,0,0,0,0,0,0,0,0,0,0,0,0,0,0,0,0,0,0,0,0,0,0,0,0,0,0,0,0,0,0,0,0,0,0,0,0,0,0,0,0,0,0,0,0,0,0,0,149
hbase,0.90.1,0.92.0,F:/corpus/hbase/hbase#2011-02-18-09-37-19#0.90.1#ed25749/src/main/java/org/apache/hadoop/hbase/io/hfile/CachedBlockQueue.java,F:/corpus/hbase/hbase#2011-02-18-09-37-19#0.90.1#ed25749/src/main/java/org/apache/hadoop/hbase/io/hfile/CachedBlockQueue.java,0,0,0,0,0,0,0,0,0,0,0,0,0,NO,0,0,0,0,0,0,0,0,0,0,0,0,0,0,0,0,0,0,0,0,0,0,0,0,0,0,0,0,0,0,0,0,0,0,0,0,0,0,0,0,0,0,0,0,0,0,0,0,0,104
hbase,0.90.1,0.92.0,F:/corpus/hbase/hbase#2011-02-18-09-37-19#0.90.1#ed25749/src/main/java/org/apache/hadoop/hbase/io/hfile/HFileScanner.java,F:/corpus/hbase/hbase#2011-02-18-09-37-19#0.90.1#ed25749/src/main/java/org/apache/hadoop/hbase/io/hfile/HFileScanner.java,0,0,0,0,1,0,0,0,0,0,0,0,0,NO,0,0,0,0,0,0,0,0,0,0,0,0,0,0,0,0,0,0,0,0,0,0,0,0,0,0,0,0,0,0,0,0,0,0,0,0,0,0,0,0,0,0,0,0,0,0,0,0,0,146
hbase,0.90.1,0.92.0,F:/corpus/hbase/hbase#2011-02-18-09-37-19#0.90.1#ed25749/src/main/java/org/apache/hadoop/hbase/io/ImmutableBytesWritable.java,F:/corpus/hbase/hbase#2011-02-18-09-37-19#0.90.1#ed25749/src/main/java/org/apache/hadoop/hbase/io/ImmutableBytesWritable.java,0,0,0,0,0,0,0,0,0,0,0,1,0,NO,0,0,0,0,0,0,0,0,0,0,0,0,0,0,0,0,0,0,0,0,0,0,0,0,0,0,0,0,0,0,0,0,0,0,0,0,0,0,0,0,0,0,0,0,0,0,0,0,0,269
hbase,0.90.1,0.92.0,F:/corpus/hbase/hbase#2011-02-18-09-37-19#0.90.1#ed25749/src/main/java/org/apache/hadoop/hbase/io/TimeRange.java,F:/corpus/hbase/hbase#2011-02-18-09-37-19#0.90.1#ed25749/src/main/java/org/apache/hadoop/hbase/io/TimeRange.java,0,0,0,0,0,0,0,0,0,0,0,2,0,NO,0,0,0,0,0,0,0,0,0,0,0,0,0,0,0,0,0,0,0,0,0,0,0,0,0,0,0,0,0,0,0,0,0,0,0,0,0,0,0,0,0,0,0,0,0,0,0,0,0,189
hbase,0.90.1,0.92.0,F:/corpus/hbase/hbase#2011-02-18-09-37-19#0.90.1#ed25749/src/main/java/org/apache/hadoop/hbase/io/WritableWithSize.java,F:/corpus/hbase/hbase#2011-02-18-09-37-19#0.90.1#ed25749/src/main/java/org/apache/hadoop/hbase/io/WritableWithSize.java,0,0,0,0,0,0,0,0,0,0,0,0,0,NO,0,0,0,0,0,0,0,0,0,0,0,0,0,0,0,0,0,0,0,0,0,0,0,0,0,0,0,0,0,0,0,0,0,0,0,0,0,0,0,0,0,0,0,0,0,0,0,0,0,36
hbase,0.90.1,0.92.0,F:/corpus/hbase/hbase#2011-02-18-09-37-19#0.90.1#ed25749/src/main/java/org/apache/hadoop/hbase/ipc/HBaseRPCErrorHandler.java,F:/corpus/hbase/hbase#2011-02-18-09-37-19#0.90.1#ed25749/src/main/java/org/apache/hadoop/hbase/ipc/HBaseRPCErrorHandler.java,0,0,0,0,1,0,0,0,0,0,0,0,0,NO,0,0,0,0,0,0,0,0,0,0,0,0,0,0,0,0,0,0,0,0,0,0,0,0,0,0,0,0,0,0,0,0,0,0,0,0,0,0,0,0,0,0,0,0,0,0,0,0,0,33
hbase,0.90.1,0.92.0,F:/corpus/hbase/hbase#2011-02-18-09-37-19#0.90.1#ed25749/src/main/java/org/apache/hadoop/hbase/ipc/HBaseRPCStatistics.java,F:/corpus/hbase/hbase#2011-02-18-09-37-19#0.90.1#ed25749/src/main/java/org/apache/hadoop/hbase/ipc/HBaseRPCStatistics.java,0,0,0,0,1,0,0,0,0,0,0,0,0,NO,0,0,0,0,0,0,0,0,0,0,0,0,0,0,0,0,0,0,0,0,0,0,0,0,0,0,0,0,0,0,0,0,0,0,0,0,0,0,0,0,0,0,0,0,0,0,0,0,0,52
hbase,0.90.1,0.92.0,F:/corpus/hbase/hbase#2011-02-18-09-37-19#0.90.1#ed25749/src/main/java/org/apache/hadoop/hbase/mapred/GroupingTableMap.java,F:/corpus/hbase/hbase#2011-02-18-09-37-19#0.90.1#ed25749/src/main/java/org/apache/hadoop/hbase/mapred/GroupingTableMap.java,0,0,0,0,1,0,0,0,0,0,0,0,0,NO,0,0,0,0,0,0,0,0,0,0,0,0,0,0,0,0,0,0,0,0,0,0,0,0,0,0,0,0,0,0,0,0,0,0,0,0,0,0,0,0,0,0,0,0,0,0,0,0,0,162
hbase,0.90.1,0.92.0,F:/corpus/hbase/hbase#2011-02-18-09-37-19#0.90.1#ed25749/src/main/java/org/apache/hadoop/hbase/mapred/HRegionPartitioner.java,F:/corpus/hbase/hbase#2011-02-18-09-37-19#0.90.1#ed25749/src/main/java/org/apache/hadoop/hbase/mapred/HRegionPartitioner.java,0,0,0,0,1,1,0,0,0,0,0,0,0,NO,0,0,0,0,0,0,0,0,0,0,0,0,0,0,0,0,0,0,0,0,0,0,0,0,0,0,0,0,0,0,0,0,0,0,0,0,0,0,0,0,0,0,0,0,0,0,0,0,0,91
hbase,0.90.1,0.92.0,F:/corpus/hbase/hbase#2011-02-18-09-37-19#0.90.1#ed25749/src/main/java/org/apache/hadoop/hbase/mapred/IdentityTableMap.java,F:/corpus/hbase/hbase#2011-02-18-09-37-19#0.90.1#ed25749/src/main/java/org/apache/hadoop/hbase/mapred/IdentityTableMap.java,0,0,0,0,1,0,0,0,0,0,0,0,0,NO,0,0,0,0,0,0,0,0,0,0,0,0,0,0,0,0,0,0,0,0,0,0,0,0,0,0,0,0,0,0,0,0,0,0,0,0,0,0,0,0,0,0,0,0,0,0,0,0,0,76
hbase,0.90.1,0.92.0,F:/corpus/hbase/hbase#2011-02-18-09-37-19#0.90.1#ed25749/src/main/java/org/apache/hadoop/hbase/mapred/IdentityTableReduce.java,F:/corpus/hbase/hbase#2011-02-18-09-37-19#0.90.1#ed25749/src/main/java/org/apache/hadoop/hbase/mapred/IdentityTableReduce.java,0,0,0,0,1,0,0,0,0,0,0,0,0,NO,0,0,0,0,0,0,0,0,0,0,0,0,0,0,0,0,0,0,0,0,0,0,0,0,0,0,0,0,0,0,0,0,0,0,0,0,0,0,0,0,0,0,0,0,0,0,0,0,0,61
hbase,0.90.1,0.92.0,F:/corpus/hbase/hbase#2011-02-18-09-37-19#0.90.1#ed25749/src/main/java/org/apache/hadoop/hbase/mapred/package-info.java,F:/corpus/hbase/hbase#2011-02-18-09-37-19#0.90.1#ed25749/src/main/java/org/apache/hadoop/hbase/mapred/package-info.java,0,0,0,0,0,0,0,0,0,0,0,0,0,NO,0,0,0,0,0,0,0,0,0,0,0,0,0,0,0,0,0,0,0,0,0,0,0,0,0,0,0,0,0,0,0,0,0,0,0,0,0,0,0,0,0,0,0,0,0,0,0,0,0,124
hbase,0.90.1,0.92.0,F:/corpus/hbase/hbase#2011-02-18-09-37-19#0.90.1#ed25749/src/main/java/org/apache/hadoop/hbase/mapred/TableInputFormat.java,F:/corpus/hbase/hbase#2011-02-18-09-37-19#0.90.1#ed25749/src/main/java/org/apache/hadoop/hbase/mapred/TableInputFormat.java,0,0,0,0,0,0,0,0,0,0,0,0,0,NO,0,0,0,0,0,0,0,0,0,0,0,0,0,0,0,0,0,0,0,0,0,0,0,0,0,0,0,0,0,0,0,0,0,0,0,0,0,0,0,0,0,0,0,0,0,0,0,0,0,83
hbase,0.90.1,0.92.0,F:/corpus/hbase/hbase#2011-02-18-09-37-19#0.90.1#ed25749/src/main/java/org/apache/hadoop/hbase/mapred/TableMap.java,F:/corpus/hbase/hbase#2011-02-18-09-37-19#0.90.1#ed25749/src/main/java/org/apache/hadoop/hbase/mapred/TableMap.java,0,0,0,0,1,0,0,0,0,0,0,0,0,NO,0,0,0,0,0,0,0,0,0,0,0,0,0,0,0,0,0,0,0,0,0,0,0,0,0,0,0,0,0,0,0,0,0,0,0,0,0,0,0,0,0,0,0,0,0,0,0,0,0,39
hbase,0.90.1,0.92.0,F:/corpus/hbase/hbase#2011-02-18-09-37-19#0.90.1#ed25749/src/main/java/org/apache/hadoop/hbase/mapred/TableRecordReader.java,F:/corpus/hbase/hbase#2011-02-18-09-37-19#0.90.1#ed25749/src/main/java/org/apache/hadoop/hbase/mapred/TableRecordReader.java,0,0,1,0,0,0,0,0,0,0,0,0,0,NO,0,0,0,0,0,0,0,0,0,0,0,0,0,0,0,0,0,0,0,0,0,0,0,0,0,0,0,0,0,0,0,0,0,0,0,0,0,0,0,0,0,0,0,0,0,0,0,0,0,138
hbase,0.90.1,0.92.0,F:/corpus/hbase/hbase#2011-02-18-09-37-19#0.90.1#ed25749/src/main/java/org/apache/hadoop/hbase/mapred/TableReduce.java,F:/corpus/hbase/hbase#2011-02-18-09-37-19#0.90.1#ed25749/src/main/java/org/apache/hadoop/hbase/mapred/TableReduce.java,0,0,0,0,1,0,0,0,0,0,0,0,0,NO,0,0,0,0,0,0,0,0,0,0,0,0,0,0,0,0,0,0,0,0,0,0,0,0,0,0,0,0,0,0,0,0,0,0,0,0,0,0,0,0,0,0,0,0,0,0,0,0,0,39
hbase,0.90.1,0.92.0,F:/corpus/hbase/hbase#2011-02-18-09-37-19#0.90.1#ed25749/src/main/java/org/apache/hadoop/hbase/mapred/TableSplit.java,F:/corpus/hbase/hbase#2011-02-18-09-37-19#0.90.1#ed25749/src/main/java/org/apache/hadoop/hbase/mapred/TableSplit.java,0,0,0,0,0,0,0,0,0,0,0,0,0,NO,0,0,0,0,0,0,0,0,0,0,0,0,0,0,0,0,0,0,0,0,0,0,0,0,0,0,0,0,0,0,0,0,0,0,0,0,0,0,0,0,0,0,0,0,0,0,0,0,0,113
hbase,0.90.1,0.92.0,F:/corpus/hbase/hbase#2011-02-18-09-37-19#0.90.1#ed25749/src/main/java/org/apache/hadoop/hbase/mapreduce/GroupingTableMapper.java,F:/corpus/hbase/hbase#2011-02-18-09-37-19#0.90.1#ed25749/src/main/java/org/apache/hadoop/hbase/mapreduce/GroupingTableMapper.java,0,0,0,0,1,0,0,0,0,0,0,0,0,NO,0,0,0,0,0,0,0,0,0,0,0,0,0,0,0,0,0,0,0,0,0,0,0,0,0,0,0,0,0,0,0,0,0,0,0,0,0,0,0,0,0,0,0,0,0,0,0,0,0,180
hbase,0.90.1,0.92.0,F:/corpus/hbase/hbase#2011-02-18-09-37-19#0.90.1#ed25749/src/main/java/org/apache/hadoop/hbase/mapreduce/hadoopbackport/TotalOrderPartitioner.java,F:/corpus/hbase/hbase#2011-02-18-09-37-19#0.90.1#ed25749/src/main/java/org/apache/hadoop/hbase/mapreduce/hadoopbackport/TotalOrderPartitioner.java,0,0,0,0,3,0,0,0,0,0,0,0,0,NO,0,0,0,0,0,0,0,0,0,0,0,0,0,0,0,0,0,0,0,0,0,0,0,0,0,0,0,0,0,0,0,0,0,0,0,0,0,0,0,0,0,0,0,0,0,0,0,0,0,401
hbase,0.90.1,0.92.0,F:/corpus/hbase/hbase#2011-02-18-09-37-19#0.90.1#ed25749/src/main/java/org/apache/hadoop/hbase/mapreduce/HRegionPartitioner.java,F:/corpus/hbase/hbase#2011-02-18-09-37-19#0.90.1#ed25749/src/main/java/org/apache/hadoop/hbase/mapreduce/HRegionPartitioner.java,0,0,0,0,1,1,0,0,0,0,0,0,0,NO,0,0,0,0,0,0,0,0,0,0,0,0,0,0,0,0,0,0,0,0,0,0,0,0,0,0,0,0,0,0,0,0,0,0,0,0,0,0,0,0,0,0,0,0,0,0,0,0,0,133
hbase,0.90.1,0.92.0,F:/corpus/hbase/hbase#2011-02-18-09-37-19#0.90.1#ed25749/src/main/java/org/apache/hadoop/hbase/mapreduce/IdentityTableMapper.java,F:/corpus/hbase/hbase#2011-02-18-09-37-19#0.90.1#ed25749/src/main/java/org/apache/hadoop/hbase/mapreduce/IdentityTableMapper.java,0,0,0,0,0,0,0,0,0,0,0,0,0,NO,0,0,0,0,0,0,0,0,0,0,0,0,0,0,0,0,0,0,0,0,0,0,0,0,0,0,0,0,0,0,0,0,0,0,0,0,0,0,0,0,0,0,0,0,0,0,0,0,0,66
hbase,0.90.1,0.92.0,F:/corpus/hbase/hbase#2011-02-18-09-37-19#0.90.1#ed25749/src/main/java/org/apache/hadoop/hbase/mapreduce/IdentityTableReducer.java,F:/corpus/hbase/hbase#2011-02-18-09-37-19#0.90.1#ed25749/src/main/java/org/apache/hadoop/hbase/mapreduce/IdentityTableReducer.java,0,0,0,0,0,0,0,0,0,0,0,0,0,NO,0,0,0,0,0,0,0,0,0,0,0,0,0,0,0,0,0,0,0,0,0,0,0,0,0,0,0,0,0,0,0,0,0,0,0,0,0,0,0,0,0,0,0,0,0,0,0,0,0,78
hbase,0.90.1,0.92.0,F:/corpus/hbase/hbase#2011-02-18-09-37-19#0.90.1#ed25749/src/main/java/org/apache/hadoop/hbase/mapreduce/KeyValueSortReducer.java,F:/corpus/hbase/hbase#2011-02-18-09-37-19#0.90.1#ed25749/src/main/java/org/apache/hadoop/hbase/mapreduce/KeyValueSortReducer.java,0,0,0,0,0,0,0,0,0,0,0,0,0,NO,0,0,0,0,0,0,0,0,0,0,0,0,0,0,0,0,0,0,0,0,0,0,0,0,0,0,0,0,0,0,0,0,0,0,0,0,0,0,0,0,0,0,0,0,0,0,0,0,0,50
hbase,0.90.1,0.92.0,F:/corpus/hbase/hbase#2011-02-18-09-37-19#0.90.1#ed25749/src/main/java/org/apache/hadoop/hbase/mapreduce/MultiTableOutputFormat.java,F:/corpus/hbase/hbase#2011-02-18-09-37-19#0.90.1#ed25749/src/main/java/org/apache/hadoop/hbase/mapreduce/MultiTableOutputFormat.java,0,0,0,0,2,0,0,0,0,0,0,0,0,NO,0,0,0,0,0,0,0,0,0,0,0,0,0,0,0,0,0,0,0,0,0,0,0,0,0,0,0,0,0,0,0,0,0,0,0,0,0,0,0,0,0,0,0,0,0,0,0,0,0,163
hbase,0.90.1,0.92.0,F:/corpus/hbase/hbase#2011-02-18-09-37-19#0.90.1#ed25749/src/main/java/org/apache/hadoop/hbase/mapreduce/package-info.java,F:/corpus/hbase/hbase#2011-02-18-09-37-19#0.90.1#ed25749/src/main/java/org/apache/hadoop/hbase/mapreduce/package-info.java,0,0,0,0,0,0,0,0,0,0,0,0,0,NO,0,0,0,0,0,0,0,0,0,0,0,0,0,0,0,0,0,0,0,0,0,0,0,0,0,0,0,0,0,0,0,0,0,0,0,0,0,0,0,0,0,0,0,0,0,0,0,0,0,164
hbase,0.90.1,0.92.0,F:/corpus/hbase/hbase#2011-02-18-09-37-19#0.90.1#ed25749/src/main/java/org/apache/hadoop/hbase/mapreduce/TableMapper.java,F:/corpus/hbase/hbase#2011-02-18-09-37-19#0.90.1#ed25749/src/main/java/org/apache/hadoop/hbase/mapreduce/TableMapper.java,0,0,0,0,1,0,0,0,0,0,0,0,0,NO,0,0,0,0,0,0,0,0,0,0,0,0,0,0,0,0,0,0,0,0,0,0,0,0,0,0,0,0,0,0,0,0,0,0,0,0,0,0,0,0,0,0,0,0,0,0,0,0,0,37
hbase,0.90.1,0.92.0,F:/corpus/hbase/hbase#2011-02-18-09-37-19#0.90.1#ed25749/src/main/java/org/apache/hadoop/hbase/mapreduce/TableOutputCommitter.java,F:/corpus/hbase/hbase#2011-02-18-09-37-19#0.90.1#ed25749/src/main/java/org/apache/hadoop/hbase/mapreduce/TableOutputCommitter.java,0,0,0,0,1,0,0,0,0,0,0,0,0,NO,0,0,0,0,0,0,0,0,0,0,0,0,0,0,0,0,0,0,0,0,0,0,0,0,0,0,0,0,0,0,0,0,0,0,0,0,0,0,0,0,0,0,0,0,0,0,0,0,0,58
hbase,0.90.1,0.92.0,F:/corpus/hbase/hbase#2011-02-18-09-37-19#0.90.1#ed25749/src/main/java/org/apache/hadoop/hbase/mapreduce/TableRecordReader.java,F:/corpus/hbase/hbase#2011-02-18-09-37-19#0.90.1#ed25749/src/main/java/org/apache/hadoop/hbase/mapreduce/TableRecordReader.java,0,0,0,0,0,0,0,0,0,0,0,0,0,NO,0,0,0,0,0,0,0,0,0,0,0,0,0,0,0,0,0,0,0,0,0,0,0,0,0,0,0,0,0,0,0,0,0,0,0,0,0,0,0,0,0,0,0,0,0,0,0,0,0,155
hbase,0.90.1,0.92.0,F:/corpus/hbase/hbase#2011-02-18-09-37-19#0.90.1#ed25749/src/main/java/org/apache/hadoop/hbase/mapreduce/TableReducer.java,F:/corpus/hbase/hbase#2011-02-18-09-37-19#0.90.1#ed25749/src/main/java/org/apache/hadoop/hbase/mapreduce/TableReducer.java,0,0,0,0,1,0,0,0,0,0,0,0,0,NO,0,0,0,0,0,0,0,0,0,0,0,0,0,0,0,0,0,0,0,0,0,0,0,0,0,0,0,0,0,0,0,0,0,0,0,0,0,0,0,0,0,0,0,0,0,0,0,0,0,44
hbase,0.90.1,0.92.0,F:/corpus/hbase/hbase#2011-02-18-09-37-19#0.90.1#ed25749/src/main/java/org/apache/hadoop/hbase/master/handler/TotesHRegionInfo.java,F:/corpus/hbase/hbase#2011-02-18-09-37-19#0.90.1#ed25749/src/main/java/org/apache/hadoop/hbase/master/handler/TotesHRegionInfo.java,0,0,0,0,0,0,0,0,0,0,0,0,0,NO,0,0,0,0,0,0,0,0,0,0,0,0,0,0,0,0,0,0,0,0,0,0,0,0,0,0,0,0,0,0,0,0,0,0,0,0,0,0,0,0,0,0,0,0,0,0,0,0,0,36
hbase,0.90.1,0.92.0,F:/corpus/hbase/hbase#2011-02-18-09-37-19#0.90.1#ed25749/src/main/java/org/apache/hadoop/hbase/master/LogCleanerDelegate.java,F:/corpus/hbase/hbase#2011-02-18-09-37-19#0.90.1#ed25749/src/main/java/org/apache/hadoop/hbase/master/LogCleanerDelegate.java,0,0,0,0,0,0,0,0,0,0,0,0,0,NO,0,0,0,0,0,0,0,0,0,0,0,0,0,0,0,0,0,0,0,0,0,0,0,0,0,0,0,0,0,0,0,0,0,0,0,0,0,0,0,0,0,0,0,0,0,0,0,0,0,48
hbase,0.90.1,0.92.0,F:/corpus/hbase/hbase#2011-02-18-09-37-19#0.90.1#ed25749/src/main/java/org/apache/hadoop/hbase/master/metrics/MasterMetrics.java,F:/corpus/hbase/hbase#2011-02-18-09-37-19#0.90.1#ed25749/src/main/java/org/apache/hadoop/hbase/master/metrics/MasterMetrics.java,0,0,0,0,1,1,0,0,0,0,0,0,0,NO,0,0,0,0,0,0,0,0,0,0,0,0,0,0,0,0,0,0,0,0,0,0,0,0,0,0,0,0,0,0,0,0,0,0,0,0,0,0,0,0,0,0,0,0,0,0,0,0,0,149
hbase,0.90.1,0.92.0,F:/corpus/hbase/hbase#2011-02-18-09-37-19#0.90.1#ed25749/src/main/java/org/apache/hadoop/hbase/master/metrics/MasterStatistics.java,F:/corpus/hbase/hbase#2011-02-18-09-37-19#0.90.1#ed25749/src/main/java/org/apache/hadoop/hbase/master/metrics/MasterStatistics.java,0,0,0,0,0,0,0,0,0,0,0,0,0,NO,0,0,0,0,0,0,0,0,0,0,0,0,0,0,0,0,0,0,0,0,0,0,0,0,0,0,0,0,0,0,0,0,0,0,0,0,0,0,0,0,0,0,0,0,0,0,0,0,0,42
hbase,0.90.1,0.92.0,F:/corpus/hbase/hbase#2011-02-18-09-37-19#0.90.1#ed25749/src/main/java/org/apache/hadoop/hbase/MasterNotRunningException.java,F:/corpus/hbase/hbase#2011-02-18-09-37-19#0.90.1#ed25749/src/main/java/org/apache/hadoop/hbase/MasterNotRunningException.java,0,0,0,0,0,0,0,0,0,0,0,0,0,NO,0,0,0,0,0,0,0,0,0,0,0,0,0,0,0,0,0,0,0,0,0,0,0,0,0,0,0,0,0,0,0,0,0,0,0,0,0,0,0,0,0,0,0,0,0,0,0,0,0,49
hbase,0.90.1,0.92.0,F:/corpus/hbase/hbase#2011-02-18-09-37-19#0.90.1#ed25749/src/main/java/org/apache/hadoop/hbase/metrics/file/TimeStampingFileContext.java,F:/corpus/hbase/hbase#2011-02-18-09-37-19#0.90.1#ed25749/src/main/java/org/apache/hadoop/hbase/metrics/file/TimeStampingFileContext.java,0,0,0,0,0,0,0,0,0,0,0,0,0,NO,0,0,0,0,0,0,0,0,0,0,0,0,0,0,0,0,0,0,0,0,0,0,0,0,0,0,0,0,0,0,0,0,0,0,0,0,0,0,0,0,0,0,0,0,0,0,0,0,0,111
hbase,0.90.1,0.92.0,F:/corpus/hbase/hbase#2011-02-18-09-37-19#0.90.1#ed25749/src/main/java/org/apache/hadoop/hbase/metrics/HBaseInfo.java,F:/corpus/hbase/hbase#2011-02-18-09-37-19#0.90.1#ed25749/src/main/java/org/apache/hadoop/hbase/metrics/HBaseInfo.java,0,0,0,0,1,0,0,0,0,0,0,0,0,NO,0,0,0,0,0,0,0,0,0,0,0,0,0,0,0,0,0,0,0,0,0,0,0,0,0,0,0,0,0,0,0,0,0,0,0,0,0,0,0,0,0,0,0,0,0,0,0,0,0,96
hbase,0.90.1,0.92.0,F:/corpus/hbase/hbase#2011-02-18-09-37-19#0.90.1#ed25749/src/main/java/org/apache/hadoop/hbase/metrics/MetricsMBeanBase.java,F:/corpus/hbase/hbase#2011-02-18-09-37-19#0.90.1#ed25749/src/main/java/org/apache/hadoop/hbase/metrics/MetricsMBeanBase.java,0,0,0,0,0,1,0,0,0,0,0,0,0,NO,0,0,0,0,0,0,0,0,0,0,0,0,0,0,0,0,0,0,0,0,0,0,0,0,0,0,0,0,0,0,0,0,0,0,0,0,0,0,0,0,0,0,0,0,0,0,0,0,0,166
hbase,0.90.1,0.92.0,F:/corpus/hbase/hbase#2011-02-18-09-37-19#0.90.1#ed25749/src/main/java/org/apache/hadoop/hbase/metrics/MetricsString.java,F:/corpus/hbase/hbase#2011-02-18-09-37-19#0.90.1#ed25749/src/main/java/org/apache/hadoop/hbase/metrics/MetricsString.java,0,0,0,0,0,0,0,0,0,0,0,0,0,NO,0,0,0,0,0,0,0,0,0,0,0,0,0,0,0,0,0,0,0,0,0,0,0,0,0,0,0,0,0,0,0,0,0,0,0,0,0,0,0,0,0,0,0,0,0,0,0,0,0,56
hbase,0.90.1,0.92.0,F:/corpus/hbase/hbase#2011-02-18-09-37-19#0.90.1#ed25749/src/main/java/org/apache/hadoop/hbase/metrics/PersistentMetricsTimeVaryingRate.java,F:/corpus/hbase/hbase#2011-02-18-09-37-19#0.90.1#ed25749/src/main/java/org/apache/hadoop/hbase/metrics/PersistentMetricsTimeVaryingRate.java,0,0,0,0,0,0,0,0,0,0,0,0,0,NO,0,0,0,0,0,0,0,0,0,0,0,0,0,0,0,0,0,0,0,0,0,0,0,0,0,0,0,0,0,0,0,0,0,0,0,0,0,0,0,0,0,0,0,0,0,0,0,0,0,138
hbase,0.90.1,0.92.0,F:/corpus/hbase/hbase#2011-02-18-09-37-19#0.90.1#ed25749/src/main/java/org/apache/hadoop/hbase/NotAllMetaRegionsOnlineException.java,F:/corpus/hbase/hbase#2011-02-18-09-37-19#0.90.1#ed25749/src/main/java/org/apache/hadoop/hbase/NotAllMetaRegionsOnlineException.java,0,0,0,0,0,0,0,0,0,0,0,0,0,NO,0,0,0,0,0,0,0,0,0,0,0,0,0,0,0,0,0,0,0,0,0,0,0,0,0,0,0,0,0,0,0,0,0,0,0,0,0,0,0,0,0,0,0,0,0,0,0,0,0,43
hbase,0.90.1,0.92.0,F:/corpus/hbase/hbase#2011-02-18-09-37-19#0.90.1#ed25749/src/main/java/org/apache/hadoop/hbase/NotServingRegionException.java,F:/corpus/hbase/hbase#2011-02-18-09-37-19#0.90.1#ed25749/src/main/java/org/apache/hadoop/hbase/NotServingRegionException.java,0,0,0,0,0,0,0,0,0,0,0,0,0,NO,0,0,0,0,0,0,0,0,0,0,0,0,0,0,0,0,0,0,0,0,0,0,0,0,0,0,0,0,0,0,0,0,0,0,0,0,0,0,0,0,0,0,0,0,0,0,0,0,0,53
hbase,0.90.1,0.92.0,F:/corpus/hbase/hbase#2011-02-18-09-37-19#0.90.1#ed25749/src/main/java/org/apache/hadoop/hbase/PleaseHoldException.java,F:/corpus/hbase/hbase#2011-02-18-09-37-19#0.90.1#ed25749/src/main/java/org/apache/hadoop/hbase/PleaseHoldException.java,0,0,0,0,0,0,0,0,0,0,0,0,0,NO,0,0,0,0,0,0,0,0,0,0,0,0,0,0,0,0,0,0,0,0,0,0,0,0,0,0,0,0,0,0,0,0,0,0,0,0,0,0,0,0,0,0,0,0,0,0,0,0,0,34
hbase,0.90.1,0.92.0,F:/corpus/hbase/hbase#2011-02-18-09-37-19#0.90.1#ed25749/src/main/java/org/apache/hadoop/hbase/RegionException.java,F:/corpus/hbase/hbase#2011-02-18-09-37-19#0.90.1#ed25749/src/main/java/org/apache/hadoop/hbase/RegionException.java,0,0,0,0,0,0,0,0,0,0,0,0,0,NO,0,0,0,0,0,0,0,0,0,0,0,0,0,0,0,0,0,0,0,0,0,0,0,0,0,0,0,0,0,0,0,0,0,0,0,0,0,0,0,0,0,0,0,0,0,0,0,0,0,43
hbase,0.90.1,0.92.0,F:/corpus/hbase/hbase#2011-02-18-09-37-19#0.90.1#ed25749/src/main/java/org/apache/hadoop/hbase/regionserver/ChangedReadersObserver.java,F:/corpus/hbase/hbase#2011-02-18-09-37-19#0.90.1#ed25749/src/main/java/org/apache/hadoop/hbase/regionserver/ChangedReadersObserver.java,0,0,0,0,1,0,0,0,0,0,0,0,0,NO,0,0,0,0,0,0,0,0,0,0,0,0,0,0,0,0,0,0,0,0,0,0,0,0,0,0,0,0,0,0,0,0,0,0,0,0,0,0,0,0,0,0,0,0,0,0,0,0,0,35
hbase,0.90.1,0.92.0,F:/corpus/hbase/hbase#2011-02-18-09-37-19#0.90.1#ed25749/src/main/java/org/apache/hadoop/hbase/regionserver/ColumnCount.java,F:/corpus/hbase/hbase#2011-02-18-09-37-19#0.90.1#ed25749/src/main/java/org/apache/hadoop/hbase/regionserver/ColumnCount.java,0,0,0,0,0,0,0,0,0,0,0,0,0,NO,0,0,0,0,0,0,0,0,0,0,0,0,0,0,0,0,0,0,0,0,0,0,0,0,0,0,0,0,0,0,0,0,0,0,0,0,0,0,0,0,0,0,0,0,0,0,0,0,0,121
hbase,0.90.1,0.92.0,F:/corpus/hbase/hbase#2011-02-18-09-37-19#0.90.1#ed25749/src/main/java/org/apache/hadoop/hbase/regionserver/DebugPrint.java,F:/corpus/hbase/hbase#2011-02-18-09-37-19#0.90.1#ed25749/src/main/java/org/apache/hadoop/hbase/regionserver/DebugPrint.java,0,0,0,0,0,0,0,0,0,0,0,0,0,NO,0,0,0,0,0,0,0,0,0,0,0,0,0,0,0,0,0,0,0,0,0,0,0,0,0,0,0,0,0,0,0,0,0,0,0,0,0,0,0,0,0,0,0,0,0,0,0,0,0,69
hbase,0.90.1,0.92.0,F:/corpus/hbase/hbase#2011-02-18-09-37-19#0.90.1#ed25749/src/main/java/org/apache/hadoop/hbase/regionserver/DeleteTracker.java,F:/corpus/hbase/hbase#2011-02-18-09-37-19#0.90.1#ed25749/src/main/java/org/apache/hadoop/hbase/regionserver/DeleteTracker.java,0,0,0,0,1,0,0,0,0,0,0,0,0,NO,0,0,0,0,0,0,0,0,0,0,0,0,0,0,0,0,0,0,0,0,0,0,0,0,0,0,0,0,0,0,0,0,0,0,0,0,0,0,0,0,0,0,0,0,0,0,0,0,0,97
hbase,0.90.1,0.92.0,F:/corpus/hbase/hbase#2011-02-18-09-37-19#0.90.1#ed25749/src/main/java/org/apache/hadoop/hbase/regionserver/FlushRequester.java,F:/corpus/hbase/hbase#2011-02-18-09-37-19#0.90.1#ed25749/src/main/java/org/apache/hadoop/hbase/regionserver/FlushRequester.java,0,0,0,0,0,0,0,0,0,0,0,0,0,NO,0,0,0,0,0,0,0,0,0,0,0,0,0,0,0,0,0,0,0,0,0,0,0,0,0,0,0,0,0,0,0,0,0,0,0,0,0,0,0,0,0,0,0,0,0,0,0,0,0,33
hbase,0.90.1,0.92.0,F:/corpus/hbase/hbase#2011-02-18-09-37-19#0.90.1#ed25749/src/main/java/org/apache/hadoop/hbase/regionserver/GetClosestRowBeforeTracker.java,F:/corpus/hbase/hbase#2011-02-18-09-37-19#0.90.1#ed25749/src/main/java/org/apache/hadoop/hbase/regionserver/GetClosestRowBeforeTracker.java,0,0,0,0,0,0,0,0,0,0,0,0,0,NO,0,0,0,0,0,0,0,0,0,0,0,0,0,0,0,0,0,0,0,0,0,0,0,0,0,0,0,0,0,0,0,0,0,0,0,0,0,0,0,0,0,0,0,0,0,0,0,0,0,240
hbase,0.90.1,0.92.0,F:/corpus/hbase/hbase#2011-02-18-09-37-19#0.90.1#ed25749/src/main/java/org/apache/hadoop/hbase/regionserver/HRegionServerCommandLine.java,F:/corpus/hbase/hbase#2011-02-18-09-37-19#0.90.1#ed25749/src/main/java/org/apache/hadoop/hbase/regionserver/HRegionServerCommandLine.java,0,0,0,0,0,0,0,0,0,0,0,0,0,NO,0,0,0,0,0,0,0,0,0,0,0,0,0,0,0,0,0,0,0,0,0,0,0,0,0,0,0,0,0,0,0,0,0,0,0,0,0,0,0,0,0,0,0,0,0,0,0,0,0,87
hbase,0.90.1,0.92.0,F:/corpus/hbase/hbase#2011-02-18-09-37-19#0.90.1#ed25749/src/main/java/org/apache/hadoop/hbase/regionserver/InternalScan.java,F:/corpus/hbase/hbase#2011-02-18-09-37-19#0.90.1#ed25749/src/main/java/org/apache/hadoop/hbase/regionserver/InternalScan.java,0,0,0,0,0,0,0,0,0,0,0,0,0,NO,0,0,0,0,0,0,0,0,0,0,0,0,0,0,0,0,0,0,0,0,0,0,0,0,0,0,0,0,0,0,0,0,0,0,0,0,0,0,0,0,0,0,0,0,0,0,0,0,0,78
hbase,0.90.1,0.92.0,F:/corpus/hbase/hbase#2011-02-18-09-37-19#0.90.1#ed25749/src/main/java/org/apache/hadoop/hbase/regionserver/InternalScanner.java,F:/corpus/hbase/hbase#2011-02-18-09-37-19#0.90.1#ed25749/src/main/java/org/apache/hadoop/hbase/regionserver/InternalScanner.java,0,0,0,0,0,0,0,0,0,0,0,0,0,NO,0,0,0,0,0,0,0,0,0,0,0,0,0,0,0,0,0,0,0,0,0,0,0,0,0,0,0,0,0,0,0,0,0,0,0,0,0,0,0,0,0,0,0,0,0,0,0,0,0,66
hbase,0.90.1,0.92.0,F:/corpus/hbase/hbase#2011-02-18-09-37-19#0.90.1#ed25749/src/main/java/org/apache/hadoop/hbase/regionserver/LeaseException.java,F:/corpus/hbase/hbase#2011-02-18-09-37-19#0.90.1#ed25749/src/main/java/org/apache/hadoop/hbase/regionserver/LeaseException.java,0,0,0,0,0,0,0,0,0,0,0,0,0,NO,0,0,0,0,0,0,0,0,0,0,0,0,0,0,0,0,0,0,0,0,0,0,0,0,0,0,0,0,0,0,0,0,0,0,0,0,0,0,0,0,0,0,0,0,0,0,0,0,0,42
hbase,0.90.1,0.92.0,F:/corpus/hbase/hbase#2011-02-18-09-37-19#0.90.1#ed25749/src/main/java/org/apache/hadoop/hbase/regionserver/LeaseListener.java,F:/corpus/hbase/hbase#2011-02-18-09-37-19#0.90.1#ed25749/src/main/java/org/apache/hadoop/hbase/regionserver/LeaseListener.java,0,0,0,0,0,0,0,0,0,0,0,0,0,NO,0,0,0,0,0,0,0,0,0,0,0,0,0,0,0,0,0,0,0,0,0,0,0,0,0,0,0,0,0,0,0,0,0,0,0,0,0,0,0,0,0,0,0,0,0,0,0,0,0,34
hbase,0.90.1,0.92.0,F:/corpus/hbase/hbase#2011-02-18-09-37-19#0.90.1#ed25749/src/main/java/org/apache/hadoop/hbase/regionserver/LruHashMap.java,F:/corpus/hbase/hbase#2011-02-18-09-37-19#0.90.1#ed25749/src/main/java/org/apache/hadoop/hbase/regionserver/LruHashMap.java,0,1,0,0,2,0,0,0,0,0,0,0,0,NO,0,0,0,0,0,0,0,0,0,0,0,0,0,0,0,0,0,0,0,0,0,0,0,0,0,0,0,0,0,0,0,0,0,0,0,0,0,0,0,0,0,0,0,0,0,0,0,0,0,1099
hbase,0.90.1,0.92.0,F:/corpus/hbase/hbase#2011-02-18-09-37-19#0.90.1#ed25749/src/main/java/org/apache/hadoop/hbase/regionserver/metrics/RegionServerStatistics.java,F:/corpus/hbase/hbase#2011-02-18-09-37-19#0.90.1#ed25749/src/main/java/org/apache/hadoop/hbase/regionserver/metrics/RegionServerStatistics.java,0,0,0,0,1,0,0,0,0,0,0,0,0,NO,0,0,0,0,0,0,0,0,0,0,0,0,0,0,0,0,0,0,0,0,0,0,0,0,0,0,0,0,0,0,0,0,0,0,0,0,0,0,0,0,0,0,0,0,0,0,0,0,0,47
hbase,0.90.1,0.92.0,F:/corpus/hbase/hbase#2011-02-18-09-37-19#0.90.1#ed25749/src/main/java/org/apache/hadoop/hbase/regionserver/NoSuchColumnFamilyException.java,F:/corpus/hbase/hbase#2011-02-18-09-37-19#0.90.1#ed25749/src/main/java/org/apache/hadoop/hbase/regionserver/NoSuchColumnFamilyException.java,0,0,0,0,0,0,0,0,0,0,0,0,0,NO,0,0,0,0,0,0,0,0,0,0,0,0,0,0,0,0,0,0,0,0,0,0,0,0,0,0,0,0,0,0,0,0,0,0,0,0,0,0,0,0,0,0,0,0,0,0,0,0,0,41
hbase,0.90.1,0.92.0,F:/corpus/hbase/hbase#2011-02-18-09-37-19#0.90.1#ed25749/src/main/java/org/apache/hadoop/hbase/regionserver/RegionServerRunningException.java,F:/corpus/hbase/hbase#2011-02-18-09-37-19#0.90.1#ed25749/src/main/java/org/apache/hadoop/hbase/regionserver/RegionServerRunningException.java,0,0,0,0,0,0,0,0,0,0,0,0,0,NO,0,0,0,0,0,0,0,0,0,0,0,0,0,0,0,0,0,0,0,0,0,0,0,0,0,0,0,0,0,0,0,0,0,0,0,0,0,0,0,0,0,0,0,0,0,0,0,0,0,44
hbase,0.90.1,0.92.0,F:/corpus/hbase/hbase#2011-02-18-09-37-19#0.90.1#ed25749/src/main/java/org/apache/hadoop/hbase/regionserver/TimeRangeTracker.java,F:/corpus/hbase/hbase#2011-02-18-09-37-19#0.90.1#ed25749/src/main/java/org/apache/hadoop/hbase/regionserver/TimeRangeTracker.java,0,0,0,0,0,0,0,0,0,0,0,0,0,NO,0,0,0,0,0,0,0,0,0,0,0,0,0,0,0,0,0,0,0,0,0,0,0,0,0,0,0,0,0,0,0,0,0,0,0,0,0,0,0,0,0,0,0,0,0,0,0,0,0,147
hbase,0.90.1,0.92.0,F:/corpus/hbase/hbase#2011-02-18-09-37-19#0.90.1#ed25749/src/main/java/org/apache/hadoop/hbase/regionserver/wal/FailedLogCloseException.java,F:/corpus/hbase/hbase#2011-02-18-09-37-19#0.90.1#ed25749/src/main/java/org/apache/hadoop/hbase/regionserver/wal/FailedLogCloseException.java,0,0,0,0,0,0,0,0,0,0,0,0,0,NO,0,0,0,0,0,0,0,0,0,0,0,0,0,0,0,0,0,0,0,0,0,0,0,0,0,0,0,0,0,0,0,0,0,0,0,0,0,0,0,0,0,0,0,0,0,0,0,0,0,44
hbase,0.90.1,0.92.0,F:/corpus/hbase/hbase#2011-02-18-09-37-19#0.90.1#ed25749/src/main/java/org/apache/hadoop/hbase/regionserver/wal/OrphanHLogAfterSplitException.java,F:/corpus/hbase/hbase#2011-02-18-09-37-19#0.90.1#ed25749/src/main/java/org/apache/hadoop/hbase/regionserver/wal/OrphanHLogAfterSplitException.java,0,0,0,0,0,0,0,0,0,0,0,0,0,NO,0,0,0,0,0,0,0,0,0,0,0,0,0,0,0,0,0,0,0,0,0,0,0,0,0,0,0,0,0,0,0,0,0,0,0,0,0,0,0,0,0,0,0,0,0,0,0,0,0,40
hbase,0.90.1,0.92.0,F:/corpus/hbase/hbase#2011-02-18-09-37-19#0.90.1#ed25749/src/main/java/org/apache/hadoop/hbase/regionserver/wal/WALEdit.java,F:/corpus/hbase/hbase#2011-02-18-09-37-19#0.90.1#ed25749/src/main/java/org/apache/hadoop/hbase/regionserver/wal/WALEdit.java,0,0,0,0,0,0,0,0,0,0,0,2,0,NO,0,0,0,0,0,0,0,0,0,0,0,0,0,0,0,0,0,0,0,0,0,0,0,0,0,0,0,0,0,0,0,0,0,0,0,0,0,0,0,0,0,0,0,0,0,0,0,0,0,188
hbase,0.90.1,0.92.0,F:/corpus/hbase/hbase#2011-02-18-09-37-19#0.90.1#ed25749/src/main/java/org/apache/hadoop/hbase/regionserver/WrongRegionException.java,F:/corpus/hbase/hbase#2011-02-18-09-37-19#0.90.1#ed25749/src/main/java/org/apache/hadoop/hbase/regionserver/WrongRegionException.java,0,0,0,0,0,0,0,0,0,0,0,0,0,NO,0,0,0,0,0,0,0,0,0,0,0,0,0,0,0,0,0,0,0,0,0,0,0,0,0,0,0,0,0,0,0,0,0,0,0,0,0,0,0,0,0,0,0,0,0,0,0,0,0,42
hbase,0.90.1,0.92.0,F:/corpus/hbase/hbase#2011-02-18-09-37-19#0.90.1#ed25749/src/main/java/org/apache/hadoop/hbase/RemoteExceptionHandler.java,F:/corpus/hbase/hbase#2011-02-18-09-37-19#0.90.1#ed25749/src/main/java/org/apache/hadoop/hbase/RemoteExceptionHandler.java,0,0,0,0,0,0,0,0,0,0,0,1,0,NO,0,0,0,0,0,0,0,0,0,0,0,0,0,0,0,0,0,0,0,0,0,0,0,0,0,0,0,0,0,0,0,0,0,0,0,0,0,0,0,0,0,0,0,0,0,0,0,0,0,120
hbase,0.90.1,0.92.0,F:/corpus/hbase/hbase#2011-02-18-09-37-19#0.90.1#ed25749/src/main/java/org/apache/hadoop/hbase/replication/regionserver/ReplicationSinkMetrics.java,F:/corpus/hbase/hbase#2011-02-18-09-37-19#0.90.1#ed25749/src/main/java/org/apache/hadoop/hbase/replication/regionserver/ReplicationSinkMetrics.java,0,0,1,0,1,0,0,0,0,0,0,0,0,NO,0,0,0,0,0,0,0,0,0,0,0,0,0,0,0,0,0,0,0,0,0,0,0,0,0,0,0,0,0,0,0,0,0,0,0,0,0,0,0,0,0,0,0,0,0,0,0,0,0,81
hbase,0.90.1,0.92.0,F:/corpus/hbase/hbase#2011-02-18-09-37-19#0.90.1#ed25749/src/main/java/org/apache/hadoop/hbase/replication/regionserver/ReplicationSourceInterface.java,F:/corpus/hbase/hbase#2011-02-18-09-37-19#0.90.1#ed25749/src/main/java/org/apache/hadoop/hbase/replication/regionserver/ReplicationSourceInterface.java,0,0,0,0,0,0,0,0,0,0,0,0,0,NO,0,0,0,0,0,0,0,0,0,0,0,0,0,0,0,0,0,0,0,0,0,0,0,0,0,0,0,0,0,0,0,0,0,0,0,0,0,0,0,0,0,0,0,0,0,0,0,0,0,101
hbase,0.90.1,0.92.0,F:/corpus/hbase/hbase#2011-02-18-09-37-19#0.90.1#ed25749/src/main/java/org/apache/hadoop/hbase/replication/regionserver/ReplicationStatistics.java,F:/corpus/hbase/hbase#2011-02-18-09-37-19#0.90.1#ed25749/src/main/java/org/apache/hadoop/hbase/replication/regionserver/ReplicationStatistics.java,0,0,0,0,0,0,0,0,0,0,0,0,0,NO,0,0,0,0,0,0,0,0,0,0,0,0,0,0,0,0,0,0,0,0,0,0,0,0,0,0,0,0,0,0,0,0,0,0,0,0,0,0,0,0,0,0,0,0,0,0,0,0,0,45
hbase,0.90.1,0.92.0,F:/corpus/hbase/hbase#2011-02-18-09-37-19#0.90.1#ed25749/src/main/java/org/apache/hadoop/hbase/rest/client/Client.java,F:/corpus/hbase/hbase#2011-02-18-09-37-19#0.90.1#ed25749/src/main/java/org/apache/hadoop/hbase/rest/client/Client.java,0,0,0,0,0,0,0,0,0,0,0,3,0,NO,0,0,0,0,0,0,0,0,0,0,0,0,0,0,0,0,0,0,0,0,0,0,0,0,0,0,0,0,0,0,0,0,0,0,0,0,0,0,0,0,0,0,0,0,0,0,0,0,0,456
hbase,0.90.1,0.92.0,F:/corpus/hbase/hbase#2011-02-18-09-37-19#0.90.1#ed25749/src/main/java/org/apache/hadoop/hbase/rest/client/Cluster.java,F:/corpus/hbase/hbase#2011-02-18-09-37-19#0.90.1#ed25749/src/main/java/org/apache/hadoop/hbase/rest/client/Cluster.java,0,0,0,0,0,0,0,0,0,0,0,1,0,NO,0,0,0,0,0,0,0,0,0,0,0,0,0,0,0,0,0,0,0,0,0,0,0,0,0,0,0,0,0,0,0,0,0,0,0,0,0,0,0,0,0,0,0,0,0,0,0,0,0,99
hbase,0.90.1,0.92.0,F:/corpus/hbase/hbase#2011-02-18-09-37-19#0.90.1#ed25749/src/main/java/org/apache/hadoop/hbase/rest/client/RemoteAdmin.java,F:/corpus/hbase/hbase#2011-02-18-09-37-19#0.90.1#ed25749/src/main/java/org/apache/hadoop/hbase/rest/client/RemoteAdmin.java,0,0,0,0,0,0,0,0,0,0,0,0,0,NO,0,0,0,0,0,0,0,0,0,0,0,0,0,0,0,0,0,0,0,0,0,0,0,0,0,0,0,0,0,0,0,0,0,0,0,0,0,0,0,0,0,0,0,0,0,0,0,0,0,188
hbase,0.90.1,0.92.0,F:/corpus/hbase/hbase#2011-02-18-09-37-19#0.90.1#ed25749/src/main/java/org/apache/hadoop/hbase/rest/client/Response.java,F:/corpus/hbase/hbase#2011-02-18-09-37-19#0.90.1#ed25749/src/main/java/org/apache/hadoop/hbase/rest/client/Response.java,1,0,0,0,0,0,0,0,0,0,0,2,0,NO,0,0,0,0,0,0,0,0,0,0,0,0,0,0,0,0,0,0,0,0,0,0,0,0,0,0,0,0,0,0,0,0,0,0,0,0,0,0,0,0,0,0,0,0,0,0,0,0,0,126
hbase,0.90.1,0.92.0,F:/corpus/hbase/hbase#2011-02-18-09-37-19#0.90.1#ed25749/src/main/java/org/apache/hadoop/hbase/rest/Constants.java,F:/corpus/hbase/hbase#2011-02-18-09-37-19#0.90.1#ed25749/src/main/java/org/apache/hadoop/hbase/rest/Constants.java,1,0,0,0,0,0,0,0,0,0,0,0,0,NO,0,0,0,0,0,0,0,0,0,0,0,0,0,0,0,0,0,0,0,0,0,0,0,0,0,0,0,0,0,0,0,0,0,0,0,0,0,0,0,0,0,0,0,0,0,0,0,0,0,39
hbase,0.90.1,0.92.0,F:/corpus/hbase/hbase#2011-02-18-09-37-19#0.90.1#ed25749/src/main/java/org/apache/hadoop/hbase/rest/ExistsResource.java,F:/corpus/hbase/hbase#2011-02-18-09-37-19#0.90.1#ed25749/src/main/java/org/apache/hadoop/hbase/rest/ExistsResource.java,0,0,0,0,1,0,0,0,0,0,0,0,0,NO,0,0,0,0,0,0,0,0,0,0,0,0,0,0,0,0,0,0,0,0,0,0,0,0,0,0,0,0,0,0,0,0,0,0,0,0,0,0,0,0,0,0,0,0,0,0,0,0,0,70
hbase,0.90.1,0.92.0,F:/corpus/hbase/hbase#2011-02-18-09-37-19#0.90.1#ed25749/src/main/java/org/apache/hadoop/hbase/rest/filter/GZIPRequestStream.java,F:/corpus/hbase/hbase#2011-02-18-09-37-19#0.90.1#ed25749/src/main/java/org/apache/hadoop/hbase/rest/filter/GZIPRequestStream.java,0,0,0,0,0,0,0,0,0,0,0,0,0,NO,0,0,0,0,0,0,0,0,0,0,0,0,0,0,0,0,0,0,0,0,0,0,0,0,0,0,0,0,0,0,0,0,0,0,0,0,0,0,0,0,0,0,0,0,0,0,0,0,0,56
hbase,0.90.1,0.92.0,F:/corpus/hbase/hbase#2011-02-18-09-37-19#0.90.1#ed25749/src/main/java/org/apache/hadoop/hbase/rest/filter/GZIPRequestWrapper.java,F:/corpus/hbase/hbase#2011-02-18-09-37-19#0.90.1#ed25749/src/main/java/org/apache/hadoop/hbase/rest/filter/GZIPRequestWrapper.java,0,0,0,0,0,0,0,0,0,0,0,0,0,NO,0,0,0,0,0,0,0,0,0,0,0,0,0,0,0,0,0,0,0,0,0,0,0,0,0,0,0,0,0,0,0,0,0,0,0,0,0,0,0,0,0,0,0,0,0,0,0,0,0,50
hbase,0.90.1,0.92.0,F:/corpus/hbase/hbase#2011-02-18-09-37-19#0.90.1#ed25749/src/main/java/org/apache/hadoop/hbase/rest/filter/GZIPResponseStream.java,F:/corpus/hbase/hbase#2011-02-18-09-37-19#0.90.1#ed25749/src/main/java/org/apache/hadoop/hbase/rest/filter/GZIPResponseStream.java,0,0,1,0,0,0,0,0,0,0,0,0,0,NO,0,0,0,0,0,0,0,0,0,0,0,0,0,0,0,0,0,0,0,0,0,0,0,0,0,0,0,0,0,0,0,0,0,0,0,0,0,0,0,0,0,0,0,0,0,0,0,0,0,76
hbase,0.90.1,0.92.0,F:/corpus/hbase/hbase#2011-02-18-09-37-19#0.90.1#ed25749/src/main/java/org/apache/hadoop/hbase/rest/metrics/RESTMetrics.java,F:/corpus/hbase/hbase#2011-02-18-09-37-19#0.90.1#ed25749/src/main/java/org/apache/hadoop/hbase/rest/metrics/RESTMetrics.java,0,0,0,0,1,0,0,0,0,0,0,1,0,NO,0,0,0,0,0,0,0,0,0,0,0,0,0,0,0,0,0,0,0,0,0,0,0,0,0,0,0,0,0,0,0,0,0,0,0,0,0,0,0,0,0,0,0,0,0,0,0,0,0,87
hbase,0.90.1,0.92.0,F:/corpus/hbase/hbase#2011-02-18-09-37-19#0.90.1#ed25749/src/main/java/org/apache/hadoop/hbase/rest/metrics/RESTStatistics.java,F:/corpus/hbase/hbase#2011-02-18-09-37-19#0.90.1#ed25749/src/main/java/org/apache/hadoop/hbase/rest/metrics/RESTStatistics.java,0,0,0,0,0,0,0,0,0,0,0,0,0,NO,0,0,0,0,0,0,0,0,0,0,0,0,0,0,0,0,0,0,0,0,0,0,0,0,0,0,0,0,0,0,0,0,0,0,0,0,0,0,0,0,0,0,0,0,0,0,0,0,0,44
hbase,0.90.1,0.92.0,F:/corpus/hbase/hbase#2011-02-18-09-37-19#0.90.1#ed25749/src/main/java/org/apache/hadoop/hbase/rest/model/CellModel.java,F:/corpus/hbase/hbase#2011-02-18-09-37-19#0.90.1#ed25749/src/main/java/org/apache/hadoop/hbase/rest/model/CellModel.java,1,0,0,0,0,0,0,0,0,0,0,3,0,NO,0,0,0,0,0,0,0,0,0,0,0,0,0,0,0,0,0,0,0,0,0,0,0,0,0,0,0,0,0,0,0,0,0,0,0,0,0,0,0,0,0,0,0,0,0,0,0,0,0,198
hbase,0.90.1,0.92.0,F:/corpus/hbase/hbase#2011-02-18-09-37-19#0.90.1#ed25749/src/main/java/org/apache/hadoop/hbase/rest/model/CellSetModel.java,F:/corpus/hbase/hbase#2011-02-18-09-37-19#0.90.1#ed25749/src/main/java/org/apache/hadoop/hbase/rest/model/CellSetModel.java,0,0,0,0,0,0,0,0,2,0,0,2,0,NO,0,0,0,0,0,0,0,0,0,0,0,0,0,0,0,0,0,0,0,0,0,0,0,0,0,0,0,0,0,0,0,0,0,0,0,0,0,0,0,0,0,0,0,0,0,0,0,0,0,149
hbase,0.90.1,0.92.0,F:/corpus/hbase/hbase#2011-02-18-09-37-19#0.90.1#ed25749/src/main/java/org/apache/hadoop/hbase/rest/model/ColumnSchemaModel.java,F:/corpus/hbase/hbase#2011-02-18-09-37-19#0.90.1#ed25749/src/main/java/org/apache/hadoop/hbase/rest/model/ColumnSchemaModel.java,0,0,0,0,0,0,0,0,0,0,0,0,0,NO,0,0,0,0,0,0,0,0,0,0,0,0,0,0,0,0,0,0,0,0,0,0,0,0,0,0,0,0,0,0,0,0,0,0,0,0,0,0,0,0,0,0,0,0,0,0,0,0,0,236
hbase,0.90.1,0.92.0,F:/corpus/hbase/hbase#2011-02-18-09-37-19#0.90.1#ed25749/src/main/java/org/apache/hadoop/hbase/rest/model/RowModel.java,F:/corpus/hbase/hbase#2011-02-18-09-37-19#0.90.1#ed25749/src/main/java/org/apache/hadoop/hbase/rest/model/RowModel.java,0,0,0,0,1,0,0,0,0,0,0,3,0,NO,0,0,0,0,0,0,0,0,0,0,0,0,0,0,0,0,0,0,0,0,0,0,0,0,0,0,0,0,0,0,0,0,0,0,0,0,0,0,0,0,0,0,0,0,0,0,0,0,0,142
hbase,0.90.1,0.92.0,F:/corpus/hbase/hbase#2011-02-18-09-37-19#0.90.1#ed25749/src/main/java/org/apache/hadoop/hbase/rest/model/StorageClusterStatusModel.java,F:/corpus/hbase/hbase#2011-02-18-09-37-19#0.90.1#ed25749/src/main/java/org/apache/hadoop/hbase/rest/model/StorageClusterStatusModel.java,3,0,0,0,0,0,0,0,0,0,0,0,0,NO,0,0,0,0,0,0,0,0,0,0,0,0,0,0,0,0,0,0,0,0,0,0,0,0,0,0,0,0,0,0,0,0,0,0,0,0,0,0,0,0,0,0,0,0,0,0,0,0,0,620
hbase,0.90.1,0.92.0,F:/corpus/hbase/hbase#2011-02-18-09-37-19#0.90.1#ed25749/src/main/java/org/apache/hadoop/hbase/rest/model/StorageClusterVersionModel.java,F:/corpus/hbase/hbase#2011-02-18-09-37-19#0.90.1#ed25749/src/main/java/org/apache/hadoop/hbase/rest/model/StorageClusterVersionModel.java,0,0,0,0,0,0,0,0,0,0,0,0,0,NO,0,0,0,0,0,0,0,0,0,0,0,0,0,0,0,0,0,0,0,0,0,0,0,0,0,0,0,0,0,0,0,0,0,0,0,0,0,0,0,0,0,0,0,0,0,0,0,0,0,65
hbase,0.90.1,0.92.0,F:/corpus/hbase/hbase#2011-02-18-09-37-19#0.90.1#ed25749/src/main/java/org/apache/hadoop/hbase/rest/model/TableInfoModel.java,F:/corpus/hbase/hbase#2011-02-18-09-37-19#0.90.1#ed25749/src/main/java/org/apache/hadoop/hbase/rest/model/TableInfoModel.java,0,0,0,0,0,0,0,0,0,0,0,0,0,NO,0,0,0,0,0,0,0,0,0,0,0,0,0,0,0,0,0,0,0,0,0,0,0,0,0,0,0,0,0,0,0,0,0,0,0,0,0,0,0,0,0,0,0,0,0,0,0,0,0,159
hbase,0.90.1,0.92.0,F:/corpus/hbase/hbase#2011-02-18-09-37-19#0.90.1#ed25749/src/main/java/org/apache/hadoop/hbase/rest/model/TableListModel.java,F:/corpus/hbase/hbase#2011-02-18-09-37-19#0.90.1#ed25749/src/main/java/org/apache/hadoop/hbase/rest/model/TableListModel.java,0,0,0,0,0,0,0,0,0,0,0,0,0,NO,0,0,0,0,0,0,0,0,0,0,0,0,0,0,0,0,0,0,0,0,0,0,0,0,0,0,0,0,0,0,0,0,0,0,0,0,0,0,0,0,0,0,0,0,0,0,0,0,0,112
hbase,0.90.1,0.92.0,F:/corpus/hbase/hbase#2011-02-18-09-37-19#0.90.1#ed25749/src/main/java/org/apache/hadoop/hbase/rest/model/TableModel.java,F:/corpus/hbase/hbase#2011-02-18-09-37-19#0.90.1#ed25749/src/main/java/org/apache/hadoop/hbase/rest/model/TableModel.java,0,0,0,0,0,0,0,0,0,0,0,0,0,NO,0,0,0,0,0,0,0,0,0,0,0,0,0,0,0,0,0,0,0,0,0,0,0,0,0,0,0,0,0,0,0,0,0,0,0,0,0,0,0,0,0,0,0,0,0,0,0,0,0,82
hbase,0.90.1,0.92.0,F:/corpus/hbase/hbase#2011-02-18-09-37-19#0.90.1#ed25749/src/main/java/org/apache/hadoop/hbase/rest/model/TableRegionModel.java,F:/corpus/hbase/hbase#2011-02-18-09-37-19#0.90.1#ed25749/src/main/java/org/apache/hadoop/hbase/rest/model/TableRegionModel.java,1,0,0,0,0,0,0,0,0,0,0,0,0,NO,0,0,0,0,0,0,0,0,0,0,0,0,0,0,0,0,0,0,0,0,0,0,0,0,0,0,0,0,0,0,0,0,0,0,0,0,0,0,0,0,0,0,0,0,0,0,0,0,0,195
hbase,0.90.1,0.92.0,F:/corpus/hbase/hbase#2011-02-18-09-37-19#0.90.1#ed25749/src/main/java/org/apache/hadoop/hbase/rest/model/TableSchemaModel.java,F:/corpus/hbase/hbase#2011-02-18-09-37-19#0.90.1#ed25749/src/main/java/org/apache/hadoop/hbase/rest/model/TableSchemaModel.java,0,0,0,0,0,0,0,0,0,0,0,0,0,NO,0,0,0,0,0,0,0,0,0,0,0,0,0,0,0,0,0,0,0,0,0,0,0,0,0,0,0,0,0,0,0,0,0,0,0,0,0,0,0,0,0,0,0,0,0,0,0,0,0,353
hbase,0.90.1,0.92.0,F:/corpus/hbase/hbase#2011-02-18-09-37-19#0.90.1#ed25749/src/main/java/org/apache/hadoop/hbase/rest/model/VersionModel.java,F:/corpus/hbase/hbase#2011-02-18-09-37-19#0.90.1#ed25749/src/main/java/org/apache/hadoop/hbase/rest/model/VersionModel.java,1,0,0,0,0,1,0,0,0,0,0,0,0,NO,0,0,0,0,0,0,0,0,0,0,0,0,0,0,0,0,0,0,0,0,0,0,0,0,0,0,0,0,0,0,0,0,0,0,0,0,0,0,0,0,0,0,0,0,0,0,0,0,0,208
hbase,0.90.1,0.92.0,F:/corpus/hbase/hbase#2011-02-18-09-37-19#0.90.1#ed25749/src/main/java/org/apache/hadoop/hbase/rest/ProtobufMessageHandler.java,F:/corpus/hbase/hbase#2011-02-18-09-37-19#0.90.1#ed25749/src/main/java/org/apache/hadoop/hbase/rest/ProtobufMessageHandler.java,0,0,0,0,0,0,0,0,0,0,0,0,0,NO,0,0,0,0,0,0,0,0,0,0,0,0,0,0,0,0,0,0,0,0,0,0,0,0,0,0,0,0,0,0,0,0,0,0,0,0,0,0,0,0,0,0,0,0,0,0,0,0,0,44
hbase,0.90.1,0.92.0,F:/corpus/hbase/hbase#2011-02-18-09-37-19#0.90.1#ed25749/src/main/java/org/apache/hadoop/hbase/rest/provider/consumer/ProtobufMessageBodyConsumer.java,F:/corpus/hbase/hbase#2011-02-18-09-37-19#0.90.1#ed25749/src/main/java/org/apache/hadoop/hbase/rest/provider/consumer/ProtobufMessageBodyConsumer.java,0,0,0,0,2,0,0,0,0,0,0,0,0,NO,0,0,0,0,0,0,0,0,0,0,0,0,0,0,0,0,0,0,0,0,0,0,0,0,0,0,0,0,0,0,0,0,0,0,0,0,0,0,0,0,0,0,0,0,0,0,0,0,0,87
hbase,0.90.1,0.92.0,F:/corpus/hbase/hbase#2011-02-18-09-37-19#0.90.1#ed25749/src/main/java/org/apache/hadoop/hbase/rest/provider/JAXBContextResolver.java,F:/corpus/hbase/hbase#2011-02-18-09-37-19#0.90.1#ed25749/src/main/java/org/apache/hadoop/hbase/rest/provider/JAXBContextResolver.java,0,0,0,0,0,0,0,0,0,0,0,0,0,NO,0,0,0,0,0,0,0,0,0,0,0,0,0,0,0,0,0,0,0,0,0,0,0,0,0,0,0,0,0,0,0,0,0,0,0,0,0,0,0,0,0,0,0,0,0,0,0,0,0,88
hbase,0.90.1,0.92.0,F:/corpus/hbase/hbase#2011-02-18-09-37-19#0.90.1#ed25749/src/main/java/org/apache/hadoop/hbase/rest/provider/producer/PlainTextMessageBodyProducer.java,F:/corpus/hbase/hbase#2011-02-18-09-37-19#0.90.1#ed25749/src/main/java/org/apache/hadoop/hbase/rest/provider/producer/PlainTextMessageBodyProducer.java,0,0,1,0,3,0,0,0,0,0,0,0,0,NO,0,0,0,0,0,0,0,0,0,0,0,0,0,0,0,0,0,0,0,0,0,0,0,0,0,0,0,0,0,0,0,0,0,0,0,0,0,0,0,0,0,0,0,0,0,0,0,0,0,73
hbase,0.90.1,0.92.0,F:/corpus/hbase/hbase#2011-02-18-09-37-19#0.90.1#ed25749/src/main/java/org/apache/hadoop/hbase/rest/provider/producer/ProtobufMessageBodyProducer.java,F:/corpus/hbase/hbase#2011-02-18-09-37-19#0.90.1#ed25749/src/main/java/org/apache/hadoop/hbase/rest/provider/producer/ProtobufMessageBodyProducer.java,0,0,0,0,3,0,0,0,0,0,0,0,0,NO,0,0,0,0,0,0,0,0,0,0,0,0,0,0,0,0,0,0,0,0,0,0,0,0,0,0,0,0,0,0,0,0,0,0,0,0,0,0,0,0,0,0,0,0,0,0,0,0,0,80
hbase,0.90.1,0.92.0,F:/corpus/hbase/hbase#2011-02-18-09-37-19#0.90.1#ed25749/src/main/java/org/apache/hadoop/hbase/rest/RegionsResource.java,F:/corpus/hbase/hbase#2011-02-18-09-37-19#0.90.1#ed25749/src/main/java/org/apache/hadoop/hbase/rest/RegionsResource.java,0,0,0,0,0,0,0,0,0,0,0,0,0,NO,0,0,0,0,0,0,0,0,0,0,0,0,0,0,0,0,0,0,0,0,0,0,0,0,0,0,0,0,0,0,0,0,0,0,0,0,0,0,0,0,0,0,0,0,0,0,0,0,0,111
hbase,0.90.1,0.92.0,F:/corpus/hbase/hbase#2011-02-18-09-37-19#0.90.1#ed25749/src/main/java/org/apache/hadoop/hbase/rest/ResourceBase.java,F:/corpus/hbase/hbase#2011-02-18-09-37-19#0.90.1#ed25749/src/main/java/org/apache/hadoop/hbase/rest/ResourceBase.java,0,0,0,0,0,0,0,0,0,0,0,0,0,NO,0,0,0,0,0,0,0,0,0,0,0,0,0,0,0,0,0,0,0,0,0,0,0,0,0,0,0,0,0,0,0,0,0,0,0,0,0,0,0,0,0,0,0,0,0,0,0,0,0,32
hbase,0.90.1,0.92.0,F:/corpus/hbase/hbase#2011-02-18-09-37-19#0.90.1#ed25749/src/main/java/org/apache/hadoop/hbase/rest/ResourceConfig.java,F:/corpus/hbase/hbase#2011-02-18-09-37-19#0.90.1#ed25749/src/main/java/org/apache/hadoop/hbase/rest/ResourceConfig.java,0,0,0,0,0,0,0,0,0,0,0,0,0,NO,0,0,0,0,0,0,0,0,0,0,0,0,0,0,0,0,0,0,0,0,0,0,0,0,0,0,0,0,0,0,0,0,0,0,0,0,0,0,0,0,0,0,0,0,0,0,0,0,0,29
hbase,0.90.1,0.92.0,F:/corpus/hbase/hbase#2011-02-18-09-37-19#0.90.1#ed25749/src/main/java/org/apache/hadoop/hbase/rest/RESTServlet.java,F:/corpus/hbase/hbase#2011-02-18-09-37-19#0.90.1#ed25749/src/main/java/org/apache/hadoop/hbase/rest/RESTServlet.java,0,0,0,0,0,0,0,0,0,0,0,3,0,NO,0,0,0,0,0,0,0,0,0,0,0,0,0,0,0,0,0,0,0,0,0,0,0,0,0,0,0,0,0,0,0,0,0,0,0,0,0,0,0,0,0,0,0,0,0,0,0,0,0,94
hbase,0.90.1,0.92.0,F:/corpus/hbase/hbase#2011-02-18-09-37-19#0.90.1#ed25749/src/main/java/org/apache/hadoop/hbase/rest/ResultGenerator.java,F:/corpus/hbase/hbase#2011-02-18-09-37-19#0.90.1#ed25749/src/main/java/org/apache/hadoop/hbase/rest/ResultGenerator.java,0,0,0,0,0,0,0,0,0,0,0,0,0,NO,0,0,0,0,0,0,0,0,0,0,0,0,0,0,0,0,0,0,0,0,0,0,0,0,0,0,0,0,0,0,0,0,0,0,0,0,0,0,0,0,0,0,0,0,0,0,0,0,0,48
hbase,0.90.1,0.92.0,F:/corpus/hbase/hbase#2011-02-18-09-37-19#0.90.1#ed25749/src/main/java/org/apache/hadoop/hbase/rest/RootResource.java,F:/corpus/hbase/hbase#2011-02-18-09-37-19#0.90.1#ed25749/src/main/java/org/apache/hadoop/hbase/rest/RootResource.java,0,0,0,0,0,0,0,0,0,0,0,0,0,NO,0,0,0,0,0,0,0,0,0,0,0,0,0,0,0,0,0,0,0,0,0,0,0,0,0,0,0,0,0,0,0,0,0,0,0,0,0,0,0,0,0,0,0,0,0,0,0,0,0,106
hbase,0.90.1,0.92.0,F:/corpus/hbase/hbase#2011-02-18-09-37-19#0.90.1#ed25749/src/main/java/org/apache/hadoop/hbase/rest/RowResultGenerator.java,F:/corpus/hbase/hbase#2011-02-18-09-37-19#0.90.1#ed25749/src/main/java/org/apache/hadoop/hbase/rest/RowResultGenerator.java,0,0,0,0,0,2,0,1,0,0,0,0,0,NO,0,0,0,0,0,0,0,0,0,0,0,0,0,0,0,0,0,0,0,0,0,0,0,0,0,0,0,0,0,0,0,0,0,0,0,0,0,0,0,0,0,0,0,0,0,0,0,0,0,126
hbase,0.90.1,0.92.0,F:/corpus/hbase/hbase#2011-02-18-09-37-19#0.90.1#ed25749/src/main/java/org/apache/hadoop/hbase/rest/ScannerInstanceResource.java,F:/corpus/hbase/hbase#2011-02-18-09-37-19#0.90.1#ed25749/src/main/java/org/apache/hadoop/hbase/rest/ScannerInstanceResource.java,0,0,0,0,1,0,0,1,0,0,0,0,0,NO,0,0,0,0,0,0,0,0,0,0,0,0,0,0,0,0,0,0,0,0,0,0,0,0,0,0,0,0,0,0,0,0,0,0,0,0,0,0,0,0,0,0,0,0,0,0,0,0,0,168
hbase,0.90.1,0.92.0,F:/corpus/hbase/hbase#2011-02-18-09-37-19#0.90.1#ed25749/src/main/java/org/apache/hadoop/hbase/rest/ScannerResultGenerator.java,F:/corpus/hbase/hbase#2011-02-18-09-37-19#0.90.1#ed25749/src/main/java/org/apache/hadoop/hbase/rest/ScannerResultGenerator.java,0,0,0,0,0,2,0,1,0,0,0,0,0,NO,0,0,0,0,0,0,0,0,0,0,0,0,0,0,0,0,0,0,0,0,0,0,0,0,0,0,0,0,0,0,0,0,0,0,0,0,0,0,0,0,0,0,0,0,0,0,0,0,0,178
hbase,0.90.1,0.92.0,F:/corpus/hbase/hbase#2011-02-18-09-37-19#0.90.1#ed25749/src/main/java/org/apache/hadoop/hbase/rest/SchemaResource.java,F:/corpus/hbase/hbase#2011-02-18-09-37-19#0.90.1#ed25749/src/main/java/org/apache/hadoop/hbase/rest/SchemaResource.java,0,0,0,0,1,0,0,0,1,0,0,0,0,NO,0,0,0,0,0,0,0,0,0,0,0,0,0,0,0,0,0,0,0,0,0,0,0,0,0,0,0,0,0,0,0,0,0,0,0,0,0,0,0,0,0,0,0,0,0,0,0,0,0,240
hbase,0.90.1,0.92.0,F:/corpus/hbase/hbase#2011-02-18-09-37-19#0.90.1#ed25749/src/main/java/org/apache/hadoop/hbase/rest/StorageClusterVersionResource.java,F:/corpus/hbase/hbase#2011-02-18-09-37-19#0.90.1#ed25749/src/main/java/org/apache/hadoop/hbase/rest/StorageClusterVersionResource.java,0,0,0,0,0,0,0,0,0,0,0,0,0,NO,0,0,0,0,0,0,0,0,0,0,0,0,0,0,0,0,0,0,0,0,0,0,0,0,0,0,0,0,0,0,0,0,0,0,0,0,0,0,0,0,0,0,0,0,0,0,0,0,0,78
hbase,0.90.1,0.92.0,F:/corpus/hbase/hbase#2011-02-18-09-37-19#0.90.1#ed25749/src/main/java/org/apache/hadoop/hbase/rest/transform/Base64.java,F:/corpus/hbase/hbase#2011-02-18-09-37-19#0.90.1#ed25749/src/main/java/org/apache/hadoop/hbase/rest/transform/Base64.java,0,0,0,0,0,0,0,0,0,0,0,0,0,NO,0,0,0,0,0,0,0,0,0,0,0,0,0,0,0,0,0,0,0,0,0,0,0,0,0,0,0,0,0,0,0,0,0,0,0,0,0,0,0,0,0,0,0,0,0,0,0,0,0,35
hbase,0.90.1,0.92.0,F:/corpus/hbase/hbase#2011-02-18-09-37-19#0.90.1#ed25749/src/main/java/org/apache/hadoop/hbase/rest/transform/NullTransform.java,F:/corpus/hbase/hbase#2011-02-18-09-37-19#0.90.1#ed25749/src/main/java/org/apache/hadoop/hbase/rest/transform/NullTransform.java,0,0,0,0,1,0,0,0,0,0,0,0,0,NO,0,0,0,0,0,0,0,0,0,0,0,0,0,0,0,0,0,0,0,0,0,0,0,0,0,0,0,0,0,0,0,0,0,0,0,0,0,0,0,0,0,0,0,0,0,0,0,0,0,28
hbase,0.90.1,0.92.0,F:/corpus/hbase/hbase#2011-02-18-09-37-19#0.90.1#ed25749/src/main/java/org/apache/hadoop/hbase/rest/transform/Transform.java,F:/corpus/hbase/hbase#2011-02-18-09-37-19#0.90.1#ed25749/src/main/java/org/apache/hadoop/hbase/rest/transform/Transform.java,0,0,0,0,0,0,0,0,0,0,0,0,0,NO,0,0,0,0,0,0,0,0,0,0,0,0,0,0,0,0,0,0,0,0,0,0,0,0,0,0,0,0,0,0,0,0,0,0,0,0,0,0,0,0,0,0,0,0,0,0,0,0,0,44
hbase,0.90.1,0.92.0,F:/corpus/hbase/hbase#2011-02-18-09-37-19#0.90.1#ed25749/src/main/java/org/apache/hadoop/hbase/rest/VersionResource.java,F:/corpus/hbase/hbase#2011-02-18-09-37-19#0.90.1#ed25749/src/main/java/org/apache/hadoop/hbase/rest/VersionResource.java,0,0,0,0,0,0,0,0,0,0,0,0,0,NO,0,0,0,0,0,0,0,0,0,0,0,0,0,0,0,0,0,0,0,0,0,0,0,0,0,0,0,0,0,0,0,0,0,0,0,0,0,0,0,0,0,0,0,0,0,0,0,0,0,101
hbase,0.90.1,0.92.0,F:/corpus/hbase/hbase#2011-02-18-09-37-19#0.90.1#ed25749/src/main/java/org/apache/hadoop/hbase/Stoppable.java,F:/corpus/hbase/hbase#2011-02-18-09-37-19#0.90.1#ed25749/src/main/java/org/apache/hadoop/hbase/Stoppable.java,0,0,0,0,0,0,0,0,0,0,0,0,0,NO,0,0,0,0,0,0,0,0,0,0,0,0,0,0,0,0,0,0,0,0,0,0,0,0,0,0,0,0,0,0,0,0,0,0,0,0,0,0,0,0,0,0,0,0,0,0,0,0,0,36
hbase,0.90.1,0.92.0,F:/corpus/hbase/hbase#2011-02-18-09-37-19#0.90.1#ed25749/src/main/java/org/apache/hadoop/hbase/TableExistsException.java,F:/corpus/hbase/hbase#2011-02-18-09-37-19#0.90.1#ed25749/src/main/java/org/apache/hadoop/hbase/TableExistsException.java,0,0,0,0,0,0,0,0,0,0,0,0,0,NO,0,0,0,0,0,0,0,0,0,0,0,0,0,0,0,0,0,0,0,0,0,0,0,0,0,0,0,0,0,0,0,0,0,0,0,0,0,0,0,0,0,0,0,0,0,0,0,0,0,38
hbase,0.90.1,0.92.0,F:/corpus/hbase/hbase#2011-02-18-09-37-19#0.90.1#ed25749/src/main/java/org/apache/hadoop/hbase/TableNotDisabledException.java,F:/corpus/hbase/hbase#2011-02-18-09-37-19#0.90.1#ed25749/src/main/java/org/apache/hadoop/hbase/TableNotDisabledException.java,0,0,0,0,0,0,0,0,0,0,0,0,0,NO,0,0,0,0,0,0,0,0,0,0,0,0,0,0,0,0,0,0,0,0,0,0,0,0,0,0,0,0,0,0,0,0,0,0,0,0,0,0,0,0,0,0,0,0,0,0,0,0,0,50
hbase,0.90.1,0.92.0,F:/corpus/hbase/hbase#2011-02-18-09-37-19#0.90.1#ed25749/src/main/java/org/apache/hadoop/hbase/TableNotFoundException.java,F:/corpus/hbase/hbase#2011-02-18-09-37-19#0.90.1#ed25749/src/main/java/org/apache/hadoop/hbase/TableNotFoundException.java,0,0,0,0,0,0,0,0,0,0,0,0,0,NO,0,0,0,0,0,0,0,0,0,0,0,0,0,0,0,0,0,0,0,0,0,0,0,0,0,0,0,0,0,0,0,0,0,0,0,0,0,0,0,0,0,0,0,0,0,0,0,0,0,35
hbase,0.90.1,0.92.0,F:/corpus/hbase/hbase#2011-02-18-09-37-19#0.90.1#ed25749/src/main/java/org/apache/hadoop/hbase/UnknownRegionException.java,F:/corpus/hbase/hbase#2011-02-18-09-37-19#0.90.1#ed25749/src/main/java/org/apache/hadoop/hbase/UnknownRegionException.java,0,0,0,0,0,0,0,0,0,0,0,0,0,NO,0,0,0,0,0,0,0,0,0,0,0,0,0,0,0,0,0,0,0,0,0,0,0,0,0,0,0,0,0,0,0,0,0,0,0,0,0,0,0,0,0,0,0,0,0,0,0,0,0,33
hbase,0.90.1,0.92.0,F:/corpus/hbase/hbase#2011-02-18-09-37-19#0.90.1#ed25749/src/main/java/org/apache/hadoop/hbase/UnknownRowLockException.java,F:/corpus/hbase/hbase#2011-02-18-09-37-19#0.90.1#ed25749/src/main/java/org/apache/hadoop/hbase/UnknownRowLockException.java,0,0,0,0,0,0,0,0,0,0,0,0,0,NO,0,0,0,0,0,0,0,0,0,0,0,0,0,0,0,0,0,0,0,0,0,0,0,0,0,0,0,0,0,0,0,0,0,0,0,0,0,0,0,0,0,0,0,0,0,0,0,0,0,41
hbase,0.90.1,0.92.0,F:/corpus/hbase/hbase#2011-02-18-09-37-19#0.90.1#ed25749/src/main/java/org/apache/hadoop/hbase/UnknownScannerException.java,F:/corpus/hbase/hbase#2011-02-18-09-37-19#0.90.1#ed25749/src/main/java/org/apache/hadoop/hbase/UnknownScannerException.java,0,0,0,0,0,0,0,0,0,0,0,0,0,NO,0,0,0,0,0,0,0,0,0,0,0,0,0,0,0,0,0,0,0,0,0,0,0,0,0,0,0,0,0,0,0,0,0,0,0,0,0,0,0,0,0,0,0,0,0,0,0,0,0,44
hbase,0.90.1,0.92.0,F:/corpus/hbase/hbase#2011-02-18-09-37-19#0.90.1#ed25749/src/main/java/org/apache/hadoop/hbase/util/Base64.java,F:/corpus/hbase/hbase#2011-02-18-09-37-19#0.90.1#ed25749/src/main/java/org/apache/hadoop/hbase/util/Base64.java,0,1,0,0,0,0,1,0,0,2,0,1,1,NO,0,0,0,0,0,0,0,0,0,0,0,0,0,0,0,0,0,0,0,0,0,0,0,0,0,0,0,0,0,0,0,0,0,0,0,0,0,0,0,0,0,0,0,0,0,0,0,0,0,1643
hbase,0.90.1,0.92.0,F:/corpus/hbase/hbase#2011-02-18-09-37-19#0.90.1#ed25749/src/main/java/org/apache/hadoop/hbase/util/CancelableProgressable.java,F:/corpus/hbase/hbase#2011-02-18-09-37-19#0.90.1#ed25749/src/main/java/org/apache/hadoop/hbase/util/CancelableProgressable.java,0,0,0,0,1,0,0,0,0,0,0,0,0,NO,0,0,0,0,0,0,0,0,0,0,0,0,0,0,0,0,0,0,0,0,0,0,0,0,0,0,0,0,0,0,0,0,0,0,0,0,0,0,0,0,0,0,0,0,0,0,0,0,0,37
hbase,0.90.1,0.92.0,F:/corpus/hbase/hbase#2011-02-18-09-37-19#0.90.1#ed25749/src/main/java/org/apache/hadoop/hbase/util/DefaultEnvironmentEdge.java,F:/corpus/hbase/hbase#2011-02-18-09-37-19#0.90.1#ed25749/src/main/java/org/apache/hadoop/hbase/util/DefaultEnvironmentEdge.java,0,0,0,0,0,0,0,0,0,0,0,0,0,NO,0,0,0,0,0,0,0,0,0,0,0,0,0,0,0,0,0,0,0,0,0,0,0,0,0,0,0,0,0,0,0,0,0,0,0,0,0,0,0,0,0,0,0,0,0,0,0,0,0,37
hbase,0.90.1,0.92.0,F:/corpus/hbase/hbase#2011-02-18-09-37-19#0.90.1#ed25749/src/main/java/org/apache/hadoop/hbase/util/EnvironmentEdge.java,F:/corpus/hbase/hbase#2011-02-18-09-37-19#0.90.1#ed25749/src/main/java/org/apache/hadoop/hbase/util/EnvironmentEdge.java,0,0,0,0,0,0,0,0,0,0,0,0,0,NO,0,0,0,0,0,0,0,0,0,0,0,0,0,0,0,0,0,0,0,0,0,0,0,0,0,0,0,0,0,0,0,0,0,0,0,0,0,0,0,0,0,0,0,0,0,0,0,0,0,36
hbase,0.90.1,0.92.0,F:/corpus/hbase/hbase#2011-02-18-09-37-19#0.90.1#ed25749/src/main/java/org/apache/hadoop/hbase/util/EnvironmentEdgeManager.java,F:/corpus/hbase/hbase#2011-02-18-09-37-19#0.90.1#ed25749/src/main/java/org/apache/hadoop/hbase/util/EnvironmentEdgeManager.java,0,0,0,0,0,0,0,0,0,0,0,1,0,NO,0,0,0,0,0,0,0,0,0,0,0,0,0,0,0,0,0,0,0,0,0,0,0,0,0,0,0,0,0,0,0,0,0,0,0,0,0,0,0,0,0,0,0,0,0,0,0,0,0,75
hbase,0.90.1,0.92.0,F:/corpus/hbase/hbase#2011-02-18-09-37-19#0.90.1#ed25749/src/main/java/org/apache/hadoop/hbase/util/FileSystemVersionException.java,F:/corpus/hbase/hbase#2011-02-18-09-37-19#0.90.1#ed25749/src/main/java/org/apache/hadoop/hbase/util/FileSystemVersionException.java,0,0,0,0,0,0,0,0,0,0,0,0,0,NO,0,0,0,0,0,0,0,0,0,0,0,0,0,0,0,0,0,0,0,0,0,0,0,0,0,0,0,0,0,0,0,0,0,0,0,0,0,0,0,0,0,0,0,0,0,0,0,0,0,39
hbase,0.90.1,0.92.0,F:/corpus/hbase/hbase#2011-02-18-09-37-19#0.90.1#ed25749/src/main/java/org/apache/hadoop/hbase/util/HBaseConfTool.java,F:/corpus/hbase/hbase#2011-02-18-09-37-19#0.90.1#ed25749/src/main/java/org/apache/hadoop/hbase/util/HBaseConfTool.java,0,0,0,0,0,0,0,0,0,0,0,0,0,NO,0,0,0,0,0,0,0,0,0,0,0,0,0,0,0,0,0,0,0,0,0,0,0,0,0,0,0,0,0,0,0,0,0,0,0,0,0,0,0,0,0,0,0,0,0,0,0,0,0,41
hbase,0.90.1,0.92.0,F:/corpus/hbase/hbase#2011-02-18-09-37-19#0.90.1#ed25749/src/main/java/org/apache/hadoop/hbase/util/IncrementingEnvironmentEdge.java,F:/corpus/hbase/hbase#2011-02-18-09-37-19#0.90.1#ed25749/src/main/java/org/apache/hadoop/hbase/util/IncrementingEnvironmentEdge.java,0,0,0,0,0,0,0,0,0,0,0,0,0,NO,0,0,0,0,0,0,0,0,0,0,0,0,0,0,0,0,0,0,0,0,0,0,0,0,0,0,0,0,0,0,0,0,0,0,0,0,0,0,0,0,0,0,0,0,0,0,0,0,0,39
hbase,0.90.1,0.92.0,F:/corpus/hbase/hbase#2011-02-18-09-37-19#0.90.1#ed25749/src/main/java/org/apache/hadoop/hbase/util/JvmVersion.java,F:/corpus/hbase/hbase#2011-02-18-09-37-19#0.90.1#ed25749/src/main/java/org/apache/hadoop/hbase/util/JvmVersion.java,0,0,0,0,1,0,0,0,0,0,0,0,0,NO,0,0,0,0,0,0,0,0,0,0,0,0,0,0,0,0,0,0,0,0,0,0,0,0,0,0,0,0,0,0,0,0,0,0,0,0,0,0,0,0,0,0,0,0,0,0,0,0,0,43
hbase,0.90.1,0.92.0,F:/corpus/hbase/hbase#2011-02-18-09-37-19#0.90.1#ed25749/src/main/java/org/apache/hadoop/hbase/util/Keying.java,F:/corpus/hbase/hbase#2011-02-18-09-37-19#0.90.1#ed25749/src/main/java/org/apache/hadoop/hbase/util/Keying.java,0,0,0,0,0,0,0,0,0,0,0,0,0,NO,0,0,0,0,0,0,0,0,0,0,0,0,0,0,0,0,0,0,0,0,0,0,0,0,0,0,0,0,0,0,0,0,0,0,0,0,0,0,0,0,0,0,0,0,0,0,0,0,0,115
hbase,0.90.1,0.92.0,F:/corpus/hbase/hbase#2011-02-18-09-37-19#0.90.1#ed25749/src/main/java/org/apache/hadoop/hbase/util/ManualEnvironmentEdge.java,F:/corpus/hbase/hbase#2011-02-18-09-37-19#0.90.1#ed25749/src/main/java/org/apache/hadoop/hbase/util/ManualEnvironmentEdge.java,0,0,0,0,0,0,0,0,0,0,0,0,0,NO,0,0,0,0,0,0,0,0,0,0,0,0,0,0,0,0,0,0,0,0,0,0,0,0,0,0,0,0,0,0,0,0,0,0,0,0,0,0,0,0,0,0,0,0,0,0,0,0,0,39
hbase,0.90.1,0.92.0,F:/corpus/hbase/hbase#2011-02-18-09-37-19#0.90.1#ed25749/src/main/java/org/apache/hadoop/hbase/util/MD5Hash.java,F:/corpus/hbase/hbase#2011-02-18-09-37-19#0.90.1#ed25749/src/main/java/org/apache/hadoop/hbase/util/MD5Hash.java,0,0,0,0,0,0,0,0,0,0,0,0,0,NO,0,0,0,0,0,0,0,0,0,0,0,0,0,0,0,0,0,0,0,0,0,0,0,0,0,0,0,0,0,0,0,0,0,0,0,0,0,0,0,0,0,0,0,0,0,0,0,0,0,67
hbase,0.90.1,0.92.0,F:/corpus/hbase/hbase#2011-02-18-09-37-19#0.90.1#ed25749/src/main/java/org/apache/hadoop/hbase/util/MurmurHash.java,F:/corpus/hbase/hbase#2011-02-18-09-37-19#0.90.1#ed25749/src/main/java/org/apache/hadoop/hbase/util/MurmurHash.java,0,0,0,0,0,0,0,0,0,0,0,0,0,NO,0,0,0,0,0,0,0,0,0,0,0,0,0,0,0,0,0,0,0,0,0,0,0,0,0,0,0,0,0,0,0,0,0,0,0,0,0,0,0,0,0,0,0,0,0,0,0,0,0,88
hbase,0.90.1,0.92.0,F:/corpus/hbase/hbase#2011-02-18-09-37-19#0.90.1#ed25749/src/main/java/org/apache/hadoop/hbase/util/PairOfSameType.java,F:/corpus/hbase/hbase#2011-02-18-09-37-19#0.90.1#ed25749/src/main/java/org/apache/hadoop/hbase/util/PairOfSameType.java,0,0,0,0,0,0,0,0,0,0,0,0,0,NO,0,0,0,0,0,0,0,0,0,0,0,0,0,0,0,0,0,0,0,0,0,0,0,0,0,0,0,0,0,0,0,0,0,0,0,0,0,0,0,0,0,0,0,0,0,0,0,0,0,112
hbase,0.90.1,0.92.0,F:/corpus/hbase/hbase#2011-02-18-09-37-19#0.90.1#ed25749/src/main/java/org/apache/hadoop/hbase/util/ServerCommandLine.java,F:/corpus/hbase/hbase#2011-02-18-09-37-19#0.90.1#ed25749/src/main/java/org/apache/hadoop/hbase/util/ServerCommandLine.java,0,0,0,0,0,0,0,0,0,0,0,0,0,NO,0,0,0,0,0,0,0,0,0,0,0,0,0,0,0,0,0,0,0,0,0,0,0,0,0,0,0,0,0,0,0,0,0,0,0,0,0,0,0,0,0,0,0,0,0,0,0,0,0,82
hbase,0.90.1,0.92.0,F:/corpus/hbase/hbase#2011-02-18-09-37-19#0.90.1#ed25749/src/main/java/org/apache/hadoop/hbase/VersionAnnotation.java,F:/corpus/hbase/hbase#2011-02-18-09-37-19#0.90.1#ed25749/src/main/java/org/apache/hadoop/hbase/VersionAnnotation.java,0,0,0,0,0,0,0,0,0,0,0,0,0,NO,0,0,0,0,0,0,0,0,0,0,0,0,0,0,0,0,0,0,0,0,0,0,0,0,0,0,0,0,0,0,0,0,0,0,0,0,0,0,0,0,0,0,0,0,0,0,0,0,0,57
hbase,0.90.1,0.92.0,F:/corpus/hbase/hbase#2011-02-18-09-37-19#0.90.1#ed25749/src/main/java/org/apache/hadoop/hbase/YouAreDeadException.java,F:/corpus/hbase/hbase#2011-02-18-09-37-19#0.90.1#ed25749/src/main/java/org/apache/hadoop/hbase/YouAreDeadException.java,0,0,0,0,0,0,0,0,0,0,0,0,0,NO,0,0,0,0,0,0,0,0,0,0,0,0,0,0,0,0,0,0,0,0,0,0,0,0,0,0,0,0,0,0,0,0,0,0,0,0,0,0,0,0,0,0,0,0,0,0,0,0,0,34
hbase,0.90.1,0.92.0,F:/corpus/hbase/hbase#2011-02-18-09-37-19#0.90.1#ed25749/src/main/java/org/apache/hadoop/hbase/zookeeper/HQuorumPeer.java,F:/corpus/hbase/hbase#2011-02-18-09-37-19#0.90.1#ed25749/src/main/java/org/apache/hadoop/hbase/zookeeper/HQuorumPeer.java,0,0,0,0,1,0,0,0,0,0,0,0,0,NO,0,0,0,0,0,0,0,0,0,0,0,0,0,0,0,0,0,0,0,0,0,0,0,0,0,0,0,0,0,0,0,0,0,0,0,0,0,0,0,0,0,0,0,0,0,0,0,0,0,150
hbase,0.90.1,0.92.0,F:/corpus/hbase/hbase#2011-02-18-09-37-19#0.90.1#ed25749/src/main/java/org/apache/hadoop/hbase/zookeeper/ZKServerTool.java,F:/corpus/hbase/hbase#2011-02-18-09-37-19#0.90.1#ed25749/src/main/java/org/apache/hadoop/hbase/zookeeper/ZKServerTool.java,0,0,0,0,1,0,0,0,0,0,0,0,0,NO,0,0,0,0,0,0,0,0,0,0,0,0,0,0,0,0,0,0,0,0,0,0,0,0,0,0,0,0,0,0,0,0,0,0,0,0,0,0,0,0,0,0,0,0,0,0,0,0,0,54
hbase,0.90.1,0.92.0,F:/corpus/hbase/hbase#2011-02-18-09-37-19#0.90.1#ed25749/src/main/java/org/apache/hadoop/hbase/zookeeper/ZooKeeperMainServerArg.java,F:/corpus/hbase/hbase#2011-02-18-09-37-19#0.90.1#ed25749/src/main/java/org/apache/hadoop/hbase/zookeeper/ZooKeeperMainServerArg.java,0,0,0,0,1,0,0,0,0,0,0,0,0,NO,0,0,0,0,0,0,0,0,0,0,0,0,0,0,0,0,0,0,0,0,0,0,0,0,0,0,0,0,0,0,0,0,0,0,0,0,0,0,0,0,0,0,0,0,0,0,0,0,0,68
