projectName,oldVersionTag,newVersionTag,oldPath,newPath,DC,LC,MM,RPB,SG,MCH,DCLP,DIVC,FE,LM,LPL,SS,SC,fromChangeDistiller,adding_attribute_modifiability,adding_class_derivability,adding_method_overridability,additional_class,additional_functionality,additional_object_state,alternative_part_delete,alternative_part_insert,attribute_renaming,attribute_type_change,class_renaming,comment_delete,comment_insert,comment_move,comment_update,condition_expression_change,decreasing_accessibility_change,doc_delete,doc_insert,doc_update,increasing_accessibility_change,method_renaming,parameter_delete,parameter_insert,parameter_ordering_change,parameter_renaming,parameter_type_change,parent_class_change,parent_class_delete,parent_class_insert,parent_interface_change,parent_interface_delete,parent_interface_insert,removed_class,removed_functionality,removed_object_state,removing_attribute_modifiability,removing_class_derivability,removing_method_overridability,return_type_change,return_type_delete,return_type_insert,statement_delete,statement_insert,statement_ordering_change,statement_parent_change,statement_update,unclassified_change,codeChurn,LOC
cassandra,cassandra-0.5.0,cassandra-0.6.0,F:/corpus/cassandra/cassandra#2010-03-14-07-17-20#cassandra-0.5.0#1f858fb/contrib/circuit/src/org/apache/cassandra/contrib/circuit/RingModel.java,F:/corpus/cassandra/cassandra#2010-04-12-09-37-17#cassandra-0.6.0#bb948b4/contrib/circuit/src/org/apache/cassandra/contrib/circuit/RingModel.java,1,0,0,0,0,2,0,0,0,0,0,0,0,YES,0,0,0,0,0,0,0,0,0,0,0,0,0,0,0,0,0,0,0,0,0,0,0,0,0,0,0,0,0,0,0,0,0,0,0,0,0,0,0,0,0,0,0,0,0,0,2,0,2,249
cassandra,cassandra-0.5.0,cassandra-0.6.0,F:/corpus/cassandra/cassandra#2010-03-14-07-17-20#cassandra-0.5.0#1f858fb/contrib/property_snitch/src/java/org/apache/cassandra/locator/PropertyFileEndPointSnitch.java,F:/corpus/cassandra/cassandra#2010-04-12-09-37-17#cassandra-0.6.0#bb948b4/contrib/property_snitch/src/java/org/apache/cassandra/locator/PropertyFileEndPointSnitch.java,0,0,0,0,0,0,0,0,0,0,0,0,0,YES,0,0,0,0,0,0,0,0,0,0,0,0,0,0,0,0,0,0,0,0,0,0,0,0,0,0,0,0,0,0,0,0,0,0,0,0,0,0,0,0,0,0,2,2,0,0,0,0,2,180
cassandra,cassandra-0.5.0,cassandra-0.6.0,F:/corpus/cassandra/cassandra#2010-03-14-07-17-20#cassandra-0.5.0#1f858fb/interface/gen-java/org/apache/cassandra/service/Column.java,F:/corpus/cassandra/cassandra#2010-04-12-09-37-17#cassandra-0.6.0#bb948b4/interface/thrift/gen-java/org/apache/cassandra/thrift/Column.java,0,0,0,0,0,0,0,0,0,0,0,0,0,YES,0,0,0,0,3,0,3,0,0,1,0,0,3,0,0,0,0,0,3,0,0,0,0,0,0,1,0,0,0,0,0,1,1,0,0,3,0,0,0,6,2,0,40,9,0,6,3,0,56,459
cassandra,cassandra-0.5.0,cassandra-0.6.0,F:/corpus/cassandra/cassandra#2010-03-14-07-17-20#cassandra-0.5.0#1f858fb/interface/gen-java/org/apache/cassandra/service/ColumnOrSuperColumn.java,F:/corpus/cassandra/cassandra#2010-04-12-09-37-17#cassandra-0.6.0#bb948b4/interface/thrift/gen-java/org/apache/cassandra/thrift/ColumnOrSuperColumn.java,0,0,0,0,0,1,0,0,0,0,0,0,0,YES,0,0,0,0,3,0,2,0,0,1,0,0,2,0,0,0,0,0,2,0,0,0,0,0,0,1,0,0,0,0,0,1,1,0,1,2,0,0,0,5,2,0,30,7,0,4,2,0,56,369
cassandra,cassandra-0.5.0,cassandra-0.6.0,F:/corpus/cassandra/cassandra#2010-03-14-07-17-20#cassandra-0.5.0#1f858fb/interface/gen-java/org/apache/cassandra/service/ColumnParent.java,F:/corpus/cassandra/cassandra#2010-04-12-09-37-17#cassandra-0.6.0#bb948b4/interface/thrift/gen-java/org/apache/cassandra/thrift/ColumnParent.java,0,0,0,0,0,1,0,0,0,0,0,0,0,YES,0,0,0,0,3,0,2,0,0,1,0,0,2,0,0,0,0,0,2,0,0,0,1,0,0,1,0,0,0,0,0,1,1,0,0,2,0,0,0,5,2,0,31,7,0,4,2,0,50,368
cassandra,cassandra-0.5.0,cassandra-0.6.0,F:/corpus/cassandra/cassandra#2010-03-14-07-17-20#cassandra-0.5.0#1f858fb/interface/gen-java/org/apache/cassandra/service/ColumnPath.java,F:/corpus/cassandra/cassandra#2010-04-12-09-37-17#cassandra-0.6.0#bb948b4/interface/thrift/gen-java/org/apache/cassandra/thrift/ColumnPath.java,0,0,0,0,0,1,0,0,0,0,0,0,0,YES,0,0,0,0,3,0,3,0,0,1,0,0,3,0,0,0,0,0,3,0,0,0,2,0,1,1,0,0,0,0,0,1,1,0,0,3,0,0,0,6,2,0,42,9,0,6,3,0,61,466
cassandra,cassandra-0.5.0,cassandra-0.6.0,F:/corpus/cassandra/cassandra#2010-03-14-07-17-20#cassandra-0.5.0#1f858fb/interface/gen-java/org/apache/cassandra/service/Constants.java,F:/corpus/cassandra/cassandra#2010-04-12-09-37-17#cassandra-0.6.0#bb948b4/interface/thrift/gen-java/org/apache/cassandra/thrift/Constants.java,0,0,0,0,0,0,0,0,0,0,0,0,0,YES,0,0,0,0,0,0,0,0,0,0,0,0,0,0,0,0,0,0,0,0,0,0,0,0,0,0,0,0,0,0,0,0,0,0,0,0,0,0,0,0,0,0,0,0,0,0,0,0,4,45
cassandra,cassandra-0.5.0,cassandra-0.6.0,F:/corpus/cassandra/cassandra#2010-03-14-07-17-20#cassandra-0.5.0#1f858fb/interface/gen-java/org/apache/cassandra/service/InvalidRequestException.java,F:/corpus/cassandra/cassandra#2010-04-12-09-37-17#cassandra-0.6.0#bb948b4/interface/thrift/gen-java/org/apache/cassandra/thrift/InvalidRequestException.java,0,0,0,0,0,1,0,0,0,0,0,0,0,YES,0,0,0,0,3,0,1,0,0,1,0,0,1,0,0,0,0,0,1,0,0,0,0,0,0,1,0,0,0,0,0,1,1,0,0,1,0,0,0,4,2,0,20,5,0,2,1,0,38,272
cassandra,cassandra-0.5.0,cassandra-0.6.0,F:/corpus/cassandra/cassandra#2010-03-14-07-17-20#cassandra-0.5.0#1f858fb/interface/gen-java/org/apache/cassandra/service/KeySlice.java,F:/corpus/cassandra/cassandra#2010-04-12-09-37-17#cassandra-0.6.0#bb948b4/interface/thrift/gen-java/org/apache/cassandra/thrift/KeySlice.java,0,0,0,0,0,1,0,0,0,0,0,0,0,YES,0,0,0,0,3,0,2,0,0,1,0,0,2,0,0,0,0,0,2,0,0,0,0,0,0,1,0,0,0,0,0,1,1,0,0,2,0,0,0,5,2,0,30,7,0,4,2,0,47,400
cassandra,cassandra-0.5.0,cassandra-0.6.0,F:/corpus/cassandra/cassandra#2010-03-14-07-17-20#cassandra-0.5.0#1f858fb/interface/gen-java/org/apache/cassandra/service/SlicePredicate.java,F:/corpus/cassandra/cassandra#2010-04-12-09-37-17#cassandra-0.6.0#bb948b4/interface/thrift/gen-java/org/apache/cassandra/thrift/SlicePredicate.java,0,0,0,0,0,1,0,0,0,0,0,0,0,YES,0,0,0,0,3,0,2,0,0,1,0,0,2,0,0,0,0,0,2,0,0,0,0,0,0,1,0,0,0,0,0,1,1,0,1,2,0,0,0,5,2,0,30,7,0,4,2,0,56,409
cassandra,cassandra-0.5.0,cassandra-0.6.0,F:/corpus/cassandra/cassandra#2010-03-14-07-17-20#cassandra-0.5.0#1f858fb/interface/gen-java/org/apache/cassandra/service/SliceRange.java,F:/corpus/cassandra/cassandra#2010-04-12-09-37-17#cassandra-0.6.0#bb948b4/interface/thrift/gen-java/org/apache/cassandra/thrift/SliceRange.java,0,0,0,0,0,1,0,0,0,0,0,0,0,YES,0,0,0,0,3,0,4,0,0,1,0,0,4,0,0,0,0,0,4,0,0,0,0,0,0,1,0,0,0,0,0,1,1,0,0,4,0,0,0,7,2,0,50,11,0,8,4,0,65,554
cassandra,cassandra-0.5.0,cassandra-0.6.0,F:/corpus/cassandra/cassandra#2010-03-14-07-17-20#cassandra-0.5.0#1f858fb/interface/gen-java/org/apache/cassandra/service/SuperColumn.java,F:/corpus/cassandra/cassandra#2010-04-12-09-37-17#cassandra-0.6.0#bb948b4/interface/thrift/gen-java/org/apache/cassandra/thrift/SuperColumn.java,0,0,0,0,0,0,0,0,0,0,0,0,0,YES,0,0,0,0,3,0,2,0,0,1,0,0,2,0,0,0,0,0,2,0,0,0,0,0,0,1,0,0,0,0,0,1,1,0,0,2,0,0,0,5,2,0,30,7,0,4,2,0,47,405
cassandra,cassandra-0.5.0,cassandra-0.6.0,F:/corpus/cassandra/cassandra#2010-03-14-07-17-20#cassandra-0.5.0#1f858fb/src/java/org/apache/cassandra/net/io/SerializerAttribute.java,F:/corpus/cassandra/cassandra#2010-04-12-09-37-17#cassandra-0.6.0#bb948b4/src/java/org/apache/cassandra/cache/ICacheExpungeHook.java,0,0,0,0,0,0,0,0,0,0,0,0,0,YES,0,0,0,0,0,0,0,0,0,0,1,0,0,0,0,0,0,0,0,0,0,0,0,0,0,0,0,0,0,0,0,0,0,0,0,0,0,0,0,0,0,0,0,0,0,0,0,0,6,27
cassandra,cassandra-0.5.0,cassandra-0.6.0,F:/corpus/cassandra/cassandra#2010-03-14-07-17-20#cassandra-0.5.0#1f858fb/src/java/org/apache/cassandra/cli/CliClient.java,F:/corpus/cassandra/cassandra#2010-04-12-09-37-17#cassandra-0.6.0#bb948b4/src/java/org/apache/cassandra/cli/CliClient.java,0,0,0,0,2,15,0,0,0,0,0,0,0,YES,0,0,0,0,5,0,0,1,0,0,0,0,1,1,0,0,0,0,0,0,0,0,0,0,0,0,0,0,0,0,0,0,0,0,0,0,0,0,0,0,0,0,2,3,0,1,11,0,67,466
cassandra,cassandra-0.5.0,cassandra-0.6.0,F:/corpus/cassandra/cassandra#2010-03-14-07-17-20#cassandra-0.5.0#1f858fb/src/java/org/apache/cassandra/cli/CliCompleter.java,F:/corpus/cassandra/cassandra#2010-04-12-09-37-17#cassandra-0.6.0#bb948b4/src/java/org/apache/cassandra/cli/CliCompleter.java,0,0,0,0,0,0,0,0,0,0,0,0,0,YES,0,0,0,0,0,0,0,0,0,0,0,0,0,0,0,0,0,0,0,0,0,0,0,0,0,0,0,0,0,0,0,0,0,0,0,0,0,0,0,0,0,0,0,0,0,0,0,0,1,51
cassandra,cassandra-0.5.0,cassandra-0.6.0,F:/corpus/cassandra/cassandra#2010-03-14-07-17-20#cassandra-0.5.0#1f858fb/src/java/org/apache/cassandra/cli/CliMain.java,F:/corpus/cassandra/cassandra#2010-04-12-09-37-17#cassandra-0.6.0#bb948b4/src/java/org/apache/cassandra/cli/CliMain.java,0,0,0,0,0,0,0,0,0,0,0,0,0,YES,0,0,0,0,0,0,1,0,0,0,0,0,2,2,1,0,0,0,4,0,0,0,0,0,0,0,0,0,0,0,0,0,0,0,0,0,0,0,0,0,0,0,3,43,0,5,4,0,95,175
cassandra,cassandra-0.5.0,cassandra-0.6.0,F:/corpus/cassandra/cassandra#2010-03-14-07-17-20#cassandra-0.5.0#1f858fb/src/java/org/apache/cassandra/cli/CliOptions.java,F:/corpus/cassandra/cassandra#2010-04-12-09-37-17#cassandra-0.6.0#bb948b4/src/java/org/apache/cassandra/cli/CliOptions.java,0,0,0,0,0,0,0,0,0,0,0,0,0,YES,0,0,0,0,0,4,0,0,0,0,0,0,3,0,0,0,0,0,1,0,0,0,0,0,0,0,0,0,0,0,0,0,0,0,0,0,0,0,0,0,0,0,0,8,0,0,1,0,37,98
cassandra,cassandra-0.5.0,cassandra-0.6.0,F:/corpus/cassandra/cassandra#2010-03-14-07-17-20#cassandra-0.5.0#1f858fb/src/java/org/apache/cassandra/cli/CliSessionState.java,F:/corpus/cassandra/cassandra#2010-04-12-09-37-17#cassandra-0.6.0#bb948b4/src/java/org/apache/cassandra/cli/CliSessionState.java,1,0,0,0,0,0,0,0,0,0,0,0,0,YES,0,0,0,0,0,3,0,0,1,0,0,0,0,0,0,0,0,0,1,0,0,0,0,0,0,0,0,0,0,0,0,0,0,0,0,0,0,0,0,0,0,0,0,0,0,0,0,0,4,43
cassandra,cassandra-0.5.0,cassandra-0.6.0,F:/corpus/cassandra/cassandra#2010-03-14-07-17-20#cassandra-0.5.0#1f858fb/src/java/org/apache/cassandra/client/RingCache.java,F:/corpus/cassandra/cassandra#2010-04-12-09-37-17#cassandra-0.6.0#bb948b4/src/java/org/apache/cassandra/client/RingCache.java,0,0,0,0,0,1,0,0,0,0,0,0,0,YES,0,0,0,0,0,1,0,0,0,0,0,0,0,0,0,0,0,0,0,0,0,0,0,1,0,0,0,0,0,0,0,0,0,0,0,1,0,0,0,0,0,0,2,4,0,0,2,0,14,109
cassandra,cassandra-0.5.0,cassandra-0.6.0,F:/corpus/cassandra/cassandra#2010-03-14-07-17-20#cassandra-0.5.0#1f858fb/src/java/org/apache/cassandra/concurrent/DebuggableThreadPoolExecutor.java,F:/corpus/cassandra/cassandra#2010-04-12-09-37-17#cassandra-0.6.0#bb948b4/src/java/org/apache/cassandra/concurrent/DebuggableThreadPoolExecutor.java,0,0,0,0,0,0,0,0,0,0,0,0,0,YES,0,0,0,0,0,0,0,0,1,0,0,0,0,0,0,0,0,1,0,0,1,0,0,0,0,0,1,0,0,0,0,1,0,0,5,1,0,0,0,0,0,0,7,0,0,0,2,0,88,173
cassandra,cassandra-0.5.0,cassandra-0.6.0,F:/corpus/cassandra/cassandra#2010-03-14-07-17-20#cassandra-0.5.0#1f858fb/src/java/org/apache/cassandra/concurrent/DebuggableThreadPoolExecutorMBean.java,F:/corpus/cassandra/cassandra#2010-04-12-09-37-17#cassandra-0.6.0#bb948b4/src/java/org/apache/cassandra/concurrent/JMXEnabledThreadPoolExecutorMBean.java,0,0,0,0,1,0,0,0,0,0,0,0,0,YES,0,0,0,0,0,0,0,0,0,0,1,0,0,0,0,0,0,0,0,0,0,0,0,0,0,0,0,0,0,0,0,0,0,0,0,0,0,0,0,0,0,0,0,0,0,0,0,0,1,23
cassandra,cassandra-0.5.0,cassandra-0.6.0,F:/corpus/cassandra/cassandra#2010-03-14-07-17-20#cassandra-0.5.0#1f858fb/src/java/org/apache/cassandra/concurrent/StageManager.java,F:/corpus/cassandra/cassandra#2010-04-12-09-37-17#cassandra-0.6.0#bb948b4/src/java/org/apache/cassandra/concurrent/StageManager.java,0,0,0,0,0,1,0,0,0,0,0,1,0,YES,0,0,0,0,1,5,0,0,3,0,0,0,0,0,0,0,0,0,0,1,0,1,0,0,0,0,0,0,0,0,0,0,0,0,5,1,0,0,0,1,0,0,3,2,0,0,2,0,76,129
cassandra,cassandra-0.5.0,cassandra-0.6.0,F:/corpus/cassandra/cassandra#2010-03-14-07-17-20#cassandra-0.5.0#1f858fb/src/java/org/apache/cassandra/config/CFMetaData.java,F:/corpus/cassandra/cassandra#2010-04-12-09-37-17#cassandra-0.6.0#bb948b4/src/java/org/apache/cassandra/config/CFMetaData.java,1,0,0,0,0,0,0,0,0,0,0,0,0,YES,0,0,0,0,4,4,0,0,0,0,0,0,0,0,0,0,0,0,0,0,0,0,0,0,0,0,0,0,0,0,0,0,0,0,1,0,6,1,0,0,0,0,0,0,0,0,0,0,74,39
cassandra,cassandra-0.5.0,cassandra-0.6.0,F:/corpus/cassandra/cassandra#2010-03-14-07-17-20#cassandra-0.5.0#1f858fb/src/java/org/apache/cassandra/config/DatabaseDescriptor.java,F:/corpus/cassandra/cassandra#2010-04-12-09-37-17#cassandra-0.6.0#bb948b4/src/java/org/apache/cassandra/config/DatabaseDescriptor.java,0,0,0,0,0,0,0,0,0,0,0,5,0,YES,0,0,0,0,11,7,0,0,37,0,0,0,1,0,0,8,0,0,1,0,0,1,0,6,1,0,0,0,0,0,0,0,0,0,8,8,0,0,0,3,0,0,8,38,0,2,46,0,466,1007
cassandra,cassandra-0.5.0,cassandra-0.6.0,F:/corpus/cassandra/cassandra#2010-03-14-07-17-20#cassandra-0.5.0#1f858fb/src/java/org/apache/cassandra/db/BinaryMemtable.java,F:/corpus/cassandra/cassandra#2010-04-12-09-37-17#cassandra-0.6.0#bb948b4/src/java/org/apache/cassandra/db/BinaryMemtable.java,0,0,0,0,0,0,0,0,0,0,0,0,0,YES,0,0,0,0,2,1,0,0,8,0,0,0,0,0,0,1,3,0,0,0,0,0,0,0,0,0,0,0,0,0,0,1,1,0,4,2,5,0,0,0,0,0,2,0,0,0,18,0,84,156
cassandra,cassandra-0.5.0,cassandra-0.6.0,F:/corpus/cassandra/cassandra#2010-03-14-07-17-20#cassandra-0.5.0#1f858fb/src/java/org/apache/cassandra/db/BinaryVerbHandler.java,F:/corpus/cassandra/cassandra#2010-04-12-09-37-17#cassandra-0.6.0#bb948b4/src/java/org/apache/cassandra/db/BinaryVerbHandler.java,0,0,1,0,0,0,0,0,0,0,0,0,0,YES,0,0,0,0,0,0,0,0,0,0,0,0,0,0,0,0,0,0,0,0,0,0,0,0,0,0,0,0,0,0,0,0,0,0,0,0,0,0,0,0,0,0,5,3,0,0,1,0,17,51
cassandra,cassandra-0.5.0,cassandra-0.6.0,F:/corpus/cassandra/cassandra#2010-03-14-07-17-20#cassandra-0.5.0#1f858fb/src/java/org/apache/cassandra/db/Column.java,F:/corpus/cassandra/cassandra#2010-04-12-09-37-17#cassandra-0.6.0#bb948b4/src/java/org/apache/cassandra/db/Column.java,0,0,0,0,4,0,0,0,0,0,0,0,0,YES,0,1,0,0,0,0,0,0,0,0,0,0,0,0,0,0,0,0,0,0,0,0,0,0,0,0,0,0,0,0,0,0,0,0,2,0,0,0,0,0,0,0,0,0,0,0,0,0,12,228
cassandra,cassandra-0.5.0,cassandra-0.6.0,F:/corpus/cassandra/cassandra#2010-03-14-07-17-20#cassandra-0.5.0#1f858fb/src/java/org/apache/cassandra/db/ColumnFamily.java,F:/corpus/cassandra/cassandra#2010-04-12-09-37-17#cassandra-0.6.0#bb948b4/src/java/org/apache/cassandra/db/ColumnFamily.java,0,0,0,0,0,2,0,0,0,0,0,7,0,YES,0,1,0,0,0,2,2,1,0,0,0,0,1,0,0,0,0,0,0,0,0,0,0,0,0,0,0,0,0,0,0,0,0,0,1,5,0,0,0,0,0,0,15,11,1,0,5,0,48,441
cassandra,cassandra-0.5.0,cassandra-0.6.0,F:/corpus/cassandra/cassandra#2010-03-14-07-17-20#cassandra-0.5.0#1f858fb/src/java/org/apache/cassandra/db/ColumnFamilyNotDefinedException.java,F:/corpus/cassandra/cassandra#2010-04-12-09-37-17#cassandra-0.6.0#bb948b4/src/java/org/apache/cassandra/db/ColumnFamilyNotDefinedException.java,0,0,0,0,0,0,0,0,0,0,0,0,0,YES,0,0,0,0,0,0,0,0,0,0,0,0,0,0,0,0,0,0,0,0,0,0,0,0,0,0,0,0,0,0,0,0,0,0,0,0,0,0,0,0,0,0,0,0,0,0,0,0,1,29
cassandra,cassandra-0.5.0,cassandra-0.6.0,F:/corpus/cassandra/cassandra#2010-03-14-07-17-20#cassandra-0.5.0#1f858fb/src/java/org/apache/cassandra/db/ColumnFamilySerializer.java,F:/corpus/cassandra/cassandra#2010-04-12-09-37-17#cassandra-0.6.0#bb948b4/src/java/org/apache/cassandra/db/ColumnFamilySerializer.java,0,0,0,0,0,0,0,0,0,0,0,1,0,YES,0,0,0,0,0,0,0,0,0,0,0,0,0,0,0,0,0,0,0,0,0,0,0,0,0,0,0,0,0,0,0,0,0,0,0,0,0,0,0,0,0,0,0,0,0,0,2,0,2,163
cassandra,cassandra-0.5.0,cassandra-0.6.0,F:/corpus/cassandra/cassandra#2010-03-14-07-17-20#cassandra-0.5.0#1f858fb/src/java/org/apache/cassandra/db/ColumnFamilyStore.java,F:/corpus/cassandra/cassandra#2010-04-12-09-37-17#cassandra-0.6.0#bb948b4/src/java/org/apache/cassandra/db/ColumnFamilyStore.java,0,1,0,0,0,3,0,2,0,2,0,5,0,YES,0,1,0,0,20,7,0,2,0,0,0,13,6,0,1,3,0,2,1,1,4,10,6,3,0,1,1,0,0,0,0,0,0,1,19,4,0,0,0,2,2,0,78,72,3,8,35,2,944,1633
cassandra,cassandra-0.5.0,cassandra-0.6.0,F:/corpus/cassandra/cassandra#2010-03-14-07-17-20#cassandra-0.5.0#1f858fb/src/java/org/apache/cassandra/db/ColumnFamilyStoreMBean.java,F:/corpus/cassandra/cassandra#2010-04-12-09-37-17#cassandra-0.6.0#bb948b4/src/java/org/apache/cassandra/db/ColumnFamilyStoreMBean.java,0,0,0,0,1,0,0,0,0,0,0,0,0,YES,0,0,0,0,10,0,0,0,0,0,0,0,0,0,0,0,0,0,0,4,0,2,0,0,0,0,0,0,0,0,0,0,0,0,0,0,0,0,0,2,0,0,0,0,0,0,0,0,12,88
cassandra,cassandra-0.5.0,cassandra-0.6.0,F:/corpus/cassandra/cassandra#2010-03-14-07-17-20#cassandra-0.5.0#1f858fb/src/java/org/apache/cassandra/db/ColumnIndexer.java,F:/corpus/cassandra/cassandra#2010-04-12-09-37-17#cassandra-0.6.0#bb948b4/src/java/org/apache/cassandra/db/ColumnIndexer.java,0,0,0,0,0,0,0,0,0,0,0,0,0,YES,0,0,0,0,0,0,0,0,0,0,0,0,0,0,0,0,0,0,0,0,0,0,0,0,0,0,0,0,0,0,0,0,0,0,0,0,0,0,0,0,0,0,0,0,0,0,1,0,3,165
cassandra,cassandra-0.5.0,cassandra-0.6.0,F:/corpus/cassandra/cassandra#2010-03-14-07-17-20#cassandra-0.5.0#1f858fb/src/java/org/apache/cassandra/db/CompactionManager.java,F:/corpus/cassandra/cassandra#2010-04-12-09-37-17#cassandra-0.6.0#bb948b4/src/java/org/apache/cassandra/db/CompactionManager.java,0,0,0,0,1,0,0,0,0,0,0,1,0,YES,0,0,0,2,12,2,0,0,3,0,0,0,1,0,0,0,0,1,1,0,2,4,2,1,1,6,0,0,0,0,0,0,0,6,1,2,3,0,0,0,0,0,6,11,0,0,3,0,573,268
cassandra,cassandra-0.5.0,cassandra-0.6.0,F:/corpus/cassandra/cassandra#2010-03-14-07-17-20#cassandra-0.5.0#1f858fb/src/java/org/apache/cassandra/db/CompactionManagerMBean.java,F:/corpus/cassandra/cassandra#2010-04-12-09-37-17#cassandra-0.6.0#bb948b4/src/java/org/apache/cassandra/db/CompactionManagerMBean.java,0,0,0,0,1,0,0,0,0,0,0,0,0,YES,0,0,0,0,4,0,0,0,0,0,0,0,0,0,0,0,0,0,0,0,0,0,0,0,0,0,0,0,0,0,0,0,0,0,0,0,0,0,0,0,0,0,0,0,0,0,0,0,20,42
cassandra,cassandra-0.5.0,cassandra-0.6.0,F:/corpus/cassandra/cassandra#2010-03-14-07-17-20#cassandra-0.5.0#1f858fb/src/java/org/apache/cassandra/db/DBConstants.java,F:/corpus/cassandra/cassandra#2010-04-12-09-37-17#cassandra-0.6.0#bb948b4/src/java/org/apache/cassandra/db/DBConstants.java,0,0,0,0,0,0,0,0,0,0,0,0,0,YES,0,0,0,0,0,0,0,0,0,0,0,0,0,0,0,0,0,0,0,0,0,0,0,0,0,0,0,0,0,0,0,0,0,0,0,0,0,0,0,0,0,0,0,0,0,0,0,0,1,27
cassandra,cassandra-0.5.0,cassandra-0.6.0,F:/corpus/cassandra/cassandra#2010-03-14-07-17-20#cassandra-0.5.0#1f858fb/src/java/org/apache/cassandra/db/DecoratedKey.java,F:/corpus/cassandra/cassandra#2010-04-12-09-37-17#cassandra-0.6.0#bb948b4/src/java/org/apache/cassandra/db/DecoratedKey.java,0,0,0,0,0,0,0,0,0,0,0,1,0,YES,0,0,0,0,0,1,0,0,0,0,0,0,0,0,0,0,0,0,0,0,0,0,0,0,0,0,0,0,0,0,0,0,0,0,0,0,0,0,0,0,0,0,6,2,0,0,0,0,10,120
cassandra,cassandra-0.5.0,cassandra-0.6.0,F:/corpus/cassandra/cassandra#2010-03-14-07-17-20#cassandra-0.5.0#1f858fb/src/java/org/apache/cassandra/db/HintedHandOffManager.java,F:/corpus/cassandra/cassandra#2010-04-12-09-37-17#cassandra-0.6.0#bb948b4/src/java/org/apache/cassandra/db/HintedHandOffManager.java,0,0,0,0,0,0,0,1,0,0,0,0,0,YES,0,0,0,0,1,2,0,0,0,0,0,0,0,0,0,3,0,0,0,0,1,0,1,0,0,0,0,0,0,0,0,0,0,0,2,3,2,0,0,0,0,0,6,19,0,7,6,0,121,297
cassandra,cassandra-0.5.0,cassandra-0.6.0,F:/corpus/cassandra/cassandra#2010-03-14-07-17-20#cassandra-0.5.0#1f858fb/src/java/org/apache/cassandra/db/IColumn.java,F:/corpus/cassandra/cassandra#2010-04-12-09-37-17#cassandra-0.6.0#bb948b4/src/java/org/apache/cassandra/db/IColumn.java,0,0,0,0,0,0,0,0,0,0,0,0,0,YES,0,0,0,0,0,0,0,0,0,0,0,0,0,0,0,0,0,0,0,0,0,0,0,0,0,0,0,0,0,0,0,0,0,0,2,0,0,0,0,0,0,0,0,0,0,0,0,0,2,49
cassandra,cassandra-0.5.0,cassandra-0.6.0,F:/corpus/cassandra/cassandra#2010-03-14-07-17-20#cassandra-0.5.0#1f858fb/src/java/org/apache/cassandra/db/IFlushable.java,F:/corpus/cassandra/cassandra#2010-04-12-09-37-17#cassandra-0.6.0#bb948b4/src/java/org/apache/cassandra/db/IFlushable.java,0,0,0,0,1,0,0,0,0,0,0,0,0,YES,0,0,0,0,1,0,0,0,0,0,0,0,0,0,0,0,0,0,0,0,0,0,0,0,0,0,0,0,0,0,0,0,0,0,2,0,0,0,0,0,0,0,0,0,0,0,0,1,7,33
cassandra,cassandra-0.5.0,cassandra-0.6.0,F:/corpus/cassandra/cassandra#2010-03-14-07-17-20#cassandra-0.5.0#1f858fb/src/java/org/apache/cassandra/db/KeyspaceNotDefinedException.java,F:/corpus/cassandra/cassandra#2010-04-12-09-37-17#cassandra-0.6.0#bb948b4/src/java/org/apache/cassandra/db/KeyspaceNotDefinedException.java,0,0,0,0,0,0,0,0,0,0,0,0,0,YES,0,0,0,0,0,0,0,0,0,0,0,0,0,0,0,0,0,0,0,0,0,0,0,0,0,0,0,0,0,0,0,0,0,0,0,0,0,0,0,0,0,0,0,0,0,0,0,0,1,29
cassandra,cassandra-0.5.0,cassandra-0.6.0,F:/corpus/cassandra/cassandra#2010-03-14-07-17-20#cassandra-0.5.0#1f858fb/src/java/org/apache/cassandra/db/Memtable.java,F:/corpus/cassandra/cassandra#2010-04-12-09-37-17#cassandra-0.6.0#bb948b4/src/java/org/apache/cassandra/db/Memtable.java,0,0,0,0,0,0,0,1,0,0,0,0,0,YES,0,0,0,0,5,1,0,0,9,1,0,2,0,2,0,1,1,0,0,0,1,0,1,4,0,1,0,0,0,0,0,1,1,0,7,4,0,0,0,1,0,0,23,6,1,5,22,0,141,337
cassandra,cassandra-0.5.0,cassandra-0.6.0,F:/corpus/cassandra/cassandra#2010-03-14-07-17-20#cassandra-0.5.0#1f858fb/src/java/org/apache/cassandra/db/RangeSliceCommand.java,F:/corpus/cassandra/cassandra#2010-04-12-09-37-17#cassandra-0.6.0#bb948b4/src/java/org/apache/cassandra/db/RangeSliceCommand.java,1,0,0,0,0,0,0,0,1,0,0,0,0,YES,0,0,0,0,1,1,0,0,0,1,0,0,0,0,0,0,0,0,0,0,0,0,4,2,0,0,0,0,0,0,0,0,0,0,0,2,0,0,0,0,0,0,12,3,0,0,2,0,74,184
cassandra,cassandra-0.5.0,cassandra-0.6.0,F:/corpus/cassandra/cassandra#2010-03-14-07-17-20#cassandra-0.5.0#1f858fb/src/java/org/apache/cassandra/db/RangeSliceReply.java,F:/corpus/cassandra/cassandra#2010-04-12-09-37-17#cassandra-0.6.0#bb948b4/src/java/org/apache/cassandra/db/RangeSliceReply.java,0,0,0,0,0,0,0,0,0,0,0,0,0,YES,0,0,0,0,0,0,0,0,0,0,0,0,0,0,0,0,0,0,0,0,0,0,1,0,0,0,0,0,0,0,0,0,0,0,0,1,0,0,0,0,0,0,4,1,0,0,5,0,20,81
cassandra,cassandra-0.5.0,cassandra-0.6.0,F:/corpus/cassandra/cassandra#2010-03-14-07-17-20#cassandra-0.5.0#1f858fb/src/java/org/apache/cassandra/db/ReadCommand.java,F:/corpus/cassandra/cassandra#2010-04-12-09-37-17#cassandra-0.6.0#bb948b4/src/java/org/apache/cassandra/db/ReadCommand.java,1,0,0,0,0,0,0,0,0,0,0,2,0,YES,0,0,0,0,0,0,0,0,0,0,0,0,0,0,0,0,0,0,0,0,0,0,0,0,0,0,0,0,0,0,0,0,0,0,0,0,0,0,0,0,0,0,0,0,0,0,1,0,1,122
cassandra,cassandra-0.5.0,cassandra-0.6.0,F:/corpus/cassandra/cassandra#2010-03-14-07-17-20#cassandra-0.5.0#1f858fb/src/java/org/apache/cassandra/db/ReadRepairVerbHandler.java,F:/corpus/cassandra/cassandra#2010-04-12-09-37-17#cassandra-0.6.0#bb948b4/src/java/org/apache/cassandra/db/ReadRepairVerbHandler.java,0,0,1,0,0,0,0,0,0,0,0,0,0,YES,0,0,0,0,0,0,0,0,0,0,0,0,0,0,0,0,0,0,0,0,0,0,0,0,0,0,0,0,0,0,0,0,0,0,0,0,0,0,0,0,0,0,5,3,0,0,1,0,13,55
cassandra,cassandra-0.5.0,cassandra-0.6.0,F:/corpus/cassandra/cassandra#2010-03-14-07-17-20#cassandra-0.5.0#1f858fb/src/java/org/apache/cassandra/db/ReadResponse.java,F:/corpus/cassandra/cassandra#2010-04-12-09-37-17#cassandra-0.6.0#bb948b4/src/java/org/apache/cassandra/db/ReadResponse.java,1,0,0,0,0,0,0,0,0,0,0,0,0,YES,0,0,0,0,0,0,0,0,0,0,0,0,0,0,0,0,0,0,0,0,0,0,0,0,0,0,0,0,0,0,0,0,0,0,1,0,0,0,0,0,0,0,0,0,0,0,0,0,10,129
cassandra,cassandra-0.5.0,cassandra-0.6.0,F:/corpus/cassandra/cassandra#2010-03-14-07-17-20#cassandra-0.5.0#1f858fb/src/java/org/apache/cassandra/db/ReadVerbHandler.java,F:/corpus/cassandra/cassandra#2010-04-12-09-37-17#cassandra-0.6.0#bb948b4/src/java/org/apache/cassandra/db/ReadVerbHandler.java,0,0,0,0,0,0,0,1,0,0,0,0,0,YES,0,0,0,0,0,1,0,0,0,0,0,0,0,0,0,1,0,0,0,0,0,0,0,0,0,0,0,0,0,0,0,0,0,0,0,1,0,0,0,0,0,0,1,1,0,0,4,0,11,120
cassandra,cassandra-0.5.0,cassandra-0.6.0,F:/corpus/cassandra/cassandra#2010-03-14-07-17-20#cassandra-0.5.0#1f858fb/src/java/org/apache/cassandra/db/RowMutation.java,F:/corpus/cassandra/cassandra#2010-04-12-09-37-17#cassandra-0.6.0#bb948b4/src/java/org/apache/cassandra/db/RowMutation.java,0,0,0,0,0,0,0,0,1,0,0,5,0,YES,0,0,0,0,3,0,0,0,0,0,0,0,0,0,0,1,0,0,0,0,1,0,1,1,0,0,0,0,0,0,0,1,0,0,0,0,0,0,0,0,0,0,2,0,0,0,2,0,72,321
cassandra,cassandra-0.5.0,cassandra-0.6.0,F:/corpus/cassandra/cassandra#2010-03-14-07-17-20#cassandra-0.5.0#1f858fb/src/java/org/apache/cassandra/db/RowMutationMessage.java,F:/corpus/cassandra/cassandra#2010-04-12-09-37-17#cassandra-0.6.0#bb948b4/src/java/org/apache/cassandra/db/RowMutationMessage.java,0,0,0,0,0,0,0,0,0,0,0,0,0,YES,0,0,0,0,0,0,0,0,0,0,0,0,0,0,0,0,0,0,0,0,0,0,1,1,0,0,0,0,0,0,0,1,0,0,0,0,0,0,0,0,0,0,0,0,0,0,2,0,5,87
cassandra,cassandra-0.5.0,cassandra-0.6.0,F:/corpus/cassandra/cassandra#2010-03-14-07-17-20#cassandra-0.5.0#1f858fb/src/java/org/apache/cassandra/db/RowMutationVerbHandler.java,F:/corpus/cassandra/cassandra#2010-04-12-09-37-17#cassandra-0.6.0#bb948b4/src/java/org/apache/cassandra/db/RowMutationVerbHandler.java,0,0,1,0,0,0,0,0,1,0,0,0,0,YES,0,0,0,0,0,0,0,0,0,0,0,1,0,0,0,1,0,0,0,0,0,0,0,0,0,0,0,0,0,0,0,0,0,0,0,0,0,0,0,0,0,0,2,6,0,5,4,0,16,74
cassandra,cassandra-0.5.0,cassandra-0.6.0,F:/corpus/cassandra/cassandra#2010-03-14-07-17-20#cassandra-0.5.0#1f858fb/src/java/org/apache/cassandra/db/SliceByNamesReadCommand.java,F:/corpus/cassandra/cassandra#2010-04-12-09-37-17#cassandra-0.6.0#bb948b4/src/java/org/apache/cassandra/db/SliceByNamesReadCommand.java,0,0,0,0,0,1,0,0,1,0,0,0,0,YES,0,0,0,0,0,0,0,0,0,0,0,0,0,0,0,0,0,0,0,0,0,0,0,0,0,0,0,0,0,0,0,0,0,0,0,0,0,0,0,0,0,0,0,0,0,0,0,0,1,110
cassandra,cassandra-0.5.0,cassandra-0.6.0,F:/corpus/cassandra/cassandra#2010-03-14-07-17-20#cassandra-0.5.0#1f858fb/src/java/org/apache/cassandra/db/SliceFromReadCommand.java,F:/corpus/cassandra/cassandra#2010-04-12-09-37-17#cassandra-0.6.0#bb948b4/src/java/org/apache/cassandra/db/SliceFromReadCommand.java,0,0,0,0,0,2,0,0,1,0,0,0,0,YES,0,0,0,0,0,0,0,0,0,0,0,0,0,0,0,0,0,0,0,0,0,0,0,0,0,0,0,0,0,0,0,0,0,0,0,0,0,0,0,0,0,0,0,0,0,0,0,0,1,107
cassandra,cassandra-0.5.0,cassandra-0.6.0,F:/corpus/cassandra/cassandra#2010-03-14-07-17-20#cassandra-0.5.0#1f858fb/src/java/org/apache/cassandra/db/SuperColumn.java,F:/corpus/cassandra/cassandra#2010-04-12-09-37-17#cassandra-0.6.0#bb948b4/src/java/org/apache/cassandra/db/SuperColumn.java,0,0,0,0,0,0,0,0,0,0,0,0,0,YES,0,1,0,0,0,1,1,0,0,1,0,3,1,0,0,1,0,0,1,0,1,0,0,0,0,0,0,0,0,0,0,0,0,0,4,2,0,0,0,0,0,0,13,13,0,1,9,0,86,381
cassandra,cassandra-0.5.0,cassandra-0.6.0,F:/corpus/cassandra/cassandra#2010-03-14-07-17-20#cassandra-0.5.0#1f858fb/src/java/org/apache/cassandra/db/SystemTable.java,F:/corpus/cassandra/cassandra#2010-04-12-09-37-17#cassandra-0.6.0#bb948b4/src/java/org/apache/cassandra/db/SystemTable.java,0,0,0,0,0,2,0,1,0,0,0,0,0,YES,0,0,0,0,1,2,0,1,0,0,0,0,0,0,0,0,0,0,0,0,0,0,0,1,0,0,0,0,0,0,0,0,0,0,0,0,0,0,0,0,0,0,0,13,0,0,2,0,29,233
cassandra,cassandra-0.5.0,cassandra-0.6.0,F:/corpus/cassandra/cassandra#2010-03-14-07-17-20#cassandra-0.5.0#1f858fb/src/java/org/apache/cassandra/db/Table.java,F:/corpus/cassandra/cassandra#2010-04-12-09-37-17#cassandra-0.6.0#bb948b4/src/java/org/apache/cassandra/db/Table.java,0,0,0,0,1,0,0,0,0,0,0,3,0,YES,0,0,0,0,2,2,0,0,8,0,0,1,2,0,1,8,1,0,1,0,3,0,0,0,0,0,0,0,0,0,0,0,0,0,6,2,0,0,0,1,0,0,8,17,1,3,34,0,154,512
cassandra,cassandra-0.5.0,cassandra-0.6.0,F:/corpus/cassandra/cassandra#2010-03-14-07-17-20#cassandra-0.5.0#1f858fb/src/java/org/apache/cassandra/db/CommitLogExecutorService.java,F:/corpus/cassandra/cassandra#2010-04-12-09-37-17#cassandra-0.6.0#bb948b4/src/java/org/apache/cassandra/db/commitlog/CommitLogExecutorService.java,0,0,0,0,1,0,0,0,0,0,0,0,0,YES,0,0,0,1,1,0,0,0,0,0,0,0,0,0,0,0,2,0,0,0,0,0,0,0,0,0,0,0,0,0,0,0,0,0,0,0,3,0,0,0,1,0,9,1,0,0,1,0,48,235
cassandra,cassandra-0.5.0,cassandra-0.6.0,F:/corpus/cassandra/cassandra#2010-03-14-07-17-20#cassandra-0.5.0#1f858fb/src/java/org/apache/cassandra/db/CommitLogExecutorServiceMBean.java,F:/corpus/cassandra/cassandra#2010-04-12-09-37-17#cassandra-0.6.0#bb948b4/src/java/org/apache/cassandra/db/commitlog/CommitLogExecutorServiceMBean.java,0,0,0,0,1,0,0,0,0,0,0,0,0,YES,0,0,0,0,0,0,0,0,0,0,0,0,0,0,0,0,0,0,0,0,0,0,0,0,0,0,0,0,0,0,0,0,0,0,0,0,0,0,0,0,0,0,0,0,0,0,0,0,1,25
cassandra,cassandra-0.5.0,cassandra-0.6.0,F:/corpus/cassandra/cassandra#2010-03-14-07-17-20#cassandra-0.5.0#1f858fb/src/java/org/apache/cassandra/db/CommitLogHeader.java,F:/corpus/cassandra/cassandra#2010-04-12-09-37-17#cassandra-0.6.0#bb948b4/src/java/org/apache/cassandra/db/commitlog/CommitLogHeader.java,0,0,0,0,0,0,0,0,0,0,0,0,0,YES,0,0,0,0,2,0,0,0,0,0,0,0,0,0,0,0,0,0,0,0,0,0,0,0,0,0,0,0,0,0,0,0,0,0,2,0,0,0,0,1,0,0,4,5,0,4,4,0,43,178
cassandra,cassandra-0.5.0,cassandra-0.6.0,F:/corpus/cassandra/cassandra#2010-03-14-07-17-20#cassandra-0.5.0#1f858fb/src/java/org/apache/cassandra/db/filter/NamesQueryFilter.java,F:/corpus/cassandra/cassandra#2010-04-12-09-37-17#cassandra-0.6.0#bb948b4/src/java/org/apache/cassandra/db/filter/NamesQueryFilter.java,0,0,0,0,2,0,0,0,0,0,0,0,0,YES,0,0,0,0,0,0,0,0,0,0,0,0,0,0,0,0,0,0,0,0,0,0,0,1,0,0,0,0,0,0,0,0,0,0,0,0,0,0,0,0,0,0,0,0,0,0,1,0,2,93
cassandra,cassandra-0.5.0,cassandra-0.6.0,F:/corpus/cassandra/cassandra#2010-03-14-07-17-20#cassandra-0.5.0#1f858fb/src/java/org/apache/cassandra/db/filter/QueryFilter.java,F:/corpus/cassandra/cassandra#2010-04-12-09-37-17#cassandra-0.6.0#bb948b4/src/java/org/apache/cassandra/db/filter/QueryFilter.java,0,0,0,0,0,0,0,0,0,0,0,0,0,YES,0,0,0,0,1,0,0,0,0,0,0,0,0,0,0,0,0,1,0,0,0,0,0,0,0,0,0,0,0,0,0,0,0,0,0,0,0,0,0,0,0,0,0,1,0,0,0,1,1,124
cassandra,cassandra-0.5.0,cassandra-0.6.0,F:/corpus/cassandra/cassandra#2010-03-14-07-17-20#cassandra-0.5.0#1f858fb/src/java/org/apache/cassandra/db/filter/QueryPath.java,F:/corpus/cassandra/cassandra#2010-04-12-09-37-17#cassandra-0.6.0#bb948b4/src/java/org/apache/cassandra/db/filter/QueryPath.java,0,0,0,0,0,0,0,0,0,0,0,0,0,YES,0,0,0,0,0,0,0,0,0,0,0,0,0,0,0,0,0,0,0,0,0,0,0,0,0,0,0,0,0,0,0,0,0,0,0,0,0,0,0,0,0,0,0,0,0,0,0,0,2,99
cassandra,cassandra-0.5.0,cassandra-0.6.0,F:/corpus/cassandra/cassandra#2010-03-14-07-17-20#cassandra-0.5.0#1f858fb/src/java/org/apache/cassandra/db/filter/SSTableNamesIterator.java,F:/corpus/cassandra/cassandra#2010-04-12-09-37-17#cassandra-0.6.0#bb948b4/src/java/org/apache/cassandra/db/filter/SSTableNamesIterator.java,0,0,0,0,0,0,0,1,0,0,0,0,0,YES,0,0,0,0,0,0,0,0,0,0,0,2,0,0,0,2,0,0,0,0,0,0,0,0,0,0,0,0,0,0,0,0,0,0,0,0,0,0,0,0,0,0,5,5,1,0,1,0,14,131
cassandra,cassandra-0.5.0,cassandra-0.6.0,F:/corpus/cassandra/cassandra#2010-03-14-07-17-20#cassandra-0.5.0#1f858fb/src/java/org/apache/cassandra/db/filter/SSTableSliceIterator.java,F:/corpus/cassandra/cassandra#2010-04-12-09-37-17#cassandra-0.6.0#bb948b4/src/java/org/apache/cassandra/db/filter/SSTableSliceIterator.java,0,0,0,0,0,0,0,1,0,0,0,0,0,YES,0,0,0,0,0,1,0,0,0,0,0,0,0,0,0,2,0,0,0,0,0,0,1,1,0,0,0,0,0,0,0,0,0,0,0,2,0,0,0,0,0,0,6,7,0,0,1,0,13,220
cassandra,cassandra-0.5.0,cassandra-0.6.0,F:/corpus/cassandra/cassandra#2010-03-14-07-17-20#cassandra-0.5.0#1f858fb/src/java/org/apache/cassandra/db/filter/SliceQueryFilter.java,F:/corpus/cassandra/cassandra#2010-04-12-09-37-17#cassandra-0.6.0#bb948b4/src/java/org/apache/cassandra/db/filter/SliceQueryFilter.java,0,0,0,0,0,1,0,0,0,0,0,0,0,YES,0,0,0,0,0,0,0,0,0,0,0,0,0,0,0,0,0,0,0,0,0,0,0,1,0,0,0,0,0,0,0,0,0,0,0,0,0,0,0,0,0,0,0,0,0,0,1,0,2,136
cassandra,cassandra-0.5.0,cassandra-0.6.0,F:/corpus/cassandra/cassandra#2010-03-14-07-17-20#cassandra-0.5.0#1f858fb/src/java/org/apache/cassandra/db/marshal/AbstractType.java,F:/corpus/cassandra/cassandra#2010-04-12-09-37-17#cassandra-0.6.0#bb948b4/src/java/org/apache/cassandra/db/marshal/AbstractType.java,0,0,0,0,0,0,0,0,0,0,0,0,0,YES,0,0,0,0,1,0,0,0,0,0,0,0,0,0,0,0,0,0,0,0,0,0,0,0,0,0,0,0,0,0,0,0,0,0,0,0,0,0,0,0,0,0,0,0,0,0,1,0,9,89
cassandra,cassandra-0.5.0,cassandra-0.6.0,F:/corpus/cassandra/cassandra#2010-03-14-07-17-20#cassandra-0.5.0#1f858fb/src/java/org/apache/cassandra/db/marshal/TimeUUIDType.java,F:/corpus/cassandra/cassandra#2010-04-12-09-37-17#cassandra-0.6.0#bb948b4/src/java/org/apache/cassandra/db/marshal/TimeUUIDType.java,0,0,0,0,0,0,0,0,0,0,0,0,0,YES,0,0,0,0,0,0,0,0,0,0,0,0,0,0,0,0,0,0,0,0,0,0,0,0,0,0,0,0,0,0,0,0,0,0,0,0,0,0,0,0,0,0,1,1,0,0,0,0,2,61
cassandra,cassandra-0.5.0,cassandra-0.6.0,F:/corpus/cassandra/cassandra#2010-03-14-07-17-20#cassandra-0.5.0#1f858fb/src/java/org/apache/cassandra/dht/BootStrapper.java,F:/corpus/cassandra/cassandra#2010-04-12-09-37-17#cassandra-0.6.0#bb948b4/src/java/org/apache/cassandra/dht/BootStrapper.java,0,0,0,0,0,3,0,0,0,0,0,0,0,YES,0,0,0,0,0,0,0,0,0,0,0,0,1,0,0,1,0,1,0,0,0,0,1,1,0,0,0,0,0,0,0,0,0,0,0,1,0,0,0,0,0,0,5,14,0,1,9,0,46,268
cassandra,cassandra-0.5.0,cassandra-0.6.0,F:/corpus/cassandra/cassandra#2010-03-14-07-17-20#cassandra-0.5.0#1f858fb/src/java/org/apache/cassandra/dht/CollatingOrderPreservingPartitioner.java,F:/corpus/cassandra/cassandra#2010-04-12-09-37-17#cassandra-0.6.0#bb948b4/src/java/org/apache/cassandra/dht/CollatingOrderPreservingPartitioner.java,0,0,0,0,0,0,0,0,0,0,0,0,0,YES,0,0,0,0,0,0,0,0,0,0,0,0,0,0,0,0,0,0,0,0,0,0,0,0,0,0,0,0,0,0,0,0,0,0,0,0,0,0,0,0,0,0,0,2,0,0,0,0,5,151
cassandra,cassandra-0.5.0,cassandra-0.6.0,F:/corpus/cassandra/cassandra#2010-03-14-07-17-20#cassandra-0.5.0#1f858fb/src/java/org/apache/cassandra/dht/RandomPartitioner.java,F:/corpus/cassandra/cassandra#2010-04-12-09-37-17#cassandra-0.6.0#bb948b4/src/java/org/apache/cassandra/dht/RandomPartitioner.java,0,0,0,0,0,0,0,0,0,0,0,0,0,YES,0,0,0,0,0,0,0,0,0,0,0,0,0,0,0,0,0,0,0,0,0,0,0,0,0,0,0,0,0,0,0,0,0,0,0,0,0,0,0,0,0,0,0,2,0,0,0,0,2,118
cassandra,cassandra-0.5.0,cassandra-0.6.0,F:/corpus/cassandra/cassandra#2010-03-14-07-17-20#cassandra-0.5.0#1f858fb/src/java/org/apache/cassandra/dht/Range.java,F:/corpus/cassandra/cassandra#2010-04-12-09-37-17#cassandra-0.6.0#bb948b4/src/java/org/apache/cassandra/dht/Range.java,0,0,0,0,0,0,0,0,0,0,0,3,0,YES,0,0,0,0,8,0,2,0,0,0,0,4,2,0,0,2,0,0,0,2,0,0,0,0,0,0,0,0,0,1,0,0,0,0,4,3,0,0,0,0,0,0,10,4,0,0,8,0,91,222
cassandra,cassandra-0.5.0,cassandra-0.6.0,F:/corpus/cassandra/cassandra#2010-03-14-07-17-20#cassandra-0.5.0#1f858fb/src/java/org/apache/cassandra/gms/ApplicationState.java,F:/corpus/cassandra/cassandra#2010-04-12-09-37-17#cassandra-0.6.0#bb948b4/src/java/org/apache/cassandra/gms/ApplicationState.java,0,0,0,0,0,0,0,0,0,0,0,0,0,YES,0,0,0,0,0,0,0,0,0,0,0,0,0,0,0,0,0,0,0,0,0,0,0,0,0,0,0,0,0,0,0,0,0,0,0,0,0,0,0,0,0,0,0,0,0,0,0,0,1,104
cassandra,cassandra-0.5.0,cassandra-0.6.0,F:/corpus/cassandra/cassandra#2010-03-14-07-17-20#cassandra-0.5.0#1f858fb/src/java/org/apache/cassandra/gms/EndPointState.java,F:/corpus/cassandra/cassandra#2010-04-12-09-37-17#cassandra-0.6.0#bb948b4/src/java/org/apache/cassandra/gms/EndPointState.java,0,0,0,0,0,0,0,0,0,0,0,0,0,YES,0,0,0,0,2,1,0,0,0,0,0,0,0,0,0,0,0,0,0,0,0,0,0,0,0,0,0,0,0,0,0,0,0,0,0,0,0,0,0,0,0,0,1,1,0,0,0,0,18,200
cassandra,cassandra-0.5.0,cassandra-0.6.0,F:/corpus/cassandra/cassandra#2010-03-14-07-17-20#cassandra-0.5.0#1f858fb/src/java/org/apache/cassandra/gms/FailureDetector.java,F:/corpus/cassandra/cassandra#2010-04-12-09-37-17#cassandra-0.6.0#bb948b4/src/java/org/apache/cassandra/gms/FailureDetector.java,0,0,0,0,0,0,0,0,0,0,0,1,0,YES,0,0,0,0,1,1,0,0,0,0,0,0,0,0,0,0,0,0,0,0,0,0,0,0,0,0,0,0,0,0,0,0,0,0,1,2,0,0,0,0,0,0,6,6,0,0,1,0,40,297
cassandra,cassandra-0.5.0,cassandra-0.6.0,F:/corpus/cassandra/cassandra#2010-03-14-07-17-20#cassandra-0.5.0#1f858fb/src/java/org/apache/cassandra/gms/GossipDigestSynMessage.java,F:/corpus/cassandra/cassandra#2010-04-12-09-37-17#cassandra-0.6.0#bb948b4/src/java/org/apache/cassandra/gms/GossipDigestSynMessage.java,0,0,0,0,0,0,0,0,0,0,0,0,0,YES,0,0,0,0,0,0,0,0,0,1,0,0,0,0,0,1,0,0,0,0,0,0,0,0,0,0,0,0,0,0,0,0,0,0,0,0,1,0,0,0,0,0,2,1,0,0,1,0,11,182
cassandra,cassandra-0.5.0,cassandra-0.6.0,F:/corpus/cassandra/cassandra#2010-03-14-07-17-20#cassandra-0.5.0#1f858fb/src/java/org/apache/cassandra/gms/Gossiper.java,F:/corpus/cassandra/cassandra#2010-04-12-09-37-17#cassandra-0.6.0#bb948b4/src/java/org/apache/cassandra/gms/Gossiper.java,0,0,0,0,0,13,0,0,1,0,0,1,0,YES,0,0,0,4,1,3,0,1,0,0,0,2,3,0,0,4,0,0,0,0,0,1,0,0,0,0,0,0,0,0,0,0,0,0,1,6,0,0,0,0,0,0,10,20,0,0,15,0,339,1032
cassandra,cassandra-0.5.0,cassandra-0.6.0,F:/corpus/cassandra/cassandra#2010-03-14-07-17-20#cassandra-0.5.0#1f858fb/src/java/org/apache/cassandra/gms/IFailureDetector.java,F:/corpus/cassandra/cassandra#2010-04-12-09-37-17#cassandra-0.6.0#bb948b4/src/java/org/apache/cassandra/gms/IFailureDetector.java,0,0,0,0,1,0,0,0,0,0,0,0,0,YES,0,0,0,0,1,0,0,0,0,0,0,0,0,0,0,0,0,0,0,0,0,0,0,0,0,0,0,0,0,0,0,0,0,0,0,0,0,0,0,0,0,0,0,0,0,0,0,0,5,70
cassandra,cassandra-0.5.0,cassandra-0.6.0,F:/corpus/cassandra/cassandra#2010-03-14-07-17-20#cassandra-0.5.0#1f858fb/src/java/org/apache/cassandra/io/CompactionIterator.java,F:/corpus/cassandra/cassandra#2010-04-12-09-37-17#cassandra-0.6.0#bb948b4/src/java/org/apache/cassandra/io/CompactionIterator.java,0,0,0,0,0,1,0,0,0,0,0,0,0,YES,0,0,0,0,3,3,0,0,0,0,0,0,0,0,0,1,0,0,0,0,0,0,0,0,0,0,0,0,0,0,0,0,0,0,0,0,1,0,0,0,0,0,0,8,1,0,1,0,33,161
cassandra,cassandra-0.5.0,cassandra-0.6.0,F:/corpus/cassandra/cassandra#2010-03-14-07-17-20#cassandra-0.5.0#1f858fb/src/java/org/apache/cassandra/io/IndexHelper.java,F:/corpus/cassandra/cassandra#2010-04-12-09-37-17#cassandra-0.6.0#bb948b4/src/java/org/apache/cassandra/io/IndexHelper.java,0,0,0,0,0,0,0,0,0,0,0,0,0,YES,0,0,0,0,1,0,0,0,0,0,0,0,0,0,0,1,0,0,0,0,0,0,0,0,0,0,2,0,0,0,0,0,0,0,1,0,0,0,0,0,0,0,5,5,0,0,2,0,13,157
cassandra,cassandra-0.5.0,cassandra-0.6.0,F:/corpus/cassandra/cassandra#2010-03-14-07-17-20#cassandra-0.5.0#1f858fb/src/java/org/apache/cassandra/io/IteratingRow.java,F:/corpus/cassandra/cassandra#2010-04-12-09-37-17#cassandra-0.6.0#bb948b4/src/java/org/apache/cassandra/io/IteratingRow.java,0,0,0,0,0,0,0,0,0,0,0,0,0,YES,0,0,0,0,0,0,0,0,0,0,0,0,0,0,0,0,0,0,0,0,0,0,0,0,0,0,0,0,0,0,0,0,0,0,0,1,0,0,0,0,0,0,1,0,0,0,2,0,6,114
cassandra,cassandra-0.5.0,cassandra-0.6.0,F:/corpus/cassandra/cassandra#2010-03-14-07-17-20#cassandra-0.5.0#1f858fb/src/java/org/apache/cassandra/io/SSTable.java,F:/corpus/cassandra/cassandra#2010-04-12-09-37-17#cassandra-0.6.0#bb948b4/src/java/org/apache/cassandra/io/SSTable.java,0,0,0,0,0,2,0,0,0,0,0,1,0,YES,0,0,0,1,2,1,0,0,0,0,0,0,0,0,0,0,0,0,0,0,2,0,0,0,0,0,0,0,0,0,0,0,0,1,1,2,0,0,0,0,0,0,1,5,0,0,1,0,52,208
cassandra,cassandra-0.5.0,cassandra-0.6.0,F:/corpus/cassandra/cassandra#2010-03-14-07-17-20#cassandra-0.5.0#1f858fb/src/java/org/apache/cassandra/io/SSTableReader.java,F:/corpus/cassandra/cassandra#2010-04-12-09-37-17#cassandra-0.6.0#bb948b4/src/java/org/apache/cassandra/io/SSTableReader.java,0,0,0,0,1,0,0,0,0,0,0,0,0,YES,0,0,0,0,7,5,0,2,0,0,0,1,11,0,0,3,0,0,1,0,0,0,2,0,0,0,0,0,0,0,0,0,0,0,6,3,0,0,0,2,0,0,30,44,1,3,14,0,203,503
cassandra,cassandra-0.5.0,cassandra-0.6.0,F:/corpus/cassandra/cassandra#2010-03-14-07-17-20#cassandra-0.5.0#1f858fb/src/java/org/apache/cassandra/io/SSTableScanner.java,F:/corpus/cassandra/cassandra#2010-04-12-09-37-17#cassandra-0.6.0#bb948b4/src/java/org/apache/cassandra/io/SSTableScanner.java,0,0,0,0,0,0,0,0,0,0,0,0,0,YES,0,0,0,0,2,0,0,0,0,0,0,0,0,0,0,0,0,0,0,1,0,0,0,0,0,0,0,0,0,0,0,0,0,0,0,0,2,0,0,0,0,0,0,2,0,0,1,0,28,128
cassandra,cassandra-0.5.0,cassandra-0.6.0,F:/corpus/cassandra/cassandra#2010-03-14-07-17-20#cassandra-0.5.0#1f858fb/src/java/org/apache/cassandra/io/SSTableTracker.java,F:/corpus/cassandra/cassandra#2010-04-12-09-37-17#cassandra-0.6.0#bb948b4/src/java/org/apache/cassandra/io/SSTableTracker.java,0,0,0,0,0,0,0,0,0,0,0,0,0,YES,0,0,0,0,7,7,0,0,0,0,0,0,0,0,0,0,0,0,0,0,1,1,1,4,0,1,1,0,0,0,0,0,0,0,0,0,0,0,0,0,0,0,9,24,0,0,2,0,115,81
cassandra,cassandra-0.5.0,cassandra-0.6.0,F:/corpus/cassandra/cassandra#2010-03-14-07-17-20#cassandra-0.5.0#1f858fb/src/java/org/apache/cassandra/io/SSTableWriter.java,F:/corpus/cassandra/cassandra#2010-04-12-09-37-17#cassandra-0.6.0#bb948b4/src/java/org/apache/cassandra/io/SSTableWriter.java,0,0,0,0,0,0,0,0,0,0,0,1,0,YES,0,0,0,0,1,0,0,0,0,0,0,0,0,0,0,0,0,0,0,0,0,0,1,1,0,1,0,0,0,0,0,0,0,0,0,0,0,0,0,0,0,0,7,4,0,0,6,0,34,167
cassandra,cassandra-0.5.0,cassandra-0.6.0,F:/corpus/cassandra/cassandra#2010-03-14-07-17-20#cassandra-0.5.0#1f858fb/src/java/org/apache/cassandra/io/BufferedRandomAccessFile.java,F:/corpus/cassandra/cassandra#2010-04-12-09-37-17#cassandra-0.6.0#bb948b4/src/java/org/apache/cassandra/io/util/BufferedRandomAccessFile.java,0,0,0,0,0,0,0,0,0,0,0,3,0,YES,0,1,0,0,4,1,0,0,0,0,0,0,1,0,0,0,0,0,0,0,0,0,0,0,0,0,0,0,0,0,0,0,1,0,1,0,0,0,0,1,2,0,2,1,0,0,1,0,47,400
cassandra,cassandra-0.5.0,cassandra-0.6.0,F:/corpus/cassandra/cassandra#2010-03-14-07-17-20#cassandra-0.5.0#1f858fb/src/java/org/apache/cassandra/io/DataOutputBuffer.java,F:/corpus/cassandra/cassandra#2010-04-12-09-37-17#cassandra-0.6.0#bb948b4/src/java/org/apache/cassandra/io/util/DataOutputBuffer.java,0,0,0,0,0,0,0,0,0,0,0,2,0,YES,0,0,0,0,0,0,0,0,0,0,0,0,0,0,0,0,0,0,0,0,0,0,0,0,0,0,0,0,0,0,0,0,0,0,0,0,0,0,0,0,0,0,0,0,0,0,0,0,1,106
cassandra,cassandra-0.5.0,cassandra-0.6.0,F:/corpus/cassandra/cassandra#2010-03-14-07-17-20#cassandra-0.5.0#1f858fb/src/java/org/apache/cassandra/utils/FileUtils.java,F:/corpus/cassandra/cassandra#2010-04-12-09-37-17#cassandra-0.6.0#bb948b4/src/java/org/apache/cassandra/io/util/FileUtils.java,0,0,0,0,0,0,0,0,0,0,0,0,0,YES,0,0,0,0,0,0,0,0,0,0,0,0,0,0,0,0,0,0,0,0,0,0,0,0,0,0,0,0,0,0,0,0,0,1,2,1,0,0,0,0,1,0,0,2,0,0,0,0,40,264
cassandra,cassandra-0.5.0,cassandra-0.6.0,F:/corpus/cassandra/cassandra#2010-03-14-07-17-20#cassandra-0.5.0#1f858fb/src/java/org/apache/cassandra/locator/AbstractEndpointSnitch.java,F:/corpus/cassandra/cassandra#2010-04-12-09-37-17#cassandra-0.6.0#bb948b4/src/java/org/apache/cassandra/locator/AbstractEndpointSnitch.java,0,0,0,0,0,0,0,0,0,0,0,0,0,YES,0,0,0,0,0,0,0,0,0,0,0,0,0,0,0,0,0,0,1,1,0,0,0,0,0,0,0,0,0,0,0,0,0,0,0,0,0,0,0,0,0,0,0,0,0,0,0,0,8,90
cassandra,cassandra-0.5.0,cassandra-0.6.0,F:/corpus/cassandra/cassandra#2010-03-14-07-17-20#cassandra-0.5.0#1f858fb/src/java/org/apache/cassandra/locator/AbstractReplicationStrategy.java,F:/corpus/cassandra/cassandra#2010-04-12-09-37-17#cassandra-0.6.0#bb948b4/src/java/org/apache/cassandra/locator/AbstractReplicationStrategy.java,0,0,0,0,1,0,0,0,0,0,0,0,0,YES,0,0,0,0,0,1,0,0,0,0,0,0,2,0,0,4,1,0,2,1,0,0,3,10,1,1,1,0,0,0,0,0,0,0,1,2,0,0,0,1,0,0,3,15,0,0,4,0,99,210
cassandra,cassandra-0.5.0,cassandra-0.6.0,F:/corpus/cassandra/cassandra#2010-03-14-07-17-20#cassandra-0.5.0#1f858fb/src/java/org/apache/cassandra/locator/DatacenterShardStategy.java,F:/corpus/cassandra/cassandra#2010-04-12-09-37-17#cassandra-0.6.0#bb948b4/src/java/org/apache/cassandra/locator/DatacenterShardStategy.java,0,0,0,0,0,0,0,0,0,0,0,0,0,YES,0,0,0,0,0,0,0,0,0,0,0,0,0,2,0,1,0,0,0,0,0,0,2,3,1,0,1,0,0,0,0,0,0,0,0,1,0,0,0,0,0,0,30,11,1,7,14,0,50,242
cassandra,cassandra-0.5.0,cassandra-0.6.0,F:/corpus/cassandra/cassandra#2010-03-14-07-17-20#cassandra-0.5.0#1f858fb/src/java/org/apache/cassandra/locator/EndPointSnitch.java,F:/corpus/cassandra/cassandra#2010-04-12-09-37-17#cassandra-0.6.0#bb948b4/src/java/org/apache/cassandra/locator/EndPointSnitch.java,0,0,0,0,1,0,0,0,0,0,0,0,0,YES,0,0,0,0,0,0,0,0,0,0,0,0,0,0,0,0,0,0,0,0,0,0,0,0,0,0,0,0,0,0,0,0,0,0,0,0,0,0,0,0,0,0,0,0,0,0,0,0,4,58
cassandra,cassandra-0.5.0,cassandra-0.6.0,F:/corpus/cassandra/cassandra#2010-03-14-07-17-20#cassandra-0.5.0#1f858fb/src/java/org/apache/cassandra/locator/RackAwareStrategy.java,F:/corpus/cassandra/cassandra#2010-04-12-09-37-17#cassandra-0.6.0#bb948b4/src/java/org/apache/cassandra/locator/RackAwareStrategy.java,0,0,0,0,0,0,0,0,0,0,0,0,0,YES,0,0,0,0,0,0,0,0,0,0,0,1,0,0,0,2,0,0,0,0,0,0,2,2,1,0,0,0,0,0,0,0,0,0,0,0,0,0,0,0,0,0,32,13,2,3,3,0,48,128
cassandra,cassandra-0.5.0,cassandra-0.6.0,F:/corpus/cassandra/cassandra#2010-03-14-07-17-20#cassandra-0.5.0#1f858fb/src/java/org/apache/cassandra/locator/RackUnawareStrategy.java,F:/corpus/cassandra/cassandra#2010-04-12-09-37-17#cassandra-0.6.0#bb948b4/src/java/org/apache/cassandra/locator/RackUnawareStrategy.java,0,0,0,0,0,0,0,0,0,0,0,0,0,YES,0,0,0,0,0,0,0,0,0,0,0,1,0,0,0,0,0,0,0,0,0,0,2,2,1,0,0,0,0,0,0,0,0,0,0,0,0,0,0,0,0,0,18,3,0,1,4,0,28,75
cassandra,cassandra-0.5.0,cassandra-0.6.0,F:/corpus/cassandra/cassandra#2010-03-14-07-17-20#cassandra-0.5.0#1f858fb/src/java/org/apache/cassandra/locator/TokenMetadata.java,F:/corpus/cassandra/cassandra#2010-04-12-09-37-17#cassandra-0.6.0#bb948b4/src/java/org/apache/cassandra/locator/TokenMetadata.java,0,0,1,0,0,0,0,0,0,0,0,2,0,YES,0,0,0,0,2,0,0,0,0,1,0,0,0,0,0,2,0,0,0,0,0,0,0,3,0,1,0,0,0,0,0,0,0,0,0,0,0,0,0,0,0,0,2,3,0,1,2,0,59,475
cassandra,cassandra-0.5.0,cassandra-0.6.0,F:/corpus/cassandra/cassandra#2010-03-14-07-17-20#cassandra-0.5.0#1f858fb/src/java/org/apache/cassandra/net/AsyncResult.java,F:/corpus/cassandra/cassandra#2010-04-12-09-37-17#cassandra-0.6.0#bb948b4/src/java/org/apache/cassandra/net/AsyncResult.java,0,0,0,0,1,0,0,0,0,0,0,0,0,YES,0,0,0,0,0,0,0,0,0,0,0,0,0,0,0,0,0,0,0,0,0,0,0,0,0,0,0,0,0,0,0,0,0,0,0,0,0,0,0,0,0,0,4,4,0,0,1,0,11,124
cassandra,cassandra-0.5.0,cassandra-0.6.0,F:/corpus/cassandra/cassandra#2010-03-14-07-17-20#cassandra-0.5.0#1f858fb/src/java/org/apache/cassandra/net/FileStreamTask.java,F:/corpus/cassandra/cassandra#2010-04-12-09-37-17#cassandra-0.6.0#bb948b4/src/java/org/apache/cassandra/net/FileStreamTask.java,0,0,0,0,0,0,0,0,0,0,0,0,0,YES,0,0,0,0,2,2,0,0,4,0,0,0,0,0,0,0,0,0,0,0,1,0,1,1,0,0,0,1,0,0,0,0,0,0,2,2,3,0,0,0,0,0,3,2,0,0,2,0,46,81
cassandra,cassandra-0.5.0,cassandra-0.6.0,F:/corpus/cassandra/cassandra#2010-03-14-07-17-20#cassandra-0.5.0#1f858fb/src/java/org/apache/cassandra/net/Header.java,F:/corpus/cassandra/cassandra#2010-04-12-09-37-17#cassandra-0.6.0#bb948b4/src/java/org/apache/cassandra/net/Header.java,0,0,0,0,0,0,0,0,1,0,0,0,0,YES,0,0,0,0,0,1,0,0,0,0,0,0,0,0,0,0,0,0,0,0,0,1,0,0,0,0,3,0,0,0,0,1,0,0,4,2,0,0,0,0,0,0,0,0,0,0,3,0,33,179
cassandra,cassandra-0.5.0,cassandra-0.6.0,F:/corpus/cassandra/cassandra#2010-03-14-07-17-20#cassandra-0.5.0#1f858fb/src/java/org/apache/cassandra/net/IAsyncCallback.java,F:/corpus/cassandra/cassandra#2010-04-12-09-37-17#cassandra-0.6.0#bb948b4/src/java/org/apache/cassandra/net/IAsyncCallback.java,0,0,0,0,0,0,0,0,0,0,0,0,0,YES,0,0,0,0,0,0,0,0,0,0,0,0,0,0,0,0,0,0,0,0,0,0,0,0,0,0,0,0,0,0,0,0,0,0,0,0,0,0,0,0,0,0,0,0,0,0,0,0,7,28
cassandra,cassandra-0.5.0,cassandra-0.6.0,F:/corpus/cassandra/cassandra#2010-03-14-07-17-20#cassandra-0.5.0#1f858fb/src/java/org/apache/cassandra/net/Message.java,F:/corpus/cassandra/cassandra#2010-04-12-09-37-17#cassandra-0.6.0#bb948b4/src/java/org/apache/cassandra/net/Message.java,0,0,0,0,0,0,0,0,0,0,0,4,0,YES,0,0,0,0,0,0,0,0,0,1,0,0,0,0,0,0,0,0,0,0,0,1,0,0,0,0,1,0,0,0,0,1,0,0,4,1,0,0,0,0,0,0,0,0,0,0,2,0,33,163
cassandra,cassandra-0.5.0,cassandra-0.6.0,F:/corpus/cassandra/cassandra#2010-03-14-07-17-20#cassandra-0.5.0#1f858fb/src/java/org/apache/cassandra/net/MessageDeliveryTask.java,F:/corpus/cassandra/cassandra#2010-04-12-09-37-17#cassandra-0.6.0#bb948b4/src/java/org/apache/cassandra/net/MessageDeliveryTask.java,0,0,0,0,0,0,0,0,0,0,0,0,0,YES,0,0,0,0,0,0,0,0,0,0,0,0,0,0,0,0,0,0,0,0,0,0,0,0,0,0,0,0,0,0,0,0,0,0,0,0,0,0,0,0,0,0,0,0,0,0,2,0,4,40
cassandra,cassandra-0.5.0,cassandra-0.6.0,F:/corpus/cassandra/cassandra#2010-03-14-07-17-20#cassandra-0.5.0#1f858fb/src/java/org/apache/cassandra/net/MessageDeserializationTask.java,F:/corpus/cassandra/cassandra#2010-04-12-09-37-17#cassandra-0.6.0#bb948b4/src/java/org/apache/cassandra/net/MessageDeserializationTask.java,0,0,0,0,0,0,0,0,0,0,0,0,0,YES,0,0,0,0,0,1,0,0,0,0,0,0,0,0,0,0,0,0,0,0,0,0,1,0,0,0,1,0,0,0,0,0,0,0,0,3,0,0,0,0,0,0,2,1,0,0,1,0,16,64
cassandra,cassandra-0.5.0,cassandra-0.6.0,F:/corpus/cassandra/cassandra#2010-03-14-07-17-20#cassandra-0.5.0#1f858fb/src/java/org/apache/cassandra/net/MessagingService.java,F:/corpus/cassandra/cassandra#2010-04-12-09-37-17#cassandra-0.6.0#bb948b4/src/java/org/apache/cassandra/net/MessagingService.java,0,0,0,0,0,0,0,0,0,0,0,2,0,YES,0,0,0,1,2,3,0,1,1,3,0,8,5,1,0,0,0,0,0,2,1,0,6,2,0,0,1,0,0,0,0,0,0,0,17,12,1,0,0,2,0,0,69,37,0,9,27,1,468,728
cassandra,cassandra-0.5.0,cassandra-0.6.0,F:/corpus/cassandra/cassandra#2010-03-14-07-17-20#cassandra-0.5.0#1f858fb/src/java/org/apache/cassandra/net/TcpConnectionManager.java,F:/corpus/cassandra/cassandra#2010-04-12-09-37-17#cassandra-0.6.0#bb948b4/src/java/org/apache/cassandra/net/OutboundTcpConnectionPool.java,0,0,0,0,0,0,0,0,0,0,0,0,0,YES,0,0,0,0,0,0,1,1,0,2,1,0,0,0,0,1,0,0,0,1,0,0,1,0,0,0,0,0,0,0,0,0,0,0,1,1,0,0,0,1,0,0,8,7,0,2,0,0,23,75
cassandra,cassandra-0.5.0,cassandra-0.6.0,F:/corpus/cassandra/cassandra#2010-03-14-07-17-20#cassandra-0.5.0#1f858fb/src/java/org/apache/cassandra/net/ProtocolHeader.java,F:/corpus/cassandra/cassandra#2010-04-12-09-37-17#cassandra-0.6.0#bb948b4/src/java/org/apache/cassandra/net/ProtocolHeader.java,1,0,0,0,0,0,0,0,0,0,0,0,0,YES,0,0,0,0,0,0,0,0,0,0,0,0,0,0,0,0,0,0,0,0,0,0,0,0,0,0,0,0,0,0,0,0,0,0,0,0,0,0,0,0,0,0,0,0,0,0,0,0,1,31
cassandra,cassandra-0.5.0,cassandra-0.6.0,F:/corpus/cassandra/cassandra#2010-03-14-07-17-20#cassandra-0.5.0#1f858fb/src/java/org/apache/cassandra/net/ResponseVerbHandler.java,F:/corpus/cassandra/cassandra#2010-04-12-09-37-17#cassandra-0.6.0#bb948b4/src/java/org/apache/cassandra/net/ResponseVerbHandler.java,0,0,0,0,0,0,0,0,0,0,0,0,0,YES,0,0,0,0,0,0,0,0,0,0,0,0,0,0,0,0,0,0,0,0,1,0,0,0,0,0,0,0,0,0,0,0,0,0,0,0,0,0,0,0,0,0,1,0,0,1,0,0,5,51
cassandra,cassandra-0.5.0,cassandra-0.6.0,F:/corpus/cassandra/cassandra#2010-03-14-07-17-20#cassandra-0.5.0#1f858fb/src/java/org/apache/cassandra/service/AntiEntropyService.java,F:/corpus/cassandra/cassandra#2010-04-12-09-37-17#cassandra-0.6.0#bb948b4/src/java/org/apache/cassandra/service/AntiEntropyService.java,1,0,0,0,0,0,0,0,0,0,0,0,0,YES,0,0,0,0,0,1,0,0,0,1,0,0,1,0,0,2,1,0,0,1,1,2,0,1,0,0,0,0,0,0,0,0,0,0,1,5,0,0,0,1,0,0,16,17,0,0,22,0,87,819
cassandra,cassandra-0.5.0,cassandra-0.6.0,F:/corpus/cassandra/cassandra#2010-03-14-07-17-20#cassandra-0.5.0#1f858fb/src/java/org/apache/cassandra/service/ConsistencyManager.java,F:/corpus/cassandra/cassandra#2010-04-12-09-37-17#cassandra-0.6.0#bb948b4/src/java/org/apache/cassandra/service/ConsistencyManager.java,0,0,0,0,1,0,0,0,0,0,0,0,0,YES,0,0,0,0,0,2,0,0,0,1,0,0,0,0,0,0,0,0,0,0,0,0,0,0,0,0,0,0,0,0,0,0,0,0,0,2,2,0,0,0,0,0,2,1,0,0,4,0,45,168
cassandra,cassandra-0.5.0,cassandra-0.6.0,F:/corpus/cassandra/cassandra#2010-03-14-07-17-20#cassandra-0.5.0#1f858fb/src/java/org/apache/cassandra/service/DatacenterSyncWriteResponseHandler.java,F:/corpus/cassandra/cassandra#2010-04-12-09-37-17#cassandra-0.6.0#bb948b4/src/java/org/apache/cassandra/service/DatacenterSyncWriteResponseHandler.java,0,0,0,0,0,0,0,0,0,0,0,0,0,YES,0,0,0,0,0,0,0,0,0,0,0,0,0,0,1,0,0,0,0,0,0,0,0,1,0,0,0,0,0,0,0,0,0,0,0,0,0,0,0,0,0,0,2,0,0,0,2,0,10,99
cassandra,cassandra-0.5.0,cassandra-0.6.0,F:/corpus/cassandra/cassandra#2010-03-14-07-17-20#cassandra-0.5.0#1f858fb/src/java/org/apache/cassandra/service/DatacenterWriteResponseHandler.java,F:/corpus/cassandra/cassandra#2010-04-12-09-37-17#cassandra-0.6.0#bb948b4/src/java/org/apache/cassandra/service/DatacenterWriteResponseHandler.java,0,0,0,0,0,0,0,0,0,0,0,0,0,YES,0,0,0,0,0,1,0,0,0,0,0,1,0,0,0,1,0,0,0,0,0,0,0,1,0,0,0,0,0,0,0,0,0,0,0,1,2,0,0,0,0,0,5,4,0,0,2,0,16,85
cassandra,cassandra-0.5.0,cassandra-0.6.0,F:/corpus/cassandra/cassandra#2010-03-14-07-17-20#cassandra-0.5.0#1f858fb/src/java/org/apache/cassandra/service/IResponseResolver.java,F:/corpus/cassandra/cassandra#2010-04-12-09-37-17#cassandra-0.6.0#bb948b4/src/java/org/apache/cassandra/service/IResponseResolver.java,0,0,0,0,1,0,0,0,0,0,0,0,0,YES,0,0,0,0,0,0,0,0,0,0,0,0,0,0,0,0,0,0,0,0,0,0,0,0,0,0,2,0,0,0,0,0,0,0,0,0,0,0,0,0,0,0,0,0,0,0,0,0,3,39
cassandra,cassandra-0.5.0,cassandra-0.6.0,F:/corpus/cassandra/cassandra#2010-03-14-07-17-20#cassandra-0.5.0#1f858fb/src/java/org/apache/cassandra/service/LoadDisseminator.java,F:/corpus/cassandra/cassandra#2010-04-12-09-37-17#cassandra-0.6.0#bb948b4/src/java/org/apache/cassandra/service/LoadDisseminator.java,0,0,0,0,0,0,0,0,0,0,0,0,0,YES,0,0,0,0,0,0,0,0,0,0,0,0,0,0,0,0,0,0,0,0,0,0,0,0,0,0,0,0,0,0,0,0,0,0,0,0,0,0,0,0,0,0,3,0,0,3,2,0,13,47
cassandra,cassandra-0.5.0,cassandra-0.6.0,F:/corpus/cassandra/cassandra#2010-03-14-07-17-20#cassandra-0.5.0#1f858fb/src/java/org/apache/cassandra/service/QuorumResponseHandler.java,F:/corpus/cassandra/cassandra#2010-04-12-09-37-17#cassandra-0.6.0#bb948b4/src/java/org/apache/cassandra/service/QuorumResponseHandler.java,0,0,0,0,0,0,0,0,0,0,0,0,0,YES,0,0,0,0,0,0,0,0,0,1,0,0,0,0,0,0,0,0,0,0,0,0,0,0,0,0,0,0,0,0,0,0,0,0,0,0,0,0,0,0,0,0,3,1,0,0,1,0,10,97
cassandra,cassandra-0.5.0,cassandra-0.6.0,F:/corpus/cassandra/cassandra#2010-03-14-07-17-20#cassandra-0.5.0#1f858fb/src/java/org/apache/cassandra/service/RangeSliceResponseResolver.java,F:/corpus/cassandra/cassandra#2010-04-12-09-37-17#cassandra-0.6.0#bb948b4/src/java/org/apache/cassandra/service/RangeSliceResponseResolver.java,0,0,0,0,0,0,0,0,0,0,0,0,0,YES,0,0,0,1,0,0,0,0,0,0,0,1,1,0,0,0,0,0,0,0,0,0,1,0,0,0,2,0,0,0,0,1,1,0,1,2,0,0,0,1,0,0,17,8,0,0,0,0,37,99
cassandra,cassandra-0.5.0,cassandra-0.6.0,F:/corpus/cassandra/cassandra#2010-03-14-07-17-20#cassandra-0.5.0#1f858fb/src/java/org/apache/cassandra/service/RangeSliceVerbHandler.java,F:/corpus/cassandra/cassandra#2010-04-12-09-37-17#cassandra-0.6.0#bb948b4/src/java/org/apache/cassandra/service/RangeSliceVerbHandler.java,0,0,0,0,0,1,0,0,1,0,0,0,0,YES,0,0,0,0,0,0,0,0,0,0,0,0,0,0,0,0,0,0,0,0,0,0,0,0,0,0,0,0,0,0,0,0,0,0,0,0,0,0,0,0,0,0,0,1,0,0,2,0,9,56
cassandra,cassandra-0.5.0,cassandra-0.6.0,F:/corpus/cassandra/cassandra#2010-03-14-07-17-20#cassandra-0.5.0#1f858fb/src/java/org/apache/cassandra/service/ReadRepairManager.java,F:/corpus/cassandra/cassandra#2010-04-12-09-37-17#cassandra-0.6.0#bb948b4/src/java/org/apache/cassandra/service/ReadRepairManager.java,0,0,1,0,0,0,0,0,0,0,0,0,0,YES,0,0,0,0,0,1,0,0,0,1,0,0,0,0,0,0,0,0,0,0,0,0,0,0,0,0,0,0,0,0,0,0,0,0,1,2,1,0,0,0,0,0,2,2,0,0,2,0,33,125
cassandra,cassandra-0.5.0,cassandra-0.6.0,F:/corpus/cassandra/cassandra#2010-03-14-07-17-20#cassandra-0.5.0#1f858fb/src/java/org/apache/cassandra/service/ReadResponseResolver.java,F:/corpus/cassandra/cassandra#2010-04-12-09-37-17#cassandra-0.6.0#bb948b4/src/java/org/apache/cassandra/service/ReadResponseResolver.java,0,0,0,0,0,0,0,0,0,0,0,0,0,YES,0,0,0,0,0,0,0,0,0,0,0,0,0,0,0,0,0,0,0,0,0,0,0,0,0,0,2,0,0,0,0,0,0,0,0,0,0,0,0,0,0,0,6,4,0,0,4,0,16,190
cassandra,cassandra-0.5.0,cassandra-0.6.0,F:/corpus/cassandra/cassandra#2010-03-14-07-17-20#cassandra-0.5.0#1f858fb/src/java/org/apache/cassandra/service/StorageLoadBalancer.java,F:/corpus/cassandra/cassandra#2010-04-12-09-37-17#cassandra-0.6.0#bb948b4/src/java/org/apache/cassandra/service/StorageLoadBalancer.java,0,0,1,0,0,0,0,0,0,0,0,0,0,YES,0,1,0,0,0,1,0,0,0,1,0,1,0,0,0,0,0,0,0,1,0,0,0,0,0,0,0,0,0,0,0,0,0,0,1,3,0,0,0,0,0,0,4,2,0,1,6,0,38,403
cassandra,cassandra-0.5.0,cassandra-0.6.0,F:/corpus/cassandra/cassandra#2010-03-14-07-17-20#cassandra-0.5.0#1f858fb/src/java/org/apache/cassandra/service/StorageProxy.java,F:/corpus/cassandra/cassandra#2010-04-12-09-37-17#cassandra-0.6.0#bb948b4/src/java/org/apache/cassandra/service/StorageProxy.java,0,0,0,0,0,0,0,5,2,0,0,0,0,YES,0,0,0,0,10,3,5,0,0,0,0,1,1,4,1,3,0,0,0,0,1,3,1,0,0,1,4,0,0,0,0,0,0,0,3,3,2,0,0,8,0,0,50,29,0,12,31,0,345,708
cassandra,cassandra-0.5.0,cassandra-0.6.0,F:/corpus/cassandra/cassandra#2010-03-14-07-17-20#cassandra-0.5.0#1f858fb/src/java/org/apache/cassandra/service/StorageProxyMBean.java,F:/corpus/cassandra/cassandra#2010-04-12-09-37-17#cassandra-0.6.0#bb948b4/src/java/org/apache/cassandra/service/StorageProxyMBean.java,0,0,0,0,1,0,0,0,0,0,0,0,0,YES,0,0,0,0,3,0,0,0,0,0,0,0,0,0,0,0,0,0,0,0,0,3,0,0,0,0,0,0,0,0,0,0,0,0,0,0,0,0,0,3,0,0,0,0,0,0,0,0,6,29
cassandra,cassandra-0.5.0,cassandra-0.6.0,F:/corpus/cassandra/cassandra#2010-03-14-07-17-20#cassandra-0.5.0#1f858fb/src/java/org/apache/cassandra/service/StorageService.java,F:/corpus/cassandra/cassandra#2010-04-12-09-37-17#cassandra-0.6.0#bb948b4/src/java/org/apache/cassandra/service/StorageService.java,0,1,0,0,1,2,0,1,0,0,0,2,0,YES,0,1,0,0,9,5,1,1,1,1,0,4,7,3,2,12,1,0,1,2,1,0,4,17,0,0,1,0,0,0,0,0,0,0,6,14,0,0,0,1,0,0,40,85,10,20,91,2,531,1466
cassandra,cassandra-0.5.0,cassandra-0.6.0,F:/corpus/cassandra/cassandra#2010-03-14-07-17-20#cassandra-0.5.0#1f858fb/src/java/org/apache/cassandra/service/StorageServiceMBean.java,F:/corpus/cassandra/cassandra#2010-04-12-09-37-17#cassandra-0.6.0#bb948b4/src/java/org/apache/cassandra/service/StorageServiceMBean.java,0,0,0,0,1,0,0,0,0,0,0,0,0,YES,0,0,0,0,4,0,0,0,0,0,0,0,0,0,0,0,0,0,0,0,0,0,0,1,0,0,0,0,0,0,0,0,0,0,0,0,0,0,0,0,0,0,0,0,0,0,0,0,19,151
cassandra,cassandra-0.5.0,cassandra-0.6.0,F:/corpus/cassandra/cassandra#2010-03-14-07-17-20#cassandra-0.5.0#1f858fb/src/java/org/apache/cassandra/service/WriteResponseHandler.java,F:/corpus/cassandra/cassandra#2010-04-12-09-37-17#cassandra-0.6.0#bb948b4/src/java/org/apache/cassandra/service/WriteResponseHandler.java,0,0,0,0,0,0,0,0,0,0,0,0,0,YES,0,0,0,0,0,1,0,0,0,1,0,0,0,0,0,1,0,0,0,0,0,0,0,1,0,0,0,0,0,0,0,0,0,0,0,1,0,0,0,0,0,0,6,2,0,0,2,2,18,108
cassandra,cassandra-0.5.0,cassandra-0.6.0,F:/corpus/cassandra/cassandra#2010-03-14-07-17-20#cassandra-0.5.0#1f858fb/src/java/org/apache/cassandra/net/io/IStreamComplete.java,F:/corpus/cassandra/cassandra#2010-04-12-09-37-17#cassandra-0.6.0#bb948b4/src/java/org/apache/cassandra/streaming/IStreamComplete.java,0,0,0,0,1,0,0,0,0,0,0,0,0,YES,0,0,0,0,0,0,0,0,0,0,0,0,0,0,0,0,1,0,0,0,0,0,1,1,1,0,1,0,0,0,0,0,0,0,0,0,0,0,0,0,0,0,0,0,0,0,0,0,3,32
cassandra,cassandra-0.5.0,cassandra-0.6.0,F:/corpus/cassandra/cassandra#2010-03-14-07-17-20#cassandra-0.5.0#1f858fb/src/java/org/apache/cassandra/io/StreamRequestMetadata.java,F:/corpus/cassandra/cassandra#2010-04-12-09-37-17#cassandra-0.6.0#bb948b4/src/java/org/apache/cassandra/streaming/StreamRequestMetadata.java,0,0,0,0,0,0,0,0,0,0,0,0,0,YES,0,0,0,0,0,1,0,0,0,0,0,0,0,0,0,0,0,0,0,0,0,0,0,1,0,0,0,0,0,0,0,0,0,0,0,0,0,0,0,2,1,0,0,5,0,0,3,0,31,98
cassandra,cassandra-0.5.0,cassandra-0.6.0,F:/corpus/cassandra/cassandra#2010-03-14-07-17-20#cassandra-0.5.0#1f858fb/src/java/org/apache/cassandra/io/StreamRequestVerbHandler.java,F:/corpus/cassandra/cassandra#2010-04-12-09-37-17#cassandra-0.6.0#bb948b4/src/java/org/apache/cassandra/streaming/StreamRequestVerbHandler.java,0,0,0,0,0,0,0,0,1,0,0,0,0,YES,0,0,0,0,0,0,0,0,0,0,0,0,0,0,0,0,0,0,0,0,0,0,0,0,0,0,0,0,0,0,0,0,0,0,0,0,0,0,0,0,1,0,2,1,0,0,2,0,18,76
cassandra,cassandra-0.5.0,cassandra-0.6.0,F:/corpus/cassandra/cassandra#2010-03-14-07-17-20#cassandra-0.5.0#1f858fb/src/java/org/apache/cassandra/service/CassandraDaemon.java,F:/corpus/cassandra/cassandra#2010-04-12-09-37-17#cassandra-0.6.0#bb948b4/src/java/org/apache/cassandra/thrift/CassandraDaemon.java,0,0,0,0,2,0,0,0,0,0,0,0,0,YES,0,0,0,0,0,0,0,0,0,0,0,0,2,0,2,0,0,0,0,0,0,0,0,0,0,0,0,0,0,0,0,0,0,0,0,0,0,0,0,0,1,0,7,7,0,2,3,0,27,193
cassandra,cassandra-0.5.0,cassandra-0.6.0,F:/corpus/cassandra/cassandra#2010-03-14-07-17-20#cassandra-0.5.0#1f858fb/src/java/org/apache/cassandra/service/CassandraServer.java,F:/corpus/cassandra/cassandra#2010-04-12-09-37-17#cassandra-0.6.0#bb948b4/src/java/org/apache/cassandra/thrift/CassandraServer.java,0,0,0,0,1,1,0,0,2,0,0,0,0,YES,0,0,0,0,10,1,2,1,0,0,0,0,0,0,0,2,1,0,0,0,0,0,0,0,0,0,14,0,0,0,0,0,0,0,4,0,1,0,0,4,0,0,35,25,0,3,11,0,296,618
cassandra,cassandra-0.5.0,cassandra-0.6.0,F:/corpus/cassandra/cassandra#2010-03-14-07-17-20#cassandra-0.5.0#1f858fb/src/java/org/apache/cassandra/service/ThriftValidation.java,F:/corpus/cassandra/cassandra#2010-04-12-09-37-17#cassandra-0.6.0#bb948b4/src/java/org/apache/cassandra/thrift/ThriftValidation.java,0,0,0,0,0,0,0,0,1,0,0,0,0,YES,0,0,0,0,5,0,0,2,0,0,0,0,1,0,0,0,0,0,0,0,0,0,0,0,0,0,0,0,0,0,0,0,0,0,1,0,0,0,0,0,1,0,0,13,0,0,0,0,128,222
cassandra,cassandra-0.5.0,cassandra-0.6.0,F:/corpus/cassandra/cassandra#2010-03-14-07-17-20#cassandra-0.5.0#1f858fb/src/java/org/apache/cassandra/tools/NodeProbe.java,F:/corpus/cassandra/cassandra#2010-04-12-09-37-17#cassandra-0.6.0#bb948b4/src/java/org/apache/cassandra/tools/NodeProbe.java,0,0,0,0,0,0,0,0,0,1,0,0,0,YES,0,0,0,0,20,1,0,0,0,0,0,0,0,0,0,0,0,0,0,0,0,0,0,0,0,0,0,0,0,0,0,0,0,0,8,4,0,0,0,0,0,0,0,2,0,0,3,0,479,663
cassandra,cassandra-0.5.0,cassandra-0.6.0,F:/corpus/cassandra/cassandra#2010-03-14-07-17-20#cassandra-0.5.0#1f858fb/src/java/org/apache/cassandra/tools/SSTableExport.java,F:/corpus/cassandra/cassandra#2010-04-12-09-37-17#cassandra-0.6.0#bb948b4/src/java/org/apache/cassandra/tools/SSTableExport.java,0,0,0,0,1,0,0,0,0,0,0,0,0,YES,0,0,0,0,2,1,1,0,1,0,0,0,0,0,0,0,0,0,0,5,0,0,1,7,0,2,0,0,0,0,0,0,0,0,0,0,0,0,0,0,0,0,28,32,1,2,8,0,90,326
cassandra,cassandra-0.5.0,cassandra-0.6.0,F:/corpus/cassandra/cassandra#2010-03-14-07-17-20#cassandra-0.5.0#1f858fb/src/java/org/apache/cassandra/tools/SSTableImport.java,F:/corpus/cassandra/cassandra#2010-04-12-09-37-17#cassandra-0.6.0#bb948b4/src/java/org/apache/cassandra/tools/SSTableImport.java,0,0,0,0,0,2,0,0,0,0,0,0,0,YES,0,0,0,0,0,0,0,0,0,0,0,0,0,0,0,0,0,0,0,0,0,0,0,0,0,0,0,0,0,0,0,0,0,0,0,0,0,0,0,0,0,0,0,0,0,0,1,0,3,212
cassandra,cassandra-0.5.0,cassandra-0.6.0,F:/corpus/cassandra/cassandra#2010-03-14-07-17-20#cassandra-0.5.0#1f858fb/src/java/org/apache/cassandra/utils/BloomCalculations.java,F:/corpus/cassandra/cassandra#2010-04-12-09-37-17#cassandra-0.6.0#bb948b4/src/java/org/apache/cassandra/utils/BloomCalculations.java,0,0,0,0,0,0,0,0,0,0,0,0,0,YES,0,0,0,0,1,0,0,0,0,0,0,0,0,0,0,0,1,0,0,1,0,1,0,0,0,0,0,0,0,0,0,0,0,0,1,2,0,0,0,1,0,0,2,1,0,0,2,0,18,131
cassandra,cassandra-0.5.0,cassandra-0.6.0,F:/corpus/cassandra/cassandra#2010-03-14-07-17-20#cassandra-0.5.0#1f858fb/src/java/org/apache/cassandra/utils/BloomFilter.java,F:/corpus/cassandra/cassandra#2010-04-12-09-37-17#cassandra-0.6.0#bb948b4/src/java/org/apache/cassandra/utils/BloomFilter.java,0,0,0,0,0,0,0,0,0,0,0,1,0,YES,0,0,0,0,4,2,0,0,0,0,0,0,0,0,0,0,0,0,0,0,0,0,0,0,0,0,0,0,0,0,0,0,0,0,2,0,0,0,0,0,0,0,0,0,0,0,0,0,74,168
cassandra,cassandra-0.5.0,cassandra-0.6.0,F:/corpus/cassandra/cassandra#2010-03-14-07-17-20#cassandra-0.5.0#1f858fb/src/java/org/apache/cassandra/utils/FBUtilities.java,F:/corpus/cassandra/cassandra#2010-04-12-09-37-17#cassandra-0.6.0#bb948b4/src/java/org/apache/cassandra/utils/FBUtilities.java,0,0,0,0,0,0,0,0,0,0,0,2,0,YES,0,0,0,0,8,0,0,0,0,0,0,0,0,0,0,0,0,0,0,0,0,0,0,0,0,0,0,0,0,0,0,0,0,0,0,0,0,0,0,0,0,0,0,0,0,0,2,0,148,321
cassandra,cassandra-0.5.0,cassandra-0.6.0,F:/corpus/cassandra/cassandra#2010-03-14-07-17-20#cassandra-0.5.0#1f858fb/src/java/org/apache/cassandra/utils/GuidGenerator.java,F:/corpus/cassandra/cassandra#2010-04-12-09-37-17#cassandra-0.6.0#bb948b4/src/java/org/apache/cassandra/utils/GuidGenerator.java,0,0,0,0,0,0,0,0,0,0,0,0,0,YES,0,0,0,0,0,0,0,0,0,0,0,0,0,0,0,0,0,0,0,0,0,0,0,0,0,0,0,0,0,0,0,0,0,0,0,0,0,0,0,0,0,0,0,0,0,0,0,0,4,126
cassandra,cassandra-0.5.0,cassandra-0.6.0,F:/corpus/cassandra/cassandra#2010-03-14-07-17-20#cassandra-0.5.0#1f858fb/src/java/org/apache/cassandra/utils/MerkleTree.java,F:/corpus/cassandra/cassandra#2010-04-12-09-37-17#cassandra-0.6.0#bb948b4/src/java/org/apache/cassandra/utils/MerkleTree.java,1,0,0,0,1,0,0,0,0,0,0,0,0,YES,0,0,0,0,0,0,0,0,0,0,0,0,0,0,0,0,0,0,0,0,0,0,0,0,0,0,0,0,0,0,0,0,0,0,0,0,0,0,0,0,0,0,0,0,0,0,7,0,8,809
cassandra,cassandra-0.5.0,cassandra-0.6.0,F:/corpus/cassandra/cassandra#2010-03-14-07-17-20#cassandra-0.5.0#1f858fb/src/java/org/apache/cassandra/utils/Pair.java,F:/corpus/cassandra/cassandra#2010-04-12-09-37-17#cassandra-0.6.0#bb948b4/src/java/org/apache/cassandra/utils/Pair.java,0,0,0,0,0,0,0,0,0,0,0,0,0,YES,0,0,0,0,1,0,0,0,0,0,0,0,0,0,0,0,0,0,0,0,0,0,0,0,0,0,0,0,0,0,0,0,0,0,0,0,0,0,0,0,0,0,1,1,0,0,0,0,4,59
cassandra,cassandra-0.5.0,cassandra-0.6.0,F:/corpus/cassandra/cassandra#2010-03-14-07-17-20#cassandra-0.5.0#1f858fb/src/java/org/apache/cassandra/utils/WrappedRunnable.java,F:/corpus/cassandra/cassandra#2010-04-12-09-37-17#cassandra-0.6.0#bb948b4/src/java/org/apache/cassandra/utils/WrappedRunnable.java,0,0,0,0,1,0,0,0,0,0,0,0,0,YES,0,0,0,0,0,0,0,0,0,0,0,0,0,0,0,0,0,0,0,0,0,0,0,0,0,0,0,0,0,0,0,0,0,0,0,0,0,0,0,0,0,0,0,0,0,0,0,0,0,39
cassandra,cassandra-0.5.0,cassandra-0.6.0,F:/corpus/cassandra/cassandra#2010-03-14-07-17-20#cassandra-0.5.0#1f858fb/contrib/circuit/src/org/apache/cassandra/contrib/circuit/AboutDialog.java,F:/corpus/cassandra/cassandra#2010-03-14-07-17-20#cassandra-0.5.0#1f858fb/contrib/circuit/src/org/apache/cassandra/contrib/circuit/AboutDialog.java,0,0,0,0,1,0,0,0,0,0,0,0,0,NO,0,0,0,0,0,0,0,0,0,0,0,0,0,0,0,0,0,0,0,0,0,0,0,0,0,0,0,0,0,0,0,0,0,0,0,0,0,0,0,0,0,0,0,0,0,0,0,0,0,82
cassandra,cassandra-0.5.0,cassandra-0.6.0,F:/corpus/cassandra/cassandra#2010-03-14-07-17-20#cassandra-0.5.0#1f858fb/contrib/circuit/src/org/apache/cassandra/contrib/circuit/RingPanel.java,F:/corpus/cassandra/cassandra#2010-03-14-07-17-20#cassandra-0.5.0#1f858fb/contrib/circuit/src/org/apache/cassandra/contrib/circuit/RingPanel.java,0,0,0,0,0,0,0,0,0,0,0,0,0,NO,0,0,0,0,0,0,0,0,0,0,0,0,0,0,0,0,0,0,0,0,0,0,0,0,0,0,0,0,0,0,0,0,0,0,0,0,0,0,0,0,0,0,0,0,0,0,0,0,0,168
cassandra,cassandra-0.5.0,cassandra-0.6.0,F:/corpus/cassandra/cassandra#2010-03-14-07-17-20#cassandra-0.5.0#1f858fb/contrib/property_snitch/src/java/org/apache/cassandra/locator/PropertyFileEndPointSnitchMBean.java,F:/corpus/cassandra/cassandra#2010-03-14-07-17-20#cassandra-0.5.0#1f858fb/contrib/property_snitch/src/java/org/apache/cassandra/locator/PropertyFileEndPointSnitchMBean.java,0,0,0,0,1,0,0,0,0,0,0,0,0,NO,0,0,0,0,0,0,0,0,0,0,0,0,0,0,0,0,0,0,0,0,0,0,0,0,0,0,0,0,0,0,0,0,0,0,0,0,0,0,0,0,0,0,0,0,0,0,0,0,0,47
cassandra,cassandra-0.5.0,cassandra-0.6.0,F:/corpus/cassandra/cassandra#2010-03-14-07-17-20#cassandra-0.5.0#1f858fb/src/java/org/apache/cassandra/cli/CliCompiler.java,F:/corpus/cassandra/cassandra#2010-03-14-07-17-20#cassandra-0.5.0#1f858fb/src/java/org/apache/cassandra/cli/CliCompiler.java,0,0,0,0,0,2,0,0,0,0,0,0,0,NO,0,0,0,0,0,0,0,0,0,0,0,0,0,0,0,0,0,0,0,0,0,0,0,0,0,0,0,0,0,0,0,0,0,0,0,0,0,0,0,0,0,0,0,0,0,0,0,0,0,122
cassandra,cassandra-0.5.0,cassandra-0.6.0,F:/corpus/cassandra/cassandra#2010-03-14-07-17-20#cassandra-0.5.0#1f858fb/src/java/org/apache/cassandra/cli/CliUtils.java,F:/corpus/cassandra/cassandra#2010-03-14-07-17-20#cassandra-0.5.0#1f858fb/src/java/org/apache/cassandra/cli/CliUtils.java,0,0,0,0,0,0,0,0,0,0,0,0,0,NO,0,0,0,0,0,0,0,0,0,0,0,0,0,0,0,0,0,0,0,0,0,0,0,0,0,0,0,0,0,0,0,0,0,0,0,0,0,0,0,0,0,0,0,0,0,0,0,0,0,65
cassandra,cassandra-0.5.0,cassandra-0.6.0,F:/corpus/cassandra/cassandra#2010-03-14-07-17-20#cassandra-0.5.0#1f858fb/src/java/org/apache/cassandra/concurrent/AIOExecutorService.java,F:/corpus/cassandra/cassandra#2010-03-14-07-17-20#cassandra-0.5.0#1f858fb/src/java/org/apache/cassandra/concurrent/AIOExecutorService.java,0,0,0,0,0,0,0,0,0,0,0,0,0,NO,0,0,0,0,0,0,0,0,0,0,0,0,0,0,0,0,0,0,0,0,0,0,0,0,0,0,0,0,0,0,0,0,0,0,0,0,0,0,0,0,0,0,0,0,0,0,0,0,0,319
cassandra,cassandra-0.5.0,cassandra-0.6.0,F:/corpus/cassandra/cassandra#2010-03-14-07-17-20#cassandra-0.5.0#1f858fb/src/java/org/apache/cassandra/concurrent/Context.java,F:/corpus/cassandra/cassandra#2010-03-14-07-17-20#cassandra-0.5.0#1f858fb/src/java/org/apache/cassandra/concurrent/Context.java,0,0,0,0,0,0,0,0,0,0,0,0,0,NO,0,0,0,0,0,0,0,0,0,0,0,0,0,0,0,0,0,0,0,0,0,0,0,0,0,0,0,0,0,0,0,0,0,0,0,0,0,0,0,0,0,0,0,0,0,0,0,0,0,51
cassandra,cassandra-0.5.0,cassandra-0.6.0,F:/corpus/cassandra/cassandra#2010-03-14-07-17-20#cassandra-0.5.0#1f858fb/src/java/org/apache/cassandra/concurrent/IExecutorMBean.java,F:/corpus/cassandra/cassandra#2010-03-14-07-17-20#cassandra-0.5.0#1f858fb/src/java/org/apache/cassandra/concurrent/IExecutorMBean.java,0,0,0,0,0,0,0,0,0,0,0,0,0,NO,0,0,0,0,0,0,0,0,0,0,0,0,0,0,0,0,0,0,0,0,0,0,0,0,0,0,0,0,0,0,0,0,0,0,0,0,0,0,0,0,0,0,0,0,0,0,0,0,0,38
cassandra,cassandra-0.5.0,cassandra-0.6.0,F:/corpus/cassandra/cassandra#2010-03-14-07-17-20#cassandra-0.5.0#1f858fb/src/java/org/apache/cassandra/concurrent/NamedThreadFactory.java,F:/corpus/cassandra/cassandra#2010-03-14-07-17-20#cassandra-0.5.0#1f858fb/src/java/org/apache/cassandra/concurrent/NamedThreadFactory.java,0,0,0,0,0,0,0,0,0,0,0,0,0,NO,0,0,0,0,0,0,0,0,0,0,0,0,0,0,0,0,0,0,0,0,0,0,0,0,0,0,0,0,0,0,0,0,0,0,0,0,0,0,0,0,0,0,0,0,0,0,0,0,0,45
cassandra,cassandra-0.5.0,cassandra-0.6.0,F:/corpus/cassandra/cassandra#2010-03-14-07-17-20#cassandra-0.5.0#1f858fb/src/java/org/apache/cassandra/db/ColumnSerializer.java,F:/corpus/cassandra/cassandra#2010-03-14-07-17-20#cassandra-0.5.0#1f858fb/src/java/org/apache/cassandra/db/ColumnSerializer.java,0,0,0,0,0,0,0,0,0,0,0,2,0,NO,0,0,0,0,0,0,0,0,0,0,0,0,0,0,0,0,0,0,0,0,0,0,0,0,0,0,0,0,0,0,0,0,0,0,0,0,0,0,0,0,0,0,0,0,0,0,0,0,0,91
cassandra,cassandra-0.5.0,cassandra-0.6.0,F:/corpus/cassandra/cassandra#2010-03-14-07-17-20#cassandra-0.5.0#1f858fb/src/java/org/apache/cassandra/db/filter/AbstractColumnIterator.java,F:/corpus/cassandra/cassandra#2010-03-14-07-17-20#cassandra-0.5.0#1f858fb/src/java/org/apache/cassandra/db/filter/AbstractColumnIterator.java,0,0,0,0,1,0,0,0,0,0,0,0,0,NO,0,0,0,0,0,0,0,0,0,0,0,0,0,0,0,0,0,0,0,0,0,0,0,0,0,0,0,0,0,0,0,0,0,0,0,0,0,0,0,0,0,0,0,0,0,0,0,0,0,35
cassandra,cassandra-0.5.0,cassandra-0.6.0,F:/corpus/cassandra/cassandra#2010-03-14-07-17-20#cassandra-0.5.0#1f858fb/src/java/org/apache/cassandra/db/filter/ColumnIterator.java,F:/corpus/cassandra/cassandra#2010-03-14-07-17-20#cassandra-0.5.0#1f858fb/src/java/org/apache/cassandra/db/filter/ColumnIterator.java,0,0,0,0,0,0,0,0,0,0,0,0,0,NO,0,0,0,0,0,0,0,0,0,0,0,0,0,0,0,0,0,0,0,0,0,0,0,0,0,0,0,0,0,0,0,0,0,0,0,0,0,0,0,0,0,0,0,0,0,0,0,0,0,41
cassandra,cassandra-0.5.0,cassandra-0.6.0,F:/corpus/cassandra/cassandra#2010-03-14-07-17-20#cassandra-0.5.0#1f858fb/src/java/org/apache/cassandra/db/filter/IdentityQueryFilter.java,F:/corpus/cassandra/cassandra#2010-03-14-07-17-20#cassandra-0.5.0#1f858fb/src/java/org/apache/cassandra/db/filter/IdentityQueryFilter.java,0,0,0,0,1,0,0,0,0,0,0,0,0,NO,0,0,0,0,0,0,0,0,0,0,0,0,0,0,0,0,0,0,0,0,0,0,0,0,0,0,0,0,0,0,0,0,0,0,0,0,0,0,0,0,0,0,0,0,0,0,0,0,0,43
cassandra,cassandra-0.5.0,cassandra-0.6.0,F:/corpus/cassandra/cassandra#2010-03-14-07-17-20#cassandra-0.5.0#1f858fb/src/java/org/apache/cassandra/db/filter/SimpleAbstractColumnIterator.java,F:/corpus/cassandra/cassandra#2010-03-14-07-17-20#cassandra-0.5.0#1f858fb/src/java/org/apache/cassandra/db/filter/SimpleAbstractColumnIterator.java,0,0,0,0,1,0,0,0,0,0,0,0,0,NO,0,0,0,0,0,0,0,0,0,0,0,0,0,0,0,0,0,0,0,0,0,0,0,0,0,0,0,0,0,0,0,0,0,0,0,0,0,0,0,0,0,0,0,0,0,0,0,0,0,32
cassandra,cassandra-0.5.0,cassandra-0.6.0,F:/corpus/cassandra/cassandra#2010-03-14-07-17-20#cassandra-0.5.0#1f858fb/src/java/org/apache/cassandra/db/IColumnContainer.java,F:/corpus/cassandra/cassandra#2010-03-14-07-17-20#cassandra-0.5.0#1f858fb/src/java/org/apache/cassandra/db/IColumnContainer.java,0,0,0,0,0,0,0,0,0,0,0,0,0,NO,0,0,0,0,0,0,0,0,0,0,0,0,0,0,0,0,0,0,0,0,0,0,0,0,0,0,0,0,0,0,0,0,0,0,0,0,0,0,0,0,0,0,0,0,0,0,0,0,0,34
cassandra,cassandra-0.5.0,cassandra-0.6.0,F:/corpus/cassandra/cassandra#2010-03-14-07-17-20#cassandra-0.5.0#1f858fb/src/java/org/apache/cassandra/db/marshal/AsciiType.java,F:/corpus/cassandra/cassandra#2010-03-14-07-17-20#cassandra-0.5.0#1f858fb/src/java/org/apache/cassandra/db/marshal/AsciiType.java,0,0,0,0,0,0,0,0,0,0,0,0,0,NO,0,0,0,0,0,0,0,0,0,0,0,0,0,0,0,0,0,0,0,0,0,0,0,0,0,0,0,0,0,0,0,0,0,0,0,0,0,0,0,0,0,0,0,0,0,0,0,0,0,40
cassandra,cassandra-0.5.0,cassandra-0.6.0,F:/corpus/cassandra/cassandra#2010-03-14-07-17-20#cassandra-0.5.0#1f858fb/src/java/org/apache/cassandra/db/marshal/BytesType.java,F:/corpus/cassandra/cassandra#2010-03-14-07-17-20#cassandra-0.5.0#1f858fb/src/java/org/apache/cassandra/db/marshal/BytesType.java,0,0,0,0,0,0,0,0,0,0,0,0,0,NO,0,0,0,0,0,0,0,0,0,0,0,0,0,0,0,0,0,0,0,0,0,0,0,0,0,0,0,0,0,0,0,0,0,0,0,0,0,0,0,0,0,0,0,0,0,0,0,0,0,39
cassandra,cassandra-0.5.0,cassandra-0.6.0,F:/corpus/cassandra/cassandra#2010-03-14-07-17-20#cassandra-0.5.0#1f858fb/src/java/org/apache/cassandra/db/marshal/LexicalUUIDType.java,F:/corpus/cassandra/cassandra#2010-03-14-07-17-20#cassandra-0.5.0#1f858fb/src/java/org/apache/cassandra/db/marshal/LexicalUUIDType.java,0,0,0,0,0,0,0,0,0,0,0,0,0,NO,0,0,0,0,0,0,0,0,0,0,0,0,0,0,0,0,0,0,0,0,0,0,0,0,0,0,0,0,0,0,0,0,0,0,0,0,0,0,0,0,0,0,0,0,0,0,0,0,0,61
cassandra,cassandra-0.5.0,cassandra-0.6.0,F:/corpus/cassandra/cassandra#2010-03-14-07-17-20#cassandra-0.5.0#1f858fb/src/java/org/apache/cassandra/db/marshal/LongType.java,F:/corpus/cassandra/cassandra#2010-03-14-07-17-20#cassandra-0.5.0#1f858fb/src/java/org/apache/cassandra/db/marshal/LongType.java,0,0,0,0,0,0,0,0,0,0,0,0,0,NO,0,0,0,0,0,0,0,0,0,0,0,0,0,0,0,0,0,0,0,0,0,0,0,0,0,0,0,0,0,0,0,0,0,0,0,0,0,0,0,0,0,0,0,0,0,0,0,0,0,57
cassandra,cassandra-0.5.0,cassandra-0.6.0,F:/corpus/cassandra/cassandra#2010-03-14-07-17-20#cassandra-0.5.0#1f858fb/src/java/org/apache/cassandra/db/marshal/MarshalException.java,F:/corpus/cassandra/cassandra#2010-03-14-07-17-20#cassandra-0.5.0#1f858fb/src/java/org/apache/cassandra/db/marshal/MarshalException.java,0,0,0,0,0,0,0,0,0,0,0,0,0,NO,0,0,0,0,0,0,0,0,0,0,0,0,0,0,0,0,0,0,0,0,0,0,0,0,0,0,0,0,0,0,0,0,0,0,0,0,0,0,0,0,0,0,0,0,0,0,0,0,0,30
cassandra,cassandra-0.5.0,cassandra-0.6.0,F:/corpus/cassandra/cassandra#2010-03-14-07-17-20#cassandra-0.5.0#1f858fb/src/java/org/apache/cassandra/db/marshal/UTF8Type.java,F:/corpus/cassandra/cassandra#2010-03-14-07-17-20#cassandra-0.5.0#1f858fb/src/java/org/apache/cassandra/db/marshal/UTF8Type.java,0,0,0,0,0,0,0,0,0,0,0,0,0,NO,0,0,0,0,0,0,0,0,0,0,0,0,0,0,0,0,0,0,0,0,0,0,0,0,0,0,0,0,0,0,0,0,0,0,0,0,0,0,0,0,0,0,0,0,0,0,0,0,0,51
cassandra,cassandra-0.5.0,cassandra-0.6.0,F:/corpus/cassandra/cassandra#2010-03-14-07-17-20#cassandra-0.5.0#1f858fb/src/java/org/apache/cassandra/db/Row.java,F:/corpus/cassandra/cassandra#2010-03-14-07-17-20#cassandra-0.5.0#1f858fb/src/java/org/apache/cassandra/db/Row.java,0,0,0,0,0,0,0,0,0,0,0,0,0,NO,0,0,0,0,0,0,0,0,0,0,0,0,0,0,0,0,0,0,0,0,0,0,0,0,0,0,0,0,0,0,0,0,0,0,0,0,0,0,0,0,0,0,0,0,0,0,0,0,0,75
cassandra,cassandra-0.5.0,cassandra-0.6.0,F:/corpus/cassandra/cassandra#2010-03-14-07-17-20#cassandra-0.5.0#1f858fb/src/java/org/apache/cassandra/db/WriteResponse.java,F:/corpus/cassandra/cassandra#2010-03-14-07-17-20#cassandra-0.5.0#1f858fb/src/java/org/apache/cassandra/db/WriteResponse.java,0,0,0,0,0,0,0,0,0,0,0,0,0,NO,0,0,0,0,0,0,0,0,0,0,0,0,0,0,0,0,0,0,0,0,0,0,0,0,0,0,0,0,0,0,0,0,0,0,0,0,0,0,0,0,0,0,0,0,0,0,0,0,0,95
cassandra,cassandra-0.5.0,cassandra-0.6.0,F:/corpus/cassandra/cassandra#2010-03-14-07-17-20#cassandra-0.5.0#1f858fb/src/java/org/apache/cassandra/dht/BigIntegerToken.java,F:/corpus/cassandra/cassandra#2010-03-14-07-17-20#cassandra-0.5.0#1f858fb/src/java/org/apache/cassandra/dht/BigIntegerToken.java,0,0,0,0,0,0,0,0,0,0,0,0,0,NO,0,0,0,0,0,0,0,0,0,0,0,0,0,0,0,0,0,0,0,0,0,0,0,0,0,0,0,0,0,0,0,0,0,0,0,0,0,0,0,0,0,0,0,0,0,0,0,0,0,40
cassandra,cassandra-0.5.0,cassandra-0.6.0,F:/corpus/cassandra/cassandra#2010-03-14-07-17-20#cassandra-0.5.0#1f858fb/src/java/org/apache/cassandra/dht/BytesToken.java,F:/corpus/cassandra/cassandra#2010-03-14-07-17-20#cassandra-0.5.0#1f858fb/src/java/org/apache/cassandra/dht/BytesToken.java,0,0,0,0,0,0,0,0,0,0,0,0,0,NO,0,0,0,0,0,0,0,0,0,0,0,0,0,0,0,0,0,0,0,0,0,0,0,0,0,0,0,0,0,0,0,0,0,0,0,0,0,0,0,0,0,0,0,0,0,0,0,0,0,62
cassandra,cassandra-0.5.0,cassandra-0.6.0,F:/corpus/cassandra/cassandra#2010-03-14-07-17-20#cassandra-0.5.0#1f858fb/src/java/org/apache/cassandra/dht/IPartitioner.java,F:/corpus/cassandra/cassandra#2010-03-14-07-17-20#cassandra-0.5.0#1f858fb/src/java/org/apache/cassandra/dht/IPartitioner.java,0,0,0,0,1,0,0,0,0,0,0,0,0,NO,0,0,0,0,0,0,0,0,0,0,0,0,0,0,0,0,0,0,0,0,0,0,0,0,0,0,0,0,0,0,0,0,0,0,0,0,0,0,0,0,0,0,0,0,0,0,0,0,0,83
cassandra,cassandra-0.5.0,cassandra-0.6.0,F:/corpus/cassandra/cassandra#2010-03-14-07-17-20#cassandra-0.5.0#1f858fb/src/java/org/apache/cassandra/dht/OrderPreservingPartitioner.java,F:/corpus/cassandra/cassandra#2010-03-14-07-17-20#cassandra-0.5.0#1f858fb/src/java/org/apache/cassandra/dht/OrderPreservingPartitioner.java,0,0,0,0,0,0,0,0,0,0,0,0,0,NO,0,0,0,0,0,0,0,0,0,0,0,0,0,0,0,0,0,0,0,0,0,0,0,0,0,0,0,0,0,0,0,0,0,0,0,0,0,0,0,0,0,0,0,0,0,0,0,0,0,168
cassandra,cassandra-0.5.0,cassandra-0.6.0,F:/corpus/cassandra/cassandra#2010-03-14-07-17-20#cassandra-0.5.0#1f858fb/src/java/org/apache/cassandra/dht/StringToken.java,F:/corpus/cassandra/cassandra#2010-03-14-07-17-20#cassandra-0.5.0#1f858fb/src/java/org/apache/cassandra/dht/StringToken.java,0,0,0,0,0,0,0,0,0,0,0,0,0,NO,0,0,0,0,0,0,0,0,0,0,0,0,0,0,0,0,0,0,0,0,0,0,0,0,0,0,0,0,0,0,0,0,0,0,0,0,0,0,0,0,0,0,0,0,0,0,0,0,0,35
cassandra,cassandra-0.5.0,cassandra-0.6.0,F:/corpus/cassandra/cassandra#2010-03-14-07-17-20#cassandra-0.5.0#1f858fb/src/java/org/apache/cassandra/dht/Token.java,F:/corpus/cassandra/cassandra#2010-03-14-07-17-20#cassandra-0.5.0#1f858fb/src/java/org/apache/cassandra/dht/Token.java,0,0,0,0,2,0,0,0,0,0,0,1,0,NO,0,0,0,0,0,0,0,0,0,0,0,0,0,0,0,0,0,0,0,0,0,0,0,0,0,0,0,0,0,0,0,0,0,0,0,0,0,0,0,0,0,0,0,0,0,0,0,0,0,96
cassandra,cassandra-0.5.0,cassandra-0.6.0,F:/corpus/cassandra/cassandra#2010-03-14-07-17-20#cassandra-0.5.0#1f858fb/src/java/org/apache/cassandra/gms/FailureDetectorMBean.java,F:/corpus/cassandra/cassandra#2010-03-14-07-17-20#cassandra-0.5.0#1f858fb/src/java/org/apache/cassandra/gms/FailureDetectorMBean.java,0,0,0,0,1,0,0,0,0,0,0,0,0,NO,0,0,0,0,0,0,0,0,0,0,0,0,0,0,0,0,0,0,0,0,0,0,0,0,0,0,0,0,0,0,0,0,0,0,0,0,0,0,0,0,0,0,0,0,0,0,0,0,0,24
cassandra,cassandra-0.5.0,cassandra-0.6.0,F:/corpus/cassandra/cassandra#2010-03-14-07-17-20#cassandra-0.5.0#1f858fb/src/java/org/apache/cassandra/gms/GossipDigest.java,F:/corpus/cassandra/cassandra#2010-03-14-07-17-20#cassandra-0.5.0#1f858fb/src/java/org/apache/cassandra/gms/GossipDigest.java,0,0,0,0,0,0,0,0,0,0,0,0,0,NO,0,0,0,0,0,0,0,0,0,0,0,0,0,0,0,0,0,0,0,0,0,0,0,0,0,0,0,0,0,0,0,0,0,0,0,0,0,0,0,0,0,0,0,0,0,0,0,0,0,109
cassandra,cassandra-0.5.0,cassandra-0.6.0,F:/corpus/cassandra/cassandra#2010-03-14-07-17-20#cassandra-0.5.0#1f858fb/src/java/org/apache/cassandra/gms/GossipDigestAck2Message.java,F:/corpus/cassandra/cassandra#2010-03-14-07-17-20#cassandra-0.5.0#1f858fb/src/java/org/apache/cassandra/gms/GossipDigestAck2Message.java,0,0,0,0,0,0,0,0,0,0,0,0,0,NO,0,0,0,0,0,0,0,0,0,0,0,0,0,0,0,0,0,0,0,0,0,0,0,0,0,0,0,0,0,0,0,0,0,0,0,0,0,0,0,0,0,0,0,0,0,0,0,0,0,75
cassandra,cassandra-0.5.0,cassandra-0.6.0,F:/corpus/cassandra/cassandra#2010-03-14-07-17-20#cassandra-0.5.0#1f858fb/src/java/org/apache/cassandra/gms/GossipDigestAckMessage.java,F:/corpus/cassandra/cassandra#2010-03-14-07-17-20#cassandra-0.5.0#1f858fb/src/java/org/apache/cassandra/gms/GossipDigestAckMessage.java,0,0,0,0,0,0,0,0,0,0,0,0,0,NO,0,0,0,0,0,0,0,0,0,0,0,0,0,0,0,0,0,0,0,0,0,0,0,0,0,0,0,0,0,0,0,0,0,0,0,0,0,0,0,0,0,0,0,0,0,0,0,0,0,100
cassandra,cassandra-0.5.0,cassandra-0.6.0,F:/corpus/cassandra/cassandra#2010-03-14-07-17-20#cassandra-0.5.0#1f858fb/src/java/org/apache/cassandra/gms/HeartBeatState.java,F:/corpus/cassandra/cassandra#2010-03-14-07-17-20#cassandra-0.5.0#1f858fb/src/java/org/apache/cassandra/gms/HeartBeatState.java,0,0,0,0,0,0,0,0,0,0,0,0,0,NO,0,0,0,0,0,0,0,0,0,0,0,0,0,0,0,0,0,0,0,0,0,0,0,0,0,0,0,0,0,0,0,0,0,0,0,0,0,0,0,0,0,0,0,0,0,0,0,0,0,88
cassandra,cassandra-0.5.0,cassandra-0.6.0,F:/corpus/cassandra/cassandra#2010-03-14-07-17-20#cassandra-0.5.0#1f858fb/src/java/org/apache/cassandra/gms/IEndPointStateChangePublisher.java,F:/corpus/cassandra/cassandra#2010-03-14-07-17-20#cassandra-0.5.0#1f858fb/src/java/org/apache/cassandra/gms/IEndPointStateChangePublisher.java,0,0,0,0,1,0,0,0,0,0,0,0,0,NO,0,0,0,0,0,0,0,0,0,0,0,0,0,0,0,0,0,0,0,0,0,0,0,0,0,0,0,0,0,0,0,0,0,0,0,0,0,0,0,0,0,0,0,0,0,0,0,0,0,39
cassandra,cassandra-0.5.0,cassandra-0.6.0,F:/corpus/cassandra/cassandra#2010-03-14-07-17-20#cassandra-0.5.0#1f858fb/src/java/org/apache/cassandra/gms/IEndPointStateChangeSubscriber.java,F:/corpus/cassandra/cassandra#2010-03-14-07-17-20#cassandra-0.5.0#1f858fb/src/java/org/apache/cassandra/gms/IEndPointStateChangeSubscriber.java,0,0,0,0,0,0,0,0,0,0,0,0,0,NO,0,0,0,0,0,0,0,0,0,0,0,0,0,0,0,0,0,0,0,0,0,0,0,0,0,0,0,0,0,0,0,0,0,0,0,0,0,0,0,0,0,0,0,0,0,0,0,0,0,48
cassandra,cassandra-0.5.0,cassandra-0.6.0,F:/corpus/cassandra/cassandra#2010-03-14-07-17-20#cassandra-0.5.0#1f858fb/src/java/org/apache/cassandra/gms/IFailureDetectionEventListener.java,F:/corpus/cassandra/cassandra#2010-03-14-07-17-20#cassandra-0.5.0#1f858fb/src/java/org/apache/cassandra/gms/IFailureDetectionEventListener.java,0,0,0,0,0,0,0,0,0,0,0,0,0,NO,0,0,0,0,0,0,0,0,0,0,0,0,0,0,0,0,0,0,0,0,0,0,0,0,0,0,0,0,0,0,0,0,0,0,0,0,0,0,0,0,0,0,0,0,0,0,0,0,0,37
cassandra,cassandra-0.5.0,cassandra-0.6.0,F:/corpus/cassandra/cassandra#2010-03-14-07-17-20#cassandra-0.5.0#1f858fb/src/java/org/apache/cassandra/gms/IFailureNotification.java,F:/corpus/cassandra/cassandra#2010-03-14-07-17-20#cassandra-0.5.0#1f858fb/src/java/org/apache/cassandra/gms/IFailureNotification.java,0,0,0,0,1,0,0,0,0,0,0,0,0,NO,0,0,0,0,0,0,0,0,0,0,0,0,0,0,0,0,0,0,0,0,0,0,0,0,0,0,0,0,0,0,0,0,0,0,0,0,0,0,0,0,0,0,0,0,0,0,0,0,0,27
cassandra,cassandra-0.5.0,cassandra-0.6.0,F:/corpus/cassandra/cassandra#2010-03-14-07-17-20#cassandra-0.5.0#1f858fb/src/java/org/apache/cassandra/gms/JoinMessage.java,F:/corpus/cassandra/cassandra#2010-03-14-07-17-20#cassandra-0.5.0#1f858fb/src/java/org/apache/cassandra/gms/JoinMessage.java,0,0,0,0,0,0,0,0,0,0,0,0,0,NO,0,0,0,0,0,0,0,0,0,0,0,0,0,0,0,0,0,0,0,0,0,0,0,0,0,0,0,0,0,0,0,0,0,0,0,0,0,0,0,0,0,0,0,0,0,0,0,0,0,61
cassandra,cassandra-0.5.0,cassandra-0.6.0,F:/corpus/cassandra/cassandra#2010-03-14-07-17-20#cassandra-0.5.0#1f858fb/src/java/org/apache/cassandra/gms/PureRandom.java,F:/corpus/cassandra/cassandra#2010-03-14-07-17-20#cassandra-0.5.0#1f858fb/src/java/org/apache/cassandra/gms/PureRandom.java,0,0,0,0,1,0,0,0,0,0,0,0,0,NO,0,0,0,0,0,0,0,0,0,0,0,0,0,0,0,0,0,0,0,0,0,0,0,0,0,0,0,0,0,0,0,0,0,0,0,0,0,0,0,0,0,0,0,0,0,0,0,0,0,81
cassandra,cassandra-0.5.0,cassandra-0.6.0,F:/corpus/cassandra/cassandra#2010-03-14-07-17-20#cassandra-0.5.0#1f858fb/src/java/org/apache/cassandra/gms/VersionGenerator.java,F:/corpus/cassandra/cassandra#2010-03-14-07-17-20#cassandra-0.5.0#1f858fb/src/java/org/apache/cassandra/gms/VersionGenerator.java,0,0,0,0,0,0,0,0,0,0,0,0,0,NO,0,0,0,0,0,0,0,0,0,0,0,0,0,0,0,0,0,0,0,0,0,0,0,0,0,0,0,0,0,0,0,0,0,0,0,0,0,0,0,0,0,0,0,0,0,0,0,0,0,36
cassandra,cassandra-0.5.0,cassandra-0.6.0,F:/corpus/cassandra/cassandra#2010-03-14-07-17-20#cassandra-0.5.0#1f858fb/src/java/org/apache/cassandra/io/ICompactSerializer.java,F:/corpus/cassandra/cassandra#2010-03-14-07-17-20#cassandra-0.5.0#1f858fb/src/java/org/apache/cassandra/io/ICompactSerializer.java,0,0,0,0,1,0,0,0,0,0,0,0,0,NO,0,0,0,0,0,0,0,0,0,0,0,0,0,0,0,0,0,0,0,0,0,0,0,0,0,0,0,0,0,0,0,0,0,0,0,0,0,0,0,0,0,0,0,0,0,0,0,0,0,47
cassandra,cassandra-0.5.0,cassandra-0.6.0,F:/corpus/cassandra/cassandra#2010-03-14-07-17-20#cassandra-0.5.0#1f858fb/src/java/org/apache/cassandra/io/ICompactSerializer2.java,F:/corpus/cassandra/cassandra#2010-03-14-07-17-20#cassandra-0.5.0#1f858fb/src/java/org/apache/cassandra/io/ICompactSerializer2.java,0,0,0,0,1,0,0,0,0,0,0,0,0,NO,0,0,0,0,0,0,0,0,0,0,0,0,0,0,0,0,0,0,0,0,0,0,0,0,0,0,0,0,0,0,0,0,0,0,0,0,0,0,0,0,0,0,0,0,0,0,0,0,0,40
cassandra,cassandra-0.5.0,cassandra-0.6.0,F:/corpus/cassandra/cassandra#2010-03-14-07-17-20#cassandra-0.5.0#1f858fb/src/java/org/apache/cassandra/locator/DatacenterEndPointSnitch.java,F:/corpus/cassandra/cassandra#2010-03-14-07-17-20#cassandra-0.5.0#1f858fb/src/java/org/apache/cassandra/locator/DatacenterEndPointSnitch.java,0,0,0,0,0,4,0,0,0,0,0,0,0,NO,0,0,0,0,0,0,0,0,0,0,0,0,0,0,0,0,0,0,0,0,0,0,0,0,0,0,0,0,0,0,0,0,0,0,0,0,0,0,0,0,0,0,0,0,0,0,0,0,0,206
cassandra,cassandra-0.5.0,cassandra-0.6.0,F:/corpus/cassandra/cassandra#2010-03-14-07-17-20#cassandra-0.5.0#1f858fb/src/java/org/apache/cassandra/locator/IEndPointSnitch.java,F:/corpus/cassandra/cassandra#2010-03-14-07-17-20#cassandra-0.5.0#1f858fb/src/java/org/apache/cassandra/locator/IEndPointSnitch.java,0,0,0,0,1,0,0,0,0,0,0,0,0,NO,0,0,0,0,0,0,0,0,0,0,0,0,0,0,0,0,0,0,0,0,0,0,0,0,0,0,0,0,0,0,0,0,0,0,0,0,0,0,0,0,0,0,0,0,0,0,0,0,0,49
cassandra,cassandra-0.5.0,cassandra-0.6.0,F:/corpus/cassandra/cassandra#2010-03-14-07-17-20#cassandra-0.5.0#1f858fb/src/java/org/apache/cassandra/net/CompactEndPointSerializationHelper.java,F:/corpus/cassandra/cassandra#2010-03-14-07-17-20#cassandra-0.5.0#1f858fb/src/java/org/apache/cassandra/net/CompactEndPointSerializationHelper.java,0,0,0,0,0,0,0,0,0,0,0,0,0,NO,0,0,0,0,0,0,0,0,0,0,0,0,0,0,0,0,0,0,0,0,0,0,0,0,0,0,0,0,0,0,0,0,0,0,0,0,0,0,0,0,0,0,0,0,0,0,0,0,0,37
cassandra,cassandra-0.5.0,cassandra-0.6.0,F:/corpus/cassandra/cassandra#2010-03-14-07-17-20#cassandra-0.5.0#1f858fb/src/java/org/apache/cassandra/net/HeaderTypes.java,F:/corpus/cassandra/cassandra#2010-03-14-07-17-20#cassandra-0.5.0#1f858fb/src/java/org/apache/cassandra/net/HeaderTypes.java,0,0,0,0,0,0,0,0,0,0,0,0,0,NO,0,0,0,0,0,0,0,0,0,0,0,0,0,0,0,0,0,0,0,0,0,0,0,0,0,0,0,0,0,0,0,0,0,0,0,0,0,0,0,0,0,0,0,0,0,0,0,0,0,25
cassandra,cassandra-0.5.0,cassandra-0.6.0,F:/corpus/cassandra/cassandra#2010-03-14-07-17-20#cassandra-0.5.0#1f858fb/src/java/org/apache/cassandra/net/IAsyncResult.java,F:/corpus/cassandra/cassandra#2010-03-14-07-17-20#cassandra-0.5.0#1f858fb/src/java/org/apache/cassandra/net/IAsyncResult.java,0,0,0,0,1,0,0,0,0,0,0,0,0,NO,0,0,0,0,0,0,0,0,0,0,0,0,0,0,0,0,0,0,0,0,0,0,0,0,0,0,0,0,0,0,0,0,0,0,0,0,0,0,0,0,0,0,0,0,0,0,0,0,0,54
cassandra,cassandra-0.5.0,cassandra-0.6.0,F:/corpus/cassandra/cassandra#2010-03-14-07-17-20#cassandra-0.5.0#1f858fb/src/java/org/apache/cassandra/net/io/SerializerType.java,F:/corpus/cassandra/cassandra#2010-03-14-07-17-20#cassandra-0.5.0#1f858fb/src/java/org/apache/cassandra/net/io/SerializerType.java,0,0,0,0,0,0,0,0,0,0,0,0,0,NO,0,0,0,0,0,0,0,0,0,0,0,0,0,0,0,0,0,0,0,0,0,0,0,0,0,0,0,0,0,0,0,0,0,0,0,0,0,0,0,0,0,0,0,0,0,0,0,0,0,27
cassandra,cassandra-0.5.0,cassandra-0.6.0,F:/corpus/cassandra/cassandra#2010-03-14-07-17-20#cassandra-0.5.0#1f858fb/src/java/org/apache/cassandra/net/IVerbHandler.java,F:/corpus/cassandra/cassandra#2010-03-14-07-17-20#cassandra-0.5.0#1f858fb/src/java/org/apache/cassandra/net/IVerbHandler.java,0,0,0,0,0,0,0,0,0,0,0,0,0,NO,0,0,0,0,0,0,0,0,0,0,0,0,0,0,0,0,0,0,0,0,0,0,0,0,0,0,0,0,0,0,0,0,0,0,0,0,0,0,0,0,0,0,0,0,0,0,0,0,0,38
cassandra,cassandra-0.5.0,cassandra-0.6.0,F:/corpus/cassandra/cassandra#2010-03-14-07-17-20#cassandra-0.5.0#1f858fb/src/java/org/apache/cassandra/net/sink/IMessageSink.java,F:/corpus/cassandra/cassandra#2010-03-14-07-17-20#cassandra-0.5.0#1f858fb/src/java/org/apache/cassandra/net/sink/IMessageSink.java,0,0,0,0,1,0,0,0,0,0,0,0,0,NO,0,0,0,0,0,0,0,0,0,0,0,0,0,0,0,0,0,0,0,0,0,0,0,0,0,0,0,0,0,0,0,0,0,0,0,0,0,0,0,0,0,0,0,0,0,0,0,0,0,27
cassandra,cassandra-0.5.0,cassandra-0.6.0,F:/corpus/cassandra/cassandra#2010-03-14-07-17-20#cassandra-0.5.0#1f858fb/src/java/org/apache/cassandra/net/sink/SinkManager.java,F:/corpus/cassandra/cassandra#2010-03-14-07-17-20#cassandra-0.5.0#1f858fb/src/java/org/apache/cassandra/net/sink/SinkManager.java,0,0,0,0,0,0,0,0,0,0,0,0,0,NO,0,0,0,0,0,0,0,0,0,0,0,0,0,0,0,0,0,0,0,0,0,0,0,0,0,0,0,0,0,0,0,0,0,0,0,0,0,0,0,0,0,0,0,0,0,0,0,0,0,74
cassandra,cassandra-0.5.0,cassandra-0.6.0,F:/corpus/cassandra/cassandra#2010-03-14-07-17-20#cassandra-0.5.0#1f858fb/src/java/org/apache/cassandra/service/DigestMismatchException.java,F:/corpus/cassandra/cassandra#2010-03-14-07-17-20#cassandra-0.5.0#1f858fb/src/java/org/apache/cassandra/service/DigestMismatchException.java,0,0,0,0,0,0,0,0,0,0,0,0,0,NO,0,0,0,0,0,0,0,0,0,0,0,0,0,0,0,0,0,0,0,0,0,0,0,0,0,0,0,0,0,0,0,0,0,0,0,0,0,0,0,0,0,0,0,0,0,0,0,0,0,27
cassandra,cassandra-0.5.0,cassandra-0.6.0,F:/corpus/cassandra/cassandra#2010-03-14-07-17-20#cassandra-0.5.0#1f858fb/src/java/org/apache/cassandra/utils/AbstractStatsDeque.java,F:/corpus/cassandra/cassandra#2010-03-14-07-17-20#cassandra-0.5.0#1f858fb/src/java/org/apache/cassandra/utils/AbstractStatsDeque.java,0,0,0,0,0,0,0,0,0,0,0,0,0,NO,0,0,0,0,0,0,0,0,0,0,0,0,0,0,0,0,0,0,0,0,0,0,0,0,0,0,0,0,0,0,0,0,0,0,0,0,0,0,0,0,0,0,0,0,0,0,0,0,0,73
cassandra,cassandra-0.5.0,cassandra-0.6.0,F:/corpus/cassandra/cassandra#2010-03-14-07-17-20#cassandra-0.5.0#1f858fb/src/java/org/apache/cassandra/utils/BitSetSerializer.java,F:/corpus/cassandra/cassandra#2010-03-14-07-17-20#cassandra-0.5.0#1f858fb/src/java/org/apache/cassandra/utils/BitSetSerializer.java,0,0,0,0,0,0,0,0,0,0,0,0,0,NO,0,0,0,0,0,0,0,0,0,0,0,0,0,0,0,0,0,0,0,0,0,0,0,0,0,0,0,0,0,0,0,0,0,0,0,0,0,0,0,0,0,0,0,0,0,0,0,0,0,51
cassandra,cassandra-0.5.0,cassandra-0.6.0,F:/corpus/cassandra/cassandra#2010-03-14-07-17-20#cassandra-0.5.0#1f858fb/src/java/org/apache/cassandra/utils/BoundedStatsDeque.java,F:/corpus/cassandra/cassandra#2010-03-14-07-17-20#cassandra-0.5.0#1f858fb/src/java/org/apache/cassandra/utils/BoundedStatsDeque.java,0,0,0,0,0,0,0,0,0,0,0,0,0,NO,0,0,0,0,0,0,0,0,0,0,0,0,0,0,0,0,0,0,0,0,0,0,0,0,0,0,0,0,0,0,0,0,0,0,0,0,0,0,0,0,0,0,0,0,0,0,0,0,0,61
cassandra,cassandra-0.5.0,cassandra-0.6.0,F:/corpus/cassandra/cassandra#2010-03-14-07-17-20#cassandra-0.5.0#1f858fb/src/java/org/apache/cassandra/utils/CloseableIterator.java,F:/corpus/cassandra/cassandra#2010-03-14-07-17-20#cassandra-0.5.0#1f858fb/src/java/org/apache/cassandra/utils/CloseableIterator.java,0,0,0,0,1,0,0,0,0,0,0,0,0,NO,0,0,0,0,0,0,0,0,0,0,0,0,0,0,0,0,0,0,0,0,0,0,0,0,0,0,0,0,0,0,0,0,0,0,0,0,0,0,0,0,0,0,0,0,0,0,0,0,0,30
cassandra,cassandra-0.5.0,cassandra-0.6.0,F:/corpus/cassandra/cassandra#2010-03-14-07-17-20#cassandra-0.5.0#1f858fb/src/java/org/apache/cassandra/utils/DestructivePQIterator.java,F:/corpus/cassandra/cassandra#2010-03-14-07-17-20#cassandra-0.5.0#1f858fb/src/java/org/apache/cassandra/utils/DestructivePQIterator.java,0,0,0,0,0,0,0,0,0,0,0,0,0,NO,0,0,0,0,0,0,0,0,0,0,0,0,0,0,0,0,0,0,0,0,0,0,0,0,0,0,0,0,0,0,0,0,0,0,0,0,0,0,0,0,0,0,0,0,0,0,0,0,0,43
cassandra,cassandra-0.5.0,cassandra-0.6.0,F:/corpus/cassandra/cassandra#2010-03-14-07-17-20#cassandra-0.5.0#1f858fb/src/java/org/apache/cassandra/utils/Filter.java,F:/corpus/cassandra/cassandra#2010-03-14-07-17-20#cassandra-0.5.0#1f858fb/src/java/org/apache/cassandra/utils/Filter.java,0,0,0,0,1,1,0,0,0,0,0,0,0,NO,0,0,0,0,0,0,0,0,0,0,0,0,0,0,0,0,0,0,0,0,0,0,0,0,0,0,0,0,0,0,0,0,0,0,0,0,0,0,0,0,0,0,0,0,0,0,0,0,0,101
cassandra,cassandra-0.5.0,cassandra-0.6.0,F:/corpus/cassandra/cassandra#2010-03-14-07-17-20#cassandra-0.5.0#1f858fb/src/java/org/apache/cassandra/utils/MurmurHash.java,F:/corpus/cassandra/cassandra#2010-03-14-07-17-20#cassandra-0.5.0#1f858fb/src/java/org/apache/cassandra/utils/MurmurHash.java,0,0,0,0,0,0,0,0,0,0,0,0,0,NO,0,0,0,0,0,0,0,0,0,0,0,0,0,0,0,0,0,0,0,0,0,0,0,0,0,0,0,0,0,0,0,0,0,0,0,0,0,0,0,0,0,0,0,0,0,0,0,0,0,77
cassandra,cassandra-0.5.0,cassandra-0.6.0,F:/corpus/cassandra/cassandra#2010-03-14-07-17-20#cassandra-0.5.0#1f858fb/src/java/org/apache/cassandra/utils/ReducingIterator.java,F:/corpus/cassandra/cassandra#2010-03-14-07-17-20#cassandra-0.5.0#1f858fb/src/java/org/apache/cassandra/utils/ReducingIterator.java,0,0,0,0,1,0,0,0,0,0,0,0,0,NO,0,0,0,0,0,0,0,0,0,0,0,0,0,0,0,0,0,0,0,0,0,0,0,0,0,0,0,0,0,0,0,0,0,0,0,0,0,0,0,0,0,0,0,0,0,0,0,0,0,80
cassandra,cassandra-0.5.0,cassandra-0.6.0,F:/corpus/cassandra/cassandra#2010-03-14-07-17-20#cassandra-0.5.0#1f858fb/src/java/org/apache/cassandra/utils/SafeMessageDigest.java,F:/corpus/cassandra/cassandra#2010-03-14-07-17-20#cassandra-0.5.0#1f858fb/src/java/org/apache/cassandra/utils/SafeMessageDigest.java,0,0,0,0,0,0,0,0,0,0,0,0,0,NO,0,0,0,0,0,0,0,0,0,0,0,0,0,0,0,0,0,0,0,0,0,0,0,0,0,0,0,0,0,0,0,0,0,0,0,0,0,0,0,0,0,0,0,0,0,0,0,0,0,82
cassandra,cassandra-0.5.0,cassandra-0.6.0,F:/corpus/cassandra/cassandra#2010-03-14-07-17-20#cassandra-0.5.0#1f858fb/src/java/org/apache/cassandra/utils/SimpleCondition.java,F:/corpus/cassandra/cassandra#2010-03-14-07-17-20#cassandra-0.5.0#1f858fb/src/java/org/apache/cassandra/utils/SimpleCondition.java,0,0,0,0,2,0,0,0,0,0,0,0,0,NO,0,0,0,0,0,0,0,0,0,0,0,0,0,0,0,0,0,0,0,0,0,0,0,0,0,0,0,0,0,0,0,0,0,0,0,0,0,0,0,0,0,0,0,0,0,0,0,0,0,85
cassandra,cassandra-0.5.0,cassandra-0.6.0,F:/corpus/cassandra/cassandra#2010-03-14-07-17-20#cassandra-0.5.0#1f858fb/src/java/org/apache/cassandra/utils/XMLUtils.java,F:/corpus/cassandra/cassandra#2010-03-14-07-17-20#cassandra-0.5.0#1f858fb/src/java/org/apache/cassandra/utils/XMLUtils.java,0,0,0,0,1,1,0,0,0,0,0,0,0,NO,0,0,0,0,0,0,0,0,0,0,0,0,0,0,0,0,0,0,0,0,0,0,0,0,0,0,0,0,0,0,0,0,0,0,0,0,0,0,0,0,0,0,0,0,0,0,0,0,0,95
