projectName,oldVersionTag,newVersionTag,oldPath,newPath,DC,LC,MM,RPB,SG,MCH,DCLP,DIVC,FE,LM,LPL,SS,SC,fromChangeDistiller,adding_attribute_modifiability,adding_class_derivability,adding_method_overridability,additional_class,additional_functionality,additional_object_state,alternative_part_delete,alternative_part_insert,attribute_renaming,attribute_type_change,class_renaming,comment_delete,comment_insert,comment_move,comment_update,condition_expression_change,decreasing_accessibility_change,doc_delete,doc_insert,doc_update,increasing_accessibility_change,method_renaming,parameter_delete,parameter_insert,parameter_ordering_change,parameter_renaming,parameter_type_change,parent_class_change,parent_class_delete,parent_class_insert,parent_interface_change,parent_interface_delete,parent_interface_insert,removed_class,removed_functionality,removed_object_state,removing_attribute_modifiability,removing_class_derivability,removing_method_overridability,return_type_change,return_type_delete,return_type_insert,statement_delete,statement_insert,statement_ordering_change,statement_parent_change,statement_update,unclassified_change,codeChurn,LOC
cassandra,cassandra-0.8.0,cassandra-1.0.0,F:/corpus/cassandra/cassandra#2011-06-03-06-03-47#cassandra-0.8.0#b44fa70/src/java/org/apache/cassandra/auth/SimpleAuthenticator.java,F:/corpus/cassandra/cassandra#2011-10-18-19-24-49#cassandra-1.0.0#533193a/examples/simple_authentication/src/org/apache/cassandra/auth/SimpleAuthenticator.java,0,0,0,0,0,1,0,0,0,0,0,0,0,YES,0,0,0,0,0,0,0,0,0,0,0,0,0,0,0,0,0,0,0,0,0,0,0,0,0,0,0,0,0,0,0,0,0,0,0,0,0,0,0,0,0,0,0,0,0,0,0,0,0,149
cassandra,cassandra-0.8.0,cassandra-1.0.0,F:/corpus/cassandra/cassandra#2011-06-03-06-03-47#cassandra-0.8.0#b44fa70/src/java/org/apache/cassandra/auth/SimpleAuthority.java,F:/corpus/cassandra/cassandra#2011-10-18-19-24-49#cassandra-1.0.0#533193a/examples/simple_authentication/src/org/apache/cassandra/auth/SimpleAuthority.java,0,0,0,0,0,0,0,0,0,1,0,0,0,YES,0,0,0,0,0,0,0,0,0,0,0,2,0,0,0,0,0,0,0,0,0,0,0,0,0,0,0,0,0,0,0,0,0,0,0,1,0,0,0,0,0,0,4,4,0,1,0,0,18,155
cassandra,cassandra-0.8.0,cassandra-1.0.0,F:/corpus/cassandra/cassandra#2011-06-03-06-03-47#cassandra-0.8.0#b44fa70/interface/thrift/gen-java/org/apache/cassandra/thrift/AuthenticationException.java,F:/corpus/cassandra/cassandra#2011-10-18-19-24-49#cassandra-1.0.0#533193a/interface/thrift/gen-java/org/apache/cassandra/thrift/AuthenticationException.java,0,0,0,0,0,1,0,0,0,0,0,0,0,YES,0,0,0,0,2,0,0,0,0,0,0,0,0,0,0,0,0,0,0,0,0,0,0,0,0,0,0,0,0,0,0,0,0,0,0,0,0,0,0,0,0,0,0,0,0,0,0,0,16,338
cassandra,cassandra-0.8.0,cassandra-1.0.0,F:/corpus/cassandra/cassandra#2011-06-03-06-03-47#cassandra-0.8.0#b44fa70/interface/thrift/gen-java/org/apache/cassandra/thrift/AuthenticationRequest.java,F:/corpus/cassandra/cassandra#2011-10-18-19-24-49#cassandra-1.0.0#533193a/interface/thrift/gen-java/org/apache/cassandra/thrift/AuthenticationRequest.java,0,0,0,0,0,1,0,0,0,0,0,0,0,YES,0,0,0,0,2,0,0,0,0,0,0,0,0,0,0,2,0,0,0,0,0,0,0,0,0,0,0,0,0,0,0,0,0,0,0,0,0,0,0,0,0,0,0,0,0,0,11,0,27,383
cassandra,cassandra-0.8.0,cassandra-1.0.0,F:/corpus/cassandra/cassandra#2011-06-03-06-03-47#cassandra-0.8.0#b44fa70/interface/thrift/gen-java/org/apache/cassandra/thrift/AuthorizationException.java,F:/corpus/cassandra/cassandra#2011-10-18-19-24-49#cassandra-1.0.0#533193a/interface/thrift/gen-java/org/apache/cassandra/thrift/AuthorizationException.java,0,0,0,0,0,1,0,0,0,0,0,0,0,YES,0,0,0,0,2,0,0,0,0,0,0,0,0,0,0,0,0,0,0,0,0,0,0,0,0,0,0,0,0,0,0,0,0,0,0,0,0,0,0,0,0,0,0,0,0,0,0,0,16,338
cassandra,cassandra-0.8.0,cassandra-1.0.0,F:/corpus/cassandra/cassandra#2011-06-03-06-03-47#cassandra-0.8.0#b44fa70/interface/thrift/gen-java/org/apache/cassandra/thrift/Cassandra.java,F:/corpus/cassandra/cassandra#2011-10-18-19-24-49#cassandra-1.0.0#533193a/interface/thrift/gen-java/org/apache/cassandra/thrift/Cassandra.java,0,4,1,0,8,93,1204,0,0,0,10,5,0,YES,0,0,0,0,124,0,0,0,0,0,0,0,0,0,0,32,0,0,0,0,0,0,0,0,0,0,0,0,0,0,0,0,0,0,0,0,0,0,0,0,0,0,13,13,0,0,133,0,1140,31106
cassandra,cassandra-0.8.0,cassandra-1.0.0,F:/corpus/cassandra/cassandra#2011-06-03-06-03-47#cassandra-0.8.0#b44fa70/interface/thrift/gen-java/org/apache/cassandra/thrift/CfDef.java,F:/corpus/cassandra/cassandra#2011-10-18-19-24-49#cassandra-1.0.0#533193a/interface/thrift/gen-java/org/apache/cassandra/thrift/CfDef.java,0,1,0,0,0,0,0,0,0,7,0,1,0,YES,0,0,0,0,26,5,3,8,4,0,0,3,4,0,0,29,0,0,0,0,0,0,0,0,0,0,0,0,0,0,0,0,0,0,15,5,0,0,0,0,0,0,68,161,45,40,30,0,768,2623
cassandra,cassandra-0.8.0,cassandra-1.0.0,F:/corpus/cassandra/cassandra#2011-06-03-06-03-47#cassandra-0.8.0#b44fa70/interface/thrift/gen-java/org/apache/cassandra/thrift/Column.java,F:/corpus/cassandra/cassandra#2011-10-18-19-24-49#cassandra-1.0.0#533193a/interface/thrift/gen-java/org/apache/cassandra/thrift/Column.java,0,0,0,0,0,0,0,0,0,0,0,2,0,YES,0,0,0,0,2,0,0,0,0,0,0,0,0,0,0,0,0,0,0,0,0,0,0,0,0,0,0,0,0,0,0,0,0,0,0,0,0,0,0,0,0,0,0,0,0,0,0,0,18,643
cassandra,cassandra-0.8.0,cassandra-1.0.0,F:/corpus/cassandra/cassandra#2011-06-03-06-03-47#cassandra-0.8.0#b44fa70/interface/thrift/gen-java/org/apache/cassandra/thrift/ColumnDef.java,F:/corpus/cassandra/cassandra#2011-10-18-19-24-49#cassandra-1.0.0#533193a/interface/thrift/gen-java/org/apache/cassandra/thrift/ColumnDef.java,0,0,0,0,0,0,0,0,0,0,0,0,0,YES,0,0,0,0,9,2,0,3,0,0,0,0,1,0,0,0,0,0,0,0,0,0,0,0,0,0,0,0,0,0,0,0,0,0,0,0,0,0,0,0,0,0,0,69,0,1,0,0,157,651
cassandra,cassandra-0.8.0,cassandra-1.0.0,F:/corpus/cassandra/cassandra#2011-06-03-06-03-47#cassandra-0.8.0#b44fa70/interface/thrift/gen-java/org/apache/cassandra/thrift/ColumnOrSuperColumn.java,F:/corpus/cassandra/cassandra#2011-10-18-19-24-49#cassandra-1.0.0#533193a/interface/thrift/gen-java/org/apache/cassandra/thrift/ColumnOrSuperColumn.java,0,0,0,0,0,1,0,0,0,0,0,0,0,YES,0,0,0,0,2,0,0,0,0,0,0,0,0,0,0,0,0,0,0,0,0,0,0,0,0,0,0,0,0,0,0,0,0,0,0,0,0,0,0,0,0,0,0,0,0,0,0,0,16,636
cassandra,cassandra-0.8.0,cassandra-1.0.0,F:/corpus/cassandra/cassandra#2011-06-03-06-03-47#cassandra-0.8.0#b44fa70/interface/thrift/gen-java/org/apache/cassandra/thrift/ColumnParent.java,F:/corpus/cassandra/cassandra#2011-10-18-19-24-49#cassandra-1.0.0#533193a/interface/thrift/gen-java/org/apache/cassandra/thrift/ColumnParent.java,0,0,0,0,0,1,0,0,0,0,0,1,0,YES,0,0,0,0,2,0,0,0,0,0,0,0,0,0,0,0,0,0,0,0,0,0,0,0,0,0,0,0,0,0,0,0,0,0,0,0,0,0,0,0,0,0,0,0,0,0,0,0,16,448
cassandra,cassandra-0.8.0,cassandra-1.0.0,F:/corpus/cassandra/cassandra#2011-06-03-06-03-47#cassandra-0.8.0#b44fa70/interface/thrift/gen-java/org/apache/cassandra/thrift/ColumnPath.java,F:/corpus/cassandra/cassandra#2011-10-18-19-24-49#cassandra-1.0.0#533193a/interface/thrift/gen-java/org/apache/cassandra/thrift/ColumnPath.java,0,0,0,0,0,1,0,0,0,0,0,0,0,YES,0,0,0,0,2,0,0,0,0,0,0,0,0,0,0,0,0,0,0,0,0,0,0,0,0,0,0,0,0,0,0,0,0,0,0,0,0,0,0,0,0,0,0,0,0,0,0,0,16,559
cassandra,cassandra-0.8.0,cassandra-1.0.0,F:/corpus/cassandra/cassandra#2011-06-03-06-03-47#cassandra-0.8.0#b44fa70/interface/thrift/gen-java/org/apache/cassandra/thrift/Constants.java,F:/corpus/cassandra/cassandra#2011-10-18-19-24-49#cassandra-1.0.0#533193a/interface/thrift/gen-java/org/apache/cassandra/thrift/Constants.java,0,0,0,0,0,0,0,0,0,0,0,0,0,YES,0,0,0,0,0,0,0,0,0,0,0,0,0,0,0,0,0,0,0,0,0,0,0,0,0,0,0,0,0,0,0,0,0,0,0,0,0,0,0,0,0,0,0,0,0,0,0,0,1,49
cassandra,cassandra-0.8.0,cassandra-1.0.0,F:/corpus/cassandra/cassandra#2011-06-03-06-03-47#cassandra-0.8.0#b44fa70/interface/thrift/gen-java/org/apache/cassandra/thrift/CounterColumn.java,F:/corpus/cassandra/cassandra#2011-10-18-19-24-49#cassandra-1.0.0#533193a/interface/thrift/gen-java/org/apache/cassandra/thrift/CounterColumn.java,0,0,0,0,0,0,0,0,0,0,0,0,0,YES,0,0,0,0,2,0,0,0,0,0,0,0,0,0,0,0,0,0,0,0,0,0,0,0,0,0,0,0,0,0,0,0,0,0,0,0,0,0,0,0,0,0,0,0,0,0,0,0,18,442
cassandra,cassandra-0.8.0,cassandra-1.0.0,F:/corpus/cassandra/cassandra#2011-06-03-06-03-47#cassandra-0.8.0#b44fa70/interface/thrift/gen-java/org/apache/cassandra/thrift/CounterSuperColumn.java,F:/corpus/cassandra/cassandra#2011-10-18-19-24-49#cassandra-1.0.0#533193a/interface/thrift/gen-java/org/apache/cassandra/thrift/CounterSuperColumn.java,0,0,0,0,0,0,0,0,0,0,0,0,0,YES,0,0,0,0,2,0,0,0,0,0,0,0,0,0,0,0,0,0,0,0,0,0,0,0,0,0,0,0,0,0,0,0,0,0,0,0,0,0,0,0,0,0,0,0,0,0,0,0,16,481
cassandra,cassandra-0.8.0,cassandra-1.0.0,F:/corpus/cassandra/cassandra#2011-06-03-06-03-47#cassandra-0.8.0#b44fa70/interface/thrift/gen-java/org/apache/cassandra/thrift/CqlResult.java,F:/corpus/cassandra/cassandra#2011-10-18-19-24-49#cassandra-1.0.0#533193a/interface/thrift/gen-java/org/apache/cassandra/thrift/CqlResult.java,0,0,0,0,0,1,0,0,0,0,0,0,0,YES,0,0,0,0,7,2,0,3,0,0,0,0,1,0,0,2,0,0,0,0,0,0,0,0,0,0,0,0,0,0,0,0,0,0,0,0,0,0,0,0,0,0,1,50,0,1,8,0,124,578
cassandra,cassandra-0.8.0,cassandra-1.0.0,F:/corpus/cassandra/cassandra#2011-06-03-06-03-47#cassandra-0.8.0#b44fa70/interface/thrift/gen-java/org/apache/cassandra/thrift/CqlRow.java,F:/corpus/cassandra/cassandra#2011-10-18-19-24-49#cassandra-1.0.0#533193a/interface/thrift/gen-java/org/apache/cassandra/thrift/CqlRow.java,0,0,0,0,0,1,0,0,0,0,0,0,0,YES,0,0,0,0,2,0,0,0,0,0,0,0,0,0,0,2,0,0,0,0,0,0,0,0,0,0,0,0,0,0,0,0,0,0,0,0,0,0,0,0,0,0,1,1,0,0,8,0,25,484
cassandra,cassandra-0.8.0,cassandra-1.0.0,F:/corpus/cassandra/cassandra#2011-06-03-06-03-47#cassandra-0.8.0#b44fa70/interface/thrift/gen-java/org/apache/cassandra/thrift/Deletion.java,F:/corpus/cassandra/cassandra#2011-10-18-19-24-49#cassandra-1.0.0#533193a/interface/thrift/gen-java/org/apache/cassandra/thrift/Deletion.java,0,0,0,0,0,1,0,0,0,0,0,0,0,YES,0,0,0,0,2,0,0,0,0,0,0,0,0,0,0,0,0,0,0,0,0,0,0,0,0,0,0,0,0,0,0,0,0,0,0,0,0,0,0,0,0,0,0,0,0,0,0,0,18,533
cassandra,cassandra-0.8.0,cassandra-1.0.0,F:/corpus/cassandra/cassandra#2011-06-03-06-03-47#cassandra-0.8.0#b44fa70/interface/thrift/gen-java/org/apache/cassandra/thrift/IndexClause.java,F:/corpus/cassandra/cassandra#2011-10-18-19-24-49#cassandra-1.0.0#533193a/interface/thrift/gen-java/org/apache/cassandra/thrift/IndexClause.java,0,0,0,0,0,1,0,0,0,0,0,0,0,YES,0,0,0,0,2,0,0,0,0,0,0,0,0,0,0,0,0,0,0,0,0,0,0,0,0,0,0,0,0,0,0,0,0,0,0,0,0,0,0,0,0,0,0,0,0,0,0,0,18,579
cassandra,cassandra-0.8.0,cassandra-1.0.0,F:/corpus/cassandra/cassandra#2011-06-03-06-03-47#cassandra-0.8.0#b44fa70/interface/thrift/gen-java/org/apache/cassandra/thrift/IndexExpression.java,F:/corpus/cassandra/cassandra#2011-10-18-19-24-49#cassandra-1.0.0#533193a/interface/thrift/gen-java/org/apache/cassandra/thrift/IndexExpression.java,0,0,0,0,0,1,0,0,0,0,0,0,0,YES,0,0,0,0,2,0,0,0,0,0,0,0,0,0,0,0,0,0,0,0,0,0,0,0,0,0,0,0,0,0,0,0,0,0,0,0,0,0,0,0,0,0,0,0,0,0,0,0,16,567
cassandra,cassandra-0.8.0,cassandra-1.0.0,F:/corpus/cassandra/cassandra#2011-06-03-06-03-47#cassandra-0.8.0#b44fa70/interface/thrift/gen-java/org/apache/cassandra/thrift/IndexType.java,F:/corpus/cassandra/cassandra#2011-10-18-19-24-49#cassandra-1.0.0#533193a/interface/thrift/gen-java/org/apache/cassandra/thrift/IndexType.java,0,0,0,0,0,0,0,0,0,0,0,0,0,YES,0,0,0,0,0,0,0,0,0,0,0,0,0,0,0,0,0,0,0,0,0,0,0,0,0,0,0,0,0,0,0,0,0,0,0,0,0,0,0,0,0,0,0,0,0,0,0,0,3,62
cassandra,cassandra-0.8.0,cassandra-1.0.0,F:/corpus/cassandra/cassandra#2011-06-03-06-03-47#cassandra-0.8.0#b44fa70/interface/thrift/gen-java/org/apache/cassandra/thrift/InvalidRequestException.java,F:/corpus/cassandra/cassandra#2011-10-18-19-24-49#cassandra-1.0.0#533193a/interface/thrift/gen-java/org/apache/cassandra/thrift/InvalidRequestException.java,0,0,0,0,0,1,0,0,0,0,0,0,0,YES,0,0,0,0,2,0,0,0,0,0,0,0,0,0,0,0,0,0,0,0,0,0,0,0,0,0,0,0,0,0,0,0,0,0,0,0,0,0,0,0,0,0,0,0,0,0,0,0,16,339
cassandra,cassandra-0.8.0,cassandra-1.0.0,F:/corpus/cassandra/cassandra#2011-06-03-06-03-47#cassandra-0.8.0#b44fa70/interface/thrift/gen-java/org/apache/cassandra/thrift/KeyCount.java,F:/corpus/cassandra/cassandra#2011-10-18-19-24-49#cassandra-1.0.0#533193a/interface/thrift/gen-java/org/apache/cassandra/thrift/KeyCount.java,0,0,0,0,0,1,0,0,0,0,0,0,0,YES,0,0,0,0,2,0,0,0,0,0,0,0,0,0,0,0,0,0,0,0,0,0,0,0,0,0,0,0,0,0,0,0,0,0,0,0,0,0,0,0,0,0,0,0,0,0,0,0,18,442
cassandra,cassandra-0.8.0,cassandra-1.0.0,F:/corpus/cassandra/cassandra#2011-06-03-06-03-47#cassandra-0.8.0#b44fa70/interface/thrift/gen-java/org/apache/cassandra/thrift/KeyRange.java,F:/corpus/cassandra/cassandra#2011-10-18-19-24-49#cassandra-1.0.0#533193a/interface/thrift/gen-java/org/apache/cassandra/thrift/KeyRange.java,0,0,0,0,0,1,0,0,0,0,0,0,0,YES,0,0,0,0,2,0,0,0,0,0,0,0,0,0,0,0,0,0,0,0,0,0,0,0,0,0,0,0,0,0,0,0,0,0,0,0,0,0,0,0,0,0,0,0,0,0,0,0,18,750
cassandra,cassandra-0.8.0,cassandra-1.0.0,F:/corpus/cassandra/cassandra#2011-06-03-06-03-47#cassandra-0.8.0#b44fa70/interface/thrift/gen-java/org/apache/cassandra/thrift/KeySlice.java,F:/corpus/cassandra/cassandra#2011-10-18-19-24-49#cassandra-1.0.0#533193a/interface/thrift/gen-java/org/apache/cassandra/thrift/KeySlice.java,0,0,0,0,0,1,0,0,0,0,0,0,0,YES,0,0,0,0,2,0,0,0,0,0,0,0,0,0,0,0,0,0,0,0,0,0,0,0,0,0,0,0,0,0,0,0,0,0,0,0,0,0,0,0,0,0,0,0,0,0,0,0,16,488
cassandra,cassandra-0.8.0,cassandra-1.0.0,F:/corpus/cassandra/cassandra#2011-06-03-06-03-47#cassandra-0.8.0#b44fa70/interface/thrift/gen-java/org/apache/cassandra/thrift/KsDef.java,F:/corpus/cassandra/cassandra#2011-10-18-19-24-49#cassandra-1.0.0#533193a/interface/thrift/gen-java/org/apache/cassandra/thrift/KsDef.java,0,0,0,0,0,0,0,0,0,0,0,1,0,YES,0,0,0,0,7,3,0,2,0,0,0,0,1,0,0,4,0,0,0,0,0,0,0,0,0,0,0,0,0,0,0,0,0,0,0,0,0,0,0,0,0,0,2,48,0,1,18,0,130,813
cassandra,cassandra-0.8.0,cassandra-1.0.0,F:/corpus/cassandra/cassandra#2011-06-03-06-03-47#cassandra-0.8.0#b44fa70/interface/thrift/gen-java/org/apache/cassandra/thrift/Mutation.java,F:/corpus/cassandra/cassandra#2011-10-18-19-24-49#cassandra-1.0.0#533193a/interface/thrift/gen-java/org/apache/cassandra/thrift/Mutation.java,0,0,0,0,0,1,0,0,0,0,0,0,0,YES,0,0,0,0,2,0,0,0,0,0,0,0,0,0,0,0,0,0,0,0,0,0,0,0,0,0,0,0,0,0,0,0,0,0,0,0,0,0,0,0,0,0,0,0,0,0,0,0,16,432
cassandra,cassandra-0.8.0,cassandra-1.0.0,F:/corpus/cassandra/cassandra#2011-06-03-06-03-47#cassandra-0.8.0#b44fa70/interface/thrift/gen-java/org/apache/cassandra/thrift/NotFoundException.java,F:/corpus/cassandra/cassandra#2011-10-18-19-24-49#cassandra-1.0.0#533193a/interface/thrift/gen-java/org/apache/cassandra/thrift/NotFoundException.java,0,0,0,0,1,1,0,0,0,0,0,0,0,YES,0,0,0,0,2,0,0,0,0,0,0,0,0,0,0,0,0,0,0,0,0,0,0,0,0,0,0,0,0,0,0,0,0,0,0,0,0,0,0,0,0,0,0,0,0,0,0,0,16,235
cassandra,cassandra-0.8.0,cassandra-1.0.0,F:/corpus/cassandra/cassandra#2011-06-03-06-03-47#cassandra-0.8.0#b44fa70/interface/thrift/gen-java/org/apache/cassandra/thrift/SchemaDisagreementException.java,F:/corpus/cassandra/cassandra#2011-10-18-19-24-49#cassandra-1.0.0#533193a/interface/thrift/gen-java/org/apache/cassandra/thrift/SchemaDisagreementException.java,0,0,0,0,1,1,0,0,0,0,0,0,0,YES,0,0,0,0,2,0,0,0,0,0,0,0,0,0,0,0,0,0,0,0,0,0,0,0,0,0,0,0,0,0,0,0,0,0,0,0,0,0,0,0,0,0,0,0,0,0,0,0,16,235
cassandra,cassandra-0.8.0,cassandra-1.0.0,F:/corpus/cassandra/cassandra#2011-06-03-06-03-47#cassandra-0.8.0#b44fa70/interface/thrift/gen-java/org/apache/cassandra/thrift/SlicePredicate.java,F:/corpus/cassandra/cassandra#2011-10-18-19-24-49#cassandra-1.0.0#533193a/interface/thrift/gen-java/org/apache/cassandra/thrift/SlicePredicate.java,0,0,0,0,0,1,0,0,0,0,0,1,0,YES,0,0,0,0,2,0,0,0,0,0,0,0,0,0,0,0,0,0,0,0,0,0,0,0,0,0,0,0,0,0,0,0,0,0,0,0,0,0,0,0,0,0,0,0,0,0,0,0,16,477
cassandra,cassandra-0.8.0,cassandra-1.0.0,F:/corpus/cassandra/cassandra#2011-06-03-06-03-47#cassandra-0.8.0#b44fa70/interface/thrift/gen-java/org/apache/cassandra/thrift/SliceRange.java,F:/corpus/cassandra/cassandra#2011-10-18-19-24-49#cassandra-1.0.0#533193a/interface/thrift/gen-java/org/apache/cassandra/thrift/SliceRange.java,0,0,0,0,0,1,0,0,0,0,0,3,0,YES,0,0,0,0,2,0,0,0,0,0,0,0,0,0,0,0,0,0,0,0,0,0,0,0,0,0,0,0,0,0,0,0,0,0,0,0,0,0,0,0,0,0,0,0,0,0,0,0,18,663
cassandra,cassandra-0.8.0,cassandra-1.0.0,F:/corpus/cassandra/cassandra#2011-06-03-06-03-47#cassandra-0.8.0#b44fa70/interface/thrift/gen-java/org/apache/cassandra/thrift/SuperColumn.java,F:/corpus/cassandra/cassandra#2011-10-18-19-24-49#cassandra-1.0.0#533193a/interface/thrift/gen-java/org/apache/cassandra/thrift/SuperColumn.java,0,0,0,0,0,0,0,0,0,0,0,0,0,YES,0,0,0,0,2,0,0,0,0,0,0,0,0,0,0,0,0,0,0,0,0,0,0,0,0,0,0,0,0,0,0,0,0,0,0,0,0,0,0,0,0,0,0,0,0,0,0,0,16,487
cassandra,cassandra-0.8.0,cassandra-1.0.0,F:/corpus/cassandra/cassandra#2011-06-03-06-03-47#cassandra-0.8.0#b44fa70/interface/thrift/gen-java/org/apache/cassandra/thrift/TimedOutException.java,F:/corpus/cassandra/cassandra#2011-10-18-19-24-49#cassandra-1.0.0#533193a/interface/thrift/gen-java/org/apache/cassandra/thrift/TimedOutException.java,0,0,0,0,1,1,0,0,0,0,0,0,0,YES,0,0,0,0,2,0,0,0,0,0,0,0,0,0,0,0,0,0,0,0,0,0,0,0,0,0,0,0,0,0,0,0,0,0,0,0,0,0,0,0,0,0,0,0,0,0,0,0,16,235
cassandra,cassandra-0.8.0,cassandra-1.0.0,F:/corpus/cassandra/cassandra#2011-06-03-06-03-47#cassandra-0.8.0#b44fa70/interface/thrift/gen-java/org/apache/cassandra/thrift/TokenRange.java,F:/corpus/cassandra/cassandra#2011-10-18-19-24-49#cassandra-1.0.0#533193a/interface/thrift/gen-java/org/apache/cassandra/thrift/TokenRange.java,0,0,0,0,0,1,0,0,0,0,0,0,0,YES,0,0,0,0,10,2,0,3,0,0,0,0,1,0,0,1,0,0,1,0,0,0,0,0,0,0,0,0,0,0,0,0,0,0,0,0,0,0,0,0,0,0,0,62,0,1,1,0,159,566
cassandra,cassandra-0.8.0,cassandra-1.0.0,F:/corpus/cassandra/cassandra#2011-06-03-06-03-47#cassandra-0.8.0#b44fa70/interface/thrift/gen-java/org/apache/cassandra/thrift/UnavailableException.java,F:/corpus/cassandra/cassandra#2011-10-18-19-24-49#cassandra-1.0.0#533193a/interface/thrift/gen-java/org/apache/cassandra/thrift/UnavailableException.java,0,0,0,0,1,1,0,0,0,0,0,0,0,YES,0,0,0,0,2,0,0,0,0,0,0,0,0,0,0,0,0,0,0,0,0,0,0,0,0,0,0,0,0,0,0,0,0,0,0,0,0,0,0,0,0,0,0,0,0,0,0,0,16,235
cassandra,cassandra-0.8.0,cassandra-1.0.0,F:/corpus/cassandra/cassandra#2011-06-03-06-03-47#cassandra-0.8.0#b44fa70/src/java/org/apache/cassandra/auth/IAuthenticator.java,F:/corpus/cassandra/cassandra#2011-10-18-19-24-49#cassandra-1.0.0#533193a/src/java/org/apache/cassandra/auth/IAuthenticator.java,0,0,0,0,0,0,0,0,0,0,0,0,0,YES,0,0,0,0,0,2,0,0,0,0,0,0,0,0,0,0,0,0,0,0,0,0,0,0,0,0,0,0,0,0,0,0,0,0,0,0,0,0,0,0,0,0,0,0,0,0,0,0,3,42
cassandra,cassandra-0.8.0,cassandra-1.0.0,F:/corpus/cassandra/cassandra#2011-06-03-06-03-47#cassandra-0.8.0#b44fa70/src/java/org/apache/cassandra/cache/AutoSavingCache.java,F:/corpus/cassandra/cassandra#2011-10-18-19-24-49#cassandra-1.0.0#533193a/src/java/org/apache/cassandra/cache/AutoSavingCache.java,0,0,0,0,1,0,0,0,0,0,0,0,0,YES,0,0,0,0,0,0,0,1,0,0,0,0,0,0,0,2,0,0,0,0,0,0,0,4,0,0,0,0,0,0,0,0,0,0,0,0,0,0,0,0,0,0,1,3,0,1,12,0,31,268
cassandra,cassandra-0.8.0,cassandra-1.0.0,F:/corpus/cassandra/cassandra#2011-06-03-06-03-47#cassandra-0.8.0#b44fa70/src/java/org/apache/cassandra/cache/ConcurrentLinkedHashCache.java,F:/corpus/cassandra/cassandra#2011-10-18-19-24-49#cassandra-1.0.0#533193a/src/java/org/apache/cassandra/cache/ConcurrentLinkedHashCache.java,0,0,0,0,0,0,0,0,0,0,0,0,0,YES,0,0,0,0,1,0,0,0,0,0,0,0,0,0,0,0,0,0,0,0,0,0,0,2,1,0,0,0,0,0,0,0,0,0,0,0,0,0,0,0,0,0,0,0,0,0,0,0,6,103
cassandra,cassandra-0.8.0,cassandra-1.0.0,F:/corpus/cassandra/cassandra#2011-06-03-06-03-47#cassandra-0.8.0#b44fa70/src/java/org/apache/cassandra/cache/ConcurrentLinkedHashCacheProvider.java,F:/corpus/cassandra/cassandra#2011-10-18-19-24-49#cassandra-1.0.0#533193a/src/java/org/apache/cassandra/cache/ConcurrentLinkedHashCacheProvider.java,0,0,0,0,0,0,0,0,0,0,0,0,0,YES,0,0,0,0,0,0,0,0,0,0,0,0,0,0,0,0,0,0,0,0,0,0,0,2,1,0,0,0,0,0,0,0,0,0,0,0,0,0,0,0,0,0,0,0,0,0,1,0,2,34
cassandra,cassandra-0.8.0,cassandra-1.0.0,F:/corpus/cassandra/cassandra#2011-06-03-06-03-47#cassandra-0.8.0#b44fa70/src/java/org/apache/cassandra/cache/FreeableMemory.java,F:/corpus/cassandra/cassandra#2011-10-18-19-24-49#cassandra-1.0.0#533193a/src/java/org/apache/cassandra/cache/FreeableMemory.java,0,0,0,0,0,0,0,0,0,0,0,0,0,YES,0,0,0,0,2,1,0,0,0,0,0,0,0,0,0,0,1,0,0,0,0,0,0,0,0,0,0,0,0,0,0,0,0,0,0,1,0,0,0,0,0,0,2,2,0,0,0,0,6,58
cassandra,cassandra-0.8.0,cassandra-1.0.0,F:/corpus/cassandra/cassandra#2011-06-03-06-03-47#cassandra-0.8.0#b44fa70/src/java/org/apache/cassandra/cache/ICache.java,F:/corpus/cassandra/cassandra#2011-10-18-19-24-49#cassandra-1.0.0#533193a/src/java/org/apache/cassandra/cache/ICache.java,0,0,0,0,1,0,0,0,0,0,0,0,0,YES,0,0,0,0,1,0,0,0,0,0,0,0,0,0,0,0,0,0,0,0,0,0,0,0,0,0,0,0,0,0,0,0,0,0,0,0,0,0,0,0,0,0,0,0,0,0,0,0,2,54
cassandra,cassandra-0.8.0,cassandra-1.0.0,F:/corpus/cassandra/cassandra#2011-06-03-06-03-47#cassandra-0.8.0#b44fa70/src/java/org/apache/cassandra/cache/IRowCacheProvider.java,F:/corpus/cassandra/cassandra#2011-10-18-19-24-49#cassandra-1.0.0#533193a/src/java/org/apache/cassandra/cache/IRowCacheProvider.java,0,0,0,0,0,0,0,0,0,0,0,0,0,YES,0,0,0,0,0,0,0,0,0,0,0,0,0,0,0,0,0,0,0,0,0,0,0,2,1,0,0,0,0,0,0,0,0,0,0,0,0,0,0,0,0,0,0,0,0,0,0,0,1,33
cassandra,cassandra-0.8.0,cassandra-1.0.0,F:/corpus/cassandra/cassandra#2011-06-03-06-03-47#cassandra-0.8.0#b44fa70/src/java/org/apache/cassandra/cache/InstrumentingCache.java,F:/corpus/cassandra/cassandra#2011-10-18-19-24-49#cassandra-1.0.0#533193a/src/java/org/apache/cassandra/cache/InstrumentingCache.java,0,0,0,0,0,0,0,0,0,0,0,0,0,YES,0,0,0,0,2,0,0,0,0,0,0,0,0,0,0,0,0,0,0,0,0,0,0,0,0,0,0,0,0,0,0,0,0,0,0,0,0,0,0,0,0,0,0,0,0,0,0,0,10,152
cassandra,cassandra-0.8.0,cassandra-1.0.0,F:/corpus/cassandra/cassandra#2011-06-03-06-03-47#cassandra-0.8.0#b44fa70/src/java/org/apache/cassandra/cache/InstrumentingCacheMBean.java,F:/corpus/cassandra/cassandra#2011-10-18-19-24-49#cassandra-1.0.0#533193a/src/java/org/apache/cassandra/cache/InstrumentingCacheMBean.java,0,0,0,0,1,0,0,0,0,0,0,0,0,YES,0,0,0,0,0,0,0,0,0,0,0,0,0,0,0,0,0,0,0,0,0,1,0,0,0,0,0,0,0,0,0,0,0,0,0,0,0,0,0,0,0,0,0,0,0,0,0,0,1,42
cassandra,cassandra-0.8.0,cassandra-1.0.0,F:/corpus/cassandra/cassandra#2011-06-03-06-03-47#cassandra-0.8.0#b44fa70/src/java/org/apache/cassandra/cache/SerializingCache.java,F:/corpus/cassandra/cassandra#2011-10-18-19-24-49#cassandra-1.0.0#533193a/src/java/org/apache/cassandra/cache/SerializingCache.java,0,0,0,0,0,0,0,0,0,0,0,0,0,YES,0,0,0,0,1,0,0,0,0,0,0,0,0,0,0,0,0,0,0,0,0,0,0,2,0,0,0,0,0,0,0,0,0,0,0,0,0,0,0,0,0,0,4,8,0,1,1,0,10,170
cassandra,cassandra-0.8.0,cassandra-1.0.0,F:/corpus/cassandra/cassandra#2011-06-03-06-03-47#cassandra-0.8.0#b44fa70/src/java/org/apache/cassandra/cache/SerializingCacheProvider.java,F:/corpus/cassandra/cassandra#2011-10-18-19-24-49#cassandra-1.0.0#533193a/src/java/org/apache/cassandra/cache/SerializingCacheProvider.java,0,0,0,0,0,0,0,0,0,0,0,0,0,YES,0,0,0,0,0,0,0,0,0,0,0,0,0,0,0,0,0,0,0,0,0,0,0,2,1,0,0,0,0,0,0,0,0,0,0,0,0,0,0,0,0,0,0,0,0,0,2,0,4,48
cassandra,cassandra-0.8.0,cassandra-1.0.0,F:/corpus/cassandra/cassandra#2011-06-03-06-03-47#cassandra-0.8.0#b44fa70/src/java/org/apache/cassandra/cli/CliClient.java,F:/corpus/cassandra/cassandra#2011-10-18-19-24-49#cassandra-1.0.0#533193a/src/java/org/apache/cassandra/cli/CliClient.java,0,1,0,0,0,21,0,3,1,3,0,0,1,YES,0,0,0,0,13,2,2,6,0,0,0,10,7,7,0,6,0,0,0,0,0,1,0,1,0,0,0,0,0,0,0,0,0,0,1,0,0,0,0,0,0,0,83,90,25,16,25,0,562,2442
cassandra,cassandra-0.8.0,cassandra-1.0.0,F:/corpus/cassandra/cassandra#2011-06-03-06-03-47#cassandra-0.8.0#b44fa70/src/java/org/apache/cassandra/cli/CliCompiler.java,F:/corpus/cassandra/cassandra#2011-10-18-19-24-49#cassandra-1.0.0#533193a/src/java/org/apache/cassandra/cli/CliCompiler.java,0,0,0,0,0,0,0,0,0,0,0,0,0,YES,0,0,0,0,0,0,0,0,0,0,0,0,0,0,0,0,0,0,0,0,0,0,0,0,0,0,0,0,0,0,0,0,0,0,0,0,0,0,0,0,0,0,0,0,0,0,1,0,1,173
cassandra,cassandra-0.8.0,cassandra-1.0.0,F:/corpus/cassandra/cassandra#2011-06-03-06-03-47#cassandra-0.8.0#b44fa70/src/java/org/apache/cassandra/cli/CliCompleter.java,F:/corpus/cassandra/cassandra#2011-10-18-19-24-49#cassandra-1.0.0#533193a/src/java/org/apache/cassandra/cli/CliCompleter.java,0,0,0,0,0,0,0,0,0,0,0,0,0,YES,0,0,0,0,0,0,0,0,0,0,0,0,0,0,0,0,0,0,0,0,0,0,0,0,0,0,0,0,0,0,0,0,0,0,0,0,0,0,0,0,0,0,0,0,0,0,0,0,2,83
cassandra,cassandra-0.8.0,cassandra-1.0.0,F:/corpus/cassandra/cassandra#2011-06-03-06-03-47#cassandra-0.8.0#b44fa70/src/java/org/apache/cassandra/cli/CliMain.java,F:/corpus/cassandra/cassandra#2011-10-18-19-24-49#cassandra-1.0.0#533193a/src/java/org/apache/cassandra/cli/CliMain.java,0,0,0,0,0,2,0,0,0,2,0,0,0,YES,0,0,0,0,1,0,0,0,0,0,0,0,1,0,0,0,0,0,0,0,0,0,0,0,0,0,0,0,0,0,0,0,0,0,0,0,0,0,0,0,0,0,10,8,0,1,4,0,25,394
cassandra,cassandra-0.8.0,cassandra-1.0.0,F:/corpus/cassandra/cassandra#2011-06-03-06-03-47#cassandra-0.8.0#b44fa70/src/java/org/apache/cassandra/cli/CliUserHelp.java,F:/corpus/cassandra/cassandra#2011-10-18-19-24-49#cassandra-1.0.0#533193a/src/java/org/apache/cassandra/cli/CliUserHelp.java,0,0,0,0,0,0,0,0,0,0,0,0,0,YES,0,0,0,0,0,0,0,0,0,0,0,0,0,0,0,0,0,0,0,0,0,0,0,0,0,0,0,0,0,0,0,0,0,0,0,0,0,0,0,0,0,0,0,0,0,0,0,0,3,32
cassandra,cassandra-0.8.0,cassandra-1.0.0,F:/corpus/cassandra/cassandra#2011-06-03-06-03-47#cassandra-0.8.0#b44fa70/src/java/org/apache/cassandra/cli/CliUtils.java,F:/corpus/cassandra/cassandra#2011-10-18-19-24-49#cassandra-1.0.0#533193a/src/java/org/apache/cassandra/cli/CliUtils.java,0,0,0,0,0,0,0,0,1,0,0,0,0,YES,0,0,0,0,2,0,0,0,0,0,0,0,0,0,0,0,0,0,0,0,0,0,0,0,0,0,0,0,0,0,0,0,0,0,0,0,0,0,0,0,0,0,0,0,0,0,0,0,27,99
cassandra,cassandra-0.8.0,cassandra-1.0.0,F:/corpus/cassandra/cassandra#2011-06-03-06-03-47#cassandra-0.8.0#b44fa70/src/java/org/apache/cassandra/concurrent/DebuggableThreadPoolExecutor.java,F:/corpus/cassandra/cassandra#2011-10-18-19-24-49#cassandra-1.0.0#533193a/src/java/org/apache/cassandra/concurrent/DebuggableThreadPoolExecutor.java,0,0,0,0,0,0,0,0,0,0,0,0,0,YES,0,0,0,0,5,1,0,0,0,0,0,2,1,0,0,1,0,0,0,0,0,0,0,0,0,2,0,0,0,0,0,0,0,0,0,0,0,0,0,0,0,0,2,2,0,0,2,0,70,126
cassandra,cassandra-0.8.0,cassandra-1.0.0,F:/corpus/cassandra/cassandra#2011-06-03-06-03-47#cassandra-0.8.0#b44fa70/src/java/org/apache/cassandra/concurrent/JMXEnabledThreadPoolExecutor.java,F:/corpus/cassandra/cassandra#2011-10-18-19-24-49#cassandra-1.0.0#533193a/src/java/org/apache/cassandra/concurrent/JMXEnabledThreadPoolExecutor.java,0,0,0,0,0,0,0,0,0,0,0,0,0,YES,0,0,0,0,6,2,0,0,0,0,0,0,0,0,0,0,0,0,0,0,0,0,0,0,0,0,0,0,0,0,0,0,0,0,0,0,0,0,0,0,0,0,7,0,0,0,1,0,46,132
cassandra,cassandra-0.8.0,cassandra-1.0.0,F:/corpus/cassandra/cassandra#2011-06-03-06-03-47#cassandra-0.8.0#b44fa70/src/java/org/apache/cassandra/concurrent/JMXEnabledThreadPoolExecutorMBean.java,F:/corpus/cassandra/cassandra#2011-10-18-19-24-49#cassandra-1.0.0#533193a/src/java/org/apache/cassandra/concurrent/JMXEnabledThreadPoolExecutorMBean.java,0,0,0,0,0,0,0,0,0,0,0,0,0,YES,0,0,0,0,0,0,0,0,0,0,0,0,0,0,0,0,0,0,0,0,0,0,0,0,0,0,0,0,0,0,0,0,0,0,0,0,0,0,0,0,0,0,0,0,0,0,0,0,1,23
cassandra,cassandra-0.8.0,cassandra-1.0.0,F:/corpus/cassandra/cassandra#2011-06-03-06-03-47#cassandra-0.8.0#b44fa70/src/java/org/apache/cassandra/config/CFMetaData.java,F:/corpus/cassandra/cassandra#2011-10-18-19-24-49#cassandra-1.0.0#533193a/src/java/org/apache/cassandra/config/CFMetaData.java,0,0,0,0,0,11,0,0,1,0,0,6,0,YES,0,0,0,0,15,8,0,0,0,0,0,1,2,0,0,4,0,0,2,1,1,3,2,0,0,1,0,0,0,0,0,0,0,0,18,11,0,0,0,0,0,0,70,60,2,3,26,1,482,964
cassandra,cassandra-0.8.0,cassandra-1.0.0,F:/corpus/cassandra/cassandra#2011-06-03-06-03-47#cassandra-0.8.0#b44fa70/src/java/org/apache/cassandra/config/ColumnDefinition.java,F:/corpus/cassandra/cassandra#2011-10-18-19-24-49#cassandra-1.0.0#533193a/src/java/org/apache/cassandra/config/ColumnDefinition.java,0,0,0,0,0,1,0,0,0,0,0,1,0,YES,0,0,0,0,4,1,0,0,0,0,0,0,0,0,0,2,0,0,0,0,0,3,0,2,0,1,0,0,0,0,0,0,0,0,3,2,0,0,0,0,0,0,4,11,0,1,3,0,79,180
cassandra,cassandra-0.8.0,cassandra-1.0.0,F:/corpus/cassandra/cassandra#2011-06-03-06-03-47#cassandra-0.8.0#b44fa70/src/java/org/apache/cassandra/config/Config.java,F:/corpus/cassandra/cassandra#2011-10-18-19-24-49#cassandra-1.0.0#533193a/src/java/org/apache/cassandra/config/Config.java,1,0,0,0,0,0,0,0,0,0,0,0,0,YES,0,0,0,0,0,5,0,0,0,0,0,0,0,0,0,0,0,0,0,0,0,0,0,0,0,0,0,0,0,0,0,0,0,0,0,3,0,0,0,0,0,0,0,0,0,0,0,0,13,138
cassandra,cassandra-0.8.0,cassandra-1.0.0,F:/corpus/cassandra/cassandra#2011-06-03-06-03-47#cassandra-0.8.0#b44fa70/src/java/org/apache/cassandra/config/DatabaseDescriptor.java,F:/corpus/cassandra/cassandra#2011-10-18-19-24-49#cassandra-1.0.0#533193a/src/java/org/apache/cassandra/config/DatabaseDescriptor.java,0,1,0,0,0,0,0,0,0,0,0,15,0,YES,0,0,0,0,9,1,0,1,0,0,0,0,1,0,1,1,0,0,0,0,0,0,0,0,0,0,0,0,0,0,0,0,0,0,22,4,0,0,0,0,0,0,13,3,0,0,1,0,292,1098
cassandra,cassandra-0.8.0,cassandra-1.0.0,F:/corpus/cassandra/cassandra#2011-06-03-06-03-47#cassandra-0.8.0#b44fa70/src/java/org/apache/cassandra/config/KSMetaData.java,F:/corpus/cassandra/cassandra#2011-10-18-19-24-49#cassandra-1.0.0#533193a/src/java/org/apache/cassandra/config/KSMetaData.java,0,0,0,0,0,0,0,0,0,0,0,3,0,YES,0,0,0,0,5,1,0,0,0,0,0,0,1,0,0,0,0,0,0,0,0,1,0,0,0,0,0,0,0,0,0,0,0,0,2,0,0,0,0,0,0,0,8,4,0,0,7,0,27,187
cassandra,cassandra-0.8.0,cassandra-1.0.0,F:/corpus/cassandra/cassandra#2011-06-03-06-03-47#cassandra-0.8.0#b44fa70/src/java/org/apache/cassandra/cql/CreateColumnFamilyStatement.java,F:/corpus/cassandra/cassandra#2011-10-18-19-24-49#cassandra-1.0.0#533193a/src/java/org/apache/cassandra/cql/CreateColumnFamilyStatement.java,0,0,0,0,0,1,0,0,0,0,0,0,0,YES,0,0,0,0,3,3,0,0,0,0,0,2,0,0,0,1,0,0,0,0,1,0,0,0,0,0,0,0,0,0,0,0,0,0,0,3,0,0,0,0,0,0,13,11,0,0,5,0,102,335
cassandra,cassandra-0.8.0,cassandra-1.0.0,F:/corpus/cassandra/cassandra#2011-06-03-06-03-47#cassandra-0.8.0#b44fa70/src/java/org/apache/cassandra/cql/DeleteStatement.java,F:/corpus/cassandra/cassandra#2011-10-18-19-24-49#cassandra-1.0.0#533193a/src/java/org/apache/cassandra/cql/DeleteStatement.java,0,0,0,0,0,0,0,0,0,0,0,0,0,YES,0,0,0,0,3,0,0,0,0,0,0,0,0,0,0,0,0,0,1,0,0,0,1,2,0,0,0,0,0,1,0,0,0,0,2,2,0,0,0,0,0,0,3,1,0,0,0,0,22,74
cassandra,cassandra-0.8.0,cassandra-1.0.0,F:/corpus/cassandra/cassandra#2011-06-03-06-03-47#cassandra-0.8.0#b44fa70/src/java/org/apache/cassandra/cql/QueryProcessor.java,F:/corpus/cassandra/cassandra#2011-10-18-19-24-49#cassandra-1.0.0#533193a/src/java/org/apache/cassandra/cql/QueryProcessor.java,0,0,0,0,0,20,0,3,3,1,0,0,1,YES,0,0,0,0,6,2,3,2,0,0,0,10,9,0,0,9,0,0,0,0,3,0,0,0,0,0,0,0,0,0,0,0,0,0,1,0,0,0,0,0,0,0,38,104,30,16,29,0,293,903
cassandra,cassandra-0.8.0,cassandra-1.0.0,F:/corpus/cassandra/cassandra#2011-06-03-06-03-47#cassandra-0.8.0#b44fa70/src/java/org/apache/cassandra/cql/Relation.java,F:/corpus/cassandra/cassandra#2011-10-18-19-24-49#cassandra-1.0.0#533193a/src/java/org/apache/cassandra/cql/Relation.java,0,0,0,0,0,0,0,0,0,0,0,0,0,YES,0,0,0,0,0,0,0,0,0,0,0,0,0,0,0,0,0,0,0,0,0,0,0,0,0,0,0,0,0,0,0,0,0,0,0,0,0,0,0,0,0,0,0,0,0,0,2,0,3,107
cassandra,cassandra-0.8.0,cassandra-1.0.0,F:/corpus/cassandra/cassandra#2011-06-03-06-03-47#cassandra-0.8.0#b44fa70/src/java/org/apache/cassandra/cql/SelectStatement.java,F:/corpus/cassandra/cassandra#2011-10-18-19-24-49#cassandra-1.0.0#533193a/src/java/org/apache/cassandra/cql/SelectStatement.java,0,0,0,0,0,0,0,0,0,0,0,0,0,YES,0,0,0,0,3,0,0,0,0,0,0,0,0,0,0,0,0,0,0,0,0,0,0,0,0,0,0,0,0,0,0,0,0,0,0,0,0,0,0,1,0,0,0,0,0,0,2,0,21,154
cassandra,cassandra-0.8.0,cassandra-1.0.0,F:/corpus/cassandra/cassandra#2011-06-03-06-03-47#cassandra-0.8.0#b44fa70/src/java/org/apache/cassandra/cql/StatementType.java,F:/corpus/cassandra/cassandra#2011-10-18-19-24-49#cassandra-1.0.0#533193a/src/java/org/apache/cassandra/cql/StatementType.java,0,0,0,0,0,0,0,0,0,0,0,0,0,YES,0,0,0,0,0,0,0,0,0,0,0,0,0,0,0,0,0,0,0,0,0,0,0,0,0,0,0,0,0,0,0,0,0,0,0,0,0,0,0,0,0,0,0,0,0,0,0,0,2,33
cassandra,cassandra-0.8.0,cassandra-1.0.0,F:/corpus/cassandra/cassandra#2011-06-03-06-03-47#cassandra-0.8.0#b44fa70/src/java/org/apache/cassandra/cql/Term.java,F:/corpus/cassandra/cassandra#2011-10-18-19-24-49#cassandra-1.0.0#533193a/src/java/org/apache/cassandra/cql/Term.java,0,0,0,0,0,0,0,0,0,0,0,0,0,YES,0,0,0,0,2,0,0,0,0,0,0,0,0,0,0,0,0,0,0,0,0,0,0,0,0,0,0,0,0,0,0,0,0,0,0,0,0,0,0,0,0,0,0,2,0,0,0,0,37,149
cassandra,cassandra-0.8.0,cassandra-1.0.0,F:/corpus/cassandra/cassandra#2011-06-03-06-03-47#cassandra-0.8.0#b44fa70/src/java/org/apache/cassandra/cql/UpdateStatement.java,F:/corpus/cassandra/cassandra#2011-10-18-19-24-49#cassandra-1.0.0#533193a/src/java/org/apache/cassandra/cql/UpdateStatement.java,0,0,0,0,0,1,0,0,0,0,0,0,0,YES,0,0,0,0,3,0,0,0,1,2,0,0,0,0,0,0,0,0,1,2,0,1,3,6,0,0,1,0,0,1,0,0,0,0,1,3,0,0,0,1,0,0,5,5,0,0,7,0,172,172
cassandra,cassandra-0.8.0,cassandra-1.0.0,F:/corpus/cassandra/cassandra#2011-06-03-06-03-47#cassandra-0.8.0#b44fa70/src/java/org/apache/cassandra/cql/WhereClause.java,F:/corpus/cassandra/cassandra#2011-10-18-19-24-49#cassandra-1.0.0#533193a/src/java/org/apache/cassandra/cql/WhereClause.java,1,0,0,0,0,0,0,0,0,0,0,0,0,YES,0,0,0,0,6,2,0,0,0,1,0,0,0,0,0,3,0,0,0,0,0,0,0,0,0,0,0,0,0,0,0,0,0,0,1,0,0,0,0,1,0,0,0,0,0,0,2,0,73,119
cassandra,cassandra-0.8.0,cassandra-1.0.0,F:/corpus/cassandra/cassandra#2011-06-03-06-03-47#cassandra-0.8.0#b44fa70/src/java/org/apache/cassandra/db/marshal/AbstractUUIDType.java,F:/corpus/cassandra/cassandra#2011-10-18-19-24-49#cassandra-1.0.0#533193a/src/java/org/apache/cassandra/cql/jdbc/AbstractJdbcUUID.java,0,0,0,0,2,0,0,0,0,0,0,0,0,YES,0,0,0,0,1,0,0,0,0,0,1,0,0,0,0,0,0,0,0,0,0,0,0,0,0,0,0,1,0,0,0,0,0,0,0,0,0,0,0,0,0,0,0,0,0,0,0,0,32,68
cassandra,cassandra-0.8.0,cassandra-1.0.0,F:/corpus/cassandra/cassandra#2011-06-03-06-03-47#cassandra-0.8.0#b44fa70/src/java/org/apache/cassandra/db/Column.java,F:/corpus/cassandra/cassandra#2011-10-18-19-24-49#cassandra-1.0.0#533193a/src/java/org/apache/cassandra/db/Column.java,0,0,0,0,2,0,0,0,0,0,0,1,0,YES,0,0,0,0,6,1,0,0,0,0,0,3,0,0,0,0,0,0,0,0,0,0,0,0,0,0,0,0,0,0,0,0,0,0,0,0,0,0,0,0,0,0,10,4,0,0,1,0,36,257
cassandra,cassandra-0.8.0,cassandra-1.0.0,F:/corpus/cassandra/cassandra#2011-06-03-06-03-47#cassandra-0.8.0#b44fa70/src/java/org/apache/cassandra/db/ColumnFamily.java,F:/corpus/cassandra/cassandra#2011-10-18-19-24-49#cassandra-1.0.0#533193a/src/java/org/apache/cassandra/db/ColumnFamily.java,0,0,0,0,1,0,0,0,0,0,0,18,0,YES,0,0,0,0,7,0,0,0,0,0,0,6,1,0,0,4,1,0,1,0,0,0,0,1,0,0,0,1,0,0,0,1,0,0,18,5,0,0,0,0,0,0,19,8,0,2,9,0,209,452
cassandra,cassandra-0.8.0,cassandra-1.0.0,F:/corpus/cassandra/cassandra#2011-06-03-06-03-47#cassandra-0.8.0#b44fa70/src/java/org/apache/cassandra/db/ColumnFamilySerializer.java,F:/corpus/cassandra/cassandra#2011-10-18-19-24-49#cassandra-1.0.0#533193a/src/java/org/apache/cassandra/db/ColumnFamilySerializer.java,0,0,0,0,0,0,0,0,0,0,0,1,0,YES,0,0,0,0,2,0,0,0,0,0,0,1,0,0,0,0,0,0,0,0,0,1,2,3,0,0,0,0,0,0,0,0,0,0,0,0,0,0,0,0,1,0,16,7,0,0,3,0,30,151
cassandra,cassandra-0.8.0,cassandra-1.0.0,F:/corpus/cassandra/cassandra#2011-06-03-06-03-47#cassandra-0.8.0#b44fa70/src/java/org/apache/cassandra/db/ColumnFamilyStore.java,F:/corpus/cassandra/cassandra#2011-10-18-19-24-49#cassandra-1.0.0#533193a/src/java/org/apache/cassandra/db/ColumnFamilyStore.java,0,1,0,0,0,1,0,2,3,1,0,13,0,YES,0,0,0,1,15,2,2,2,1,0,0,25,13,2,0,6,0,1,0,2,9,1,0,4,0,0,0,0,0,0,0,0,0,0,24,5,0,0,0,0,1,0,190,97,4,19,42,0,1103,2142
cassandra,cassandra-0.8.0,cassandra-1.0.0,F:/corpus/cassandra/cassandra#2011-06-03-06-03-47#cassandra-0.8.0#b44fa70/src/java/org/apache/cassandra/db/ColumnFamilyStoreMBean.java,F:/corpus/cassandra/cassandra#2011-10-18-19-24-49#cassandra-1.0.0#533193a/src/java/org/apache/cassandra/db/ColumnFamilyStoreMBean.java,0,0,0,0,1,0,0,0,0,0,0,0,0,YES,0,0,0,0,4,0,0,0,0,0,0,0,0,0,0,0,0,0,0,0,0,0,0,0,0,0,0,0,0,0,0,0,0,0,6,0,0,0,0,0,0,0,0,0,0,0,0,0,23,237
cassandra,cassandra-0.8.0,cassandra-1.0.0,F:/corpus/cassandra/cassandra#2011-06-03-06-03-47#cassandra-0.8.0#b44fa70/src/java/org/apache/cassandra/db/ColumnIndexer.java,F:/corpus/cassandra/cassandra#2011-10-18-19-24-49#cassandra-1.0.0#533193a/src/java/org/apache/cassandra/db/ColumnIndexer.java,0,0,0,0,0,0,0,0,0,0,0,0,0,YES,0,0,0,1,2,0,1,0,0,0,0,2,1,0,1,0,0,0,2,1,0,1,1,0,0,0,0,0,0,0,0,0,0,0,1,0,0,0,0,0,0,1,16,6,0,0,1,0,98,148
cassandra,cassandra-0.8.0,cassandra-1.0.0,F:/corpus/cassandra/cassandra#2011-06-03-06-03-47#cassandra-0.8.0#b44fa70/src/java/org/apache/cassandra/db/ColumnSerializer.java,F:/corpus/cassandra/cassandra#2011-10-18-19-24-49#cassandra-1.0.0#533193a/src/java/org/apache/cassandra/db/ColumnSerializer.java,0,0,0,0,0,0,0,0,0,0,0,0,0,YES,0,0,0,0,0,0,1,0,0,0,0,1,0,0,0,0,0,0,0,0,0,0,2,0,0,0,0,0,0,0,0,0,0,0,0,0,0,0,0,0,0,0,9,0,0,1,4,0,22,142
cassandra,cassandra-0.8.0,cassandra-1.0.0,F:/corpus/cassandra/cassandra#2011-06-03-06-03-47#cassandra-0.8.0#b44fa70/src/java/org/apache/cassandra/db/CounterColumn.java,F:/corpus/cassandra/cassandra#2011-10-18-19-24-49#cassandra-1.0.0#533193a/src/java/org/apache/cassandra/db/CounterColumn.java,0,0,0,0,0,0,0,0,0,0,0,0,0,YES,0,0,0,0,3,0,0,0,0,0,0,0,0,0,0,0,0,0,0,0,0,0,0,1,0,0,0,0,0,0,0,0,0,0,0,0,0,0,0,0,0,0,10,6,0,4,6,0,37,284
cassandra,cassandra-0.8.0,cassandra-1.0.0,F:/corpus/cassandra/cassandra#2011-06-03-06-03-47#cassandra-0.8.0#b44fa70/src/java/org/apache/cassandra/db/CounterMutation.java,F:/corpus/cassandra/cassandra#2011-10-18-19-24-49#cassandra-1.0.0#533193a/src/java/org/apache/cassandra/db/CounterMutation.java,0,0,0,0,0,0,0,0,0,0,0,0,0,YES,0,0,0,0,1,0,1,0,0,0,0,4,1,0,0,4,0,0,0,0,0,0,0,0,0,0,0,0,0,0,0,0,0,0,0,1,0,0,0,0,0,0,9,4,0,2,4,0,54,280
cassandra,cassandra-0.8.0,cassandra-1.0.0,F:/corpus/cassandra/cassandra#2011-06-03-06-03-47#cassandra-0.8.0#b44fa70/src/java/org/apache/cassandra/db/CounterMutationVerbHandler.java,F:/corpus/cassandra/cassandra#2011-10-18-19-24-49#cassandra-1.0.0#533193a/src/java/org/apache/cassandra/db/CounterMutationVerbHandler.java,0,0,0,0,0,1,0,1,0,0,0,0,0,YES,0,0,0,0,0,0,0,0,0,0,0,0,0,0,0,0,0,0,0,0,0,0,0,0,0,0,0,0,0,0,0,0,0,0,0,0,0,0,0,0,0,0,0,0,0,0,2,0,3,75
cassandra,cassandra-0.8.0,cassandra-1.0.0,F:/corpus/cassandra/cassandra#2011-06-03-06-03-47#cassandra-0.8.0#b44fa70/src/java/org/apache/cassandra/db/CounterUpdateColumn.java,F:/corpus/cassandra/cassandra#2011-10-18-19-24-49#cassandra-1.0.0#533193a/src/java/org/apache/cassandra/db/CounterUpdateColumn.java,0,0,0,0,1,0,0,0,0,0,0,0,0,YES,0,0,0,0,1,0,0,0,0,0,0,0,0,0,0,0,0,0,0,0,0,0,0,1,0,0,0,0,0,0,0,0,0,0,0,0,0,0,0,0,0,0,0,0,0,0,1,0,5,88
cassandra,cassandra-0.8.0,cassandra-1.0.0,F:/corpus/cassandra/cassandra#2011-06-03-06-03-47#cassandra-0.8.0#b44fa70/src/java/org/apache/cassandra/db/DBConstants.java,F:/corpus/cassandra/cassandra#2011-10-18-19-24-49#cassandra-1.0.0#533193a/src/java/org/apache/cassandra/db/DBConstants.java,1,0,0,0,0,0,0,0,0,0,0,0,0,YES,0,0,0,0,0,0,0,0,5,0,0,0,0,0,0,0,0,0,0,0,0,0,0,0,0,0,0,0,0,0,0,0,0,0,0,0,0,0,0,0,0,0,0,0,0,0,0,0,5,28
cassandra,cassandra-0.8.0,cassandra-1.0.0,F:/corpus/cassandra/cassandra#2011-06-03-06-03-47#cassandra-0.8.0#b44fa70/src/java/org/apache/cassandra/db/DataTracker.java,F:/corpus/cassandra/cassandra#2011-10-18-19-24-49#cassandra-1.0.0#533193a/src/java/org/apache/cassandra/db/DataTracker.java,0,0,0,0,0,2,0,0,0,0,0,0,0,YES,0,0,0,0,7,2,0,0,0,1,0,0,0,1,0,2,0,0,0,1,0,0,0,1,0,0,1,0,0,0,0,0,0,0,0,0,0,0,0,1,0,0,9,12,0,1,10,0,98,496
cassandra,cassandra-0.8.0,cassandra-1.0.0,F:/corpus/cassandra/cassandra#2011-06-03-06-03-47#cassandra-0.8.0#b44fa70/src/java/org/apache/cassandra/db/DefinitionsUpdateResponseVerbHandler.java,F:/corpus/cassandra/cassandra#2011-10-18-19-24-49#cassandra-1.0.0#533193a/src/java/org/apache/cassandra/db/DefinitionsUpdateVerbHandler.java,0,0,0,0,1,0,0,0,0,0,0,0,0,YES,0,0,0,0,0,0,0,0,0,0,1,0,0,0,0,1,0,0,0,0,0,0,0,0,0,0,0,0,0,0,0,0,0,0,0,0,0,0,0,0,0,0,0,0,0,0,1,0,7,93
cassandra,cassandra-0.8.0,cassandra-1.0.0,F:/corpus/cassandra/cassandra#2011-06-03-06-03-47#cassandra-0.8.0#b44fa70/src/java/org/apache/cassandra/db/DefsTable.java,F:/corpus/cassandra/cassandra#2011-10-18-19-24-49#cassandra-1.0.0#533193a/src/java/org/apache/cassandra/db/DefsTable.java,0,0,0,0,0,0,0,1,0,0,0,0,0,YES,0,0,0,0,0,0,0,0,0,0,0,0,0,0,0,0,0,0,0,0,0,0,0,0,0,0,0,0,0,0,0,0,0,0,0,0,0,0,0,0,0,0,0,0,0,0,4,0,4,121
cassandra,cassandra-0.8.0,cassandra-1.0.0,F:/corpus/cassandra/cassandra#2011-06-03-06-03-47#cassandra-0.8.0#b44fa70/src/java/org/apache/cassandra/db/DeletedColumn.java,F:/corpus/cassandra/cassandra#2011-10-18-19-24-49#cassandra-1.0.0#533193a/src/java/org/apache/cassandra/db/DeletedColumn.java,0,0,0,0,0,0,0,0,0,0,0,0,0,YES,0,0,0,0,1,0,0,0,0,0,0,0,0,0,0,0,0,0,0,0,0,0,0,1,0,0,0,0,0,0,0,0,0,0,0,0,0,0,0,0,0,0,0,0,0,0,3,0,6,86
cassandra,cassandra-0.8.0,cassandra-1.0.0,F:/corpus/cassandra/cassandra#2011-06-03-06-03-47#cassandra-0.8.0#b44fa70/src/java/org/apache/cassandra/db/ExpiringColumn.java,F:/corpus/cassandra/cassandra#2011-10-18-19-24-49#cassandra-1.0.0#533193a/src/java/org/apache/cassandra/db/ExpiringColumn.java,0,0,0,0,0,0,0,0,0,0,0,1,0,YES,0,0,0,0,2,0,0,0,0,0,0,0,0,0,0,0,0,0,0,0,0,0,0,0,0,0,0,0,0,0,0,0,0,0,0,0,0,0,0,0,0,0,0,0,0,0,2,0,13,152
cassandra,cassandra-0.8.0,cassandra-1.0.0,F:/corpus/cassandra/cassandra#2011-06-03-06-03-47#cassandra-0.8.0#b44fa70/src/java/org/apache/cassandra/db/HintedHandOffManager.java,F:/corpus/cassandra/cassandra#2011-10-18-19-24-49#cassandra-1.0.0#533193a/src/java/org/apache/cassandra/db/HintedHandOffManager.java,0,0,0,0,0,1,0,3,0,0,0,0,0,YES,0,0,0,0,1,0,0,0,0,0,0,2,2,1,1,4,0,0,0,1,0,1,1,0,0,2,0,0,0,0,0,0,0,0,4,0,0,0,0,0,0,0,6,19,1,2,12,0,187,475
cassandra,cassandra-0.8.0,cassandra-1.0.0,F:/corpus/cassandra/cassandra#2011-06-03-06-03-47#cassandra-0.8.0#b44fa70/src/java/org/apache/cassandra/db/IColumn.java,F:/corpus/cassandra/cassandra#2011-10-18-19-24-49#cassandra-1.0.0#533193a/src/java/org/apache/cassandra/db/IColumn.java,0,0,0,0,0,0,0,0,0,0,0,0,0,YES,0,0,0,0,6,0,0,0,0,0,0,0,0,0,0,0,0,0,1,0,0,0,0,0,0,0,0,0,0,0,0,0,0,0,0,0,0,0,0,0,0,0,0,0,0,0,0,0,30,63
cassandra,cassandra-0.8.0,cassandra-1.0.0,F:/corpus/cassandra/cassandra#2011-06-03-06-03-47#cassandra-0.8.0#b44fa70/src/java/org/apache/cassandra/db/IColumnContainer.java,F:/corpus/cassandra/cassandra#2011-10-18-19-24-49#cassandra-1.0.0#533193a/src/java/org/apache/cassandra/db/IColumnContainer.java,0,0,0,0,0,0,0,0,0,0,0,0,0,YES,0,0,0,0,3,0,0,0,0,0,0,0,0,0,0,0,0,0,0,0,0,0,0,0,0,0,0,0,0,0,0,0,0,0,0,0,0,0,0,0,0,0,0,0,0,0,0,0,13,39
cassandra,cassandra-0.8.0,cassandra-1.0.0,F:/corpus/cassandra/cassandra#2011-06-03-06-03-47#cassandra-0.8.0#b44fa70/src/java/org/apache/cassandra/db/IMutation.java,F:/corpus/cassandra/cassandra#2011-10-18-19-24-49#cassandra-1.0.0#533193a/src/java/org/apache/cassandra/db/IMutation.java,0,0,0,0,0,0,0,0,0,0,0,0,0,YES,0,0,0,0,2,0,0,0,0,0,0,0,0,0,0,0,0,0,0,0,0,0,0,0,0,0,0,0,0,0,0,0,0,0,0,0,0,0,0,0,0,0,0,0,0,0,0,0,3,29
cassandra,cassandra-0.8.0,cassandra-1.0.0,F:/corpus/cassandra/cassandra#2011-06-03-06-03-47#cassandra-0.8.0#b44fa70/src/java/org/apache/cassandra/db/IndexScanCommand.java,F:/corpus/cassandra/cassandra#2011-10-18-19-24-49#cassandra-1.0.0#533193a/src/java/org/apache/cassandra/db/IndexScanCommand.java,0,0,0,0,0,0,0,0,0,0,0,0,0,YES,0,0,0,0,0,0,0,0,0,0,0,0,0,0,0,0,0,0,0,0,0,0,0,0,0,0,0,0,0,0,0,0,0,0,0,0,0,0,0,0,0,0,0,0,0,0,2,0,3,109
cassandra,cassandra-0.8.0,cassandra-1.0.0,F:/corpus/cassandra/cassandra#2011-06-03-06-03-47#cassandra-0.8.0#b44fa70/src/java/org/apache/cassandra/db/Memtable.java,F:/corpus/cassandra/cassandra#2011-10-18-19-24-49#cassandra-1.0.0#533193a/src/java/org/apache/cassandra/db/Memtable.java,0,0,0,0,1,1,0,0,0,0,0,0,0,YES,0,0,0,0,0,1,0,0,0,0,0,0,6,1,0,1,0,0,0,0,0,0,1,0,0,0,0,0,0,0,0,2,0,0,4,3,0,0,0,0,0,0,5,17,0,2,2,1,80,402
cassandra,cassandra-0.8.0,cassandra-1.0.0,F:/corpus/cassandra/cassandra#2011-06-03-06-03-47#cassandra-0.8.0#b44fa70/src/java/org/apache/cassandra/db/MeteredFlusher.java,F:/corpus/cassandra/cassandra#2011-10-18-19-24-49#cassandra-1.0.0#533193a/src/java/org/apache/cassandra/db/MeteredFlusher.java,0,0,0,0,0,0,0,0,0,0,0,0,0,YES,0,0,0,0,0,0,0,0,0,0,0,0,0,0,0,0,0,0,0,0,0,0,0,0,0,0,0,0,0,0,0,0,0,0,0,0,0,0,0,0,0,0,0,0,0,0,2,0,2,125
cassandra,cassandra-0.8.0,cassandra-1.0.0,F:/corpus/cassandra/cassandra#2011-06-03-06-03-47#cassandra-0.8.0#b44fa70/src/java/org/apache/cassandra/db/RangeSliceCommand.java,F:/corpus/cassandra/cassandra#2011-10-18-19-24-49#cassandra-1.0.0#533193a/src/java/org/apache/cassandra/db/RangeSliceCommand.java,1,0,0,0,2,0,0,0,1,0,0,0,0,YES,0,0,0,0,0,0,0,0,0,0,0,0,0,0,0,0,0,0,0,0,0,0,0,0,0,0,0,0,0,0,0,0,0,0,0,0,0,0,0,0,0,0,0,0,0,0,2,0,4,169
cassandra,cassandra-0.8.0,cassandra-1.0.0,F:/corpus/cassandra/cassandra#2011-06-03-06-03-47#cassandra-0.8.0#b44fa70/src/java/org/apache/cassandra/db/RangeSliceReply.java,F:/corpus/cassandra/cassandra#2011-10-18-19-24-49#cassandra-1.0.0#533193a/src/java/org/apache/cassandra/db/RangeSliceReply.java,0,0,0,0,0,0,0,0,0,0,0,0,0,YES,0,0,0,0,0,0,0,0,0,0,0,0,0,0,0,0,0,0,0,0,0,0,0,0,0,0,0,0,0,0,0,0,0,0,0,0,0,0,0,0,0,0,0,0,0,0,2,0,4,75
cassandra,cassandra-0.8.0,cassandra-1.0.0,F:/corpus/cassandra/cassandra#2011-06-03-06-03-47#cassandra-0.8.0#b44fa70/src/java/org/apache/cassandra/db/ReadCommand.java,F:/corpus/cassandra/cassandra#2011-10-18-19-24-49#cassandra-1.0.0#533193a/src/java/org/apache/cassandra/db/ReadCommand.java,1,0,0,0,0,0,0,0,0,0,0,2,0,YES,0,0,0,0,0,0,0,0,0,0,0,0,0,0,0,0,0,0,0,0,0,0,0,0,0,0,0,0,0,0,0,0,0,0,0,0,0,0,0,0,0,0,0,0,0,0,2,0,4,126
cassandra,cassandra-0.8.0,cassandra-1.0.0,F:/corpus/cassandra/cassandra#2011-06-03-06-03-47#cassandra-0.8.0#b44fa70/src/java/org/apache/cassandra/db/ReadRepairVerbHandler.java,F:/corpus/cassandra/cassandra#2011-10-18-19-24-49#cassandra-1.0.0#533193a/src/java/org/apache/cassandra/db/ReadRepairVerbHandler.java,0,0,0,0,1,0,0,0,0,0,0,0,0,YES,0,0,0,0,0,0,0,0,0,0,0,0,0,0,0,0,0,0,0,0,0,0,0,0,0,0,0,0,0,0,0,0,0,0,0,0,0,0,0,0,0,0,0,0,0,0,1,0,3,46
cassandra,cassandra-0.8.0,cassandra-1.0.0,F:/corpus/cassandra/cassandra#2011-06-03-06-03-47#cassandra-0.8.0#b44fa70/src/java/org/apache/cassandra/db/ReadResponse.java,F:/corpus/cassandra/cassandra#2011-10-18-19-24-49#cassandra-1.0.0#533193a/src/java/org/apache/cassandra/db/ReadResponse.java,0,0,0,0,0,0,0,0,0,0,0,0,0,YES,0,0,0,0,0,0,0,0,0,0,0,0,0,0,0,0,0,0,0,0,0,0,0,0,0,0,0,0,0,0,0,0,0,0,0,0,0,0,0,0,0,0,0,0,0,0,1,0,1,118
cassandra,cassandra-0.8.0,cassandra-1.0.0,F:/corpus/cassandra/cassandra#2011-06-03-06-03-47#cassandra-0.8.0#b44fa70/src/java/org/apache/cassandra/db/ReadVerbHandler.java,F:/corpus/cassandra/cassandra#2011-10-18-19-24-49#cassandra-1.0.0#533193a/src/java/org/apache/cassandra/db/ReadVerbHandler.java,0,0,0,0,0,0,0,1,0,0,0,0,0,YES,0,0,0,0,0,1,0,0,0,0,0,3,0,0,0,0,0,0,0,0,0,0,0,0,0,0,0,0,0,0,0,0,0,1,0,1,0,0,0,0,0,0,8,3,0,1,5,0,31,104
cassandra,cassandra-0.8.0,cassandra-1.0.0,F:/corpus/cassandra/cassandra#2011-06-03-06-03-47#cassandra-0.8.0#b44fa70/src/java/org/apache/cassandra/db/Row.java,F:/corpus/cassandra/cassandra#2011-10-18-19-24-49#cassandra-1.0.0#533193a/src/java/org/apache/cassandra/db/Row.java,0,0,0,0,2,0,0,0,0,0,0,0,0,YES,0,0,0,1,0,0,0,0,0,0,0,0,0,0,0,0,0,0,0,0,0,0,0,0,0,0,0,0,0,0,0,0,0,0,0,0,0,0,0,0,0,0,0,0,0,0,0,0,15,77
cassandra,cassandra-0.8.0,cassandra-1.0.0,F:/corpus/cassandra/cassandra#2011-06-03-06-03-47#cassandra-0.8.0#b44fa70/src/java/org/apache/cassandra/db/RowIteratorFactory.java,F:/corpus/cassandra/cassandra#2011-10-18-19-24-49#cassandra-1.0.0#533193a/src/java/org/apache/cassandra/db/RowIteratorFactory.java,0,0,0,0,0,0,0,1,0,1,0,0,0,YES,0,0,0,0,2,2,0,0,0,0,0,2,0,0,0,0,0,0,0,0,0,0,0,2,0,0,1,0,0,1,0,1,1,0,1,0,2,0,0,0,0,0,3,4,0,0,3,0,43,177
cassandra,cassandra-0.8.0,cassandra-1.0.0,F:/corpus/cassandra/cassandra#2011-06-03-06-03-47#cassandra-0.8.0#b44fa70/src/java/org/apache/cassandra/db/RowMutation.java,F:/corpus/cassandra/cassandra#2011-10-18-19-24-49#cassandra-1.0.0#533193a/src/java/org/apache/cassandra/db/RowMutation.java,0,0,0,0,2,1,0,0,0,0,0,10,0,YES,0,0,0,0,3,0,0,0,0,0,0,0,1,0,0,1,0,0,0,0,1,0,0,0,0,0,0,0,0,0,0,0,0,0,3,1,0,0,0,0,0,0,0,7,0,1,10,0,62,378
cassandra,cassandra-0.8.0,cassandra-1.0.0,F:/corpus/cassandra/cassandra#2011-06-03-06-03-47#cassandra-0.8.0#b44fa70/src/java/org/apache/cassandra/db/RowMutationVerbHandler.java,F:/corpus/cassandra/cassandra#2011-10-18-19-24-49#cassandra-1.0.0#533193a/src/java/org/apache/cassandra/db/RowMutationVerbHandler.java,0,0,0,0,0,1,0,0,1,0,0,0,0,YES,0,0,0,0,0,0,0,0,0,0,0,1,0,0,0,1,0,0,0,0,0,0,0,0,0,0,0,0,0,0,0,0,0,0,0,0,0,0,0,0,0,0,12,1,1,1,1,0,21,114
cassandra,cassandra-0.8.0,cassandra-1.0.0,F:/corpus/cassandra/cassandra#2011-06-03-06-03-47#cassandra-0.8.0#b44fa70/src/java/org/apache/cassandra/db/SchemaCheckVerbHandler.java,F:/corpus/cassandra/cassandra#2011-10-18-19-24-49#cassandra-1.0.0#533193a/src/java/org/apache/cassandra/db/SchemaCheckVerbHandler.java,0,0,1,0,0,0,0,0,0,0,0,0,0,YES,0,0,0,0,0,0,0,0,0,0,0,0,0,0,0,0,0,0,0,0,0,0,0,0,0,0,0,0,0,0,0,0,0,0,0,0,0,0,0,0,0,0,0,0,0,0,1,0,2,40
cassandra,cassandra-0.8.0,cassandra-1.0.0,F:/corpus/cassandra/cassandra#2011-06-03-06-03-47#cassandra-0.8.0#b44fa70/src/java/org/apache/cassandra/db/SuperColumn.java,F:/corpus/cassandra/cassandra#2011-10-18-19-24-49#cassandra-1.0.0#533193a/src/java/org/apache/cassandra/db/SuperColumn.java,0,0,0,0,1,0,0,0,0,0,0,2,0,YES,0,0,0,0,6,1,0,0,1,0,0,1,2,0,0,2,0,0,0,0,0,0,2,1,0,0,0,1,0,0,0,0,0,0,11,3,0,0,0,0,0,0,20,14,0,0,16,0,145,410
cassandra,cassandra-0.8.0,cassandra-1.0.0,F:/corpus/cassandra/cassandra#2011-06-03-06-03-47#cassandra-0.8.0#b44fa70/src/java/org/apache/cassandra/db/SystemTable.java,F:/corpus/cassandra/cassandra#2011-10-18-19-24-49#cassandra-1.0.0#533193a/src/java/org/apache/cassandra/db/SystemTable.java,0,0,0,0,0,10,0,3,0,0,0,0,0,YES,0,0,0,0,0,0,0,0,0,0,0,2,2,0,0,2,0,0,0,0,0,0,0,1,0,0,0,0,0,0,0,0,0,0,0,0,0,0,0,0,0,0,3,9,0,3,5,0,25,453
cassandra,cassandra-0.8.0,cassandra-1.0.0,F:/corpus/cassandra/cassandra#2011-06-03-06-03-47#cassandra-0.8.0#b44fa70/src/java/org/apache/cassandra/db/Table.java,F:/corpus/cassandra/cassandra#2011-10-18-19-24-49#cassandra-1.0.0#533193a/src/java/org/apache/cassandra/db/Table.java,0,0,0,0,0,1,0,1,0,0,0,3,0,YES,0,0,0,0,2,0,0,0,0,0,0,4,4,1,1,2,0,0,1,1,1,1,1,1,0,1,0,0,0,0,0,0,0,1,5,2,0,0,0,0,1,0,30,21,0,3,5,0,252,756
cassandra,cassandra-0.8.0,cassandra-1.0.0,F:/corpus/cassandra/cassandra#2011-06-03-06-03-47#cassandra-0.8.0#b44fa70/src/java/org/apache/cassandra/db/TruncateResponse.java,F:/corpus/cassandra/cassandra#2011-10-18-19-24-49#cassandra-1.0.0#533193a/src/java/org/apache/cassandra/db/TruncateResponse.java,0,0,0,0,2,0,0,0,0,0,0,0,0,YES,0,0,0,0,0,0,0,0,0,0,0,0,0,0,0,0,0,0,0,1,0,0,0,0,0,0,0,0,0,0,0,0,0,0,0,0,0,0,0,0,0,0,0,0,0,0,2,0,6,83
cassandra,cassandra-0.8.0,cassandra-1.0.0,F:/corpus/cassandra/cassandra#2011-06-03-06-03-47#cassandra-0.8.0#b44fa70/src/java/org/apache/cassandra/db/TruncateVerbHandler.java,F:/corpus/cassandra/cassandra#2011-10-18-19-24-49#cassandra-1.0.0#533193a/src/java/org/apache/cassandra/db/TruncateVerbHandler.java,0,0,0,0,0,0,0,0,0,0,0,0,0,YES,0,0,0,0,0,0,0,0,0,0,0,0,0,0,0,0,0,1,0,0,0,0,0,0,0,0,0,0,0,0,0,0,0,0,0,0,0,0,0,0,0,0,19,4,8,0,2,0,38,105
cassandra,cassandra-0.8.0,cassandra-1.0.0,F:/corpus/cassandra/cassandra#2011-06-03-06-03-47#cassandra-0.8.0#b44fa70/src/java/org/apache/cassandra/db/Truncation.java,F:/corpus/cassandra/cassandra#2011-10-18-19-24-49#cassandra-1.0.0#533193a/src/java/org/apache/cassandra/db/Truncation.java,0,0,0,0,2,0,0,0,0,0,0,0,0,YES,0,0,0,0,0,0,0,0,0,0,0,0,0,0,0,0,0,0,0,1,0,0,0,0,0,0,0,0,0,0,0,0,0,0,1,0,0,0,0,0,0,0,0,0,0,0,2,0,16,98
cassandra,cassandra-0.8.0,cassandra-1.0.0,F:/corpus/cassandra/cassandra#2011-06-03-06-03-47#cassandra-0.8.0#b44fa70/src/java/org/apache/cassandra/db/WriteResponse.java,F:/corpus/cassandra/cassandra#2011-10-18-19-24-49#cassandra-1.0.0#533193a/src/java/org/apache/cassandra/db/WriteResponse.java,0,0,0,0,2,0,0,0,0,0,0,0,0,YES,0,0,0,0,0,0,0,0,0,0,0,0,0,0,0,0,0,0,0,0,0,0,0,0,0,0,0,0,0,0,0,0,0,0,0,0,0,0,0,0,0,0,0,0,0,0,2,0,4,97
cassandra,cassandra-0.8.0,cassandra-1.0.0,F:/corpus/cassandra/cassandra#2011-06-03-06-03-47#cassandra-0.8.0#b44fa70/src/java/org/apache/cassandra/db/columniterator/IColumnIterator.java,F:/corpus/cassandra/cassandra#2011-10-18-19-24-49#cassandra-1.0.0#533193a/src/java/org/apache/cassandra/db/columniterator/IColumnIterator.java,0,0,0,0,0,0,0,0,0,0,0,0,0,YES,0,0,0,0,0,0,0,0,0,0,0,0,0,0,0,0,0,0,0,0,0,0,0,0,0,0,0,0,0,0,0,0,0,0,0,0,0,0,0,0,0,0,0,0,0,0,0,0,3,46
cassandra,cassandra-0.8.0,cassandra-1.0.0,F:/corpus/cassandra/cassandra#2011-06-03-06-03-47#cassandra-0.8.0#b44fa70/src/java/org/apache/cassandra/db/columniterator/SSTableNamesIterator.java,F:/corpus/cassandra/cassandra#2011-10-18-19-24-49#cassandra-1.0.0#533193a/src/java/org/apache/cassandra/db/columniterator/SSTableNamesIterator.java,0,0,0,0,0,0,0,0,1,0,0,0,0,YES,0,0,0,0,0,0,0,0,0,0,0,0,0,0,0,0,0,0,0,0,0,0,0,0,0,0,0,0,0,0,0,0,0,0,0,0,0,0,0,0,0,0,0,0,0,0,1,0,1,205
cassandra,cassandra-0.8.0,cassandra-1.0.0,F:/corpus/cassandra/cassandra#2011-06-03-06-03-47#cassandra-0.8.0#b44fa70/src/java/org/apache/cassandra/db/columniterator/SSTableSliceIterator.java,F:/corpus/cassandra/cassandra#2011-10-18-19-24-49#cassandra-1.0.0#533193a/src/java/org/apache/cassandra/db/columniterator/SSTableSliceIterator.java,0,0,0,0,0,0,0,0,0,0,0,0,0,YES,0,0,0,0,0,0,0,0,0,0,0,0,0,0,0,0,0,0,0,1,0,0,0,0,0,0,0,0,0,0,0,0,0,0,0,0,0,0,0,0,0,0,0,0,0,0,1,0,3,127
cassandra,cassandra-0.8.0,cassandra-1.0.0,F:/corpus/cassandra/cassandra#2011-06-03-06-03-47#cassandra-0.8.0#b44fa70/src/java/org/apache/cassandra/db/commitlog/AbstractCommitLogExecutorService.java,F:/corpus/cassandra/cassandra#2011-10-18-19-24-49#cassandra-1.0.0#533193a/src/java/org/apache/cassandra/db/commitlog/AbstractCommitLogExecutorService.java,0,0,0,0,2,0,0,0,0,0,0,0,0,YES,0,0,0,0,0,0,0,0,0,0,0,0,0,0,0,0,0,0,0,0,0,0,0,0,0,0,0,0,0,0,0,0,0,0,2,0,0,0,0,0,0,0,0,0,0,0,0,0,21,83
cassandra,cassandra-0.8.0,cassandra-1.0.0,F:/corpus/cassandra/cassandra#2011-06-03-06-03-47#cassandra-0.8.0#b44fa70/src/java/org/apache/cassandra/db/commitlog/BatchCommitLogExecutorService.java,F:/corpus/cassandra/cassandra#2011-10-18-19-24-49#cassandra-1.0.0#533193a/src/java/org/apache/cassandra/db/commitlog/BatchCommitLogExecutorService.java,0,0,0,0,0,0,0,0,0,0,0,0,0,YES,0,0,0,0,0,0,0,0,0,0,0,0,0,0,0,0,0,0,0,0,0,0,0,0,0,0,0,0,0,0,0,2,0,0,0,0,0,0,0,0,0,0,1,0,0,0,0,0,3,197
cassandra,cassandra-0.8.0,cassandra-1.0.0,F:/corpus/cassandra/cassandra#2011-06-03-06-03-47#cassandra-0.8.0#b44fa70/src/java/org/apache/cassandra/db/commitlog/CommitLog.java,F:/corpus/cassandra/cassandra#2011-10-18-19-24-49#cassandra-1.0.0#533193a/src/java/org/apache/cassandra/db/commitlog/CommitLog.java,0,0,0,0,0,0,0,1,0,1,0,2,0,YES,0,0,0,0,8,0,1,0,1,0,0,2,1,0,0,0,0,0,0,0,0,0,0,0,0,0,0,0,0,0,0,0,1,0,0,0,1,0,0,0,0,0,13,13,0,1,3,1,142,524
cassandra,cassandra-0.8.0,cassandra-1.0.0,F:/corpus/cassandra/cassandra#2011-06-03-06-03-47#cassandra-0.8.0#b44fa70/src/java/org/apache/cassandra/db/commitlog/PeriodicCommitLogExecutorServiceMBean.java,F:/corpus/cassandra/cassandra#2011-10-18-19-24-49#cassandra-1.0.0#533193a/src/java/org/apache/cassandra/db/commitlog/CommitLogMBean.java,0,0,0,0,1,0,0,0,0,0,0,0,0,YES,0,0,0,0,0,0,0,0,0,0,1,0,0,0,0,0,0,0,0,0,0,0,0,0,0,0,0,0,0,0,0,1,0,0,0,0,0,0,0,0,0,0,0,0,0,0,0,0,16,25
cassandra,cassandra-0.8.0,cassandra-1.0.0,F:/corpus/cassandra/cassandra#2011-06-03-06-03-47#cassandra-0.8.0#b44fa70/src/java/org/apache/cassandra/db/commitlog/CommitLogSegment.java,F:/corpus/cassandra/cassandra#2011-10-18-19-24-49#cassandra-1.0.0#533193a/src/java/org/apache/cassandra/db/commitlog/CommitLogSegment.java,0,0,0,0,0,0,0,0,0,0,0,0,0,YES,0,0,0,0,1,3,0,1,0,0,0,0,1,0,0,0,0,0,0,0,0,0,0,1,0,0,0,0,0,0,0,0,0,0,0,2,0,0,0,1,0,0,10,17,0,1,5,0,33,200
cassandra,cassandra-0.8.0,cassandra-1.0.0,F:/corpus/cassandra/cassandra#2011-06-03-06-03-47#cassandra-0.8.0#b44fa70/src/java/org/apache/cassandra/db/commitlog/ICommitLogExecutorService.java,F:/corpus/cassandra/cassandra#2011-10-18-19-24-49#cassandra-1.0.0#533193a/src/java/org/apache/cassandra/db/commitlog/ICommitLogExecutorService.java,0,0,0,0,0,0,0,0,0,0,0,0,0,YES,0,0,0,0,2,0,0,0,0,0,0,0,0,0,0,0,0,0,0,0,0,0,0,0,0,0,0,0,0,0,0,1,0,0,0,0,0,0,0,0,0,0,0,0,0,0,0,0,12,46
cassandra,cassandra-0.8.0,cassandra-1.0.0,F:/corpus/cassandra/cassandra#2011-06-03-06-03-47#cassandra-0.8.0#b44fa70/src/java/org/apache/cassandra/db/commitlog/PeriodicCommitLogExecutorService.java,F:/corpus/cassandra/cassandra#2011-10-18-19-24-49#cassandra-1.0.0#533193a/src/java/org/apache/cassandra/db/commitlog/PeriodicCommitLogExecutorService.java,0,0,0,0,0,0,0,0,0,0,0,0,0,YES,0,0,0,0,0,0,0,0,0,0,0,0,0,0,0,0,0,0,0,0,0,0,0,0,0,0,0,0,0,0,0,1,0,0,1,0,0,0,0,0,0,0,1,0,0,0,0,0,8,152
cassandra,cassandra-0.8.0,cassandra-1.0.0,F:/corpus/cassandra/cassandra#2011-06-03-06-03-47#cassandra-0.8.0#b44fa70/src/java/org/apache/cassandra/db/commitlog/ReplayPosition.java,F:/corpus/cassandra/cassandra#2011-10-18-19-24-49#cassandra-1.0.0#533193a/src/java/org/apache/cassandra/db/commitlog/ReplayPosition.java,0,0,0,0,0,0,0,0,0,0,0,0,0,YES,0,0,0,0,0,0,0,0,0,0,0,0,0,0,0,0,0,0,0,0,0,0,0,0,0,0,1,0,0,0,0,0,0,0,0,0,0,0,0,0,0,0,0,0,0,0,1,0,7,136
cassandra,cassandra-0.8.0,cassandra-1.0.0,F:/corpus/cassandra/cassandra#2011-06-03-06-03-47#cassandra-0.8.0#b44fa70/src/java/org/apache/cassandra/io/AbstractCompactedRow.java,F:/corpus/cassandra/cassandra#2011-10-18-19-24-49#cassandra-1.0.0#533193a/src/java/org/apache/cassandra/db/compaction/AbstractCompactedRow.java,0,0,0,0,0,0,0,0,0,0,0,0,0,YES,0,0,0,0,1,0,0,0,0,1,0,0,0,0,0,0,0,0,0,1,0,0,0,0,0,0,1,0,0,0,0,0,0,0,0,0,0,0,0,0,0,1,0,0,0,0,0,0,11,63
cassandra,cassandra-0.8.0,cassandra-1.0.0,F:/corpus/cassandra/cassandra#2011-06-03-06-03-47#cassandra-0.8.0#b44fa70/src/java/org/apache/cassandra/io/CompactionInfo.java,F:/corpus/cassandra/cassandra#2011-10-18-19-24-49#cassandra-1.0.0#533193a/src/java/org/apache/cassandra/db/compaction/CompactionInfo.java,0,0,0,0,1,0,0,0,0,0,0,0,0,YES,0,0,0,0,1,2,0,0,0,1,0,0,0,0,0,0,0,0,0,0,0,0,0,1,0,0,1,0,0,0,0,0,0,0,0,0,0,0,0,3,0,0,0,1,0,0,2,0,9,87
cassandra,cassandra-0.8.0,cassandra-1.0.0,F:/corpus/cassandra/cassandra#2011-06-03-06-03-47#cassandra-0.8.0#b44fa70/src/java/org/apache/cassandra/db/CompactionManagerMBean.java,F:/corpus/cassandra/cassandra#2011-10-18-19-24-49#cassandra-1.0.0#533193a/src/java/org/apache/cassandra/db/compaction/CompactionManagerMBean.java,0,0,0,0,1,0,0,0,0,0,0,0,0,YES,0,0,0,0,0,0,0,0,0,0,0,0,0,0,0,0,0,0,0,0,0,0,0,0,0,0,0,0,0,0,0,0,0,0,0,0,0,0,0,0,0,0,0,0,0,0,0,0,3,50
cassandra,cassandra-0.8.0,cassandra-1.0.0,F:/corpus/cassandra/cassandra#2011-06-03-06-03-47#cassandra-0.8.0#b44fa70/src/java/org/apache/cassandra/io/LazilyCompactedRow.java,F:/corpus/cassandra/cassandra#2011-10-18-19-24-49#cassandra-1.0.0#533193a/src/java/org/apache/cassandra/db/compaction/LazilyCompactedRow.java,0,0,0,0,0,1,0,0,0,0,0,0,0,YES,0,0,0,1,2,5,0,0,0,0,0,1,1,0,0,3,0,0,0,0,0,0,0,0,0,0,1,0,0,0,0,0,0,1,0,2,0,0,0,2,1,1,9,14,0,0,3,0,72,223
cassandra,cassandra-0.8.0,cassandra-1.0.0,F:/corpus/cassandra/cassandra#2011-06-03-06-03-47#cassandra-0.8.0#b44fa70/src/java/org/apache/cassandra/io/CompactionType.java,F:/corpus/cassandra/cassandra#2011-10-18-19-24-49#cassandra-1.0.0#533193a/src/java/org/apache/cassandra/db/compaction/OperationType.java,0,0,0,0,0,0,0,0,0,0,0,0,0,YES,0,0,0,0,0,0,0,0,0,0,1,0,0,0,0,0,0,0,0,0,0,0,0,0,0,0,0,0,0,0,0,0,0,0,0,0,0,0,0,0,0,0,0,0,0,0,0,0,6,48
cassandra,cassandra-0.8.0,cassandra-1.0.0,F:/corpus/cassandra/cassandra#2011-06-03-06-03-47#cassandra-0.8.0#b44fa70/src/java/org/apache/cassandra/db/context/CounterContext.java,F:/corpus/cassandra/cassandra#2011-10-18-19-24-49#cassandra-1.0.0#533193a/src/java/org/apache/cassandra/db/context/CounterContext.java,0,0,0,0,0,0,0,0,0,2,0,3,0,YES,0,0,0,0,2,1,0,2,0,0,0,0,2,0,0,3,0,0,0,3,0,0,0,2,0,0,0,0,0,0,0,0,0,0,0,0,0,0,0,0,0,0,10,19,0,1,10,0,75,776
cassandra,cassandra-0.8.0,cassandra-1.0.0,F:/corpus/cassandra/cassandra#2011-06-03-06-03-47#cassandra-0.8.0#b44fa70/src/java/org/apache/cassandra/db/context/IContext.java,F:/corpus/cassandra/cassandra#2011-10-18-19-24-49#cassandra-1.0.0#533193a/src/java/org/apache/cassandra/db/context/IContext.java,0,0,0,0,1,0,0,0,0,0,0,0,0,YES,0,0,0,0,0,0,0,0,0,0,0,0,0,0,0,0,0,0,0,1,0,0,0,1,0,0,0,0,0,0,0,0,0,0,0,0,0,0,0,0,0,0,0,0,0,0,0,0,5,71
cassandra,cassandra-0.8.0,cassandra-1.0.0,F:/corpus/cassandra/cassandra#2011-06-03-06-03-47#cassandra-0.8.0#b44fa70/src/java/org/apache/cassandra/db/filter/IFilter.java,F:/corpus/cassandra/cassandra#2011-10-18-19-24-49#cassandra-1.0.0#533193a/src/java/org/apache/cassandra/db/filter/IFilter.java,0,0,0,0,0,0,0,0,0,0,0,0,0,YES,0,0,0,0,1,0,0,0,0,0,0,0,0,0,0,0,0,0,0,0,0,0,0,0,0,0,3,0,0,0,0,0,0,0,0,0,0,0,0,0,0,0,0,0,0,0,0,0,6,77
cassandra,cassandra-0.8.0,cassandra-1.0.0,F:/corpus/cassandra/cassandra#2011-06-03-06-03-47#cassandra-0.8.0#b44fa70/src/java/org/apache/cassandra/db/filter/NamesQueryFilter.java,F:/corpus/cassandra/cassandra#2011-10-18-19-24-49#cassandra-1.0.0#533193a/src/java/org/apache/cassandra/db/filter/NamesQueryFilter.java,0,0,0,0,1,0,0,0,0,0,0,0,0,YES,0,0,0,0,1,0,0,0,0,0,0,0,0,0,0,0,0,0,0,0,0,0,0,0,0,0,3,0,0,0,0,0,0,0,0,0,0,0,0,0,0,0,0,0,0,0,0,0,8,102
cassandra,cassandra-0.8.0,cassandra-1.0.0,F:/corpus/cassandra/cassandra#2011-06-03-06-03-47#cassandra-0.8.0#b44fa70/src/java/org/apache/cassandra/db/filter/QueryFilter.java,F:/corpus/cassandra/cassandra#2011-10-18-19-24-49#cassandra-1.0.0#533193a/src/java/org/apache/cassandra/db/filter/QueryFilter.java,0,0,0,0,0,1,0,0,1,0,0,4,0,YES,0,0,0,0,0,0,0,0,0,1,0,0,0,0,0,0,0,0,0,0,0,1,1,2,0,0,7,0,0,0,0,0,0,0,0,0,1,0,0,0,0,0,0,3,0,0,2,0,26,222
cassandra,cassandra-0.8.0,cassandra-1.0.0,F:/corpus/cassandra/cassandra#2011-06-03-06-03-47#cassandra-0.8.0#b44fa70/src/java/org/apache/cassandra/db/filter/SliceQueryFilter.java,F:/corpus/cassandra/cassandra#2011-10-18-19-24-49#cassandra-1.0.0#533193a/src/java/org/apache/cassandra/db/filter/SliceQueryFilter.java,0,0,0,0,0,1,0,0,0,0,0,0,0,YES,0,0,0,0,1,0,0,0,0,0,0,0,0,0,0,0,0,0,0,0,0,0,0,0,0,0,3,0,0,0,0,0,0,0,0,0,0,0,0,0,0,0,0,0,0,0,2,0,12,153
cassandra,cassandra-0.8.0,cassandra-1.0.0,F:/corpus/cassandra/cassandra#2011-06-03-06-03-47#cassandra-0.8.0#b44fa70/src/java/org/apache/cassandra/db/marshal/AbstractCommutativeType.java,F:/corpus/cassandra/cassandra#2011-10-18-19-24-49#cassandra-1.0.0#533193a/src/java/org/apache/cassandra/db/marshal/AbstractCommutativeType.java,0,0,0,0,2,0,0,0,0,0,0,0,0,YES,0,0,0,0,0,0,0,0,0,0,0,0,0,0,0,0,0,0,0,0,0,0,0,0,0,0,0,0,0,0,0,0,0,0,8,0,0,0,0,0,0,0,0,0,0,0,0,0,40,91
cassandra,cassandra-0.8.0,cassandra-1.0.0,F:/corpus/cassandra/cassandra#2011-06-03-06-03-47#cassandra-0.8.0#b44fa70/src/java/org/apache/cassandra/db/marshal/AbstractType.java,F:/corpus/cassandra/cassandra#2011-10-18-19-24-49#cassandra-1.0.0#533193a/src/java/org/apache/cassandra/db/marshal/AbstractType.java,0,0,0,0,2,0,0,0,0,0,0,1,0,YES,0,0,0,0,1,0,0,0,0,0,0,0,0,0,0,0,0,0,0,1,0,0,1,0,0,0,0,0,0,0,0,0,0,0,8,0,0,0,0,0,0,0,0,1,0,0,0,1,19,162
cassandra,cassandra-0.8.0,cassandra-1.0.0,F:/corpus/cassandra/cassandra#2011-06-03-06-03-47#cassandra-0.8.0#b44fa70/src/java/org/apache/cassandra/db/marshal/AsciiType.java,F:/corpus/cassandra/cassandra#2011-10-18-19-24-49#cassandra-1.0.0#533193a/src/java/org/apache/cassandra/db/marshal/AsciiType.java,0,0,0,0,2,0,0,0,0,0,0,0,0,YES,0,0,0,0,0,0,0,0,0,0,0,0,0,0,0,0,0,0,0,0,0,0,0,0,0,0,0,0,0,0,0,0,0,0,9,0,0,0,0,0,0,0,4,4,0,0,1,0,52,125
cassandra,cassandra-0.8.0,cassandra-1.0.0,F:/corpus/cassandra/cassandra#2011-06-03-06-03-47#cassandra-0.8.0#b44fa70/src/java/org/apache/cassandra/db/marshal/BytesType.java,F:/corpus/cassandra/cassandra#2011-10-18-19-24-49#cassandra-1.0.0#533193a/src/java/org/apache/cassandra/db/marshal/BytesType.java,0,0,0,0,2,0,0,0,0,0,0,0,0,YES,0,0,0,0,0,0,0,0,0,0,0,0,0,0,0,0,0,0,0,0,0,0,0,0,0,0,0,0,0,0,0,0,0,0,9,0,0,0,0,0,0,0,2,2,0,0,0,0,49,127
cassandra,cassandra-0.8.0,cassandra-1.0.0,F:/corpus/cassandra/cassandra#2011-06-03-06-03-47#cassandra-0.8.0#b44fa70/src/java/org/apache/cassandra/db/marshal/CounterColumnType.java,F:/corpus/cassandra/cassandra#2011-10-18-19-24-49#cassandra-1.0.0#533193a/src/java/org/apache/cassandra/db/marshal/CounterColumnType.java,0,0,0,0,0,0,0,0,0,0,0,0,0,YES,0,0,0,0,0,0,0,0,0,0,0,0,0,0,0,0,0,0,0,0,0,0,0,0,0,0,0,0,0,0,0,0,0,0,1,0,0,0,0,0,0,0,0,0,0,0,0,0,6,71
cassandra,cassandra-0.8.0,cassandra-1.0.0,F:/corpus/cassandra/cassandra#2011-06-03-06-03-47#cassandra-0.8.0#b44fa70/src/java/org/apache/cassandra/db/marshal/IntegerType.java,F:/corpus/cassandra/cassandra#2011-10-18-19-24-49#cassandra-1.0.0#533193a/src/java/org/apache/cassandra/db/marshal/IntegerType.java,0,0,0,0,1,0,0,0,0,0,0,0,0,YES,0,0,0,0,0,0,0,0,0,0,0,0,0,0,0,0,0,0,0,0,0,0,0,0,0,0,0,0,0,0,0,0,0,0,9,0,0,0,0,0,0,0,6,2,0,0,0,0,55,208
cassandra,cassandra-0.8.0,cassandra-1.0.0,F:/corpus/cassandra/cassandra#2011-06-03-06-03-47#cassandra-0.8.0#b44fa70/src/java/org/apache/cassandra/db/marshal/LexicalUUIDType.java,F:/corpus/cassandra/cassandra#2011-10-18-19-24-49#cassandra-1.0.0#533193a/src/java/org/apache/cassandra/db/marshal/LexicalUUIDType.java,0,0,0,0,0,0,0,0,0,0,0,0,0,YES,0,0,0,0,0,0,0,0,0,0,0,0,0,0,0,0,0,0,0,0,0,0,0,0,0,0,0,1,0,0,0,0,0,0,2,0,0,0,0,0,0,0,6,5,0,0,0,0,18,105
cassandra,cassandra-0.8.0,cassandra-1.0.0,F:/corpus/cassandra/cassandra#2011-06-03-06-03-47#cassandra-0.8.0#b44fa70/src/java/org/apache/cassandra/db/marshal/LocalByPartionerType.java,F:/corpus/cassandra/cassandra#2011-10-18-19-24-49#cassandra-1.0.0#533193a/src/java/org/apache/cassandra/db/marshal/LocalByPartionerType.java,0,0,0,0,6,0,0,0,0,0,0,0,0,YES,0,0,0,0,0,0,0,0,0,0,0,0,0,0,0,0,0,0,0,0,0,0,0,0,0,0,0,0,0,0,0,0,0,0,9,0,0,0,0,0,0,0,0,0,0,0,0,0,45,115
cassandra,cassandra-0.8.0,cassandra-1.0.0,F:/corpus/cassandra/cassandra#2011-06-03-06-03-47#cassandra-0.8.0#b44fa70/src/java/org/apache/cassandra/db/marshal/LongType.java,F:/corpus/cassandra/cassandra#2011-10-18-19-24-49#cassandra-1.0.0#533193a/src/java/org/apache/cassandra/db/marshal/LongType.java,0,0,0,0,1,0,0,0,0,0,0,0,0,YES,0,0,0,0,0,0,0,0,0,0,0,0,0,0,0,0,0,0,0,0,0,0,0,0,0,0,0,0,0,0,0,0,0,0,9,0,0,0,0,0,0,0,5,4,0,0,0,0,53,148
cassandra,cassandra-0.8.0,cassandra-1.0.0,F:/corpus/cassandra/cassandra#2011-06-03-06-03-47#cassandra-0.8.0#b44fa70/src/java/org/apache/cassandra/db/marshal/TimeUUIDType.java,F:/corpus/cassandra/cassandra#2011-10-18-19-24-49#cassandra-1.0.0#533193a/src/java/org/apache/cassandra/db/marshal/TimeUUIDType.java,0,0,0,0,0,0,0,0,0,0,0,0,0,YES,0,0,0,0,0,0,0,0,0,0,0,0,0,0,0,0,0,0,0,0,0,0,0,0,0,0,0,1,0,0,0,0,0,0,2,1,0,0,0,0,0,0,9,5,0,0,1,0,36,208
cassandra,cassandra-0.8.0,cassandra-1.0.0,F:/corpus/cassandra/cassandra#2011-06-03-06-03-47#cassandra-0.8.0#b44fa70/src/java/org/apache/cassandra/db/marshal/UTF8Type.java,F:/corpus/cassandra/cassandra#2011-10-18-19-24-49#cassandra-1.0.0#533193a/src/java/org/apache/cassandra/db/marshal/UTF8Type.java,0,0,0,0,2,0,0,0,1,0,0,0,1,YES,0,0,0,0,0,0,0,0,0,0,0,0,0,0,0,1,0,0,0,0,0,0,0,0,0,0,0,0,0,0,0,0,0,0,9,0,0,0,0,0,0,0,5,6,0,0,0,0,55,235
cassandra,cassandra-0.8.0,cassandra-1.0.0,F:/corpus/cassandra/cassandra#2011-06-03-06-03-47#cassandra-0.8.0#b44fa70/src/java/org/apache/cassandra/db/marshal/UUIDType.java,F:/corpus/cassandra/cassandra#2011-10-18-19-24-49#cassandra-1.0.0#533193a/src/java/org/apache/cassandra/db/marshal/UUIDType.java,0,0,0,0,0,0,0,0,0,0,0,0,0,YES,0,0,0,0,0,0,0,0,0,0,0,0,0,0,0,0,0,0,0,0,0,0,0,0,0,0,0,1,0,0,0,0,0,0,2,0,0,0,0,0,0,0,10,5,0,0,2,0,26,260
cassandra,cassandra-0.8.0,cassandra-1.0.0,F:/corpus/cassandra/cassandra#2011-06-03-06-03-47#cassandra-0.8.0#b44fa70/src/java/org/apache/cassandra/db/migration/AddColumnFamily.java,F:/corpus/cassandra/cassandra#2011-10-18-19-24-49#cassandra-1.0.0#533193a/src/java/org/apache/cassandra/db/migration/AddColumnFamily.java,0,0,0,0,0,1,0,0,0,0,0,0,0,YES,0,0,0,0,0,0,0,0,0,0,0,0,0,0,0,1,0,0,0,0,0,0,0,0,0,0,0,0,0,0,0,0,0,0,0,0,0,0,0,0,0,0,1,1,0,0,10,0,13,113
cassandra,cassandra-0.8.0,cassandra-1.0.0,F:/corpus/cassandra/cassandra#2011-06-03-06-03-47#cassandra-0.8.0#b44fa70/src/java/org/apache/cassandra/db/migration/AddKeyspace.java,F:/corpus/cassandra/cassandra#2011-10-18-19-24-49#cassandra-1.0.0#533193a/src/java/org/apache/cassandra/db/migration/AddKeyspace.java,0,0,0,0,0,0,0,0,0,0,0,0,0,YES,0,0,0,0,0,0,0,0,0,0,0,0,0,0,0,2,0,0,0,0,0,0,0,0,0,0,0,0,0,0,0,0,0,0,0,0,0,0,0,0,0,0,1,1,0,0,6,0,14,96
cassandra,cassandra-0.8.0,cassandra-1.0.0,F:/corpus/cassandra/cassandra#2011-06-03-06-03-47#cassandra-0.8.0#b44fa70/src/java/org/apache/cassandra/db/migration/DropColumnFamily.java,F:/corpus/cassandra/cassandra#2011-10-18-19-24-49#cassandra-1.0.0#533193a/src/java/org/apache/cassandra/db/migration/DropColumnFamily.java,0,0,0,0,0,0,0,0,0,0,0,0,0,YES,0,0,0,0,0,0,0,0,0,0,0,0,0,0,0,1,0,0,0,0,0,0,0,0,0,0,0,0,0,0,0,0,0,0,0,0,0,0,0,0,0,0,0,0,0,0,8,0,15,119
cassandra,cassandra-0.8.0,cassandra-1.0.0,F:/corpus/cassandra/cassandra#2011-06-03-06-03-47#cassandra-0.8.0#b44fa70/src/java/org/apache/cassandra/db/migration/DropKeyspace.java,F:/corpus/cassandra/cassandra#2011-10-18-19-24-49#cassandra-1.0.0#533193a/src/java/org/apache/cassandra/db/migration/DropKeyspace.java,0,0,0,0,0,0,0,0,0,0,0,0,0,YES,0,0,0,0,0,0,0,0,0,0,0,1,0,0,0,1,0,0,0,0,0,0,0,0,0,0,0,0,0,0,0,0,0,0,0,0,0,0,0,0,0,0,2,0,0,0,8,0,22,115
cassandra,cassandra-0.8.0,cassandra-1.0.0,F:/corpus/cassandra/cassandra#2011-06-03-06-03-47#cassandra-0.8.0#b44fa70/src/java/org/apache/cassandra/db/migration/Migration.java,F:/corpus/cassandra/cassandra#2011-10-18-19-24-49#cassandra-1.0.0#533193a/src/java/org/apache/cassandra/db/migration/Migration.java,0,0,0,0,0,1,0,0,0,0,0,3,0,YES,0,0,0,0,0,2,0,0,0,0,0,2,0,2,0,3,0,0,1,0,0,0,0,0,0,0,0,0,0,0,0,0,0,0,0,1,0,0,1,0,0,0,7,9,0,13,9,1,36,316
cassandra,cassandra-0.8.0,cassandra-1.0.0,F:/corpus/cassandra/cassandra#2011-06-03-06-03-47#cassandra-0.8.0#b44fa70/src/java/org/apache/cassandra/db/migration/RenameColumnFamily.java,F:/corpus/cassandra/cassandra#2011-10-18-19-24-49#cassandra-1.0.0#533193a/src/java/org/apache/cassandra/db/migration/RenameColumnFamily.java,0,0,0,0,0,0,0,0,0,0,0,0,0,YES,0,0,0,0,0,0,0,0,0,0,0,0,0,0,0,1,0,0,0,0,0,0,0,0,0,0,0,0,0,0,0,0,0,0,0,0,0,0,0,0,0,0,0,0,0,0,9,0,15,133
cassandra,cassandra-0.8.0,cassandra-1.0.0,F:/corpus/cassandra/cassandra#2011-06-03-06-03-47#cassandra-0.8.0#b44fa70/src/java/org/apache/cassandra/db/migration/RenameKeyspace.java,F:/corpus/cassandra/cassandra#2011-10-18-19-24-49#cassandra-1.0.0#533193a/src/java/org/apache/cassandra/db/migration/RenameKeyspace.java,0,0,0,0,0,0,0,0,0,0,0,0,0,YES,0,0,0,0,0,0,0,0,0,0,0,0,0,0,0,2,0,0,0,0,0,0,0,0,0,0,0,0,0,0,0,0,0,0,0,0,0,0,0,0,0,0,3,2,0,2,9,1,22,151
cassandra,cassandra-0.8.0,cassandra-1.0.0,F:/corpus/cassandra/cassandra#2011-06-03-06-03-47#cassandra-0.8.0#b44fa70/src/java/org/apache/cassandra/db/migration/UpdateColumnFamily.java,F:/corpus/cassandra/cassandra#2011-10-18-19-24-49#cassandra-1.0.0#533193a/src/java/org/apache/cassandra/db/migration/UpdateColumnFamily.java,0,0,0,0,0,0,0,0,1,0,0,0,0,YES,0,0,0,0,0,0,0,0,0,0,0,0,0,0,0,1,0,0,0,0,0,0,0,0,0,0,0,0,0,0,0,0,0,0,0,0,0,0,0,0,0,0,0,0,0,0,12,0,15,107
cassandra,cassandra-0.8.0,cassandra-1.0.0,F:/corpus/cassandra/cassandra#2011-06-03-06-03-47#cassandra-0.8.0#b44fa70/src/java/org/apache/cassandra/db/migration/UpdateKeyspace.java,F:/corpus/cassandra/cassandra#2011-10-18-19-24-49#cassandra-1.0.0#533193a/src/java/org/apache/cassandra/db/migration/UpdateKeyspace.java,0,0,0,0,0,0,0,0,1,0,0,0,0,YES,0,0,0,0,0,0,0,0,0,0,0,0,0,0,0,0,0,0,0,0,0,0,0,0,0,0,0,0,0,0,0,0,0,0,0,0,0,0,0,0,0,0,0,0,0,0,10,0,15,97
cassandra,cassandra-0.8.0,cassandra-1.0.0,F:/corpus/cassandra/cassandra#2011-06-03-06-03-47#cassandra-0.8.0#b44fa70/src/java/org/apache/cassandra/dht/AbstractBounds.java,F:/corpus/cassandra/cassandra#2011-10-18-19-24-49#cassandra-1.0.0#533193a/src/java/org/apache/cassandra/dht/AbstractBounds.java,0,0,0,0,0,0,0,0,0,0,0,0,0,YES,0,0,0,0,1,0,0,0,0,0,0,0,1,0,0,0,0,0,0,1,0,0,0,0,0,0,0,0,0,0,0,0,0,0,0,0,0,0,0,0,0,0,1,1,0,0,0,0,56,129
cassandra,cassandra-0.8.0,cassandra-1.0.0,F:/corpus/cassandra/cassandra#2011-06-03-06-03-47#cassandra-0.8.0#b44fa70/src/java/org/apache/cassandra/dht/AbstractByteOrderedPartitioner.java,F:/corpus/cassandra/cassandra#2011-10-18-19-24-49#cassandra-1.0.0#533193a/src/java/org/apache/cassandra/dht/AbstractByteOrderedPartitioner.java,0,0,0,0,0,0,0,0,0,0,0,0,0,YES,0,0,0,0,0,0,0,0,0,0,0,0,0,0,0,2,0,0,0,0,0,0,0,0,0,0,0,0,0,0,0,0,0,0,0,0,0,0,0,0,0,0,0,0,0,0,0,0,23,208
cassandra,cassandra-0.8.0,cassandra-1.0.0,F:/corpus/cassandra/cassandra#2011-06-03-06-03-47#cassandra-0.8.0#b44fa70/src/java/org/apache/cassandra/dht/BootStrapper.java,F:/corpus/cassandra/cassandra#2011-10-18-19-24-49#cassandra-1.0.0#533193a/src/java/org/apache/cassandra/dht/BootStrapper.java,0,0,1,0,0,4,0,0,0,0,0,0,0,YES,0,0,0,0,0,1,0,0,0,1,0,0,1,0,0,2,0,0,0,0,0,0,0,1,0,0,0,0,0,0,0,0,0,0,0,0,0,0,0,0,0,0,6,13,0,2,3,0,17,296
cassandra,cassandra-0.8.0,cassandra-1.0.0,F:/corpus/cassandra/cassandra#2011-06-03-06-03-47#cassandra-0.8.0#b44fa70/src/java/org/apache/cassandra/dht/Bounds.java,F:/corpus/cassandra/cassandra#2011-10-18-19-24-49#cassandra-1.0.0#533193a/src/java/org/apache/cassandra/dht/Bounds.java,0,0,0,0,0,0,0,0,0,0,0,0,0,YES,0,0,0,0,0,0,0,0,0,0,0,0,0,0,0,0,0,0,0,0,0,0,0,0,0,0,0,0,0,0,0,0,0,0,0,0,0,0,0,0,0,0,0,0,0,0,1,0,1,71
cassandra,cassandra-0.8.0,cassandra-1.0.0,F:/corpus/cassandra/cassandra#2011-06-03-06-03-47#cassandra-0.8.0#b44fa70/src/java/org/apache/cassandra/dht/IPartitioner.java,F:/corpus/cassandra/cassandra#2011-10-18-19-24-49#cassandra-1.0.0#533193a/src/java/org/apache/cassandra/dht/IPartitioner.java,0,0,0,0,1,0,0,0,0,0,0,0,0,YES,0,0,0,0,0,0,0,0,0,0,0,0,0,0,0,0,0,0,0,0,0,0,0,0,0,0,0,0,0,0,0,0,0,0,0,0,0,0,0,0,0,0,0,0,0,0,0,0,1,87
cassandra,cassandra-0.8.0,cassandra-1.0.0,F:/corpus/cassandra/cassandra#2011-06-03-06-03-47#cassandra-0.8.0#b44fa70/src/java/org/apache/cassandra/dht/OrderPreservingPartitioner.java,F:/corpus/cassandra/cassandra#2011-10-18-19-24-49#cassandra-1.0.0#533193a/src/java/org/apache/cassandra/dht/OrderPreservingPartitioner.java,0,0,0,0,0,0,0,0,0,0,0,0,0,YES,0,0,0,0,0,0,0,0,0,0,0,0,0,0,0,2,0,0,0,0,0,0,0,0,0,0,0,0,0,0,0,0,0,0,0,0,0,0,0,0,0,0,0,0,0,0,1,0,12,205
cassandra,cassandra-0.8.0,cassandra-1.0.0,F:/corpus/cassandra/cassandra#2011-06-03-06-03-47#cassandra-0.8.0#b44fa70/src/java/org/apache/cassandra/dht/RandomPartitioner.java,F:/corpus/cassandra/cassandra#2011-10-18-19-24-49#cassandra-1.0.0#533193a/src/java/org/apache/cassandra/dht/RandomPartitioner.java,0,0,0,0,0,0,0,0,0,0,0,0,0,YES,0,0,0,0,0,0,0,0,0,0,0,0,0,0,0,0,0,0,0,0,0,0,0,0,0,0,0,0,0,0,0,0,0,0,0,0,0,0,0,0,0,0,0,0,0,0,0,0,13,169
cassandra,cassandra-0.8.0,cassandra-1.0.0,F:/corpus/cassandra/cassandra#2011-06-03-06-03-47#cassandra-0.8.0#b44fa70/src/java/org/apache/cassandra/dht/Range.java,F:/corpus/cassandra/cassandra#2011-10-18-19-24-49#cassandra-1.0.0#533193a/src/java/org/apache/cassandra/dht/Range.java,0,0,0,0,0,0,0,0,0,0,0,1,0,YES,0,0,0,0,1,0,2,2,0,0,0,8,2,0,0,0,0,0,0,0,0,0,0,0,0,0,0,0,0,0,0,0,0,0,0,0,0,0,0,0,0,0,12,15,0,0,8,0,49,333
cassandra,cassandra-0.8.0,cassandra-1.0.0,F:/corpus/cassandra/cassandra#2011-06-03-06-03-47#cassandra-0.8.0#b44fa70/src/java/org/apache/cassandra/dht/Token.java,F:/corpus/cassandra/cassandra#2011-10-18-19-24-49#cassandra-1.0.0#533193a/src/java/org/apache/cassandra/dht/Token.java,0,0,0,0,2,0,0,0,0,0,0,1,0,YES,0,0,0,0,1,0,0,0,0,0,0,0,0,0,0,0,0,0,0,0,0,0,0,0,0,0,0,0,0,0,0,0,0,0,0,0,0,0,0,0,0,0,0,0,0,0,0,0,3,97
cassandra,cassandra-0.8.0,cassandra-1.0.0,F:/corpus/cassandra/cassandra#2011-06-03-06-03-47#cassandra-0.8.0#b44fa70/src/java/org/apache/cassandra/gms/ApplicationState.java,F:/corpus/cassandra/cassandra#2011-10-18-19-24-49#cassandra-1.0.0#533193a/src/java/org/apache/cassandra/gms/ApplicationState.java,0,0,0,0,0,0,0,0,0,0,0,0,0,YES,0,0,0,0,0,0,0,0,0,0,0,0,0,0,0,0,0,0,0,0,0,0,0,0,0,0,0,0,0,0,0,0,0,0,0,0,0,0,0,0,0,0,0,0,0,0,0,0,3,38
cassandra,cassandra-0.8.0,cassandra-1.0.0,F:/corpus/cassandra/cassandra#2011-06-03-06-03-47#cassandra-0.8.0#b44fa70/src/java/org/apache/cassandra/gms/EndpointState.java,F:/corpus/cassandra/cassandra#2011-10-18-19-24-49#cassandra-1.0.0#533193a/src/java/org/apache/cassandra/gms/EndpointState.java,1,0,0,0,0,0,0,0,0,0,0,1,0,YES,0,0,0,0,0,0,0,0,0,0,0,0,0,0,0,0,2,0,0,0,1,1,0,0,0,0,0,0,0,0,0,0,0,0,0,0,0,0,0,0,0,0,0,0,0,0,0,0,3,180
cassandra,cassandra-0.8.0,cassandra-1.0.0,F:/corpus/cassandra/cassandra#2011-06-03-06-03-47#cassandra-0.8.0#b44fa70/src/java/org/apache/cassandra/gms/FailureDetector.java,F:/corpus/cassandra/cassandra#2011-10-18-19-24-49#cassandra-1.0.0#533193a/src/java/org/apache/cassandra/gms/FailureDetector.java,0,0,0,0,0,0,0,0,0,0,0,0,0,YES,0,0,0,0,4,3,0,1,0,0,0,0,0,0,0,1,0,0,0,0,0,0,0,0,0,0,0,0,0,0,0,0,0,0,1,0,0,0,0,0,0,0,8,7,1,2,2,0,68,278
cassandra,cassandra-0.8.0,cassandra-1.0.0,F:/corpus/cassandra/cassandra#2011-06-03-06-03-47#cassandra-0.8.0#b44fa70/src/java/org/apache/cassandra/gms/FailureDetectorMBean.java,F:/corpus/cassandra/cassandra#2011-10-18-19-24-49#cassandra-1.0.0#533193a/src/java/org/apache/cassandra/gms/FailureDetectorMBean.java,0,0,0,0,1,0,0,0,0,0,0,0,0,YES,0,0,0,0,2,0,0,0,0,0,0,0,0,0,0,0,0,0,0,0,0,0,0,0,0,0,0,0,0,0,0,0,0,0,0,0,0,0,0,0,0,0,0,0,0,0,0,0,8,30
cassandra,cassandra-0.8.0,cassandra-1.0.0,F:/corpus/cassandra/cassandra#2011-06-03-06-03-47#cassandra-0.8.0#b44fa70/src/java/org/apache/cassandra/gms/GossipDigestAck2VerbHandler.java,F:/corpus/cassandra/cassandra#2011-10-18-19-24-49#cassandra-1.0.0#533193a/src/java/org/apache/cassandra/gms/GossipDigestAck2VerbHandler.java,0,0,0,0,1,0,0,0,1,0,0,0,0,YES,0,0,0,0,0,0,0,0,0,0,0,0,0,0,0,0,0,0,0,0,0,0,0,0,0,0,0,0,0,0,0,0,0,0,0,0,0,0,0,0,0,0,0,0,0,0,1,0,3,62
cassandra,cassandra-0.8.0,cassandra-1.0.0,F:/corpus/cassandra/cassandra#2011-06-03-06-03-47#cassandra-0.8.0#b44fa70/src/java/org/apache/cassandra/gms/GossipDigestAckVerbHandler.java,F:/corpus/cassandra/cassandra#2011-10-18-19-24-49#cassandra-1.0.0#533193a/src/java/org/apache/cassandra/gms/GossipDigestAckVerbHandler.java,0,0,0,0,1,0,0,0,0,0,0,0,0,YES,0,0,0,0,0,0,0,0,0,0,0,0,0,0,0,0,0,0,0,0,0,0,0,0,0,0,0,0,0,0,0,0,0,0,0,0,0,0,0,0,0,0,0,0,0,0,1,0,3,92
cassandra,cassandra-0.8.0,cassandra-1.0.0,F:/corpus/cassandra/cassandra#2011-06-03-06-03-47#cassandra-0.8.0#b44fa70/src/java/org/apache/cassandra/gms/GossipDigestSynVerbHandler.java,F:/corpus/cassandra/cassandra#2011-10-18-19-24-49#cassandra-1.0.0#533193a/src/java/org/apache/cassandra/gms/GossipDigestSynVerbHandler.java,0,0,0,0,1,0,0,0,0,0,0,0,0,YES,0,0,0,0,0,0,0,0,0,0,0,0,0,0,0,0,0,0,0,0,0,0,0,0,0,0,0,0,0,0,0,0,0,0,0,0,0,0,0,0,0,0,0,0,0,0,1,0,3,141
cassandra,cassandra-0.8.0,cassandra-1.0.0,F:/corpus/cassandra/cassandra#2011-06-03-06-03-47#cassandra-0.8.0#b44fa70/src/java/org/apache/cassandra/gms/Gossiper.java,F:/corpus/cassandra/cassandra#2011-10-18-19-24-49#cassandra-1.0.0#533193a/src/java/org/apache/cassandra/gms/Gossiper.java,0,0,0,0,0,16,0,0,0,0,0,1,0,YES,0,0,0,0,8,2,1,1,0,1,0,3,8,0,0,8,0,0,0,2,0,0,0,1,0,0,0,0,0,0,0,0,1,0,0,0,0,0,0,0,0,0,9,30,0,12,16,0,218,918
cassandra,cassandra-0.8.0,cassandra-1.0.0,F:/corpus/cassandra/cassandra#2011-06-03-06-03-47#cassandra-0.8.0#b44fa70/src/java/org/apache/cassandra/gms/HeartBeatState.java,F:/corpus/cassandra/cassandra#2011-10-18-19-24-49#cassandra-1.0.0#533193a/src/java/org/apache/cassandra/gms/HeartBeatState.java,0,0,0,0,2,0,0,0,0,0,0,0,0,YES,0,0,0,0,1,0,0,0,0,0,0,0,0,0,0,0,0,0,0,0,0,0,0,0,0,0,0,0,0,0,0,0,0,0,0,0,0,0,0,0,0,0,0,0,0,0,0,0,5,88
cassandra,cassandra-0.8.0,cassandra-1.0.0,F:/corpus/cassandra/cassandra#2011-06-03-06-03-47#cassandra-0.8.0#b44fa70/src/java/org/apache/cassandra/gms/IEndpointStateChangeSubscriber.java,F:/corpus/cassandra/cassandra#2011-10-18-19-24-49#cassandra-1.0.0#533193a/src/java/org/apache/cassandra/gms/IEndpointStateChangeSubscriber.java,0,0,0,0,0,0,0,0,0,0,0,0,0,YES,0,0,0,0,1,0,0,0,0,0,0,0,0,0,0,0,0,0,0,0,0,0,0,0,0,0,0,0,0,0,0,0,0,0,0,0,0,0,0,0,0,0,0,0,0,0,0,0,8,50
cassandra,cassandra-0.8.0,cassandra-1.0.0,F:/corpus/cassandra/cassandra#2011-06-03-06-03-47#cassandra-0.8.0#b44fa70/src/java/org/apache/cassandra/gms/IFailureDetectionEventListener.java,F:/corpus/cassandra/cassandra#2011-10-18-19-24-49#cassandra-1.0.0#533193a/src/java/org/apache/cassandra/gms/IFailureDetectionEventListener.java,0,0,0,0,1,0,0,0,0,0,0,0,0,YES,0,0,0,0,0,0,0,0,0,0,0,0,0,0,0,0,0,0,0,1,0,0,0,1,0,0,0,0,0,0,0,0,0,0,0,0,0,0,0,0,0,0,0,0,0,0,0,0,3,37
cassandra,cassandra-0.8.0,cassandra-1.0.0,F:/corpus/cassandra/cassandra#2011-06-03-06-03-47#cassandra-0.8.0#b44fa70/src/java/org/apache/cassandra/gms/IFailureDetector.java,F:/corpus/cassandra/cassandra#2011-10-18-19-24-49#cassandra-1.0.0#533193a/src/java/org/apache/cassandra/gms/IFailureDetector.java,0,0,0,0,1,0,0,0,0,0,0,0,0,YES,0,0,0,0,1,0,0,0,0,0,0,0,0,0,0,0,0,0,0,0,0,0,0,0,0,0,0,0,0,0,0,0,0,0,0,0,0,0,0,0,0,0,0,0,0,0,0,0,1,75
cassandra,cassandra-0.8.0,cassandra-1.0.0,F:/corpus/cassandra/cassandra#2011-06-03-06-03-47#cassandra-0.8.0#b44fa70/src/java/org/apache/cassandra/gms/VersionedValue.java,F:/corpus/cassandra/cassandra#2011-10-18-19-24-49#cassandra-1.0.0#533193a/src/java/org/apache/cassandra/gms/VersionedValue.java,0,0,0,0,1,0,0,0,0,0,0,1,0,YES,0,0,0,0,4,2,0,0,0,0,0,0,0,0,0,0,0,0,0,0,0,0,2,0,0,0,0,0,0,0,0,0,0,0,0,0,0,0,0,0,0,0,0,0,0,0,2,0,27,180
cassandra,cassandra-0.8.0,cassandra-1.0.0,F:/corpus/cassandra/cassandra#2011-06-03-06-03-47#cassandra-0.8.0#b44fa70/src/java/org/apache/cassandra/hadoop/ColumnFamilyInputFormat.java,F:/corpus/cassandra/cassandra#2011-10-18-19-24-49#cassandra-1.0.0#533193a/src/java/org/apache/cassandra/hadoop/ColumnFamilyInputFormat.java,0,0,0,0,1,1,0,0,0,0,0,0,0,YES,0,0,0,0,0,0,0,1,0,0,0,0,1,1,0,0,0,0,0,0,0,0,0,0,0,0,0,0,0,0,0,0,0,0,0,0,0,0,0,0,0,0,1,30,0,1,0,0,38,239
cassandra,cassandra-0.8.0,cassandra-1.0.0,F:/corpus/cassandra/cassandra#2011-06-03-06-03-47#cassandra-0.8.0#b44fa70/src/java/org/apache/cassandra/hadoop/ColumnFamilyOutputFormat.java,F:/corpus/cassandra/cassandra#2011-10-18-19-24-49#cassandra-1.0.0#533193a/src/java/org/apache/cassandra/hadoop/ColumnFamilyOutputFormat.java,0,0,0,0,4,0,0,0,0,0,0,0,0,YES,0,0,0,0,0,0,0,0,0,0,0,0,0,0,0,0,0,0,0,0,0,0,0,0,0,0,0,0,0,0,0,0,0,0,0,0,0,0,0,0,0,0,0,0,0,0,2,0,3,185
cassandra,cassandra-0.8.0,cassandra-1.0.0,F:/corpus/cassandra/cassandra#2011-06-03-06-03-47#cassandra-0.8.0#b44fa70/src/java/org/apache/cassandra/hadoop/ColumnFamilyRecordReader.java,F:/corpus/cassandra/cassandra#2011-10-18-19-24-49#cassandra-1.0.0#533193a/src/java/org/apache/cassandra/hadoop/ColumnFamilyRecordReader.java,0,0,0,0,0,0,0,0,0,0,0,0,0,YES,0,0,0,0,2,0,0,0,0,0,0,0,0,0,0,1,0,0,0,0,0,0,0,0,0,0,0,0,0,0,0,0,0,0,0,0,0,0,0,0,0,0,3,10,0,0,5,0,30,315
cassandra,cassandra-0.8.0,cassandra-1.0.0,F:/corpus/cassandra/cassandra#2011-06-03-06-03-47#cassandra-0.8.0#b44fa70/src/java/org/apache/cassandra/hadoop/ColumnFamilyRecordWriter.java,F:/corpus/cassandra/cassandra#2011-10-18-19-24-49#cassandra-1.0.0#533193a/src/java/org/apache/cassandra/hadoop/ColumnFamilyRecordWriter.java,0,0,0,0,2,0,0,0,0,0,0,0,0,YES,0,0,0,0,2,0,0,0,0,0,0,0,1,0,0,0,0,0,0,1,0,0,0,0,0,0,0,0,0,0,0,0,0,0,1,0,0,0,0,0,0,0,14,11,0,1,1,0,44,326
cassandra,cassandra-0.8.0,cassandra-1.0.0,F:/corpus/cassandra/cassandra#2011-06-03-06-03-47#cassandra-0.8.0#b44fa70/src/java/org/apache/cassandra/hadoop/ConfigHelper.java,F:/corpus/cassandra/cassandra#2011-10-18-19-24-49#cassandra-1.0.0#533193a/src/java/org/apache/cassandra/hadoop/ConfigHelper.java,0,0,0,0,0,0,0,0,0,0,0,0,0,YES,0,0,0,0,4,1,0,0,0,0,0,0,0,0,0,0,0,0,0,0,0,0,0,0,0,0,0,0,0,0,0,0,0,0,0,0,0,0,0,0,0,0,0,0,0,0,0,0,49,284
cassandra,cassandra-0.8.0,cassandra-1.0.0,F:/corpus/cassandra/cassandra#2011-06-03-06-03-47#cassandra-0.8.0#b44fa70/src/java/org/apache/cassandra/io/IColumnSerializer.java,F:/corpus/cassandra/cassandra#2011-10-18-19-24-49#cassandra-1.0.0#533193a/src/java/org/apache/cassandra/io/IColumnSerializer.java,0,0,0,0,0,0,0,0,0,0,0,0,0,YES,0,0,0,0,0,0,0,0,0,0,0,0,0,0,0,0,0,0,0,0,0,0,1,0,0,0,0,0,0,0,0,0,0,0,0,0,0,0,0,0,0,0,0,0,0,0,0,0,2,32
cassandra,cassandra-0.8.0,cassandra-1.0.0,F:/corpus/cassandra/cassandra#2011-06-03-06-03-47#cassandra-0.8.0#b44fa70/drivers/java/src/org/apache/cassandra/cql/jdbc/InvalidUrlException.java,F:/corpus/cassandra/cassandra#2011-10-18-19-24-49#cassandra-1.0.0#533193a/src/java/org/apache/cassandra/io/compress/CorruptedBlockException.java,0,0,0,0,0,0,0,0,0,0,0,0,0,YES,0,0,0,0,1,0,0,0,0,0,1,0,0,0,0,0,0,2,0,0,0,0,1,3,0,0,0,1,0,0,0,0,0,0,0,1,0,0,0,0,0,0,1,1,0,0,0,0,26,41
cassandra,cassandra-0.8.0,cassandra-1.0.0,F:/corpus/cassandra/cassandra#2011-06-03-06-03-47#cassandra-0.8.0#b44fa70/src/java/org/apache/cassandra/io/sstable/Component.java,F:/corpus/cassandra/cassandra#2011-10-18-19-24-49#cassandra-1.0.0#533193a/src/java/org/apache/cassandra/io/sstable/Component.java,1,0,0,0,0,0,0,0,0,0,0,0,0,YES,0,0,0,0,0,2,0,0,0,0,0,0,0,0,0,0,0,0,0,0,0,0,0,0,0,0,0,0,0,0,0,0,0,0,0,0,0,0,0,0,0,0,0,4,2,0,2,0,9,173
cassandra,cassandra-0.8.0,cassandra-1.0.0,F:/corpus/cassandra/cassandra#2011-06-03-06-03-47#cassandra-0.8.0#b44fa70/src/java/org/apache/cassandra/io/sstable/Descriptor.java,F:/corpus/cassandra/cassandra#2011-10-18-19-24-49#cassandra-1.0.0#533193a/src/java/org/apache/cassandra/io/sstable/Descriptor.java,0,0,0,0,0,0,0,0,0,0,0,3,0,YES,0,0,0,0,2,1,0,0,0,0,0,0,0,0,0,0,0,0,0,4,0,0,0,0,0,0,0,0,0,0,0,0,0,0,0,0,0,0,0,0,0,0,4,3,0,0,8,0,81,215
cassandra,cassandra-0.8.0,cassandra-1.0.0,F:/corpus/cassandra/cassandra#2011-06-03-06-03-47#cassandra-0.8.0#b44fa70/src/java/org/apache/cassandra/io/sstable/IndexHelper.java,F:/corpus/cassandra/cassandra#2011-10-18-19-24-49#cassandra-1.0.0#533193a/src/java/org/apache/cassandra/io/sstable/IndexHelper.java,0,0,0,0,0,0,0,0,0,0,0,1,0,YES,0,0,0,0,0,0,0,2,0,0,0,0,2,0,0,0,0,0,0,1,0,0,0,0,0,1,2,0,0,0,0,0,0,0,0,0,0,0,0,0,0,0,0,6,0,2,2,0,13,197
cassandra,cassandra-0.8.0,cassandra-1.0.0,F:/corpus/cassandra/cassandra#2011-06-03-06-03-47#cassandra-0.8.0#b44fa70/src/java/org/apache/cassandra/io/sstable/IndexSummary.java,F:/corpus/cassandra/cassandra#2011-10-18-19-24-49#cassandra-1.0.0#533193a/src/java/org/apache/cassandra/io/sstable/IndexSummary.java,0,0,0,0,0,0,0,0,0,0,0,0,0,YES,0,0,0,0,0,0,0,0,0,1,0,0,0,0,0,0,0,0,0,0,0,0,1,1,0,0,2,0,0,0,0,0,0,0,0,0,0,0,0,0,0,0,0,0,0,0,1,0,5,108
cassandra,cassandra-0.8.0,cassandra-1.0.0,F:/corpus/cassandra/cassandra#2011-06-03-06-03-47#cassandra-0.8.0#b44fa70/src/java/org/apache/cassandra/io/sstable/KeyIterator.java,F:/corpus/cassandra/cassandra#2011-10-18-19-24-49#cassandra-1.0.0#533193a/src/java/org/apache/cassandra/io/sstable/KeyIterator.java,0,0,0,0,0,0,0,0,0,0,0,0,0,YES,0,0,0,0,0,0,0,0,0,1,0,0,0,0,0,0,0,0,0,0,0,0,0,0,0,0,0,0,0,0,1,1,0,0,0,0,0,0,0,0,0,0,0,0,0,0,2,0,12,95
cassandra,cassandra-0.8.0,cassandra-1.0.0,F:/corpus/cassandra/cassandra#2011-06-03-06-03-47#cassandra-0.8.0#b44fa70/src/java/org/apache/cassandra/io/sstable/ReducingKeyIterator.java,F:/corpus/cassandra/cassandra#2011-10-18-19-24-49#cassandra-1.0.0#533193a/src/java/org/apache/cassandra/io/sstable/ReducingKeyIterator.java,0,0,0,0,0,0,0,0,0,0,0,0,0,YES,0,0,0,0,0,0,0,0,1,1,0,0,0,0,0,3,0,0,0,0,0,0,0,0,0,0,0,0,0,0,1,1,0,0,0,1,0,0,0,0,0,0,1,1,0,0,5,0,27,111
cassandra,cassandra-0.8.0,cassandra-1.0.0,F:/corpus/cassandra/cassandra#2011-06-03-06-03-47#cassandra-0.8.0#b44fa70/src/java/org/apache/cassandra/io/sstable/SSTable.java,F:/corpus/cassandra/cassandra#2011-10-18-19-24-49#cassandra-1.0.0#533193a/src/java/org/apache/cassandra/io/sstable/SSTable.java,0,0,0,0,0,1,0,0,0,0,0,1,0,YES,0,0,0,0,1,6,0,0,0,0,0,0,1,2,0,1,0,0,0,0,0,0,3,1,0,0,2,0,0,0,0,0,0,0,5,3,0,0,0,0,0,0,4,13,0,3,5,0,101,278
cassandra,cassandra-0.8.0,cassandra-1.0.0,F:/corpus/cassandra/cassandra#2011-06-03-06-03-47#cassandra-0.8.0#b44fa70/src/java/org/apache/cassandra/io/sstable/SSTableBoundedScanner.java,F:/corpus/cassandra/cassandra#2011-10-18-19-24-49#cassandra-1.0.0#533193a/src/java/org/apache/cassandra/io/sstable/SSTableBoundedScanner.java,0,0,0,0,0,0,0,0,0,0,0,0,0,YES,0,0,0,0,0,0,0,0,0,0,0,0,0,0,0,0,0,0,0,0,0,0,1,0,0,0,0,0,0,0,0,0,0,0,0,0,0,0,0,0,0,0,0,0,0,0,1,0,3,100
cassandra,cassandra-0.8.0,cassandra-1.0.0,F:/corpus/cassandra/cassandra#2011-06-03-06-03-47#cassandra-0.8.0#b44fa70/src/java/org/apache/cassandra/io/sstable/SSTableIdentityIterator.java,F:/corpus/cassandra/cassandra#2011-10-18-19-24-49#cassandra-1.0.0#533193a/src/java/org/apache/cassandra/io/sstable/SSTableIdentityIterator.java,0,0,0,0,0,0,0,0,0,0,1,1,0,YES,1,0,0,0,2,2,0,1,0,1,0,1,2,0,0,1,1,0,0,0,0,0,1,1,0,0,7,0,0,0,1,0,0,0,0,2,0,0,0,0,0,0,6,21,0,3,8,0,105,246
cassandra,cassandra-0.8.0,cassandra-1.0.0,F:/corpus/cassandra/cassandra#2011-06-03-06-03-47#cassandra-0.8.0#b44fa70/src/java/org/apache/cassandra/io/sstable/SSTableReader.java,F:/corpus/cassandra/cassandra#2011-10-18-19-24-49#cassandra-1.0.0#533193a/src/java/org/apache/cassandra/io/sstable/SSTableReader.java,0,0,0,0,0,2,0,2,0,0,2,3,0,YES,0,0,0,0,14,4,1,0,0,0,0,0,1,0,0,1,0,0,1,4,0,1,9,4,0,0,0,0,0,0,0,1,0,0,4,3,0,0,0,0,0,0,25,26,1,0,15,0,336,790
cassandra,cassandra-0.8.0,cassandra-1.0.0,F:/corpus/cassandra/cassandra#2011-06-03-06-03-47#cassandra-0.8.0#b44fa70/src/java/org/apache/cassandra/io/sstable/SSTableScanner.java,F:/corpus/cassandra/cassandra#2011-10-18-19-24-49#cassandra-1.0.0#533193a/src/java/org/apache/cassandra/io/sstable/SSTableScanner.java,0,0,0,0,0,2,0,0,0,0,0,0,0,YES,0,0,0,0,0,0,0,0,0,1,0,0,0,0,0,0,0,0,0,0,0,0,2,0,0,0,1,0,0,0,1,1,0,0,0,0,0,0,0,0,0,0,2,2,0,0,1,0,13,214
cassandra,cassandra-0.8.0,cassandra-1.0.0,F:/corpus/cassandra/cassandra#2011-06-03-06-03-47#cassandra-0.8.0#b44fa70/src/java/org/apache/cassandra/io/sstable/SSTableWriter.java,F:/corpus/cassandra/cassandra#2011-10-18-19-24-49#cassandra-1.0.0#533193a/src/java/org/apache/cassandra/io/sstable/SSTableWriter.java,0,0,0,0,0,0,2,2,0,0,0,2,0,YES,0,0,0,0,8,3,0,1,0,2,0,5,5,0,1,0,0,0,0,0,0,0,1,1,0,0,7,0,0,0,0,0,1,3,4,2,0,0,0,0,0,0,15,20,0,1,14,0,494,624
cassandra,cassandra-0.8.0,cassandra-1.0.0,F:/corpus/cassandra/cassandra#2011-06-03-06-03-47#cassandra-0.8.0#b44fa70/src/java/org/apache/cassandra/io/util/BufferedSegmentedFile.java,F:/corpus/cassandra/cassandra#2011-10-18-19-24-49#cassandra-1.0.0#533193a/src/java/org/apache/cassandra/io/util/BufferedSegmentedFile.java,0,0,0,0,0,0,0,0,0,0,0,0,0,YES,0,0,0,0,1,0,0,0,0,0,0,0,0,0,0,0,0,0,0,0,0,0,1,0,0,0,0,0,0,0,0,0,0,0,0,0,0,0,0,0,0,0,1,1,0,0,0,0,7,71
cassandra,cassandra-0.8.0,cassandra-1.0.0,F:/corpus/cassandra/cassandra#2011-06-03-06-03-47#cassandra-0.8.0#b44fa70/src/java/org/apache/cassandra/io/util/ColumnSortedMap.java,F:/corpus/cassandra/cassandra#2011-10-18-19-24-49#cassandra-1.0.0#533193a/src/java/org/apache/cassandra/io/util/ColumnSortedMap.java,0,0,0,0,17,0,6,0,0,0,0,0,0,YES,0,0,0,0,0,0,0,0,0,0,0,0,0,0,0,0,0,0,0,0,0,0,3,0,0,0,0,0,0,0,0,0,0,0,0,3,0,0,0,0,0,0,3,0,0,0,3,0,12,305
cassandra,cassandra-0.8.0,cassandra-1.0.0,F:/corpus/cassandra/cassandra#2011-06-03-06-03-47#cassandra-0.8.0#b44fa70/src/java/org/apache/cassandra/io/util/DataOutputBuffer.java,F:/corpus/cassandra/cassandra#2011-10-18-19-24-49#cassandra-1.0.0#533193a/src/java/org/apache/cassandra/io/util/DataOutputBuffer.java,0,0,0,0,0,0,0,0,0,0,0,2,0,YES,0,0,0,0,0,0,0,0,0,0,0,0,0,0,0,0,0,0,0,0,0,0,0,0,0,0,0,0,0,0,0,0,0,0,1,0,0,0,0,0,0,0,0,0,0,0,0,0,8,75
cassandra,cassandra-0.8.0,cassandra-1.0.0,F:/corpus/cassandra/cassandra#2011-06-03-06-03-47#cassandra-0.8.0#b44fa70/src/java/org/apache/cassandra/io/util/FileUtils.java,F:/corpus/cassandra/cassandra#2011-10-18-19-24-49#cassandra-1.0.0#533193a/src/java/org/apache/cassandra/io/util/FileUtils.java,0,0,0,0,0,0,0,0,0,0,0,3,0,YES,0,0,0,0,1,0,0,0,0,0,0,0,0,0,0,0,0,0,0,0,0,0,0,0,0,0,0,0,0,0,0,0,0,0,2,0,0,0,0,0,0,0,0,0,0,0,1,0,32,259
cassandra,cassandra-0.8.0,cassandra-1.0.0,F:/corpus/cassandra/cassandra#2011-06-03-06-03-47#cassandra-0.8.0#b44fa70/src/java/org/apache/cassandra/io/util/MappedFileDataInput.java,F:/corpus/cassandra/cassandra#2011-10-18-19-24-49#cassandra-1.0.0#533193a/src/java/org/apache/cassandra/io/util/MappedFileDataInput.java,0,0,0,0,2,1,0,0,0,0,0,0,0,YES,0,0,0,0,0,0,0,0,0,0,0,0,1,0,0,0,0,0,0,0,0,0,0,0,0,0,0,0,0,0,0,0,0,0,0,0,0,0,0,0,0,0,1,6,0,0,0,0,6,167
cassandra,cassandra-0.8.0,cassandra-1.0.0,F:/corpus/cassandra/cassandra#2011-06-03-06-03-47#cassandra-0.8.0#b44fa70/src/java/org/apache/cassandra/io/util/MemoryInputStream.java,F:/corpus/cassandra/cassandra#2011-10-18-19-24-49#cassandra-1.0.0#533193a/src/java/org/apache/cassandra/io/util/MemoryInputStream.java,0,0,0,0,0,0,0,0,0,0,0,0,0,YES,0,0,0,0,0,0,0,0,0,0,0,0,0,0,0,0,0,0,0,0,0,0,0,0,0,0,0,0,0,0,0,0,0,0,0,0,0,0,0,0,0,0,0,0,0,0,0,0,3,66
cassandra,cassandra-0.8.0,cassandra-1.0.0,F:/corpus/cassandra/cassandra#2011-06-03-06-03-47#cassandra-0.8.0#b44fa70/src/java/org/apache/cassandra/io/util/MmappedSegmentedFile.java,F:/corpus/cassandra/cassandra#2011-10-18-19-24-49#cassandra-1.0.0#533193a/src/java/org/apache/cassandra/io/util/MmappedSegmentedFile.java,0,0,0,0,0,0,0,0,0,0,0,0,0,YES,0,0,0,0,3,2,0,0,0,0,0,0,0,0,0,0,0,0,0,0,0,0,1,0,0,0,0,0,0,0,0,0,0,0,0,0,0,0,0,0,0,0,1,1,0,0,0,0,57,179
cassandra,cassandra-0.8.0,cassandra-1.0.0,F:/corpus/cassandra/cassandra#2011-06-03-06-03-47#cassandra-0.8.0#b44fa70/src/java/org/apache/cassandra/io/util/OutputBuffer.java,F:/corpus/cassandra/cassandra#2011-10-18-19-24-49#cassandra-1.0.0#533193a/src/java/org/apache/cassandra/io/util/OutputBuffer.java,0,0,0,0,0,0,0,0,0,0,0,0,0,YES,0,0,0,0,0,0,0,0,0,0,0,0,0,0,0,0,0,0,0,0,0,0,0,0,0,0,0,0,0,0,0,0,0,0,0,0,0,0,0,0,0,0,0,0,0,0,0,0,3,74
cassandra,cassandra-0.8.0,cassandra-1.0.0,F:/corpus/cassandra/cassandra#2011-06-03-06-03-47#cassandra-0.8.0#b44fa70/src/java/org/apache/cassandra/io/util/SegmentedFile.java,F:/corpus/cassandra/cassandra#2011-10-18-19-24-49#cassandra-1.0.0#533193a/src/java/org/apache/cassandra/io/util/SegmentedFile.java,0,0,0,0,1,1,0,0,0,0,0,0,0,YES,0,0,0,0,3,1,0,0,0,0,0,0,0,0,0,0,0,0,0,0,0,0,1,0,0,0,0,0,0,0,0,0,0,0,0,0,0,0,0,0,0,0,3,1,0,0,1,0,17,151
cassandra,cassandra-0.8.0,cassandra-1.0.0,F:/corpus/cassandra/cassandra#2011-06-03-06-03-47#cassandra-0.8.0#b44fa70/src/java/org/apache/cassandra/locator/AbstractEndpointSnitch.java,F:/corpus/cassandra/cassandra#2011-10-18-19-24-49#cassandra-1.0.0#533193a/src/java/org/apache/cassandra/locator/AbstractEndpointSnitch.java,0,0,0,0,1,0,0,0,0,0,0,0,0,YES,0,0,0,0,0,0,0,0,0,0,0,0,0,0,0,0,0,0,2,0,0,0,0,0,0,0,0,0,0,0,0,0,0,0,0,1,0,0,0,0,0,0,1,4,0,0,0,2,12,45
cassandra,cassandra-0.8.0,cassandra-1.0.0,F:/corpus/cassandra/cassandra#2011-06-03-06-03-47#cassandra-0.8.0#b44fa70/src/java/org/apache/cassandra/locator/AbstractNetworkTopologySnitch.java,F:/corpus/cassandra/cassandra#2011-10-18-19-24-49#cassandra-1.0.0#533193a/src/java/org/apache/cassandra/locator/AbstractNetworkTopologySnitch.java,0,0,0,0,0,0,0,0,0,0,0,0,0,YES,0,0,0,0,0,0,0,0,0,0,0,0,0,0,0,4,0,0,0,0,0,0,0,0,0,0,0,0,0,0,0,0,0,0,2,0,0,0,0,0,0,0,0,0,5,0,0,0,45,105
cassandra,cassandra-0.8.0,cassandra-1.0.0,F:/corpus/cassandra/cassandra#2011-06-03-06-03-47#cassandra-0.8.0#b44fa70/src/java/org/apache/cassandra/locator/AbstractReplicationStrategy.java,F:/corpus/cassandra/cassandra#2011-10-18-19-24-49#cassandra-1.0.0#533193a/src/java/org/apache/cassandra/locator/AbstractReplicationStrategy.java,0,0,0,0,0,1,0,0,0,0,0,2,0,YES,0,0,0,0,0,0,0,0,0,0,0,1,0,0,0,0,0,0,0,2,0,0,1,0,0,0,0,0,0,0,0,0,0,0,1,0,0,0,0,0,0,0,1,0,0,0,3,0,65,307
cassandra,cassandra-0.8.0,cassandra-1.0.0,F:/corpus/cassandra/cassandra#2011-06-03-06-03-47#cassandra-0.8.0#b44fa70/src/java/org/apache/cassandra/locator/DynamicEndpointSnitch.java,F:/corpus/cassandra/cassandra#2011-10-18-19-24-49#cassandra-1.0.0#533193a/src/java/org/apache/cassandra/locator/DynamicEndpointSnitch.java,0,0,0,0,0,1,0,0,0,0,0,0,0,YES,0,0,0,0,0,0,0,0,0,0,0,0,0,0,0,1,0,0,0,0,0,0,0,0,0,0,0,0,0,0,0,0,0,0,1,1,0,0,0,0,0,0,6,8,0,0,1,0,31,333
cassandra,cassandra-0.8.0,cassandra-1.0.0,F:/corpus/cassandra/cassandra#2011-06-03-06-03-47#cassandra-0.8.0#b44fa70/src/java/org/apache/cassandra/locator/Ec2Snitch.java,F:/corpus/cassandra/cassandra#2011-10-18-19-24-49#cassandra-1.0.0#533193a/src/java/org/apache/cassandra/locator/Ec2Snitch.java,0,0,0,0,0,2,0,0,0,0,0,0,0,YES,0,0,0,0,1,1,2,0,0,0,0,2,0,0,0,2,0,0,0,0,0,0,0,0,0,0,0,0,0,0,0,0,0,0,0,0,0,0,0,0,0,0,10,1,0,2,0,0,49,95
cassandra,cassandra-0.8.0,cassandra-1.0.0,F:/corpus/cassandra/cassandra#2011-06-03-06-03-47#cassandra-0.8.0#b44fa70/src/java/org/apache/cassandra/locator/LocalStrategy.java,F:/corpus/cassandra/cassandra#2011-10-18-19-24-49#cassandra-1.0.0#533193a/src/java/org/apache/cassandra/locator/LocalStrategy.java,0,0,0,0,1,0,0,0,0,0,0,0,0,YES,0,0,0,0,0,0,0,0,0,0,0,0,0,0,0,0,0,0,0,0,0,0,0,0,0,0,0,0,0,0,0,0,0,0,0,0,0,0,0,0,0,0,0,0,0,0,1,0,1,52
cassandra,cassandra-0.8.0,cassandra-1.0.0,F:/corpus/cassandra/cassandra#2011-06-03-06-03-47#cassandra-0.8.0#b44fa70/src/java/org/apache/cassandra/locator/NetworkTopologyStrategy.java,F:/corpus/cassandra/cassandra#2011-10-18-19-24-49#cassandra-1.0.0#533193a/src/java/org/apache/cassandra/locator/NetworkTopologyStrategy.java,0,0,0,0,0,0,0,0,0,0,0,0,0,YES,0,0,0,0,0,0,0,0,0,0,0,1,0,0,0,0,0,0,0,0,0,0,0,0,0,0,0,0,0,0,0,0,0,0,0,0,0,0,0,0,0,0,4,2,0,0,0,0,4,161
cassandra,cassandra-0.8.0,cassandra-1.0.0,F:/corpus/cassandra/cassandra#2011-06-03-06-03-47#cassandra-0.8.0#b44fa70/src/java/org/apache/cassandra/locator/OldNetworkTopologyStrategy.java,F:/corpus/cassandra/cassandra#2011-10-18-19-24-49#cassandra-1.0.0#533193a/src/java/org/apache/cassandra/locator/OldNetworkTopologyStrategy.java,0,0,0,0,0,0,0,0,0,0,0,0,0,YES,0,0,0,0,0,0,0,0,0,0,0,0,0,0,0,0,0,0,0,0,0,0,0,0,0,0,0,0,0,0,0,0,0,0,0,0,0,0,0,0,0,0,2,0,0,0,0,0,3,120
cassandra,cassandra-0.8.0,cassandra-1.0.0,F:/corpus/cassandra/cassandra#2011-06-03-06-03-47#cassandra-0.8.0#b44fa70/src/java/org/apache/cassandra/locator/PropertyFileSnitch.java,F:/corpus/cassandra/cassandra#2011-10-18-19-24-49#cassandra-1.0.0#533193a/src/java/org/apache/cassandra/locator/PropertyFileSnitch.java,0,0,0,0,0,1,0,0,0,0,0,0,0,YES,0,0,0,0,0,0,0,0,0,0,0,0,0,0,0,0,0,0,0,0,0,0,0,0,0,0,0,0,0,0,0,0,0,0,0,0,0,0,0,0,0,0,0,4,0,2,0,0,6,164
cassandra,cassandra-0.8.0,cassandra-1.0.0,F:/corpus/cassandra/cassandra#2011-06-03-06-03-47#cassandra-0.8.0#b44fa70/src/java/org/apache/cassandra/locator/RackInferringSnitch.java,F:/corpus/cassandra/cassandra#2011-10-18-19-24-49#cassandra-1.0.0#533193a/src/java/org/apache/cassandra/locator/RackInferringSnitch.java,0,0,0,0,0,0,0,0,0,0,0,0,0,YES,0,0,0,0,0,0,0,0,0,0,0,0,0,0,0,0,0,0,0,0,0,0,0,0,0,0,0,0,0,0,0,0,0,0,0,0,0,0,0,0,0,0,0,0,0,0,2,0,2,38
cassandra,cassandra-0.8.0,cassandra-1.0.0,F:/corpus/cassandra/cassandra#2011-06-03-06-03-47#cassandra-0.8.0#b44fa70/src/java/org/apache/cassandra/locator/SimpleSeedProvider.java,F:/corpus/cassandra/cassandra#2011-10-18-19-24-49#cassandra-1.0.0#533193a/src/java/org/apache/cassandra/locator/SimpleSeedProvider.java,0,0,0,0,0,0,0,0,0,0,0,0,0,YES,0,0,0,0,0,0,0,0,0,0,0,0,0,0,0,0,0,0,0,0,0,0,0,0,0,0,0,0,0,0,0,0,0,0,0,0,0,0,0,0,0,0,0,0,0,0,1,0,1,67
cassandra,cassandra-0.8.0,cassandra-1.0.0,F:/corpus/cassandra/cassandra#2011-06-03-06-03-47#cassandra-0.8.0#b44fa70/src/java/org/apache/cassandra/locator/SimpleSnitch.java,F:/corpus/cassandra/cassandra#2011-10-18-19-24-49#cassandra-1.0.0#533193a/src/java/org/apache/cassandra/locator/SimpleSnitch.java,0,0,0,0,3,0,0,0,0,0,0,0,0,YES,0,0,0,0,1,0,0,0,0,0,0,0,0,0,0,0,0,0,0,0,0,0,0,0,0,0,0,0,0,0,0,0,0,0,1,0,0,0,0,0,0,0,0,0,0,0,0,0,14,51
cassandra,cassandra-0.8.0,cassandra-1.0.0,F:/corpus/cassandra/cassandra#2011-06-03-06-03-47#cassandra-0.8.0#b44fa70/src/java/org/apache/cassandra/locator/SimpleStrategy.java,F:/corpus/cassandra/cassandra#2011-10-18-19-24-49#cassandra-1.0.0#533193a/src/java/org/apache/cassandra/locator/SimpleStrategy.java,0,0,0,0,0,0,0,0,0,0,0,0,0,YES,0,0,0,0,0,0,0,0,0,0,0,0,0,0,0,0,0,0,0,0,0,0,0,0,0,0,0,0,0,0,0,0,0,0,0,0,0,0,0,0,0,0,2,0,0,0,0,0,4,79
cassandra,cassandra-0.8.0,cassandra-1.0.0,F:/corpus/cassandra/cassandra#2011-06-03-06-03-47#cassandra-0.8.0#b44fa70/src/java/org/apache/cassandra/locator/TokenMetadata.java,F:/corpus/cassandra/cassandra#2011-10-18-19-24-49#cassandra-1.0.0#533193a/src/java/org/apache/cassandra/locator/TokenMetadata.java,0,0,1,0,0,1,0,0,0,0,0,6,0,YES,0,0,0,0,0,0,0,0,0,0,0,0,0,0,0,0,0,0,0,0,0,0,0,0,0,0,0,0,0,0,0,0,0,0,0,0,0,0,0,0,0,0,0,0,0,0,0,0,13,707
cassandra,cassandra-0.8.0,cassandra-1.0.0,F:/corpus/cassandra/cassandra#2011-06-03-06-03-47#cassandra-0.8.0#b44fa70/src/java/org/apache/cassandra/net/AsyncResult.java,F:/corpus/cassandra/cassandra#2011-10-18-19-24-49#cassandra-1.0.0#533193a/src/java/org/apache/cassandra/net/AsyncResult.java,0,0,0,0,0,0,0,0,0,0,0,0,0,YES,0,0,0,0,0,0,0,0,0,0,0,0,0,0,0,0,0,0,0,0,0,0,0,0,0,0,0,0,0,0,0,0,0,0,0,0,1,0,0,0,0,0,0,0,0,0,0,0,1,108
cassandra,cassandra-0.8.0,cassandra-1.0.0,F:/corpus/cassandra/cassandra#2011-06-03-06-03-47#cassandra-0.8.0#b44fa70/src/java/org/apache/cassandra/net/CompactEndpointSerializationHelper.java,F:/corpus/cassandra/cassandra#2011-10-18-19-24-49#cassandra-1.0.0#533193a/src/java/org/apache/cassandra/net/CompactEndpointSerializationHelper.java,0,0,0,0,0,0,0,0,0,0,0,2,0,YES,0,0,0,0,1,0,0,0,0,0,0,0,0,0,0,0,0,0,0,0,0,0,0,0,0,0,0,0,0,0,0,0,0,0,0,0,0,0,0,0,0,0,0,0,0,0,0,0,10,41
cassandra,cassandra-0.8.0,cassandra-1.0.0,F:/corpus/cassandra/cassandra#2011-06-03-06-03-47#cassandra-0.8.0#b44fa70/src/java/org/apache/cassandra/net/Header.java,F:/corpus/cassandra/cassandra#2011-10-18-19-24-49#cassandra-1.0.0#533193a/src/java/org/apache/cassandra/net/Header.java,0,0,0,0,2,0,0,0,0,0,0,0,0,YES,0,0,0,0,1,0,0,0,0,0,0,1,0,0,0,1,0,0,0,0,0,0,0,0,0,0,0,0,0,0,0,0,0,0,0,0,0,0,0,0,0,0,2,0,0,0,1,0,27,135
cassandra,cassandra-0.8.0,cassandra-1.0.0,F:/corpus/cassandra/cassandra#2011-06-03-06-03-47#cassandra-0.8.0#b44fa70/src/java/org/apache/cassandra/net/IncomingTcpConnection.java,F:/corpus/cassandra/cassandra#2011-10-18-19-24-49#cassandra-1.0.0#533193a/src/java/org/apache/cassandra/net/IncomingTcpConnection.java,0,0,0,0,0,0,0,0,0,0,0,0,0,YES,0,0,0,0,1,2,2,1,0,0,0,1,7,2,0,2,0,0,0,0,0,0,0,0,0,0,0,0,0,0,0,0,0,0,0,0,0,0,0,0,0,0,22,11,1,18,5,0,99,157
cassandra,cassandra-0.8.0,cassandra-1.0.0,F:/corpus/cassandra/cassandra#2011-06-03-06-03-47#cassandra-0.8.0#b44fa70/src/java/org/apache/cassandra/net/Message.java,F:/corpus/cassandra/cassandra#2011-10-18-19-24-49#cassandra-1.0.0#533193a/src/java/org/apache/cassandra/net/Message.java,0,0,0,0,0,0,0,0,0,0,0,4,0,YES,0,0,0,0,0,0,0,0,0,0,0,0,0,0,0,0,0,0,0,0,1,0,0,0,0,0,0,0,0,0,0,0,0,1,1,1,0,0,0,0,0,0,0,0,0,0,1,0,35,151
cassandra,cassandra-0.8.0,cassandra-1.0.0,F:/corpus/cassandra/cassandra#2011-06-03-06-03-47#cassandra-0.8.0#b44fa70/src/java/org/apache/cassandra/net/MessageDeliveryTask.java,F:/corpus/cassandra/cassandra#2011-10-18-19-24-49#cassandra-1.0.0#533193a/src/java/org/apache/cassandra/net/MessageDeliveryTask.java,0,0,0,0,0,0,0,0,0,0,0,0,0,YES,0,0,0,0,0,0,0,0,1,0,0,1,0,0,0,1,0,0,0,0,0,0,0,0,0,0,0,0,0,0,0,0,0,0,0,0,0,0,0,0,0,0,14,2,0,2,0,0,26,74
cassandra,cassandra-0.8.0,cassandra-1.0.0,F:/corpus/cassandra/cassandra#2011-06-03-06-03-47#cassandra-0.8.0#b44fa70/src/java/org/apache/cassandra/net/MessagingService.java,F:/corpus/cassandra/cassandra#2011-10-18-19-24-49#cassandra-1.0.0#533193a/src/java/org/apache/cassandra/net/MessagingService.java,0,0,0,0,0,0,0,0,0,0,0,3,0,YES,0,0,0,0,12,13,1,1,0,0,0,1,4,0,0,0,0,1,0,1,2,0,0,2,0,0,0,0,0,0,0,0,0,0,2,2,0,0,0,0,1,0,25,23,0,2,7,0,206,627
cassandra,cassandra-0.8.0,cassandra-1.0.0,F:/corpus/cassandra/cassandra#2011-06-03-06-03-47#cassandra-0.8.0#b44fa70/src/java/org/apache/cassandra/net/MessagingServiceMBean.java,F:/corpus/cassandra/cassandra#2011-10-18-19-24-49#cassandra-1.0.0#533193a/src/java/org/apache/cassandra/net/MessagingServiceMBean.java,0,0,0,0,1,0,0,0,0,0,0,0,0,YES,0,0,0,0,6,0,0,0,0,0,0,0,0,0,0,0,0,0,0,0,0,0,0,0,0,0,0,0,0,0,0,0,0,0,0,0,0,0,0,0,0,0,0,0,0,0,0,0,30,52
cassandra,cassandra-0.8.0,cassandra-1.0.0,F:/corpus/cassandra/cassandra#2011-06-03-06-03-47#cassandra-0.8.0#b44fa70/src/java/org/apache/cassandra/net/OutboundTcpConnection.java,F:/corpus/cassandra/cassandra#2011-10-18-19-24-49#cassandra-1.0.0#533193a/src/java/org/apache/cassandra/net/OutboundTcpConnection.java,0,0,0,0,0,0,0,0,0,0,0,0,0,YES,1,0,0,0,5,1,0,0,1,1,0,0,0,0,0,2,0,0,0,0,0,0,0,0,0,0,0,0,0,0,0,0,0,0,2,1,0,0,0,0,0,0,4,7,0,0,6,0,65,198
cassandra,cassandra-0.8.0,cassandra-1.0.0,F:/corpus/cassandra/cassandra#2011-06-03-06-03-47#cassandra-0.8.0#b44fa70/src/java/org/apache/cassandra/net/OutboundTcpConnectionPool.java,F:/corpus/cassandra/cassandra#2011-10-18-19-24-49#cassandra-1.0.0#533193a/src/java/org/apache/cassandra/net/OutboundTcpConnectionPool.java,0,0,0,0,0,0,0,0,0,0,0,0,0,YES,0,0,0,0,1,0,0,0,0,0,0,0,0,0,0,0,0,0,0,0,1,0,0,0,0,0,0,0,0,0,0,0,0,0,0,0,0,0,0,0,0,0,0,0,0,0,0,0,9,55
cassandra,cassandra-0.8.0,cassandra-1.0.0,F:/corpus/cassandra/cassandra#2011-06-03-06-03-47#cassandra-0.8.0#b44fa70/src/java/org/apache/cassandra/net/ResponseVerbHandler.java,F:/corpus/cassandra/cassandra#2011-10-18-19-24-49#cassandra-1.0.0#533193a/src/java/org/apache/cassandra/net/ResponseVerbHandler.java,0,0,0,0,0,0,0,0,0,0,0,0,0,YES,0,0,0,0,0,0,0,0,0,0,0,0,0,0,0,1,0,0,0,0,0,0,0,0,0,0,0,0,0,0,0,0,0,0,0,0,0,0,0,0,0,0,0,0,0,0,2,0,7,58
cassandra,cassandra-0.8.0,cassandra-1.0.0,F:/corpus/cassandra/cassandra#2011-06-03-06-03-47#cassandra-0.8.0#b44fa70/src/java/org/apache/cassandra/db/IFlushable.java,F:/corpus/cassandra/cassandra#2011-10-18-19-24-49#cassandra-1.0.0#533193a/src/java/org/apache/cassandra/notifications/INotificationConsumer.java,0,0,0,0,0,0,0,0,0,0,0,0,0,YES,0,0,0,0,1,0,0,0,0,0,1,0,0,0,0,0,0,0,0,0,0,0,0,0,0,0,0,0,0,0,0,0,0,0,1,0,0,0,0,0,0,0,0,0,0,0,0,0,8,32
cassandra,cassandra-0.8.0,cassandra-1.0.0,F:/corpus/cassandra/cassandra#2011-06-03-06-03-47#cassandra-0.8.0#b44fa70/src/java/org/apache/cassandra/scheduler/IRequestScheduler.java,F:/corpus/cassandra/cassandra#2011-10-18-19-24-49#cassandra-1.0.0#533193a/src/java/org/apache/cassandra/scheduler/IRequestScheduler.java,0,0,0,0,0,0,0,0,0,0,0,0,0,YES,0,0,0,0,0,0,0,0,0,0,0,0,0,0,0,0,0,0,0,1,0,0,0,1,0,0,0,0,0,0,0,0,0,0,0,0,0,0,0,0,0,0,0,0,0,0,0,0,4,41
cassandra,cassandra-0.8.0,cassandra-1.0.0,F:/corpus/cassandra/cassandra#2011-06-03-06-03-47#cassandra-0.8.0#b44fa70/src/java/org/apache/cassandra/scheduler/NoScheduler.java,F:/corpus/cassandra/cassandra#2011-10-18-19-24-49#cassandra-1.0.0#533193a/src/java/org/apache/cassandra/scheduler/NoScheduler.java,0,0,0,0,0,0,0,0,0,0,0,0,0,YES,0,0,0,0,0,0,0,0,0,0,0,0,0,0,0,0,0,0,0,0,0,0,0,1,0,0,0,0,0,0,0,0,0,0,0,0,0,0,0,0,0,0,0,0,0,0,0,0,1,40
cassandra,cassandra-0.8.0,cassandra-1.0.0,F:/corpus/cassandra/cassandra#2011-06-03-06-03-47#cassandra-0.8.0#b44fa70/src/java/org/apache/cassandra/scheduler/RoundRobinScheduler.java,F:/corpus/cassandra/cassandra#2011-10-18-19-24-49#cassandra-1.0.0#533193a/src/java/org/apache/cassandra/scheduler/RoundRobinScheduler.java,0,0,0,0,0,0,0,0,0,0,0,0,0,YES,0,0,0,0,0,0,0,0,0,2,0,1,3,0,0,2,0,0,0,0,0,0,0,1,0,0,0,0,0,0,0,0,0,0,0,1,0,0,0,0,0,0,9,11,2,1,5,0,29,161
cassandra,cassandra-0.8.0,cassandra-1.0.0,F:/corpus/cassandra/cassandra#2011-06-03-06-03-47#cassandra-0.8.0#b44fa70/src/java/org/apache/cassandra/security/SSLFactory.java,F:/corpus/cassandra/cassandra#2011-10-18-19-24-49#cassandra-1.0.0#533193a/src/java/org/apache/cassandra/security/SSLFactory.java,0,0,0,0,0,0,0,0,0,0,0,0,0,YES,0,0,0,0,0,0,0,0,0,0,0,0,0,0,0,0,0,0,0,0,0,0,0,0,0,0,0,0,0,0,0,0,0,0,0,0,0,0,0,0,0,0,0,4,0,0,4,0,15,102
cassandra,cassandra-0.8.0,cassandra-1.0.0,F:/corpus/cassandra/cassandra#2011-06-03-06-03-47#cassandra-0.8.0#b44fa70/src/java/org/apache/cassandra/service/AbstractCassandraDaemon.java,F:/corpus/cassandra/cassandra#2011-10-18-19-24-49#cassandra-1.0.0#533193a/src/java/org/apache/cassandra/service/AbstractCassandraDaemon.java,0,0,0,0,2,1,0,1,0,1,0,0,0,YES,0,0,0,0,1,1,0,0,0,0,0,1,1,0,0,4,0,0,0,0,0,0,0,0,0,0,0,0,0,0,0,0,0,0,0,0,0,0,0,0,0,0,5,4,0,0,2,0,45,374
cassandra,cassandra-0.8.0,cassandra-1.0.0,F:/corpus/cassandra/cassandra#2011-06-03-06-03-47#cassandra-0.8.0#b44fa70/src/java/org/apache/cassandra/service/AbstractRowResolver.java,F:/corpus/cassandra/cassandra#2011-10-18-19-24-49#cassandra-1.0.0#533193a/src/java/org/apache/cassandra/service/AbstractRowResolver.java,0,0,0,0,0,0,0,0,0,0,0,0,0,YES,0,0,0,0,1,0,0,0,0,1,0,0,0,0,0,0,0,0,0,0,0,0,0,0,0,0,0,0,0,0,0,0,0,0,0,0,0,0,0,0,0,0,0,0,0,0,1,0,10,86
cassandra,cassandra-0.8.0,cassandra-1.0.0,F:/corpus/cassandra/cassandra#2011-06-03-06-03-47#cassandra-0.8.0#b44fa70/src/java/org/apache/cassandra/service/AbstractWriteResponseHandler.java,F:/corpus/cassandra/cassandra#2011-10-18-19-24-49#cassandra-1.0.0#533193a/src/java/org/apache/cassandra/service/AbstractWriteResponseHandler.java,0,0,0,0,0,0,0,0,0,0,0,0,0,YES,0,0,0,0,2,1,0,0,0,0,0,0,0,0,0,0,0,0,0,0,0,0,1,0,0,0,0,0,0,0,0,0,0,0,0,1,0,0,0,0,0,0,1,2,0,0,0,0,37,77
cassandra,cassandra-0.8.0,cassandra-1.0.0,F:/corpus/cassandra/cassandra#2011-06-03-06-03-47#cassandra-0.8.0#b44fa70/src/java/org/apache/cassandra/service/AntiEntropyService.java,F:/corpus/cassandra/cassandra#2011-10-18-19-24-49#cassandra-1.0.0#533193a/src/java/org/apache/cassandra/service/AntiEntropyService.java,0,0,1,0,2,2,0,0,0,0,0,0,0,YES,0,0,0,4,15,9,2,2,0,1,0,7,3,1,0,0,0,0,0,3,0,2,0,0,0,0,0,1,0,0,0,0,2,3,4,5,0,0,0,2,0,0,49,34,0,4,9,0,551,851
cassandra,cassandra-0.8.0,cassandra-1.0.0,F:/corpus/cassandra/cassandra#2011-06-03-06-03-47#cassandra-0.8.0#b44fa70/src/java/org/apache/cassandra/service/ClientState.java,F:/corpus/cassandra/cassandra#2011-10-18-19-24-49#cassandra-1.0.0#533193a/src/java/org/apache/cassandra/service/ClientState.java,0,0,0,0,0,0,0,0,0,0,0,0,0,YES,0,0,0,0,1,1,0,0,0,0,0,0,0,0,0,1,0,0,0,0,0,2,0,0,0,0,0,0,0,0,0,0,0,0,0,0,0,0,0,0,0,0,0,0,0,0,0,0,18,182
cassandra,cassandra-0.8.0,cassandra-1.0.0,F:/corpus/cassandra/cassandra#2011-06-03-06-03-47#cassandra-0.8.0#b44fa70/src/java/org/apache/cassandra/service/DatacenterReadCallback.java,F:/corpus/cassandra/cassandra#2011-10-18-19-24-49#cassandra-1.0.0#533193a/src/java/org/apache/cassandra/service/DatacenterReadCallback.java,0,0,0,0,2,0,0,0,0,0,0,0,0,YES,0,0,0,0,1,0,0,0,0,0,0,0,0,0,0,0,0,0,0,0,0,0,0,0,0,0,0,0,0,0,0,0,0,0,0,0,0,0,0,0,0,0,0,7,0,0,0,0,19,84
cassandra,cassandra-0.8.0,cassandra-1.0.0,F:/corpus/cassandra/cassandra#2011-06-03-06-03-47#cassandra-0.8.0#b44fa70/src/java/org/apache/cassandra/service/DatacenterSyncWriteResponseHandler.java,F:/corpus/cassandra/cassandra#2011-10-18-19-24-49#cassandra-1.0.0#533193a/src/java/org/apache/cassandra/service/DatacenterSyncWriteResponseHandler.java,0,0,0,0,0,3,0,0,0,0,0,0,0,YES,0,0,0,0,0,0,0,0,0,0,0,0,0,0,0,3,0,0,0,0,0,0,2,0,0,0,0,0,0,0,0,0,0,0,0,0,0,0,0,0,0,0,0,0,0,0,2,0,13,125
cassandra,cassandra-0.8.0,cassandra-1.0.0,F:/corpus/cassandra/cassandra#2011-06-03-06-03-47#cassandra-0.8.0#b44fa70/src/java/org/apache/cassandra/service/DatacenterWriteResponseHandler.java,F:/corpus/cassandra/cassandra#2011-10-18-19-24-49#cassandra-1.0.0#533193a/src/java/org/apache/cassandra/service/DatacenterWriteResponseHandler.java,0,0,0,0,0,0,0,0,0,0,0,0,0,YES,0,0,0,0,0,0,0,0,0,0,0,0,0,0,0,2,0,0,0,0,0,0,2,0,0,0,0,0,0,0,0,0,0,0,0,0,0,0,0,0,0,0,0,0,0,0,2,0,11,98
cassandra,cassandra-0.8.0,cassandra-1.0.0,F:/corpus/cassandra/cassandra#2011-06-03-06-03-47#cassandra-0.8.0#b44fa70/src/java/org/apache/cassandra/service/DigestMismatchException.java,F:/corpus/cassandra/cassandra#2011-10-18-19-24-49#cassandra-1.0.0#533193a/src/java/org/apache/cassandra/service/DigestMismatchException.java,0,0,0,0,0,0,0,0,0,0,0,0,0,YES,0,0,0,0,0,0,0,0,0,0,0,0,0,0,0,0,0,0,0,0,0,0,0,0,0,0,1,0,0,0,0,0,0,0,0,0,0,0,0,0,0,0,0,0,0,0,0,0,2,35
cassandra,cassandra-0.8.0,cassandra-1.0.0,F:/corpus/cassandra/cassandra#2011-06-03-06-03-47#cassandra-0.8.0#b44fa70/src/java/org/apache/cassandra/service/EmbeddedCassandraService.java,F:/corpus/cassandra/cassandra#2011-10-18-19-24-49#cassandra-1.0.0#533193a/src/java/org/apache/cassandra/service/EmbeddedCassandraService.java,0,0,1,0,0,0,0,0,0,0,0,0,0,YES,0,0,0,0,0,0,0,0,0,0,0,0,0,0,0,0,0,0,0,0,0,0,0,0,0,0,0,0,0,0,0,0,0,0,0,0,0,0,0,0,0,0,0,0,0,0,0,0,3,62
cassandra,cassandra-0.8.0,cassandra-1.0.0,F:/corpus/cassandra/cassandra#2011-06-03-06-03-47#cassandra-0.8.0#b44fa70/src/java/org/apache/cassandra/service/GCInspector.java,F:/corpus/cassandra/cassandra#2011-10-18-19-24-49#cassandra-1.0.0#533193a/src/java/org/apache/cassandra/service/GCInspector.java,0,0,0,0,0,7,0,0,0,0,0,0,0,YES,0,0,0,0,0,3,0,0,0,0,0,2,0,1,0,5,0,0,0,0,0,0,0,0,0,0,0,0,0,0,0,0,0,1,0,1,0,0,0,0,0,0,14,13,1,11,7,0,129,233
cassandra,cassandra-0.8.0,cassandra-1.0.0,F:/corpus/cassandra/cassandra#2011-06-03-06-03-47#cassandra-0.8.0#b44fa70/src/java/org/apache/cassandra/service/IResponseResolver.java,F:/corpus/cassandra/cassandra#2011-10-18-19-24-49#cassandra-1.0.0#533193a/src/java/org/apache/cassandra/service/IResponseResolver.java,0,0,0,0,1,0,0,0,0,0,0,0,0,YES,0,0,0,0,1,0,0,0,0,0,0,0,0,0,0,0,0,0,0,0,0,0,0,0,0,0,0,0,0,0,0,0,0,0,0,0,0,0,0,0,0,0,0,0,0,0,0,0,2,46
cassandra,cassandra-0.8.0,cassandra-1.0.0,F:/corpus/cassandra/cassandra#2011-06-03-06-03-47#cassandra-0.8.0#b44fa70/src/java/org/apache/cassandra/service/IWriteResponseHandler.java,F:/corpus/cassandra/cassandra#2011-10-18-19-24-49#cassandra-1.0.0#533193a/src/java/org/apache/cassandra/service/IWriteResponseHandler.java,0,0,0,0,1,0,0,0,0,0,0,0,0,YES,0,0,0,0,1,0,0,0,0,0,0,0,0,0,0,0,0,0,0,0,0,0,0,0,0,0,0,0,0,0,0,0,0,0,0,0,0,0,0,0,0,0,0,0,0,0,0,0,2,32
cassandra,cassandra-0.8.0,cassandra-1.0.0,F:/corpus/cassandra/cassandra#2011-06-03-06-03-47#cassandra-0.8.0#b44fa70/src/java/org/apache/cassandra/service/IndexScanVerbHandler.java,F:/corpus/cassandra/cassandra#2011-10-18-19-24-49#cassandra-1.0.0#533193a/src/java/org/apache/cassandra/service/IndexScanVerbHandler.java,0,0,0,0,0,0,0,0,1,0,0,0,0,YES,0,0,0,0,0,0,0,0,0,0,0,0,0,0,0,0,0,0,0,0,0,0,0,0,0,0,0,0,0,0,0,0,0,0,0,0,0,0,0,0,0,0,0,0,0,0,1,0,1,54
cassandra,cassandra-0.8.0,cassandra-1.0.0,F:/corpus/cassandra/cassandra#2011-06-03-06-03-47#cassandra-0.8.0#b44fa70/src/java/org/apache/cassandra/service/MigrationManager.java,F:/corpus/cassandra/cassandra#2011-10-18-19-24-49#cassandra-1.0.0#533193a/src/java/org/apache/cassandra/service/MigrationManager.java,0,0,0,0,0,0,0,0,0,0,0,0,0,YES,0,0,0,0,2,1,2,1,0,0,0,1,0,0,0,2,1,2,0,0,0,0,2,1,1,1,0,0,0,0,0,0,0,0,2,0,0,0,0,0,0,0,7,9,0,3,10,0,74,248
cassandra,cassandra-0.8.0,cassandra-1.0.0,F:/corpus/cassandra/cassandra#2011-06-03-06-03-47#cassandra-0.8.0#b44fa70/src/java/org/apache/cassandra/service/RangeSliceResponseResolver.java,F:/corpus/cassandra/cassandra#2011-10-18-19-24-49#cassandra-1.0.0#533193a/src/java/org/apache/cassandra/service/RangeSliceResponseResolver.java,0,0,0,0,0,0,0,0,0,0,0,0,0,YES,0,0,0,1,2,2,0,0,1,0,0,0,0,0,1,0,0,0,0,0,0,0,0,0,0,0,0,0,0,0,0,0,1,0,0,0,0,0,0,0,0,0,2,6,0,0,1,0,96,148
cassandra,cassandra-0.8.0,cassandra-1.0.0,F:/corpus/cassandra/cassandra#2011-06-03-06-03-47#cassandra-0.8.0#b44fa70/src/java/org/apache/cassandra/service/ReadCallback.java,F:/corpus/cassandra/cassandra#2011-10-18-19-24-49#cassandra-1.0.0#533193a/src/java/org/apache/cassandra/service/ReadCallback.java,0,0,0,0,2,3,0,0,1,0,0,0,0,YES,0,0,0,0,1,0,0,0,0,0,0,1,0,0,0,0,0,0,0,0,0,0,0,0,0,0,0,0,0,0,0,0,0,0,0,1,0,0,0,0,0,0,0,1,0,0,3,0,19,235
cassandra,cassandra-0.8.0,cassandra-1.0.0,F:/corpus/cassandra/cassandra#2011-06-03-06-03-47#cassandra-0.8.0#b44fa70/src/java/org/apache/cassandra/service/RepairCallback.java,F:/corpus/cassandra/cassandra#2011-10-18-19-24-49#cassandra-1.0.0#533193a/src/java/org/apache/cassandra/service/RepairCallback.java,0,0,0,0,0,0,0,0,0,0,0,0,0,YES,0,0,0,0,1,1,0,0,0,0,0,0,0,0,0,0,0,0,0,0,0,0,0,0,0,0,1,0,0,0,0,0,0,0,0,1,0,0,0,1,0,0,0,0,0,0,0,1,10,85
cassandra,cassandra-0.8.0,cassandra-1.0.0,F:/corpus/cassandra/cassandra#2011-06-03-06-03-47#cassandra-0.8.0#b44fa70/src/java/org/apache/cassandra/service/RowDigestResolver.java,F:/corpus/cassandra/cassandra#2011-10-18-19-24-49#cassandra-1.0.0#533193a/src/java/org/apache/cassandra/service/RowDigestResolver.java,0,0,0,0,0,0,0,0,1,0,0,0,0,YES,0,0,0,0,0,0,0,0,0,0,0,0,0,0,0,0,0,0,1,0,0,0,0,0,0,0,0,0,0,0,0,0,0,0,0,0,0,0,0,0,0,0,0,0,0,0,0,0,16,125
cassandra,cassandra-0.8.0,cassandra-1.0.0,F:/corpus/cassandra/cassandra#2011-06-03-06-03-47#cassandra-0.8.0#b44fa70/src/java/org/apache/cassandra/service/RowRepairResolver.java,F:/corpus/cassandra/cassandra#2011-10-18-19-24-49#cassandra-1.0.0#533193a/src/java/org/apache/cassandra/service/RowRepairResolver.java,0,0,0,0,0,0,0,0,0,0,0,0,0,YES,0,0,0,0,1,2,1,2,0,0,0,1,3,0,0,1,0,0,0,0,0,1,0,0,0,0,2,0,0,0,0,0,0,0,0,0,0,0,0,0,0,0,8,22,0,5,7,0,76,149
cassandra,cassandra-0.8.0,cassandra-1.0.0,F:/corpus/cassandra/cassandra#2011-06-03-06-03-47#cassandra-0.8.0#b44fa70/src/java/org/apache/cassandra/service/StorageProxy.java,F:/corpus/cassandra/cassandra#2011-10-18-19-24-49#cassandra-1.0.0#533193a/src/java/org/apache/cassandra/service/StorageProxy.java,0,1,0,0,1,3,0,4,0,1,0,0,0,YES,0,0,0,1,6,3,3,2,0,0,0,8,6,6,3,8,0,0,2,0,0,1,6,5,0,1,0,1,0,0,0,0,0,0,2,0,0,0,0,0,0,1,37,70,5,28,26,0,276,1085
cassandra,cassandra-0.8.0,cassandra-1.0.0,F:/corpus/cassandra/cassandra#2011-06-03-06-03-47#cassandra-0.8.0#b44fa70/src/java/org/apache/cassandra/service/StorageProxyMBean.java,F:/corpus/cassandra/cassandra#2011-10-18-19-24-49#cassandra-1.0.0#533193a/src/java/org/apache/cassandra/service/StorageProxyMBean.java,0,0,0,0,1,0,0,0,0,0,0,0,0,YES,0,0,0,0,4,0,0,0,0,0,0,0,0,0,0,0,0,0,0,0,0,0,0,0,0,0,0,0,0,0,0,0,0,0,0,0,0,0,0,0,0,0,0,0,0,0,0,0,4,45
cassandra,cassandra-0.8.0,cassandra-1.0.0,F:/corpus/cassandra/cassandra#2011-06-03-06-03-47#cassandra-0.8.0#b44fa70/src/java/org/apache/cassandra/service/StorageService.java,F:/corpus/cassandra/cassandra#2011-10-18-19-24-49#cassandra-1.0.0#533193a/src/java/org/apache/cassandra/service/StorageService.java,0,1,0,0,2,10,0,4,1,1,0,4,0,YES,0,0,0,0,16,2,5,6,0,2,0,16,13,2,1,22,0,0,0,4,0,0,2,3,2,0,1,0,0,0,0,0,0,0,0,0,0,0,0,1,0,0,119,92,3,16,54,0,453,2431
cassandra,cassandra-0.8.0,cassandra-1.0.0,F:/corpus/cassandra/cassandra#2011-06-03-06-03-47#cassandra-0.8.0#b44fa70/src/java/org/apache/cassandra/service/StorageServiceMBean.java,F:/corpus/cassandra/cassandra#2011-10-18-19-24-49#cassandra-1.0.0#533193a/src/java/org/apache/cassandra/service/StorageServiceMBean.java,0,0,0,0,1,0,0,0,0,0,0,0,0,YES,0,0,0,0,11,0,0,0,0,0,0,0,0,0,0,0,0,0,0,1,0,0,0,1,1,0,1,0,0,0,0,0,0,0,0,0,0,0,0,0,0,0,0,0,0,0,0,0,59,293
cassandra,cassandra-0.8.0,cassandra-1.0.0,F:/corpus/cassandra/cassandra#2011-06-03-06-03-47#cassandra-0.8.0#b44fa70/src/java/org/apache/cassandra/service/WriteResponseHandler.java,F:/corpus/cassandra/cassandra#2011-10-18-19-24-49#cassandra-1.0.0#533193a/src/java/org/apache/cassandra/service/WriteResponseHandler.java,0,0,0,0,2,0,0,0,1,0,0,0,0,YES,0,0,0,0,0,0,0,0,0,0,0,1,1,0,0,3,0,0,0,0,0,0,2,0,0,0,0,0,0,0,0,0,0,0,0,0,0,0,0,0,0,0,2,3,0,0,3,0,17,123
cassandra,cassandra-0.8.0,cassandra-1.0.0,F:/corpus/cassandra/cassandra#2011-06-03-06-03-47#cassandra-0.8.0#b44fa70/src/java/org/apache/cassandra/streaming/FileStreamTask.java,F:/corpus/cassandra/cassandra#2011-10-18-19-24-49#cassandra-1.0.0#533193a/src/java/org/apache/cassandra/streaming/FileStreamTask.java,0,0,1,0,0,0,0,0,0,0,0,0,0,YES,0,0,0,0,2,5,0,0,0,0,0,0,10,0,1,0,0,0,1,0,0,0,0,1,0,0,0,0,0,0,0,0,0,0,2,1,0,0,0,0,0,0,4,9,0,0,6,0,82,182
cassandra,cassandra-0.8.0,cassandra-1.0.0,F:/corpus/cassandra/cassandra#2011-06-03-06-03-47#cassandra-0.8.0#b44fa70/src/java/org/apache/cassandra/streaming/IncomingStreamReader.java,F:/corpus/cassandra/cassandra#2011-10-18-19-24-49#cassandra-1.0.0#533193a/src/java/org/apache/cassandra/streaming/IncomingStreamReader.java,0,0,0,0,0,0,0,0,0,0,0,0,0,YES,0,0,0,0,2,0,0,0,1,1,0,0,0,0,0,0,0,0,0,0,0,0,0,0,0,0,0,0,0,0,0,0,0,0,2,0,0,0,0,0,0,0,1,14,0,0,1,0,49,120
cassandra,cassandra-0.8.0,cassandra-1.0.0,F:/corpus/cassandra/cassandra#2011-06-03-06-03-47#cassandra-0.8.0#b44fa70/src/java/org/apache/cassandra/streaming/OperationType.java,F:/corpus/cassandra/cassandra#2011-10-18-19-24-49#cassandra-1.0.0#533193a/src/java/org/apache/cassandra/streaming/OperationType.java,0,0,0,0,0,0,0,0,0,0,0,0,0,YES,0,0,0,0,0,0,0,0,0,0,0,0,0,0,0,0,0,0,0,0,0,0,0,0,0,0,0,0,0,0,0,0,0,0,0,0,0,0,0,0,0,0,0,0,0,0,0,0,1,31
cassandra,cassandra-0.8.0,cassandra-1.0.0,F:/corpus/cassandra/cassandra#2011-06-03-06-03-47#cassandra-0.8.0#b44fa70/src/java/org/apache/cassandra/streaming/PendingFile.java,F:/corpus/cassandra/cassandra#2011-10-18-19-24-49#cassandra-1.0.0#533193a/src/java/org/apache/cassandra/streaming/PendingFile.java,0,0,0,0,0,0,0,0,0,0,0,1,0,YES,0,0,0,0,1,1,0,0,0,1,0,0,0,0,0,0,0,0,0,0,1,0,0,0,0,0,1,0,0,0,0,0,0,0,0,0,0,0,0,0,0,0,10,6,0,0,2,0,11,143
cassandra,cassandra-0.8.0,cassandra-1.0.0,F:/corpus/cassandra/cassandra#2011-06-03-06-03-47#cassandra-0.8.0#b44fa70/src/java/org/apache/cassandra/streaming/StreamIn.java,F:/corpus/cassandra/cassandra#2011-10-18-19-24-49#cassandra-1.0.0#533193a/src/java/org/apache/cassandra/streaming/StreamIn.java,0,0,0,0,0,0,0,0,1,0,0,0,0,YES,0,0,0,0,1,0,0,0,0,0,0,0,0,0,0,0,0,0,0,1,0,0,0,0,0,0,0,0,0,0,0,0,0,0,0,0,0,0,0,0,0,0,6,1,0,0,0,0,22,82
cassandra,cassandra-0.8.0,cassandra-1.0.0,F:/corpus/cassandra/cassandra#2011-06-03-06-03-47#cassandra-0.8.0#b44fa70/src/java/org/apache/cassandra/streaming/StreamInSession.java,F:/corpus/cassandra/cassandra#2011-10-18-19-24-49#cassandra-1.0.0#533193a/src/java/org/apache/cassandra/streaming/StreamInSession.java,0,0,0,0,0,1,0,0,0,0,0,0,0,YES,0,0,0,0,0,0,0,0,1,2,0,1,1,1,0,1,0,0,0,0,0,0,1,1,0,0,0,0,0,0,0,0,0,0,0,0,0,0,0,0,0,0,10,8,1,7,1,0,39,212
cassandra,cassandra-0.8.0,cassandra-1.0.0,F:/corpus/cassandra/cassandra#2011-06-03-06-03-47#cassandra-0.8.0#b44fa70/src/java/org/apache/cassandra/streaming/StreamOut.java,F:/corpus/cassandra/cassandra#2011-10-18-19-24-49#cassandra-1.0.0#533193a/src/java/org/apache/cassandra/streaming/StreamOut.java,0,0,0,0,0,0,0,0,0,0,0,0,0,YES,0,0,0,0,1,0,1,0,0,0,0,3,2,0,0,0,0,0,0,4,0,1,1,2,0,0,2,0,0,0,0,0,0,0,1,0,0,0,0,0,0,0,13,6,0,3,4,0,76,176
cassandra,cassandra-0.8.0,cassandra-1.0.0,F:/corpus/cassandra/cassandra#2011-06-03-06-03-47#cassandra-0.8.0#b44fa70/src/java/org/apache/cassandra/streaming/StreamOutSession.java,F:/corpus/cassandra/cassandra#2011-10-18-19-24-49#cassandra-1.0.0#533193a/src/java/org/apache/cassandra/streaming/StreamOutSession.java,0,0,0,0,0,0,0,0,0,0,0,0,0,YES,0,0,0,0,8,1,0,0,0,0,0,0,0,0,0,0,0,0,0,0,1,0,0,0,0,0,0,0,0,0,0,0,2,0,0,0,0,0,0,0,0,0,3,4,0,0,0,0,58,178
cassandra,cassandra-0.8.0,cassandra-1.0.0,F:/corpus/cassandra/cassandra#2011-06-03-06-03-47#cassandra-0.8.0#b44fa70/src/java/org/apache/cassandra/streaming/StreamReply.java,F:/corpus/cassandra/cassandra#2011-10-18-19-24-49#cassandra-1.0.0#533193a/src/java/org/apache/cassandra/streaming/StreamReply.java,0,0,0,0,2,0,0,0,0,0,0,0,0,YES,0,0,0,0,0,0,0,0,0,0,0,0,0,0,0,0,0,0,0,0,0,0,0,0,0,0,0,0,0,0,0,0,0,0,0,0,0,0,0,0,0,0,0,0,0,0,2,0,4,92
cassandra,cassandra-0.8.0,cassandra-1.0.0,F:/corpus/cassandra/cassandra#2011-06-03-06-03-47#cassandra-0.8.0#b44fa70/src/java/org/apache/cassandra/streaming/StreamReplyVerbHandler.java,F:/corpus/cassandra/cassandra#2011-10-18-19-24-49#cassandra-1.0.0#533193a/src/java/org/apache/cassandra/streaming/StreamReplyVerbHandler.java,0,0,0,0,1,0,0,0,1,0,0,0,1,YES,0,0,0,0,0,0,0,0,0,0,0,0,0,0,0,0,0,0,0,0,0,0,0,0,0,0,0,0,0,0,0,0,0,0,0,0,0,0,0,0,0,0,0,0,0,0,1,0,3,78
cassandra,cassandra-0.8.0,cassandra-1.0.0,F:/corpus/cassandra/cassandra#2011-06-03-06-03-47#cassandra-0.8.0#b44fa70/src/java/org/apache/cassandra/streaming/StreamRequestMessage.java,F:/corpus/cassandra/cassandra#2011-10-18-19-24-49#cassandra-1.0.0#533193a/src/java/org/apache/cassandra/streaming/StreamRequestMessage.java,0,0,0,0,0,0,0,0,0,0,0,0,0,YES,0,0,0,0,0,1,0,0,0,0,0,0,0,0,0,0,0,0,0,0,0,0,0,1,0,0,0,0,0,0,0,0,0,0,0,0,0,0,0,0,0,0,0,15,0,0,3,0,26,180
cassandra,cassandra-0.8.0,cassandra-1.0.0,F:/corpus/cassandra/cassandra#2011-06-03-06-03-47#cassandra-0.8.0#b44fa70/src/java/org/apache/cassandra/streaming/StreamRequestVerbHandler.java,F:/corpus/cassandra/cassandra#2011-10-18-19-24-49#cassandra-1.0.0#533193a/src/java/org/apache/cassandra/streaming/StreamRequestVerbHandler.java,0,0,0,0,1,0,0,0,1,0,0,0,0,YES,0,0,0,0,0,0,0,0,0,0,0,0,0,0,0,0,0,0,0,0,0,0,0,0,0,0,0,0,0,0,0,0,0,0,0,0,0,0,0,0,0,0,0,0,0,0,2,0,5,62
cassandra,cassandra-0.8.0,cassandra-1.0.0,F:/corpus/cassandra/cassandra#2011-06-03-06-03-47#cassandra-0.8.0#b44fa70/src/java/org/apache/cassandra/thrift/CassandraDaemon.java,F:/corpus/cassandra/cassandra#2011-10-18-19-24-49#cassandra-1.0.0#533193a/src/java/org/apache/cassandra/thrift/CassandraDaemon.java,0,0,1,0,1,0,0,0,0,0,0,0,0,YES,0,0,0,0,1,5,0,2,0,0,0,1,4,0,0,0,0,0,0,0,0,0,0,0,0,0,0,0,0,0,0,0,0,0,0,0,0,0,0,0,0,0,4,19,1,4,6,0,105,155
cassandra,cassandra-0.8.0,cassandra-1.0.0,F:/corpus/cassandra/cassandra#2011-06-03-06-03-47#cassandra-0.8.0#b44fa70/src/java/org/apache/cassandra/thrift/CassandraServer.java,F:/corpus/cassandra/cassandra#2011-10-18-19-24-49#cassandra-1.0.0#533193a/src/java/org/apache/cassandra/thrift/CassandraServer.java,0,1,0,0,0,5,0,0,1,0,0,0,0,YES,0,0,0,0,0,1,0,3,0,0,0,0,4,1,0,3,0,0,0,0,0,0,0,1,0,0,0,0,0,0,0,0,0,0,0,0,0,0,0,0,0,0,14,72,7,6,23,0,73,1142
cassandra,cassandra-0.8.0,cassandra-1.0.0,F:/corpus/cassandra/cassandra#2011-06-03-06-03-47#cassandra-0.8.0#b44fa70/src/java/org/apache/cassandra/thrift/CustomTThreadPoolServer.java,F:/corpus/cassandra/cassandra#2011-10-18-19-24-49#cassandra-1.0.0#533193a/src/java/org/apache/cassandra/thrift/CustomTThreadPoolServer.java,0,0,0,0,0,0,0,0,0,0,0,0,0,YES,0,0,0,0,0,0,0,0,0,0,0,1,1,0,0,0,0,0,0,0,0,0,0,0,0,0,0,0,0,0,0,0,0,0,0,0,0,0,0,0,0,0,1,2,0,0,0,0,2,221
cassandra,cassandra-0.8.0,cassandra-1.0.0,F:/corpus/cassandra/cassandra#2011-06-03-06-03-47#cassandra-0.8.0#b44fa70/src/java/org/apache/cassandra/thrift/ThriftValidation.java,F:/corpus/cassandra/cassandra#2011-10-18-19-24-49#cassandra-1.0.0#533193a/src/java/org/apache/cassandra/thrift/ThriftValidation.java,0,0,0,0,0,2,0,0,5,0,0,0,0,YES,0,0,0,0,2,1,0,2,0,0,0,1,7,0,0,5,0,0,0,1,0,0,0,2,0,0,0,0,0,0,0,0,0,0,1,0,0,0,0,0,0,0,2,32,2,6,15,0,99,647
cassandra,cassandra-0.8.0,cassandra-1.0.0,F:/corpus/cassandra/cassandra#2011-06-03-06-03-47#cassandra-0.8.0#b44fa70/src/java/org/apache/cassandra/tools/NodeCmd.java,F:/corpus/cassandra/cassandra#2011-10-18-19-24-49#cassandra-1.0.0#533193a/src/java/org/apache/cassandra/tools/NodeCmd.java,0,0,1,0,0,0,0,0,2,2,0,0,2,YES,0,0,0,0,4,1,0,2,0,0,0,0,4,1,0,0,0,0,0,0,0,0,0,1,0,0,0,0,0,0,0,0,0,0,0,0,0,0,0,0,0,0,10,54,13,7,16,0,220,810
cassandra,cassandra-0.8.0,cassandra-1.0.0,F:/corpus/cassandra/cassandra#2011-06-03-06-03-47#cassandra-0.8.0#b44fa70/src/java/org/apache/cassandra/tools/NodeProbe.java,F:/corpus/cassandra/cassandra#2011-10-18-19-24-49#cassandra-1.0.0#533193a/src/java/org/apache/cassandra/tools/NodeProbe.java,0,0,0,0,0,0,0,0,0,0,0,0,0,YES,0,0,0,0,9,2,0,0,0,0,0,1,0,0,0,0,0,0,0,0,0,0,0,1,0,0,0,0,0,0,1,0,0,0,1,0,0,0,0,1,0,0,0,4,0,0,3,0,81,618
cassandra,cassandra-0.8.0,cassandra-1.0.0,F:/corpus/cassandra/cassandra#2011-06-03-06-03-47#cassandra-0.8.0#b44fa70/src/java/org/apache/cassandra/tools/SSTableExport.java,F:/corpus/cassandra/cassandra#2011-10-18-19-24-49#cassandra-1.0.0#533193a/src/java/org/apache/cassandra/tools/SSTableExport.java,0,0,0,0,0,0,0,1,0,0,0,0,0,YES,0,0,0,0,2,1,0,1,0,0,0,0,1,0,0,1,0,0,0,2,0,0,1,0,0,0,0,0,0,0,0,0,0,0,2,1,0,0,0,0,0,0,14,14,1,2,14,0,74,420
cassandra,cassandra-0.8.0,cassandra-1.0.0,F:/corpus/cassandra/cassandra#2011-06-03-06-03-47#cassandra-0.8.0#b44fa70/src/java/org/apache/cassandra/tools/SSTableImport.java,F:/corpus/cassandra/cassandra#2011-10-18-19-24-49#cassandra-1.0.0#533193a/src/java/org/apache/cassandra/tools/SSTableImport.java,0,0,0,0,0,0,0,0,0,0,0,0,0,YES,0,0,0,0,0,0,0,0,0,0,0,0,0,0,0,1,0,0,0,0,0,0,0,0,0,0,0,0,0,0,0,0,0,0,0,0,0,0,0,0,0,0,0,0,0,0,0,0,2,528
cassandra,cassandra-0.8.0,cassandra-1.0.0,F:/corpus/cassandra/cassandra#2011-06-03-06-03-47#cassandra-0.8.0#b44fa70/src/java/org/apache/cassandra/utils/BloomCalculations.java,F:/corpus/cassandra/cassandra#2011-10-18-19-24-49#cassandra-1.0.0#533193a/src/java/org/apache/cassandra/utils/BloomCalculations.java,0,0,0,0,0,0,0,0,0,0,0,0,0,YES,0,0,0,0,1,0,0,0,0,0,0,0,0,0,0,0,0,0,0,0,0,0,0,0,0,0,0,0,0,0,0,0,0,0,0,0,0,0,0,0,0,0,0,0,0,0,0,0,7,179
cassandra,cassandra-0.8.0,cassandra-1.0.0,F:/corpus/cassandra/cassandra#2011-06-03-06-03-47#cassandra-0.8.0#b44fa70/src/java/org/apache/cassandra/utils/BloomFilter.java,F:/corpus/cassandra/cassandra#2011-10-18-19-24-49#cassandra-1.0.0#533193a/src/java/org/apache/cassandra/utils/BloomFilter.java,0,0,0,0,0,0,0,0,0,0,0,1,0,YES,0,0,0,0,2,0,0,0,0,0,0,0,0,0,0,0,0,0,0,0,0,0,0,0,0,0,0,0,0,0,0,0,0,0,0,0,0,0,0,0,0,0,0,2,0,0,0,0,12,136
cassandra,cassandra-0.8.0,cassandra-1.0.0,F:/corpus/cassandra/cassandra#2011-06-03-06-03-47#cassandra-0.8.0#b44fa70/src/java/org/apache/cassandra/utils/BloomFilterSerializer.java,F:/corpus/cassandra/cassandra#2011-10-18-19-24-49#cassandra-1.0.0#533193a/src/java/org/apache/cassandra/utils/BloomFilterSerializer.java,0,0,0,0,0,0,0,0,0,0,0,0,0,YES,0,0,0,0,1,0,0,0,0,0,0,0,0,0,0,0,0,0,0,0,0,0,0,0,0,0,0,0,0,0,0,0,0,0,0,0,0,0,0,0,0,0,0,0,0,0,0,0,18,57
cassandra,cassandra-0.8.0,cassandra-1.0.0,F:/corpus/cassandra/cassandra#2011-06-03-06-03-47#cassandra-0.8.0#b44fa70/src/java/org/apache/cassandra/utils/ByteBufferUtil.java,F:/corpus/cassandra/cassandra#2011-10-18-19-24-49#cassandra-1.0.0#533193a/src/java/org/apache/cassandra/utils/ByteBufferUtil.java,0,0,0,0,0,0,0,0,0,0,0,12,0,YES,0,0,0,0,0,0,1,0,0,0,0,1,1,0,0,1,0,0,0,0,0,0,0,0,0,0,0,0,0,0,0,0,0,0,0,0,0,0,0,0,0,0,10,9,0,4,4,0,26,533
cassandra,cassandra-0.8.0,cassandra-1.0.0,F:/corpus/cassandra/cassandra#2011-06-03-06-03-47#cassandra-0.8.0#b44fa70/src/java/org/apache/cassandra/utils/CLibrary.java,F:/corpus/cassandra/cassandra#2011-10-18-19-24-49#cassandra-1.0.0#533193a/src/java/org/apache/cassandra/utils/CLibrary.java,0,0,0,0,0,0,0,0,0,0,0,0,0,YES,0,0,0,0,0,0,1,0,0,0,0,0,0,0,0,0,0,0,0,0,0,0,0,0,0,0,2,0,0,0,0,0,0,0,0,0,0,0,0,0,0,0,2,0,0,0,0,0,6,259
cassandra,cassandra-0.8.0,cassandra-1.0.0,F:/corpus/cassandra/cassandra#2011-06-03-06-03-47#cassandra-0.8.0#b44fa70/src/java/org/apache/cassandra/utils/EstimatedHistogram.java,F:/corpus/cassandra/cassandra#2011-10-18-19-24-49#cassandra-1.0.0#533193a/src/java/org/apache/cassandra/utils/EstimatedHistogram.java,0,0,0,0,0,0,0,0,0,0,0,0,0,YES,0,0,0,0,1,0,0,0,0,0,0,0,0,0,0,0,0,0,0,1,0,0,0,0,0,0,0,0,0,0,0,0,0,0,0,0,0,0,0,0,0,0,0,0,0,0,0,0,15,218
cassandra,cassandra-0.8.0,cassandra-1.0.0,F:/corpus/cassandra/cassandra#2011-06-03-06-03-47#cassandra-0.8.0#b44fa70/src/java/org/apache/cassandra/utils/ExpiringMap.java,F:/corpus/cassandra/cassandra#2011-10-18-19-24-49#cassandra-1.0.0#533193a/src/java/org/apache/cassandra/utils/ExpiringMap.java,0,0,0,0,0,0,0,0,0,0,0,0,0,YES,0,0,0,0,2,2,0,0,0,0,0,0,0,0,0,0,0,0,0,0,0,0,1,2,0,0,0,0,0,0,0,0,0,1,0,1,0,0,0,0,0,0,3,9,0,0,2,0,51,150
cassandra,cassandra-0.8.0,cassandra-1.0.0,F:/corpus/cassandra/cassandra#2011-06-03-06-03-47#cassandra-0.8.0#b44fa70/src/java/org/apache/cassandra/utils/FBUtilities.java,F:/corpus/cassandra/cassandra#2011-10-18-19-24-49#cassandra-1.0.0#533193a/src/java/org/apache/cassandra/utils/FBUtilities.java,0,0,0,0,0,1,0,0,0,0,0,3,0,YES,0,0,0,1,8,5,0,0,0,0,0,1,0,0,0,0,0,0,1,0,0,0,0,0,0,0,0,0,0,0,0,0,0,0,2,0,0,0,0,0,0,0,8,13,0,0,0,0,247,639
cassandra,cassandra-0.8.0,cassandra-1.0.0,F:/corpus/cassandra/cassandra#2011-06-03-06-03-47#cassandra-0.8.0#b44fa70/src/java/org/apache/cassandra/utils/MerkleTree.java,F:/corpus/cassandra/cassandra#2011-10-18-19-24-49#cassandra-1.0.0#533193a/src/java/org/apache/cassandra/utils/MerkleTree.java,0,0,0,0,3,1,0,0,0,0,0,0,0,YES,0,0,0,0,0,0,0,0,0,0,0,0,0,0,0,0,0,0,0,1,0,0,0,0,0,0,0,0,0,0,0,0,0,0,0,0,0,0,0,0,0,0,0,2,0,0,2,0,4,940
cassandra,cassandra-0.8.0,cassandra-1.0.0,F:/corpus/cassandra/cassandra#2011-06-03-06-03-47#cassandra-0.8.0#b44fa70/src/java/org/apache/cassandra/utils/Mx4jTool.java,F:/corpus/cassandra/cassandra#2011-10-18-19-24-49#cassandra-1.0.0#533193a/src/java/org/apache/cassandra/utils/Mx4jTool.java,0,0,0,0,0,0,0,0,0,0,0,0,0,YES,0,0,0,0,0,0,0,0,0,0,0,0,0,0,0,0,0,0,0,0,0,0,0,0,0,0,0,0,0,0,0,0,0,0,0,0,0,0,0,0,0,0,0,0,0,0,1,0,1,96
cassandra,cassandra-0.8.0,cassandra-1.0.0,F:/corpus/cassandra/cassandra#2011-06-03-06-03-47#cassandra-0.8.0#b44fa70/src/java/org/apache/cassandra/utils/NodeId.java,F:/corpus/cassandra/cassandra#2011-10-18-19-24-49#cassandra-1.0.0#533193a/src/java/org/apache/cassandra/utils/NodeId.java,0,0,0,0,0,0,0,0,0,0,0,1,0,YES,0,0,0,1,4,0,0,0,0,0,0,0,0,0,0,0,0,0,0,0,0,0,0,1,0,0,0,0,0,0,0,0,0,0,1,1,0,0,0,0,0,0,1,1,0,0,6,1,37,223
cassandra,cassandra-0.8.0,cassandra-1.0.0,F:/corpus/cassandra/cassandra#2011-06-03-06-03-47#cassandra-0.8.0#b44fa70/src/java/org/apache/cassandra/db/MemtableAllocator.java,F:/corpus/cassandra/cassandra#2011-10-18-19-24-49#cassandra-1.0.0#533193a/src/java/org/apache/cassandra/utils/SlabAllocator.java,0,0,0,0,0,0,0,0,0,0,0,0,0,YES,0,0,0,0,1,2,0,0,0,0,1,0,0,0,0,0,0,0,0,1,0,0,0,0,0,0,0,0,0,1,0,0,0,0,2,1,0,0,0,2,0,0,0,2,0,0,1,0,54,235
cassandra,cassandra-0.8.0,cassandra-1.0.0,F:/corpus/cassandra/cassandra#2011-06-03-06-03-47#cassandra-0.8.0#b44fa70/src/java/org/apache/cassandra/utils/StatusLogger.java,F:/corpus/cassandra/cassandra#2011-10-18-19-24-49#cassandra-1.0.0#533193a/src/java/org/apache/cassandra/utils/StatusLogger.java,0,0,0,0,0,0,0,0,0,0,0,0,0,YES,0,0,0,0,0,0,0,0,0,0,0,0,0,0,0,0,0,0,0,0,0,0,0,0,0,0,0,0,0,0,0,0,0,0,0,0,0,0,0,0,0,0,0,0,0,0,3,0,6,95
cassandra,cassandra-0.8.0,cassandra-1.0.0,F:/corpus/cassandra/cassandra#2011-06-03-06-03-47#cassandra-0.8.0#b44fa70/src/java/org/apache/cassandra/utils/UUIDGen.java,F:/corpus/cassandra/cassandra#2011-10-18-19-24-49#cassandra-1.0.0#533193a/src/java/org/apache/cassandra/utils/UUIDGen.java,0,0,0,0,0,0,0,0,0,0,0,3,0,YES,0,0,0,0,2,0,0,0,0,0,0,0,0,0,0,0,0,0,0,0,0,0,0,0,0,0,0,0,0,0,0,0,0,0,0,0,0,0,0,0,0,0,0,0,0,0,0,0,14,219
cassandra,cassandra-0.8.0,cassandra-1.0.0,F:/corpus/cassandra/cassandra#2011-06-03-06-03-47#cassandra-0.8.0#b44fa70/tools/stress/src/org/apache/cassandra/stress/Session.java,F:/corpus/cassandra/cassandra#2011-10-18-19-24-49#cassandra-1.0.0#533193a/tools/stress/src/org/apache/cassandra/stress/Session.java,0,0,0,0,0,0,0,0,0,1,0,6,0,YES,0,0,0,0,0,7,0,1,0,0,0,0,1,0,0,3,0,0,0,0,0,0,0,0,0,0,0,0,0,0,0,0,1,0,0,1,0,0,0,0,0,0,2,31,31,6,9,0,100,491
cassandra,cassandra-0.8.0,cassandra-1.0.0,F:/corpus/cassandra/cassandra#2011-06-03-06-03-47#cassandra-0.8.0#b44fa70/tools/stress/src/org/apache/cassandra/stress/Stress.java,F:/corpus/cassandra/cassandra#2011-10-18-19-24-49#cassandra-1.0.0#533193a/tools/stress/src/org/apache/cassandra/stress/Stress.java,0,0,0,0,0,0,0,0,1,0,0,0,0,YES,0,0,0,1,0,1,0,1,0,0,0,5,0,0,0,0,0,0,0,0,0,0,0,0,0,0,0,0,0,0,0,0,0,2,1,1,0,0,0,0,0,0,54,20,0,0,1,0,157,236
cassandra,cassandra-0.8.0,cassandra-1.0.0,F:/corpus/cassandra/cassandra#2011-06-03-06-03-47#cassandra-0.8.0#b44fa70/tools/stress/src/org/apache/cassandra/stress/operations/CounterAdder.java,F:/corpus/cassandra/cassandra#2011-10-18-19-24-49#cassandra-1.0.0#533193a/tools/stress/src/org/apache/cassandra/stress/operations/CounterAdder.java,0,0,0,0,0,0,0,0,1,0,0,0,0,YES,0,0,0,0,0,0,0,0,0,0,0,0,0,0,0,0,0,0,0,0,0,0,0,1,0,0,0,0,0,0,0,0,0,0,0,0,0,0,0,0,0,0,0,0,0,0,1,0,3,138
cassandra,cassandra-0.8.0,cassandra-1.0.0,F:/corpus/cassandra/cassandra#2011-06-03-06-03-47#cassandra-0.8.0#b44fa70/tools/stress/src/org/apache/cassandra/stress/operations/CounterGetter.java,F:/corpus/cassandra/cassandra#2011-10-18-19-24-49#cassandra-1.0.0#533193a/tools/stress/src/org/apache/cassandra/stress/operations/CounterGetter.java,0,0,0,0,0,0,0,0,2,0,0,0,0,YES,0,0,0,0,0,0,0,0,0,0,0,0,0,0,0,0,0,0,0,0,0,0,0,1,0,0,0,0,0,0,0,0,0,0,0,0,0,0,0,0,0,0,0,0,0,0,2,0,4,150
cassandra,cassandra-0.8.0,cassandra-1.0.0,F:/corpus/cassandra/cassandra#2011-06-03-06-03-47#cassandra-0.8.0#b44fa70/tools/stress/src/org/apache/cassandra/stress/operations/IndexedRangeSlicer.java,F:/corpus/cassandra/cassandra#2011-10-18-19-24-49#cassandra-1.0.0#533193a/tools/stress/src/org/apache/cassandra/stress/operations/IndexedRangeSlicer.java,0,0,0,0,0,1,0,0,0,0,0,0,0,YES,0,0,0,0,0,0,0,0,0,0,0,0,0,0,0,0,0,0,0,0,0,0,0,1,0,0,0,0,0,0,0,0,0,0,0,0,0,0,0,0,0,0,0,0,0,0,1,0,3,132
cassandra,cassandra-0.8.0,cassandra-1.0.0,F:/corpus/cassandra/cassandra#2011-06-03-06-03-47#cassandra-0.8.0#b44fa70/tools/stress/src/org/apache/cassandra/stress/operations/Inserter.java,F:/corpus/cassandra/cassandra#2011-10-18-19-24-49#cassandra-1.0.0#533193a/tools/stress/src/org/apache/cassandra/stress/operations/Inserter.java,0,0,0,0,0,0,0,0,1,0,0,0,0,YES,0,0,0,0,0,0,0,0,0,0,0,0,0,0,0,0,0,0,0,0,0,0,0,1,0,0,0,0,0,0,0,0,0,0,0,0,0,0,0,0,0,0,0,0,0,0,1,0,3,143
cassandra,cassandra-0.8.0,cassandra-1.0.0,F:/corpus/cassandra/cassandra#2011-06-03-06-03-47#cassandra-0.8.0#b44fa70/tools/stress/src/org/apache/cassandra/stress/operations/MultiGetter.java,F:/corpus/cassandra/cassandra#2011-10-18-19-24-49#cassandra-1.0.0#533193a/tools/stress/src/org/apache/cassandra/stress/operations/MultiGetter.java,0,0,0,0,0,0,0,0,0,0,0,0,0,YES,0,0,0,0,0,0,0,0,0,0,0,0,0,0,0,0,0,0,0,0,0,0,0,1,0,0,0,0,0,0,0,0,0,0,0,0,0,0,0,0,0,0,0,0,0,0,1,0,3,149
cassandra,cassandra-0.8.0,cassandra-1.0.0,F:/corpus/cassandra/cassandra#2011-06-03-06-03-47#cassandra-0.8.0#b44fa70/tools/stress/src/org/apache/cassandra/stress/operations/RangeSlicer.java,F:/corpus/cassandra/cassandra#2011-10-18-19-24-49#cassandra-1.0.0#533193a/tools/stress/src/org/apache/cassandra/stress/operations/RangeSlicer.java,0,0,0,0,0,0,0,0,0,1,0,0,0,YES,0,0,0,0,0,0,0,0,0,0,0,0,0,0,0,0,0,0,0,0,0,0,0,1,0,0,0,0,0,0,0,0,0,0,0,0,0,0,0,0,0,0,0,0,0,0,1,0,3,141
cassandra,cassandra-0.8.0,cassandra-1.0.0,F:/corpus/cassandra/cassandra#2011-06-03-06-03-47#cassandra-0.8.0#b44fa70/tools/stress/src/org/apache/cassandra/stress/operations/Reader.java,F:/corpus/cassandra/cassandra#2011-10-18-19-24-49#cassandra-1.0.0#533193a/tools/stress/src/org/apache/cassandra/stress/operations/Reader.java,0,0,0,0,0,0,0,0,2,0,0,0,0,YES,0,0,0,0,1,0,0,1,0,0,0,2,1,0,0,0,0,0,0,0,0,0,0,1,0,0,0,0,0,0,0,0,0,0,0,0,0,0,0,0,0,0,3,3,0,0,2,0,20,152
cassandra,cassandra-0.8.0,cassandra-1.0.0,F:/corpus/cassandra/cassandra#2011-06-03-06-03-47#cassandra-0.8.0#b44fa70/tools/stress/src/org/apache/cassandra/stress/util/Operation.java,F:/corpus/cassandra/cassandra#2011-10-18-19-24-49#cassandra-1.0.0#533193a/tools/stress/src/org/apache/cassandra/stress/util/Operation.java,0,0,0,0,0,1,0,0,0,0,0,2,0,YES,0,0,0,0,1,0,0,0,0,0,0,0,0,0,0,0,0,0,0,0,0,0,0,0,0,0,0,0,0,0,0,0,0,0,0,0,0,0,0,0,0,0,1,0,0,0,2,3,12,212
cassandra,cassandra-0.8.0,cassandra-1.0.0,F:/corpus/cassandra/cassandra#2011-06-03-06-03-47#cassandra-0.8.0#b44fa70/contrib/javautils/src/main/java/org/apache/cassandra/contrib/utils/service/CassandraServiceDataCleaner.java,F:/corpus/cassandra/cassandra#2011-06-03-06-03-47#cassandra-0.8.0#b44fa70/contrib/javautils/src/main/java/org/apache/cassandra/contrib/utils/service/CassandraServiceDataCleaner.java,0,0,1,0,0,0,0,0,0,0,0,0,0,NO,0,0,0,0,0,0,0,0,0,0,0,0,0,0,0,0,0,0,0,0,0,0,0,0,0,0,0,0,0,0,0,0,0,0,0,0,0,0,0,0,0,0,0,0,0,0,0,0,0,94
cassandra,cassandra-0.8.0,cassandra-1.0.0,F:/corpus/cassandra/cassandra#2011-06-03-06-03-47#cassandra-0.8.0#b44fa70/interface/thrift/gen-java/org/apache/cassandra/thrift/Compression.java,F:/corpus/cassandra/cassandra#2011-06-03-06-03-47#cassandra-0.8.0#b44fa70/interface/thrift/gen-java/org/apache/cassandra/thrift/Compression.java,0,0,0,0,0,0,0,0,0,0,0,0,0,NO,0,0,0,0,0,0,0,0,0,0,0,0,0,0,0,0,0,0,0,0,0,0,0,0,0,0,0,0,0,0,0,0,0,0,0,0,0,0,0,0,0,0,0,0,0,0,0,0,0,68
cassandra,cassandra-0.8.0,cassandra-1.0.0,F:/corpus/cassandra/cassandra#2011-06-03-06-03-47#cassandra-0.8.0#b44fa70/interface/thrift/gen-java/org/apache/cassandra/thrift/ConsistencyLevel.java,F:/corpus/cassandra/cassandra#2011-06-03-06-03-47#cassandra-0.8.0#b44fa70/interface/thrift/gen-java/org/apache/cassandra/thrift/ConsistencyLevel.java,0,0,0,0,0,0,0,0,0,0,0,0,0,NO,0,0,0,0,0,0,0,0,0,0,0,0,0,0,0,0,0,0,0,0,0,0,0,0,0,0,0,0,0,0,0,0,0,0,0,0,0,0,0,0,0,0,0,0,0,0,0,0,0,125
cassandra,cassandra-0.8.0,cassandra-1.0.0,F:/corpus/cassandra/cassandra#2011-06-03-06-03-47#cassandra-0.8.0#b44fa70/interface/thrift/gen-java/org/apache/cassandra/thrift/CqlResultType.java,F:/corpus/cassandra/cassandra#2011-06-03-06-03-47#cassandra-0.8.0#b44fa70/interface/thrift/gen-java/org/apache/cassandra/thrift/CqlResultType.java,0,0,0,0,0,0,0,0,0,0,0,0,0,NO,0,0,0,0,0,0,0,0,0,0,0,0,0,0,0,0,0,0,0,0,0,0,0,0,0,0,0,0,0,0,0,0,0,0,0,0,0,0,0,0,0,0,0,0,0,0,0,0,0,68
cassandra,cassandra-0.8.0,cassandra-1.0.0,F:/corpus/cassandra/cassandra#2011-06-03-06-03-47#cassandra-0.8.0#b44fa70/interface/thrift/gen-java/org/apache/cassandra/thrift/IndexOperator.java,F:/corpus/cassandra/cassandra#2011-06-03-06-03-47#cassandra-0.8.0#b44fa70/interface/thrift/gen-java/org/apache/cassandra/thrift/IndexOperator.java,0,0,0,0,0,0,0,0,0,0,0,0,0,NO,0,0,0,0,0,0,0,0,0,0,0,0,0,0,0,0,0,0,0,0,0,0,0,0,0,0,0,0,0,0,0,0,0,0,0,0,0,0,0,0,0,0,0,0,0,0,0,0,0,74
cassandra,cassandra-0.8.0,cassandra-1.0.0,F:/corpus/cassandra/cassandra#2011-06-03-06-03-47#cassandra-0.8.0#b44fa70/src/java/org/apache/cassandra/auth/AllowAllAuthenticator.java,F:/corpus/cassandra/cassandra#2011-06-03-06-03-47#cassandra-0.8.0#b44fa70/src/java/org/apache/cassandra/auth/AllowAllAuthenticator.java,0,0,0,0,1,0,0,0,0,0,0,0,0,NO,0,0,0,0,0,0,0,0,0,0,0,0,0,0,0,0,0,0,0,0,0,0,0,0,0,0,0,0,0,0,0,0,0,0,0,0,0,0,0,0,0,0,0,0,0,0,0,0,0,46
cassandra,cassandra-0.8.0,cassandra-1.0.0,F:/corpus/cassandra/cassandra#2011-06-03-06-03-47#cassandra-0.8.0#b44fa70/src/java/org/apache/cassandra/auth/AllowAllAuthority.java,F:/corpus/cassandra/cassandra#2011-06-03-06-03-47#cassandra-0.8.0#b44fa70/src/java/org/apache/cassandra/auth/AllowAllAuthority.java,0,0,0,0,1,0,0,0,0,0,0,0,0,NO,0,0,0,0,0,0,0,0,0,0,0,0,0,0,0,0,0,0,0,0,0,0,0,0,0,0,0,0,0,0,0,0,0,0,0,0,0,0,0,0,0,0,0,0,0,0,0,0,0,39
cassandra,cassandra-0.8.0,cassandra-1.0.0,F:/corpus/cassandra/cassandra#2011-06-03-06-03-47#cassandra-0.8.0#b44fa70/src/java/org/apache/cassandra/auth/AuthenticatedUser.java,F:/corpus/cassandra/cassandra#2011-06-03-06-03-47#cassandra-0.8.0#b44fa70/src/java/org/apache/cassandra/auth/AuthenticatedUser.java,0,0,0,0,0,0,0,0,0,0,0,0,0,NO,0,0,0,0,0,0,0,0,0,0,0,0,0,0,0,0,0,0,0,0,0,0,0,0,0,0,0,0,0,0,0,0,0,0,0,0,0,0,0,0,0,0,0,0,0,0,0,0,0,52
cassandra,cassandra-0.8.0,cassandra-1.0.0,F:/corpus/cassandra/cassandra#2011-06-03-06-03-47#cassandra-0.8.0#b44fa70/src/java/org/apache/cassandra/auth/IAuthority.java,F:/corpus/cassandra/cassandra#2011-06-03-06-03-47#cassandra-0.8.0#b44fa70/src/java/org/apache/cassandra/auth/IAuthority.java,0,0,0,0,0,0,0,0,0,0,0,0,0,NO,0,0,0,0,0,0,0,0,0,0,0,0,0,0,0,0,0,0,0,0,0,0,0,0,0,0,0,0,0,0,0,0,0,0,0,0,0,0,0,0,0,0,0,0,0,0,0,0,0,66
cassandra,cassandra-0.8.0,cassandra-1.0.0,F:/corpus/cassandra/cassandra#2011-06-03-06-03-47#cassandra-0.8.0#b44fa70/src/java/org/apache/cassandra/auth/Permission.java,F:/corpus/cassandra/cassandra#2011-06-03-06-03-47#cassandra-0.8.0#b44fa70/src/java/org/apache/cassandra/auth/Permission.java,0,0,0,0,0,0,0,0,0,0,0,0,0,NO,0,0,0,0,0,0,0,0,0,0,0,0,0,0,0,0,0,0,0,0,0,0,0,0,0,0,0,0,0,0,0,0,0,0,0,0,0,0,0,0,0,0,0,0,0,0,0,0,0,38
cassandra,cassandra-0.8.0,cassandra-1.0.0,F:/corpus/cassandra/cassandra#2011-06-03-06-03-47#cassandra-0.8.0#b44fa70/src/java/org/apache/cassandra/auth/Resources.java,F:/corpus/cassandra/cassandra#2011-06-03-06-03-47#cassandra-0.8.0#b44fa70/src/java/org/apache/cassandra/auth/Resources.java,0,0,0,0,0,0,0,0,0,0,0,0,0,NO,0,0,0,0,0,0,0,0,0,0,0,0,0,0,0,0,0,0,0,0,0,0,0,0,0,0,0,0,0,0,0,0,0,0,0,0,0,0,0,0,0,0,0,0,0,0,0,0,0,51
cassandra,cassandra-0.8.0,cassandra-1.0.0,F:/corpus/cassandra/cassandra#2011-06-03-06-03-47#cassandra-0.8.0#b44fa70/src/java/org/apache/cassandra/cache/AutoSavingKeyCache.java,F:/corpus/cassandra/cassandra#2011-06-03-06-03-47#cassandra-0.8.0#b44fa70/src/java/org/apache/cassandra/cache/AutoSavingKeyCache.java,0,0,0,0,0,0,0,0,0,0,0,0,0,NO,0,0,0,0,0,0,0,0,0,0,0,0,0,0,0,0,0,0,0,0,0,0,0,0,0,0,0,0,0,0,0,0,0,0,0,0,0,0,0,0,0,0,0,0,0,0,0,0,0,50
cassandra,cassandra-0.8.0,cassandra-1.0.0,F:/corpus/cassandra/cassandra#2011-06-03-06-03-47#cassandra-0.8.0#b44fa70/src/java/org/apache/cassandra/cache/AutoSavingRowCache.java,F:/corpus/cassandra/cassandra#2011-06-03-06-03-47#cassandra-0.8.0#b44fa70/src/java/org/apache/cassandra/cache/AutoSavingRowCache.java,0,0,0,0,0,0,0,0,0,0,0,0,0,NO,0,0,0,0,0,0,0,0,0,0,0,0,0,0,0,0,0,0,0,0,0,0,0,0,0,0,0,0,0,0,0,0,0,0,0,0,0,0,0,0,0,0,0,0,0,0,0,0,0,48
cassandra,cassandra-0.8.0,cassandra-1.0.0,F:/corpus/cassandra/cassandra#2011-06-03-06-03-47#cassandra-0.8.0#b44fa70/src/java/org/apache/cassandra/cli/CliCommandHelp.java,F:/corpus/cassandra/cassandra#2011-06-03-06-03-47#cassandra-0.8.0#b44fa70/src/java/org/apache/cassandra/cli/CliCommandHelp.java,0,0,0,0,0,0,0,0,0,0,0,0,0,NO,0,0,0,0,0,0,0,0,0,0,0,0,0,0,0,0,0,0,0,0,0,0,0,0,0,0,0,0,0,0,0,0,0,0,0,0,0,0,0,0,0,0,0,0,0,0,0,0,0,24
cassandra,cassandra-0.8.0,cassandra-1.0.0,F:/corpus/cassandra/cassandra#2011-06-03-06-03-47#cassandra-0.8.0#b44fa70/src/java/org/apache/cassandra/cli/CliOptions.java,F:/corpus/cassandra/cassandra#2011-06-03-06-03-47#cassandra-0.8.0#b44fa70/src/java/org/apache/cassandra/cli/CliOptions.java,0,0,0,0,0,0,0,0,0,1,0,0,0,NO,0,0,0,0,0,0,0,0,0,0,0,0,0,0,0,0,0,0,0,0,0,0,0,0,0,0,0,0,0,0,0,0,0,0,0,0,0,0,0,0,0,0,0,0,0,0,0,0,0,231
cassandra,cassandra-0.8.0,cassandra-1.0.0,F:/corpus/cassandra/cassandra#2011-06-03-06-03-47#cassandra-0.8.0#b44fa70/src/java/org/apache/cassandra/cli/CliSessionState.java,F:/corpus/cassandra/cassandra#2011-06-03-06-03-47#cassandra-0.8.0#b44fa70/src/java/org/apache/cassandra/cli/CliSessionState.java,1,0,0,0,0,0,0,0,0,0,0,0,0,NO,0,0,0,0,0,0,0,0,0,0,0,0,0,0,0,0,0,0,0,0,0,0,0,0,0,0,0,0,0,0,0,0,0,0,0,0,0,0,0,0,0,0,0,0,0,0,0,0,0,86
cassandra,cassandra-0.8.0,cassandra-1.0.0,F:/corpus/cassandra/cassandra#2011-06-03-06-03-47#cassandra-0.8.0#b44fa70/src/java/org/apache/cassandra/client/RingCache.java,F:/corpus/cassandra/cassandra#2011-06-03-06-03-47#cassandra-0.8.0#b44fa70/src/java/org/apache/cassandra/client/RingCache.java,0,0,0,0,0,0,0,0,0,0,0,0,0,NO,0,0,0,0,0,0,0,0,0,0,0,0,0,0,0,0,0,0,0,0,0,0,0,0,0,0,0,0,0,0,0,0,0,0,0,0,0,0,0,0,0,0,0,0,0,0,0,0,0,136
cassandra,cassandra-0.8.0,cassandra-1.0.0,F:/corpus/cassandra/cassandra#2011-06-03-06-03-47#cassandra-0.8.0#b44fa70/src/java/org/apache/cassandra/concurrent/Context.java,F:/corpus/cassandra/cassandra#2011-06-03-06-03-47#cassandra-0.8.0#b44fa70/src/java/org/apache/cassandra/concurrent/Context.java,0,0,0,0,0,0,0,0,0,0,0,0,0,NO,0,0,0,0,0,0,0,0,0,0,0,0,0,0,0,0,0,0,0,0,0,0,0,0,0,0,0,0,0,0,0,0,0,0,0,0,0,0,0,0,0,0,0,0,0,0,0,0,0,51
cassandra,cassandra-0.8.0,cassandra-1.0.0,F:/corpus/cassandra/cassandra#2011-06-03-06-03-47#cassandra-0.8.0#b44fa70/src/java/org/apache/cassandra/concurrent/IExecutorMBean.java,F:/corpus/cassandra/cassandra#2011-06-03-06-03-47#cassandra-0.8.0#b44fa70/src/java/org/apache/cassandra/concurrent/IExecutorMBean.java,0,0,0,0,0,0,0,0,0,0,0,0,0,NO,0,0,0,0,0,0,0,0,0,0,0,0,0,0,0,0,0,0,0,0,0,0,0,0,0,0,0,0,0,0,0,0,0,0,0,0,0,0,0,0,0,0,0,0,0,0,0,0,0,38
cassandra,cassandra-0.8.0,cassandra-1.0.0,F:/corpus/cassandra/cassandra#2011-06-03-06-03-47#cassandra-0.8.0#b44fa70/src/java/org/apache/cassandra/concurrent/JMXConfigurableThreadPoolExecutor.java,F:/corpus/cassandra/cassandra#2011-06-03-06-03-47#cassandra-0.8.0#b44fa70/src/java/org/apache/cassandra/concurrent/JMXConfigurableThreadPoolExecutor.java,0,0,0,0,0,0,0,0,0,0,0,0,0,NO,0,0,0,0,0,0,0,0,0,0,0,0,0,0,0,0,0,0,0,0,0,0,0,0,0,0,0,0,0,0,0,0,0,0,0,0,0,0,0,0,0,0,0,0,0,0,0,0,0,37
cassandra,cassandra-0.8.0,cassandra-1.0.0,F:/corpus/cassandra/cassandra#2011-06-03-06-03-47#cassandra-0.8.0#b44fa70/src/java/org/apache/cassandra/concurrent/JMXConfigurableThreadPoolExecutorMBean.java,F:/corpus/cassandra/cassandra#2011-06-03-06-03-47#cassandra-0.8.0#b44fa70/src/java/org/apache/cassandra/concurrent/JMXConfigurableThreadPoolExecutorMBean.java,0,0,0,0,1,0,0,0,0,0,0,0,0,NO,0,0,0,0,0,0,0,0,0,0,0,0,0,0,0,0,0,0,0,0,0,0,0,0,0,0,0,0,0,0,0,0,0,0,0,0,0,0,0,0,0,0,0,0,0,0,0,0,0,26
cassandra,cassandra-0.8.0,cassandra-1.0.0,F:/corpus/cassandra/cassandra#2011-06-03-06-03-47#cassandra-0.8.0#b44fa70/src/java/org/apache/cassandra/concurrent/NamedThreadFactory.java,F:/corpus/cassandra/cassandra#2011-06-03-06-03-47#cassandra-0.8.0#b44fa70/src/java/org/apache/cassandra/concurrent/NamedThreadFactory.java,0,0,0,0,0,0,0,0,0,0,0,0,0,NO,0,0,0,0,0,0,0,0,0,0,0,0,0,0,0,0,0,0,0,0,0,0,0,0,0,0,0,0,0,0,0,0,0,0,0,0,0,0,0,0,0,0,0,0,0,0,0,0,0,55
cassandra,cassandra-0.8.0,cassandra-1.0.0,F:/corpus/cassandra/cassandra#2011-06-03-06-03-47#cassandra-0.8.0#b44fa70/src/java/org/apache/cassandra/concurrent/Stage.java,F:/corpus/cassandra/cassandra#2011-06-03-06-03-47#cassandra-0.8.0#b44fa70/src/java/org/apache/cassandra/concurrent/Stage.java,0,0,0,0,0,0,0,0,0,0,0,0,0,NO,0,0,0,0,0,0,0,0,0,0,0,0,0,0,0,0,0,0,0,0,0,0,0,0,0,0,0,0,0,0,0,0,0,0,0,0,0,0,0,0,0,0,0,0,0,0,0,0,0,69
cassandra,cassandra-0.8.0,cassandra-1.0.0,F:/corpus/cassandra/cassandra#2011-06-03-06-03-47#cassandra-0.8.0#b44fa70/src/java/org/apache/cassandra/concurrent/StageManager.java,F:/corpus/cassandra/cassandra#2011-06-03-06-03-47#cassandra-0.8.0#b44fa70/src/java/org/apache/cassandra/concurrent/StageManager.java,0,0,0,0,0,0,0,0,0,0,0,1,0,NO,0,0,0,0,0,0,0,0,0,0,0,0,0,0,0,0,0,0,0,0,0,0,0,0,0,0,0,0,0,0,0,0,0,0,0,0,0,0,0,0,0,0,0,0,0,0,0,0,0,95
cassandra,cassandra-0.8.0,cassandra-1.0.0,F:/corpus/cassandra/cassandra#2011-06-03-06-03-47#cassandra-0.8.0#b44fa70/src/java/org/apache/cassandra/config/ConfigurationException.java,F:/corpus/cassandra/cassandra#2011-06-03-06-03-47#cassandra-0.8.0#b44fa70/src/java/org/apache/cassandra/config/ConfigurationException.java,0,0,0,0,0,0,0,0,0,0,0,0,0,NO,0,0,0,0,0,0,0,0,0,0,0,0,0,0,0,0,0,0,0,0,0,0,0,0,0,0,0,0,0,0,0,0,0,0,0,0,0,0,0,0,0,0,0,0,0,0,0,0,0,32
cassandra,cassandra-0.8.0,cassandra-1.0.0,F:/corpus/cassandra/cassandra#2011-06-03-06-03-47#cassandra-0.8.0#b44fa70/src/java/org/apache/cassandra/config/EncryptionOptions.java,F:/corpus/cassandra/cassandra#2011-06-03-06-03-47#cassandra-0.8.0#b44fa70/src/java/org/apache/cassandra/config/EncryptionOptions.java,1,0,0,0,0,0,0,0,0,0,0,0,0,NO,0,0,0,0,0,0,0,0,0,0,0,0,0,0,0,0,0,0,0,0,0,0,0,0,0,0,0,0,0,0,0,0,0,0,0,0,0,0,0,0,0,0,0,0,0,0,0,0,0,38
cassandra,cassandra-0.8.0,cassandra-1.0.0,F:/corpus/cassandra/cassandra#2011-06-03-06-03-47#cassandra-0.8.0#b44fa70/src/java/org/apache/cassandra/config/ReplicationStrategy.java,F:/corpus/cassandra/cassandra#2011-06-03-06-03-47#cassandra-0.8.0#b44fa70/src/java/org/apache/cassandra/config/ReplicationStrategy.java,0,0,0,0,0,0,0,0,0,0,0,0,0,NO,0,0,0,0,0,0,0,0,0,0,0,0,0,0,0,0,0,0,0,0,0,0,0,0,0,0,0,0,0,0,0,0,0,0,0,0,0,0,0,0,0,0,0,0,0,0,0,0,0,30
cassandra,cassandra-0.8.0,cassandra-1.0.0,F:/corpus/cassandra/cassandra#2011-06-03-06-03-47#cassandra-0.8.0#b44fa70/src/java/org/apache/cassandra/config/RequestSchedulerOptions.java,F:/corpus/cassandra/cassandra#2011-06-03-06-03-47#cassandra-0.8.0#b44fa70/src/java/org/apache/cassandra/config/RequestSchedulerOptions.java,1,0,0,0,0,0,0,0,0,0,0,0,0,NO,0,0,0,0,0,0,0,0,0,0,0,0,0,0,0,0,0,0,0,0,0,0,0,0,0,0,0,0,0,0,0,0,0,0,0,0,0,0,0,0,0,0,0,0,0,0,0,0,0,36
cassandra,cassandra-0.8.0,cassandra-1.0.0,F:/corpus/cassandra/cassandra#2011-06-03-06-03-47#cassandra-0.8.0#b44fa70/src/java/org/apache/cassandra/config/SeedProviderDef.java,F:/corpus/cassandra/cassandra#2011-06-03-06-03-47#cassandra-0.8.0#b44fa70/src/java/org/apache/cassandra/config/SeedProviderDef.java,0,0,0,0,0,0,0,0,0,0,0,0,0,NO,0,0,0,0,0,0,0,0,0,0,0,0,0,0,0,0,0,0,0,0,0,0,0,0,0,0,0,0,0,0,0,0,0,0,0,0,0,0,0,0,0,0,0,0,0,0,0,0,0,36
cassandra,cassandra-0.8.0,cassandra-1.0.0,F:/corpus/cassandra/cassandra#2011-06-03-06-03-47#cassandra-0.8.0#b44fa70/src/java/org/apache/cassandra/cql/CQLStatement.java,F:/corpus/cassandra/cassandra#2011-06-03-06-03-47#cassandra-0.8.0#b44fa70/src/java/org/apache/cassandra/cql/CQLStatement.java,0,0,0,0,0,0,0,0,0,0,0,0,0,NO,0,0,0,0,0,0,0,0,0,0,0,0,0,0,0,0,0,0,0,0,0,0,0,0,0,0,0,0,0,0,0,0,0,0,0,0,0,0,0,0,0,0,0,0,0,0,0,0,0,33
cassandra,cassandra-0.8.0,cassandra-1.0.0,F:/corpus/cassandra/cassandra#2011-06-03-06-03-47#cassandra-0.8.0#b44fa70/src/java/org/apache/cassandra/cql/CreateIndexStatement.java,F:/corpus/cassandra/cassandra#2011-06-03-06-03-47#cassandra-0.8.0#b44fa70/src/java/org/apache/cassandra/cql/CreateIndexStatement.java,0,0,0,0,0,0,0,0,0,0,0,0,0,NO,0,0,0,0,0,0,0,0,0,0,0,0,0,0,0,0,0,0,0,0,0,0,0,0,0,0,0,0,0,0,0,0,0,0,0,0,0,0,0,0,0,0,0,0,0,0,0,0,0,54
cassandra,cassandra-0.8.0,cassandra-1.0.0,F:/corpus/cassandra/cassandra#2011-06-03-06-03-47#cassandra-0.8.0#b44fa70/src/java/org/apache/cassandra/cql/CreateKeyspaceStatement.java,F:/corpus/cassandra/cassandra#2011-06-03-06-03-47#cassandra-0.8.0#b44fa70/src/java/org/apache/cassandra/cql/CreateKeyspaceStatement.java,0,0,0,0,0,0,0,0,0,0,0,0,0,NO,0,0,0,0,0,0,0,0,0,0,0,0,0,0,0,0,0,0,0,0,0,0,0,0,0,0,0,0,0,0,0,0,0,0,0,0,0,0,0,0,0,0,0,0,0,0,0,0,0,108
cassandra,cassandra-0.8.0,cassandra-1.0.0,F:/corpus/cassandra/cassandra#2011-06-03-06-03-47#cassandra-0.8.0#b44fa70/src/java/org/apache/cassandra/cql/SelectExpression.java,F:/corpus/cassandra/cassandra#2011-06-03-06-03-47#cassandra-0.8.0#b44fa70/src/java/org/apache/cassandra/cql/SelectExpression.java,1,0,0,0,0,0,0,0,0,0,0,0,0,NO,0,0,0,0,0,0,0,0,0,0,0,0,0,0,0,0,0,0,0,0,0,0,0,0,0,0,0,0,0,0,0,0,0,0,0,0,0,0,0,0,0,0,0,0,0,0,0,0,0,136
cassandra,cassandra-0.8.0,cassandra-1.0.0,F:/corpus/cassandra/cassandra#2011-06-03-06-03-47#cassandra-0.8.0#b44fa70/src/java/org/apache/cassandra/db/ColumnFamilyNotDefinedException.java,F:/corpus/cassandra/cassandra#2011-06-03-06-03-47#cassandra-0.8.0#b44fa70/src/java/org/apache/cassandra/db/ColumnFamilyNotDefinedException.java,0,0,0,0,0,0,0,0,0,0,0,0,0,NO,0,0,0,0,0,0,0,0,0,0,0,0,0,0,0,0,0,0,0,0,0,0,0,0,0,0,0,0,0,0,0,0,0,0,0,0,0,0,0,0,0,0,0,0,0,0,0,0,0,29
cassandra,cassandra-0.8.0,cassandra-1.0.0,F:/corpus/cassandra/cassandra#2011-06-03-06-03-47#cassandra-0.8.0#b44fa70/src/java/org/apache/cassandra/db/ColumnFamilyType.java,F:/corpus/cassandra/cassandra#2011-06-03-06-03-47#cassandra-0.8.0#b44fa70/src/java/org/apache/cassandra/db/ColumnFamilyType.java,0,0,0,0,0,0,0,0,0,0,0,0,0,NO,0,0,0,0,0,0,0,0,0,0,0,0,0,0,0,0,0,0,0,0,0,0,0,0,0,0,0,0,0,0,0,0,0,0,0,0,0,0,0,0,0,0,0,0,0,0,0,0,0,40
cassandra,cassandra-0.8.0,cassandra-1.0.0,F:/corpus/cassandra/cassandra#2011-06-03-06-03-47#cassandra-0.8.0#b44fa70/src/java/org/apache/cassandra/db/columniterator/IdentityQueryFilter.java,F:/corpus/cassandra/cassandra#2011-06-03-06-03-47#cassandra-0.8.0#b44fa70/src/java/org/apache/cassandra/db/columniterator/IdentityQueryFilter.java,0,0,0,0,1,0,0,0,0,0,0,0,0,NO,0,0,0,0,0,0,0,0,0,0,0,0,0,0,0,0,0,0,0,0,0,0,0,0,0,0,0,0,0,0,0,0,0,0,0,0,0,0,0,0,0,0,0,0,0,0,0,0,0,43
cassandra,cassandra-0.8.0,cassandra-1.0.0,F:/corpus/cassandra/cassandra#2011-06-03-06-03-47#cassandra-0.8.0#b44fa70/src/java/org/apache/cassandra/db/columniterator/IndexedSliceReader.java,F:/corpus/cassandra/cassandra#2011-06-03-06-03-47#cassandra-0.8.0#b44fa70/src/java/org/apache/cassandra/db/columniterator/IndexedSliceReader.java,0,0,0,0,0,0,0,0,0,0,0,0,0,NO,0,0,0,0,0,0,0,0,0,0,0,0,0,0,0,0,0,0,0,0,0,0,0,0,0,0,0,0,0,0,0,0,0,0,0,0,0,0,0,0,0,0,0,0,0,0,0,0,0,229
cassandra,cassandra-0.8.0,cassandra-1.0.0,F:/corpus/cassandra/cassandra#2011-06-03-06-03-47#cassandra-0.8.0#b44fa70/src/java/org/apache/cassandra/db/columniterator/SimpleAbstractColumnIterator.java,F:/corpus/cassandra/cassandra#2011-06-03-06-03-47#cassandra-0.8.0#b44fa70/src/java/org/apache/cassandra/db/columniterator/SimpleAbstractColumnIterator.java,0,0,0,0,1,0,0,0,0,0,0,0,0,NO,0,0,0,0,0,0,0,0,0,0,0,0,0,0,0,0,0,0,0,0,0,0,0,0,0,0,0,0,0,0,0,0,0,0,0,0,0,0,0,0,0,0,0,0,0,0,0,0,0,33
cassandra,cassandra-0.8.0,cassandra-1.0.0,F:/corpus/cassandra/cassandra#2011-06-03-06-03-47#cassandra-0.8.0#b44fa70/src/java/org/apache/cassandra/db/columniterator/SimpleSliceReader.java,F:/corpus/cassandra/cassandra#2011-06-03-06-03-47#cassandra-0.8.0#b44fa70/src/java/org/apache/cassandra/db/columniterator/SimpleSliceReader.java,0,0,0,0,0,0,0,0,0,0,0,0,0,NO,0,0,0,0,0,0,0,0,0,0,0,0,0,0,0,0,0,0,0,0,0,0,0,0,0,0,0,0,0,0,0,0,0,0,0,0,0,0,0,0,0,0,0,0,0,0,0,0,0,105
cassandra,cassandra-0.8.0,cassandra-1.0.0,F:/corpus/cassandra/cassandra#2011-06-03-06-03-47#cassandra-0.8.0#b44fa70/src/java/org/apache/cassandra/db/DecoratedKey.java,F:/corpus/cassandra/cassandra#2011-06-03-06-03-47#cassandra-0.8.0#b44fa70/src/java/org/apache/cassandra/db/DecoratedKey.java,0,0,0,0,0,0,0,0,0,0,0,2,0,NO,0,0,0,0,0,0,0,0,0,0,0,0,0,0,0,0,0,0,0,0,0,0,0,0,0,0,0,0,0,0,0,0,0,0,0,0,0,0,0,0,0,0,0,0,0,0,0,0,0,97
cassandra,cassandra-0.8.0,cassandra-1.0.0,F:/corpus/cassandra/cassandra#2011-06-03-06-03-47#cassandra-0.8.0#b44fa70/src/java/org/apache/cassandra/db/filter/AbstractColumnIterator.java,F:/corpus/cassandra/cassandra#2011-06-03-06-03-47#cassandra-0.8.0#b44fa70/src/java/org/apache/cassandra/db/filter/AbstractColumnIterator.java,0,0,0,0,1,0,0,0,0,0,0,0,0,NO,0,0,0,0,0,0,0,0,0,0,0,0,0,0,0,0,0,0,0,0,0,0,0,0,0,0,0,0,0,0,0,0,0,0,0,0,0,0,0,0,0,0,0,0,0,0,0,0,0,37
cassandra,cassandra-0.8.0,cassandra-1.0.0,F:/corpus/cassandra/cassandra#2011-06-03-06-03-47#cassandra-0.8.0#b44fa70/src/java/org/apache/cassandra/db/filter/QueryPath.java,F:/corpus/cassandra/cassandra#2011-06-03-06-03-47#cassandra-0.8.0#b44fa70/src/java/org/apache/cassandra/db/filter/QueryPath.java,0,0,0,0,0,1,0,0,0,0,0,0,0,NO,0,0,0,0,0,0,0,0,0,0,0,0,0,0,0,0,0,0,0,0,0,0,0,0,0,0,0,0,0,0,0,0,0,0,0,0,0,0,0,0,0,0,0,0,0,0,0,0,0,100
cassandra,cassandra-0.8.0,cassandra-1.0.0,F:/corpus/cassandra/cassandra#2011-06-03-06-03-47#cassandra-0.8.0#b44fa70/src/java/org/apache/cassandra/db/HintedHandOffManagerMBean.java,F:/corpus/cassandra/cassandra#2011-06-03-06-03-47#cassandra-0.8.0#b44fa70/src/java/org/apache/cassandra/db/HintedHandOffManagerMBean.java,0,0,0,0,1,0,0,0,0,0,0,0,0,NO,0,0,0,0,0,0,0,0,0,0,0,0,0,0,0,0,0,0,0,0,0,0,0,0,0,0,0,0,0,0,0,0,0,0,0,0,0,0,0,0,0,0,0,0,0,0,0,0,0,46
cassandra,cassandra-0.8.0,cassandra-1.0.0,F:/corpus/cassandra/cassandra#2011-06-03-06-03-47#cassandra-0.8.0#b44fa70/src/java/org/apache/cassandra/db/KeyspaceNotDefinedException.java,F:/corpus/cassandra/cassandra#2011-06-03-06-03-47#cassandra-0.8.0#b44fa70/src/java/org/apache/cassandra/db/KeyspaceNotDefinedException.java,0,0,0,0,0,0,0,0,0,0,0,0,0,NO,0,0,0,0,0,0,0,0,0,0,0,0,0,0,0,0,0,0,0,0,0,0,0,0,0,0,0,0,0,0,0,0,0,0,0,0,0,0,0,0,0,0,0,0,0,0,0,0,0,29
cassandra,cassandra-0.8.0,cassandra-1.0.0,F:/corpus/cassandra/cassandra#2011-06-03-06-03-47#cassandra-0.8.0#b44fa70/src/java/org/apache/cassandra/db/marshal/MarshalException.java,F:/corpus/cassandra/cassandra#2011-06-03-06-03-47#cassandra-0.8.0#b44fa70/src/java/org/apache/cassandra/db/marshal/MarshalException.java,0,0,0,0,0,0,0,0,0,0,0,0,0,NO,0,0,0,0,0,0,0,0,0,0,0,0,0,0,0,0,0,0,0,0,0,0,0,0,0,0,0,0,0,0,0,0,0,0,0,0,0,0,0,0,0,0,0,0,0,0,0,0,0,35
cassandra,cassandra-0.8.0,cassandra-1.0.0,F:/corpus/cassandra/cassandra#2011-06-03-06-03-47#cassandra-0.8.0#b44fa70/src/java/org/apache/cassandra/db/SliceByNamesReadCommand.java,F:/corpus/cassandra/cassandra#2011-06-03-06-03-47#cassandra-0.8.0#b44fa70/src/java/org/apache/cassandra/db/SliceByNamesReadCommand.java,0,0,0,0,2,1,0,0,1,0,0,0,0,NO,0,0,0,0,0,0,0,0,0,0,0,0,0,0,0,0,0,0,0,0,0,0,0,0,0,0,0,0,0,0,0,0,0,0,0,0,0,0,0,0,0,0,0,0,0,0,0,0,0,112
cassandra,cassandra-0.8.0,cassandra-1.0.0,F:/corpus/cassandra/cassandra#2011-06-03-06-03-47#cassandra-0.8.0#b44fa70/src/java/org/apache/cassandra/db/SliceFromReadCommand.java,F:/corpus/cassandra/cassandra#2011-06-03-06-03-47#cassandra-0.8.0#b44fa70/src/java/org/apache/cassandra/db/SliceFromReadCommand.java,0,0,0,0,2,2,0,0,1,0,0,0,0,NO,0,0,0,0,0,0,0,0,0,0,0,0,0,0,0,0,0,0,0,0,0,0,0,0,0,0,0,0,0,0,0,0,0,0,0,0,0,0,0,0,0,0,0,0,0,0,0,0,0,109
cassandra,cassandra-0.8.0,cassandra-1.0.0,F:/corpus/cassandra/cassandra#2011-06-03-06-03-47#cassandra-0.8.0#b44fa70/src/java/org/apache/cassandra/db/UnserializableColumnFamilyException.java,F:/corpus/cassandra/cassandra#2011-06-03-06-03-47#cassandra-0.8.0#b44fa70/src/java/org/apache/cassandra/db/UnserializableColumnFamilyException.java,0,0,0,0,0,0,0,0,0,0,0,0,0,NO,0,0,0,0,0,0,0,0,0,0,0,0,0,0,0,0,0,0,0,0,0,0,0,0,0,0,0,0,0,0,0,0,0,0,0,0,0,0,0,0,0,0,0,0,0,0,0,0,0,33
cassandra,cassandra-0.8.0,cassandra-1.0.0,F:/corpus/cassandra/cassandra#2011-06-03-06-03-47#cassandra-0.8.0#b44fa70/src/java/org/apache/cassandra/dht/BigIntegerToken.java,F:/corpus/cassandra/cassandra#2011-06-03-06-03-47#cassandra-0.8.0#b44fa70/src/java/org/apache/cassandra/dht/BigIntegerToken.java,0,0,0,0,0,0,0,0,0,0,0,0,0,NO,0,0,0,0,0,0,0,0,0,0,0,0,0,0,0,0,0,0,0,0,0,0,0,0,0,0,0,0,0,0,0,0,0,0,0,0,0,0,0,0,0,0,0,0,0,0,0,0,0,41
cassandra,cassandra-0.8.0,cassandra-1.0.0,F:/corpus/cassandra/cassandra#2011-06-03-06-03-47#cassandra-0.8.0#b44fa70/src/java/org/apache/cassandra/dht/ByteOrderedPartitioner.java,F:/corpus/cassandra/cassandra#2011-06-03-06-03-47#cassandra-0.8.0#b44fa70/src/java/org/apache/cassandra/dht/ByteOrderedPartitioner.java,0,0,0,0,0,0,0,0,0,0,0,0,0,NO,0,0,0,0,0,0,0,0,0,0,0,0,0,0,0,0,0,0,0,0,0,0,0,0,0,0,0,0,0,0,0,0,0,0,0,0,0,0,0,0,0,0,0,0,0,0,0,0,0,31
cassandra,cassandra-0.8.0,cassandra-1.0.0,F:/corpus/cassandra/cassandra#2011-06-03-06-03-47#cassandra-0.8.0#b44fa70/src/java/org/apache/cassandra/dht/BytesToken.java,F:/corpus/cassandra/cassandra#2011-06-03-06-03-47#cassandra-0.8.0#b44fa70/src/java/org/apache/cassandra/dht/BytesToken.java,0,0,0,0,0,0,0,0,0,0,0,0,0,NO,0,0,0,0,0,0,0,0,0,0,0,0,0,0,0,0,0,0,0,0,0,0,0,0,0,0,0,0,0,0,0,0,0,0,0,0,0,0,0,0,0,0,0,0,0,0,0,0,0,71
cassandra,cassandra-0.8.0,cassandra-1.0.0,F:/corpus/cassandra/cassandra#2011-06-03-06-03-47#cassandra-0.8.0#b44fa70/src/java/org/apache/cassandra/dht/CollatingOrderPreservingPartitioner.java,F:/corpus/cassandra/cassandra#2011-06-03-06-03-47#cassandra-0.8.0#b44fa70/src/java/org/apache/cassandra/dht/CollatingOrderPreservingPartitioner.java,0,0,0,0,1,0,0,0,0,0,0,0,0,NO,0,0,0,0,0,0,0,0,0,0,0,0,0,0,0,0,0,0,0,0,0,0,0,0,0,0,0,0,0,0,0,0,0,0,0,0,0,0,0,0,0,0,0,0,0,0,0,0,0,52
cassandra,cassandra-0.8.0,cassandra-1.0.0,F:/corpus/cassandra/cassandra#2011-06-03-06-03-47#cassandra-0.8.0#b44fa70/src/java/org/apache/cassandra/dht/LocalPartitioner.java,F:/corpus/cassandra/cassandra#2011-06-03-06-03-47#cassandra-0.8.0#b44fa70/src/java/org/apache/cassandra/dht/LocalPartitioner.java,0,0,0,0,2,0,0,0,0,0,0,0,0,NO,0,0,0,0,0,0,0,0,0,0,0,0,0,0,0,0,0,0,0,0,0,0,0,0,0,0,0,0,0,0,0,0,0,0,0,0,0,0,0,0,0,0,0,0,0,0,0,0,0,84
cassandra,cassandra-0.8.0,cassandra-1.0.0,F:/corpus/cassandra/cassandra#2011-06-03-06-03-47#cassandra-0.8.0#b44fa70/src/java/org/apache/cassandra/dht/LocalToken.java,F:/corpus/cassandra/cassandra#2011-06-03-06-03-47#cassandra-0.8.0#b44fa70/src/java/org/apache/cassandra/dht/LocalToken.java,0,0,0,0,0,0,0,0,0,0,0,0,0,NO,0,0,0,0,0,0,0,0,0,0,0,0,0,0,0,0,0,0,0,0,0,0,0,0,0,0,0,0,0,0,0,0,0,0,0,0,0,0,0,0,0,0,0,0,0,0,0,0,0,66
cassandra,cassandra-0.8.0,cassandra-1.0.0,F:/corpus/cassandra/cassandra#2011-06-03-06-03-47#cassandra-0.8.0#b44fa70/src/java/org/apache/cassandra/dht/StringToken.java,F:/corpus/cassandra/cassandra#2011-06-03-06-03-47#cassandra-0.8.0#b44fa70/src/java/org/apache/cassandra/dht/StringToken.java,0,0,0,0,0,0,0,0,0,0,0,0,0,NO,0,0,0,0,0,0,0,0,0,0,0,0,0,0,0,0,0,0,0,0,0,0,0,0,0,0,0,0,0,0,0,0,0,0,0,0,0,0,0,0,0,0,0,0,0,0,0,0,0,35
cassandra,cassandra-0.8.0,cassandra-1.0.0,F:/corpus/cassandra/cassandra#2011-06-03-06-03-47#cassandra-0.8.0#b44fa70/src/java/org/apache/cassandra/gms/GossipDigest.java,F:/corpus/cassandra/cassandra#2011-06-03-06-03-47#cassandra-0.8.0#b44fa70/src/java/org/apache/cassandra/gms/GossipDigest.java,0,0,0,0,2,0,0,0,0,0,0,0,0,NO,0,0,0,0,0,0,0,0,0,0,0,0,0,0,0,0,0,0,0,0,0,0,0,0,0,0,0,0,0,0,0,0,0,0,0,0,0,0,0,0,0,0,0,0,0,0,0,0,0,108
cassandra,cassandra-0.8.0,cassandra-1.0.0,F:/corpus/cassandra/cassandra#2011-06-03-06-03-47#cassandra-0.8.0#b44fa70/src/java/org/apache/cassandra/gms/GossipDigestAck2Message.java,F:/corpus/cassandra/cassandra#2011-06-03-06-03-47#cassandra-0.8.0#b44fa70/src/java/org/apache/cassandra/gms/GossipDigestAck2Message.java,0,0,0,0,0,0,0,0,0,0,0,0,0,NO,0,0,0,0,0,0,0,0,0,0,0,0,0,0,0,0,0,0,0,0,0,0,0,0,0,0,0,0,0,0,0,0,0,0,0,0,0,0,0,0,0,0,0,0,0,0,0,0,0,76
cassandra,cassandra-0.8.0,cassandra-1.0.0,F:/corpus/cassandra/cassandra#2011-06-03-06-03-47#cassandra-0.8.0#b44fa70/src/java/org/apache/cassandra/gms/GossipDigestAckMessage.java,F:/corpus/cassandra/cassandra#2011-06-03-06-03-47#cassandra-0.8.0#b44fa70/src/java/org/apache/cassandra/gms/GossipDigestAckMessage.java,0,0,1,0,0,0,0,0,0,0,0,0,0,NO,0,0,0,0,0,0,0,0,0,0,0,0,0,0,0,0,0,0,0,0,0,0,0,0,0,0,0,0,0,0,0,0,0,0,0,0,0,0,0,0,0,0,0,0,0,0,0,0,0,88
cassandra,cassandra-0.8.0,cassandra-1.0.0,F:/corpus/cassandra/cassandra#2011-06-03-06-03-47#cassandra-0.8.0#b44fa70/src/java/org/apache/cassandra/gms/GossipDigestSynMessage.java,F:/corpus/cassandra/cassandra#2011-06-03-06-03-47#cassandra-0.8.0#b44fa70/src/java/org/apache/cassandra/gms/GossipDigestSynMessage.java,0,0,0,0,0,0,0,0,0,0,0,0,0,NO,0,0,0,0,0,0,0,0,0,0,0,0,0,0,0,0,0,0,0,0,0,0,0,0,0,0,0,0,0,0,0,0,0,0,0,0,0,0,0,0,0,0,0,0,0,0,0,0,0,145
cassandra,cassandra-0.8.0,cassandra-1.0.0,F:/corpus/cassandra/cassandra#2011-06-03-06-03-47#cassandra-0.8.0#b44fa70/src/java/org/apache/cassandra/gms/IFailureNotification.java,F:/corpus/cassandra/cassandra#2011-06-03-06-03-47#cassandra-0.8.0#b44fa70/src/java/org/apache/cassandra/gms/IFailureNotification.java,0,0,0,0,1,0,0,0,0,0,0,0,0,NO,0,0,0,0,0,0,0,0,0,0,0,0,0,0,0,0,0,0,0,0,0,0,0,0,0,0,0,0,0,0,0,0,0,0,0,0,0,0,0,0,0,0,0,0,0,0,0,0,0,27
cassandra,cassandra-0.8.0,cassandra-1.0.0,F:/corpus/cassandra/cassandra#2011-06-03-06-03-47#cassandra-0.8.0#b44fa70/src/java/org/apache/cassandra/gms/PureRandom.java,F:/corpus/cassandra/cassandra#2011-06-03-06-03-47#cassandra-0.8.0#b44fa70/src/java/org/apache/cassandra/gms/PureRandom.java,0,0,0,0,1,0,0,0,0,0,0,0,0,NO,0,0,0,0,0,0,0,0,0,0,0,0,0,0,0,0,0,0,0,0,0,0,0,0,0,0,0,0,0,0,0,0,0,0,0,0,0,0,0,0,0,0,0,0,0,0,0,0,0,81
cassandra,cassandra-0.8.0,cassandra-1.0.0,F:/corpus/cassandra/cassandra#2011-06-03-06-03-47#cassandra-0.8.0#b44fa70/src/java/org/apache/cassandra/gms/VersionGenerator.java,F:/corpus/cassandra/cassandra#2011-06-03-06-03-47#cassandra-0.8.0#b44fa70/src/java/org/apache/cassandra/gms/VersionGenerator.java,0,0,0,0,0,0,0,0,0,0,0,0,0,NO,0,0,0,0,0,0,0,0,0,0,0,0,0,0,0,0,0,0,0,0,0,0,0,0,0,0,0,0,0,0,0,0,0,0,0,0,0,0,0,0,0,0,0,0,0,0,0,0,0,36
cassandra,cassandra-0.8.0,cassandra-1.0.0,F:/corpus/cassandra/cassandra#2011-06-03-06-03-47#cassandra-0.8.0#b44fa70/src/java/org/apache/cassandra/hadoop/ColumnFamilySplit.java,F:/corpus/cassandra/cassandra#2011-06-03-06-03-47#cassandra-0.8.0#b44fa70/src/java/org/apache/cassandra/hadoop/ColumnFamilySplit.java,0,0,0,0,0,0,0,0,0,0,0,0,0,NO,0,0,0,0,0,0,0,0,0,0,0,0,0,0,0,0,0,0,0,0,0,0,0,0,0,0,0,0,0,0,0,0,0,0,0,0,0,0,0,0,0,0,0,0,0,0,0,0,0,116
cassandra,cassandra-0.8.0,cassandra-1.0.0,F:/corpus/cassandra/cassandra#2011-06-03-06-03-47#cassandra-0.8.0#b44fa70/src/java/org/apache/cassandra/io/ICompactSerializer.java,F:/corpus/cassandra/cassandra#2011-06-03-06-03-47#cassandra-0.8.0#b44fa70/src/java/org/apache/cassandra/io/ICompactSerializer.java,0,0,0,0,1,0,0,0,0,0,0,0,0,NO,0,0,0,0,0,0,0,0,0,0,0,0,0,0,0,0,0,0,0,0,0,0,0,0,0,0,0,0,0,0,0,0,0,0,0,0,0,0,0,0,0,0,0,0,0,0,0,0,0,46
cassandra,cassandra-0.8.0,cassandra-1.0.0,F:/corpus/cassandra/cassandra#2011-06-03-06-03-47#cassandra-0.8.0#b44fa70/src/java/org/apache/cassandra/io/ICompactSerializer2.java,F:/corpus/cassandra/cassandra#2011-06-03-06-03-47#cassandra-0.8.0#b44fa70/src/java/org/apache/cassandra/io/ICompactSerializer2.java,0,0,0,0,1,0,0,0,0,0,0,0,0,NO,0,0,0,0,0,0,0,0,0,0,0,0,0,0,0,0,0,0,0,0,0,0,0,0,0,0,0,0,0,0,0,0,0,0,0,0,0,0,0,0,0,0,0,0,0,0,0,0,0,42
cassandra,cassandra-0.8.0,cassandra-1.0.0,F:/corpus/cassandra/cassandra#2011-06-03-06-03-47#cassandra-0.8.0#b44fa70/src/java/org/apache/cassandra/io/ICompactSerializer3.java,F:/corpus/cassandra/cassandra#2011-06-03-06-03-47#cassandra-0.8.0#b44fa70/src/java/org/apache/cassandra/io/ICompactSerializer3.java,0,0,0,0,1,0,0,0,0,0,0,0,0,NO,0,0,0,0,0,0,0,0,0,0,0,0,0,0,0,0,0,0,0,0,0,0,0,0,0,0,0,0,0,0,0,0,0,0,0,0,0,0,0,0,0,0,0,0,0,0,0,0,0,27
cassandra,cassandra-0.8.0,cassandra-1.0.0,F:/corpus/cassandra/cassandra#2011-06-03-06-03-47#cassandra-0.8.0#b44fa70/src/java/org/apache/cassandra/io/SerDeUtils.java,F:/corpus/cassandra/cassandra#2011-06-03-06-03-47#cassandra-0.8.0#b44fa70/src/java/org/apache/cassandra/io/SerDeUtils.java,0,0,0,0,0,0,0,0,0,0,0,0,0,NO,0,0,0,0,0,0,0,0,0,0,0,0,0,0,0,0,0,0,0,0,0,0,0,0,0,0,0,0,0,0,0,0,0,0,0,0,0,0,0,0,0,0,0,0,0,0,0,0,0,124
cassandra,cassandra-0.8.0,cassandra-1.0.0,F:/corpus/cassandra/cassandra#2011-06-03-06-03-47#cassandra-0.8.0#b44fa70/src/java/org/apache/cassandra/io/sstable/BloomFilterTracker.java,F:/corpus/cassandra/cassandra#2011-06-03-06-03-47#cassandra-0.8.0#b44fa70/src/java/org/apache/cassandra/io/sstable/BloomFilterTracker.java,0,0,0,0,0,0,0,0,0,0,0,0,0,NO,0,0,0,0,0,0,0,0,0,0,0,0,0,0,0,0,0,0,0,0,0,0,0,0,0,0,0,0,0,0,0,0,0,0,0,0,0,0,0,0,0,0,0,0,0,0,0,0,0,78
cassandra,cassandra-0.8.0,cassandra-1.0.0,F:/corpus/cassandra/cassandra#2011-06-03-06-03-47#cassandra-0.8.0#b44fa70/src/java/org/apache/cassandra/io/util/AbstractDataInput.java,F:/corpus/cassandra/cassandra#2011-06-03-06-03-47#cassandra-0.8.0#b44fa70/src/java/org/apache/cassandra/io/util/AbstractDataInput.java,0,0,0,0,0,0,0,0,0,0,0,0,1,NO,0,0,0,0,0,0,0,0,0,0,0,0,0,0,0,0,0,0,0,0,0,0,0,0,0,0,0,0,0,0,0,0,0,0,0,0,0,0,0,0,0,0,0,0,0,0,0,0,0,348
cassandra,cassandra-0.8.0,cassandra-1.0.0,F:/corpus/cassandra/cassandra#2011-06-03-06-03-47#cassandra-0.8.0#b44fa70/src/java/org/apache/cassandra/io/util/FileDataInput.java,F:/corpus/cassandra/cassandra#2011-06-03-06-03-47#cassandra-0.8.0#b44fa70/src/java/org/apache/cassandra/io/util/FileDataInput.java,0,0,0,0,0,0,0,0,0,0,0,0,0,NO,0,0,0,0,0,0,0,0,0,0,0,0,0,0,0,0,0,0,0,0,0,0,0,0,0,0,0,0,0,0,0,0,0,0,0,0,0,0,0,0,0,0,0,0,0,0,0,0,0,50
cassandra,cassandra-0.8.0,cassandra-1.0.0,F:/corpus/cassandra/cassandra#2011-06-03-06-03-47#cassandra-0.8.0#b44fa70/src/java/org/apache/cassandra/io/util/FileMark.java,F:/corpus/cassandra/cassandra#2011-06-03-06-03-47#cassandra-0.8.0#b44fa70/src/java/org/apache/cassandra/io/util/FileMark.java,0,0,0,0,0,0,0,0,0,0,0,0,0,NO,0,0,0,0,0,0,0,0,0,0,0,0,0,0,0,0,0,0,0,0,0,0,0,0,0,0,0,0,0,0,0,0,0,0,0,0,0,0,0,0,0,0,0,0,0,0,0,0,0,23
cassandra,cassandra-0.8.0,cassandra-1.0.0,F:/corpus/cassandra/cassandra#2011-06-03-06-03-47#cassandra-0.8.0#b44fa70/src/java/org/apache/cassandra/io/util/IIterableColumns.java,F:/corpus/cassandra/cassandra#2011-06-03-06-03-47#cassandra-0.8.0#b44fa70/src/java/org/apache/cassandra/io/util/IIterableColumns.java,0,0,0,0,0,0,0,0,0,0,0,0,0,NO,0,0,0,0,0,0,0,0,0,0,0,0,0,0,0,0,0,0,0,0,0,0,0,0,0,0,0,0,0,0,0,0,0,0,0,0,0,0,0,0,0,0,0,0,0,0,0,0,0,32
cassandra,cassandra-0.8.0,cassandra-1.0.0,F:/corpus/cassandra/cassandra#2011-06-03-06-03-47#cassandra-0.8.0#b44fa70/src/java/org/apache/cassandra/io/util/MemoryOutputStream.java,F:/corpus/cassandra/cassandra#2011-06-03-06-03-47#cassandra-0.8.0#b44fa70/src/java/org/apache/cassandra/io/util/MemoryOutputStream.java,0,0,0,0,0,0,0,0,0,0,0,0,0,NO,0,0,0,0,0,0,0,0,0,0,0,0,0,0,0,0,0,0,0,0,0,0,0,0,0,0,0,0,0,0,0,0,0,0,0,0,0,0,0,0,0,0,0,0,0,0,0,0,0,54
cassandra,cassandra-0.8.0,cassandra-1.0.0,F:/corpus/cassandra/cassandra#2011-06-03-06-03-47#cassandra-0.8.0#b44fa70/src/java/org/apache/cassandra/locator/DynamicEndpointSnitchMBean.java,F:/corpus/cassandra/cassandra#2011-06-03-06-03-47#cassandra-0.8.0#b44fa70/src/java/org/apache/cassandra/locator/DynamicEndpointSnitchMBean.java,0,0,0,0,1,0,0,0,0,0,0,0,0,NO,0,0,0,0,0,0,0,0,0,0,0,0,0,0,0,0,0,0,0,0,0,0,0,0,0,0,0,0,0,0,0,0,0,0,0,0,0,0,0,0,0,0,0,0,0,0,0,0,0,34
cassandra,cassandra-0.8.0,cassandra-1.0.0,F:/corpus/cassandra/cassandra#2011-06-03-06-03-47#cassandra-0.8.0#b44fa70/src/java/org/apache/cassandra/locator/EndpointSnitchInfo.java,F:/corpus/cassandra/cassandra#2011-06-03-06-03-47#cassandra-0.8.0#b44fa70/src/java/org/apache/cassandra/locator/EndpointSnitchInfo.java,0,0,0,0,0,2,0,0,0,0,0,0,0,NO,0,0,0,0,0,0,0,0,0,0,0,0,0,0,0,0,0,0,0,0,0,0,0,0,0,0,0,0,0,0,0,0,0,0,0,0,0,0,0,0,0,0,0,0,0,0,0,0,0,56
cassandra,cassandra-0.8.0,cassandra-1.0.0,F:/corpus/cassandra/cassandra#2011-06-03-06-03-47#cassandra-0.8.0#b44fa70/src/java/org/apache/cassandra/locator/EndpointSnitchInfoMBean.java,F:/corpus/cassandra/cassandra#2011-06-03-06-03-47#cassandra-0.8.0#b44fa70/src/java/org/apache/cassandra/locator/EndpointSnitchInfoMBean.java,0,0,0,0,1,0,0,0,0,0,0,0,0,NO,0,0,0,0,0,0,0,0,0,0,0,0,0,0,0,0,0,0,0,0,0,0,0,0,0,0,0,0,0,0,0,0,0,0,0,0,0,0,0,0,0,0,0,0,0,0,0,0,0,42
cassandra,cassandra-0.8.0,cassandra-1.0.0,F:/corpus/cassandra/cassandra#2011-06-03-06-03-47#cassandra-0.8.0#b44fa70/src/java/org/apache/cassandra/locator/IEndpointSnitch.java,F:/corpus/cassandra/cassandra#2011-06-03-06-03-47#cassandra-0.8.0#b44fa70/src/java/org/apache/cassandra/locator/IEndpointSnitch.java,0,0,0,0,1,0,0,0,0,0,0,0,0,NO,0,0,0,0,0,0,0,0,0,0,0,0,0,0,0,0,0,0,0,0,0,0,0,0,0,0,0,0,0,0,0,0,0,0,0,0,0,0,0,0,0,0,0,0,0,0,0,0,0,62
cassandra,cassandra-0.8.0,cassandra-1.0.0,F:/corpus/cassandra/cassandra#2011-06-03-06-03-47#cassandra-0.8.0#b44fa70/src/java/org/apache/cassandra/locator/ILatencySubscriber.java,F:/corpus/cassandra/cassandra#2011-06-03-06-03-47#cassandra-0.8.0#b44fa70/src/java/org/apache/cassandra/locator/ILatencySubscriber.java,0,0,0,0,1,0,0,0,0,0,0,0,0,NO,0,0,0,0,0,0,0,0,0,0,0,0,0,0,0,0,0,0,0,0,0,0,0,0,0,0,0,0,0,0,0,0,0,0,0,0,0,0,0,0,0,0,0,0,0,0,0,0,0,26
cassandra,cassandra-0.8.0,cassandra-1.0.0,F:/corpus/cassandra/cassandra#2011-06-03-06-03-47#cassandra-0.8.0#b44fa70/src/java/org/apache/cassandra/locator/SeedProvider.java,F:/corpus/cassandra/cassandra#2011-06-03-06-03-47#cassandra-0.8.0#b44fa70/src/java/org/apache/cassandra/locator/SeedProvider.java,0,0,0,0,1,0,0,0,0,0,0,0,0,NO,0,0,0,0,0,0,0,0,0,0,0,0,0,0,0,0,0,0,0,0,0,0,0,0,0,0,0,0,0,0,0,0,0,0,0,0,0,0,0,0,0,0,0,0,0,0,0,0,0,26
cassandra,cassandra-0.8.0,cassandra-1.0.0,F:/corpus/cassandra/cassandra#2011-06-03-06-03-47#cassandra-0.8.0#b44fa70/src/java/org/apache/cassandra/net/CachingMessageProducer.java,F:/corpus/cassandra/cassandra#2011-06-03-06-03-47#cassandra-0.8.0#b44fa70/src/java/org/apache/cassandra/net/CachingMessageProducer.java,0,0,0,0,0,0,0,0,0,0,0,0,0,NO,0,0,0,0,0,0,0,0,0,0,0,0,0,0,0,0,0,0,0,0,0,0,0,0,0,0,0,0,0,0,0,0,0,0,0,0,0,0,0,0,0,0,0,0,0,0,0,0,0,48
cassandra,cassandra-0.8.0,cassandra-1.0.0,F:/corpus/cassandra/cassandra#2011-06-03-06-03-47#cassandra-0.8.0#b44fa70/src/java/org/apache/cassandra/net/HeaderTypes.java,F:/corpus/cassandra/cassandra#2011-06-03-06-03-47#cassandra-0.8.0#b44fa70/src/java/org/apache/cassandra/net/HeaderTypes.java,0,0,0,0,0,0,0,0,0,0,0,0,0,NO,0,0,0,0,0,0,0,0,0,0,0,0,0,0,0,0,0,0,0,0,0,0,0,0,0,0,0,0,0,0,0,0,0,0,0,0,0,0,0,0,0,0,0,0,0,0,0,0,0,25
cassandra,cassandra-0.8.0,cassandra-1.0.0,F:/corpus/cassandra/cassandra#2011-06-03-06-03-47#cassandra-0.8.0#b44fa70/src/java/org/apache/cassandra/net/IAsyncCallback.java,F:/corpus/cassandra/cassandra#2011-06-03-06-03-47#cassandra-0.8.0#b44fa70/src/java/org/apache/cassandra/net/IAsyncCallback.java,0,0,0,0,0,0,0,0,0,0,0,0,0,NO,0,0,0,0,0,0,0,0,0,0,0,0,0,0,0,0,0,0,0,0,0,0,0,0,0,0,0,0,0,0,0,0,0,0,0,0,0,0,0,0,0,0,0,0,0,0,0,0,0,33
cassandra,cassandra-0.8.0,cassandra-1.0.0,F:/corpus/cassandra/cassandra#2011-06-03-06-03-47#cassandra-0.8.0#b44fa70/src/java/org/apache/cassandra/net/IAsyncResult.java,F:/corpus/cassandra/cassandra#2011-06-03-06-03-47#cassandra-0.8.0#b44fa70/src/java/org/apache/cassandra/net/IAsyncResult.java,0,0,0,0,1,0,0,0,0,0,0,0,0,NO,0,0,0,0,0,0,0,0,0,0,0,0,0,0,0,0,0,0,0,0,0,0,0,0,0,0,0,0,0,0,0,0,0,0,0,0,0,0,0,0,0,0,0,0,0,0,0,0,0,43
cassandra,cassandra-0.8.0,cassandra-1.0.0,F:/corpus/cassandra/cassandra#2011-06-03-06-03-47#cassandra-0.8.0#b44fa70/src/java/org/apache/cassandra/net/IMessageCallback.java,F:/corpus/cassandra/cassandra#2011-06-03-06-03-47#cassandra-0.8.0#b44fa70/src/java/org/apache/cassandra/net/IMessageCallback.java,0,0,0,0,0,0,0,0,0,0,0,0,0,NO,0,0,0,0,0,0,0,0,0,0,0,0,0,0,0,0,0,0,0,0,0,0,0,0,0,0,0,0,0,0,0,0,0,0,0,0,0,0,0,0,0,0,0,0,0,0,0,0,0,31
cassandra,cassandra-0.8.0,cassandra-1.0.0,F:/corpus/cassandra/cassandra#2011-06-03-06-03-47#cassandra-0.8.0#b44fa70/src/java/org/apache/cassandra/net/io/SerializerType.java,F:/corpus/cassandra/cassandra#2011-06-03-06-03-47#cassandra-0.8.0#b44fa70/src/java/org/apache/cassandra/net/io/SerializerType.java,0,0,0,0,0,0,0,0,0,0,0,0,0,NO,0,0,0,0,0,0,0,0,0,0,0,0,0,0,0,0,0,0,0,0,0,0,0,0,0,0,0,0,0,0,0,0,0,0,0,0,0,0,0,0,0,0,0,0,0,0,0,0,0,27
cassandra,cassandra-0.8.0,cassandra-1.0.0,F:/corpus/cassandra/cassandra#2011-06-03-06-03-47#cassandra-0.8.0#b44fa70/src/java/org/apache/cassandra/net/IVerbHandler.java,F:/corpus/cassandra/cassandra#2011-06-03-06-03-47#cassandra-0.8.0#b44fa70/src/java/org/apache/cassandra/net/IVerbHandler.java,0,0,0,0,0,0,0,0,0,0,0,0,0,NO,0,0,0,0,0,0,0,0,0,0,0,0,0,0,0,0,0,0,0,0,0,0,0,0,0,0,0,0,0,0,0,0,0,0,0,0,0,0,0,0,0,0,0,0,0,0,0,0,0,39
cassandra,cassandra-0.8.0,cassandra-1.0.0,F:/corpus/cassandra/cassandra#2011-06-03-06-03-47#cassandra-0.8.0#b44fa70/src/java/org/apache/cassandra/net/MessageProducer.java,F:/corpus/cassandra/cassandra#2011-06-03-06-03-47#cassandra-0.8.0#b44fa70/src/java/org/apache/cassandra/net/MessageProducer.java,0,0,0,0,0,0,0,0,0,0,0,0,0,NO,0,0,0,0,0,0,0,0,0,0,0,0,0,0,0,0,0,0,0,0,0,0,0,0,0,0,0,0,0,0,0,0,0,0,0,0,0,0,0,0,0,0,0,0,0,0,0,0,0,29
cassandra,cassandra-0.8.0,cassandra-1.0.0,F:/corpus/cassandra/cassandra#2011-06-03-06-03-47#cassandra-0.8.0#b44fa70/src/java/org/apache/cassandra/net/ProtocolHeader.java,F:/corpus/cassandra/cassandra#2011-06-03-06-03-47#cassandra-0.8.0#b44fa70/src/java/org/apache/cassandra/net/ProtocolHeader.java,1,0,0,0,0,0,0,0,0,0,0,0,0,NO,0,0,0,0,0,0,0,0,0,0,0,0,0,0,0,0,0,0,0,0,0,0,0,0,0,0,0,0,0,0,0,0,0,0,0,0,0,0,0,0,0,0,0,0,0,0,0,0,0,31
cassandra,cassandra-0.8.0,cassandra-1.0.0,F:/corpus/cassandra/cassandra#2011-06-03-06-03-47#cassandra-0.8.0#b44fa70/src/java/org/apache/cassandra/net/sink/IMessageSink.java,F:/corpus/cassandra/cassandra#2011-06-03-06-03-47#cassandra-0.8.0#b44fa70/src/java/org/apache/cassandra/net/sink/IMessageSink.java,0,0,0,0,0,0,0,0,0,0,0,0,0,NO,0,0,0,0,0,0,0,0,0,0,0,0,0,0,0,0,0,0,0,0,0,0,0,0,0,0,0,0,0,0,0,0,0,0,0,0,0,0,0,0,0,0,0,0,0,0,0,0,0,28
cassandra,cassandra-0.8.0,cassandra-1.0.0,F:/corpus/cassandra/cassandra#2011-06-03-06-03-47#cassandra-0.8.0#b44fa70/src/java/org/apache/cassandra/net/sink/SinkManager.java,F:/corpus/cassandra/cassandra#2011-06-03-06-03-47#cassandra-0.8.0#b44fa70/src/java/org/apache/cassandra/net/sink/SinkManager.java,0,0,0,0,0,0,0,0,0,0,0,0,0,NO,0,0,0,0,0,0,0,0,0,0,0,0,0,0,0,0,0,0,0,0,0,0,0,0,0,0,0,0,0,0,0,0,0,0,0,0,0,0,0,0,0,0,0,0,0,0,0,0,0,68
cassandra,cassandra-0.8.0,cassandra-1.0.0,F:/corpus/cassandra/cassandra#2011-06-03-06-03-47#cassandra-0.8.0#b44fa70/src/java/org/apache/cassandra/service/AsyncRepairCallback.java,F:/corpus/cassandra/cassandra#2011-06-03-06-03-47#cassandra-0.8.0#b44fa70/src/java/org/apache/cassandra/service/AsyncRepairCallback.java,0,0,0,0,0,0,0,0,0,0,0,0,0,NO,0,0,0,0,0,0,0,0,0,0,0,0,0,0,0,0,0,0,0,0,0,0,0,0,0,0,0,0,0,0,0,0,0,0,0,0,0,0,0,0,0,0,0,0,0,0,0,0,0,64
cassandra,cassandra-0.8.0,cassandra-1.0.0,F:/corpus/cassandra/cassandra#2011-06-03-06-03-47#cassandra-0.8.0#b44fa70/src/java/org/apache/cassandra/service/CassandraDaemon.java,F:/corpus/cassandra/cassandra#2011-06-03-06-03-47#cassandra-0.8.0#b44fa70/src/java/org/apache/cassandra/service/CassandraDaemon.java,0,0,0,0,1,0,0,0,0,0,0,0,0,NO,0,0,0,0,0,0,0,0,0,0,0,0,0,0,0,0,0,0,0,0,0,0,0,0,0,0,0,0,0,0,0,0,0,0,0,0,0,0,0,0,0,0,0,0,0,0,0,0,0,78
cassandra,cassandra-0.8.0,cassandra-1.0.0,F:/corpus/cassandra/cassandra#2011-06-03-06-03-47#cassandra-0.8.0#b44fa70/src/java/org/apache/cassandra/service/IReadCommand.java,F:/corpus/cassandra/cassandra#2011-06-03-06-03-47#cassandra-0.8.0#b44fa70/src/java/org/apache/cassandra/service/IReadCommand.java,0,0,0,0,0,0,0,0,0,0,0,0,0,NO,0,0,0,0,0,0,0,0,0,0,0,0,0,0,0,0,0,0,0,0,0,0,0,0,0,0,0,0,0,0,0,0,0,0,0,0,0,0,0,0,0,0,0,0,0,0,0,0,0,27
cassandra,cassandra-0.8.0,cassandra-1.0.0,F:/corpus/cassandra/cassandra#2011-06-03-06-03-47#cassandra-0.8.0#b44fa70/src/java/org/apache/cassandra/service/RangeSliceVerbHandler.java,F:/corpus/cassandra/cassandra#2011-06-03-06-03-47#cassandra-0.8.0#b44fa70/src/java/org/apache/cassandra/service/RangeSliceVerbHandler.java,0,0,0,0,0,0,0,1,1,0,0,0,0,NO,0,0,0,0,0,0,0,0,0,0,0,0,0,0,0,0,0,0,0,0,0,0,0,0,0,0,0,0,0,0,0,0,0,0,0,0,0,0,0,0,0,0,0,0,0,0,0,0,0,63
cassandra,cassandra-0.8.0,cassandra-1.0.0,F:/corpus/cassandra/cassandra#2011-06-03-06-03-47#cassandra-0.8.0#b44fa70/src/java/org/apache/cassandra/service/TruncateResponseHandler.java,F:/corpus/cassandra/cassandra#2011-06-03-06-03-47#cassandra-0.8.0#b44fa70/src/java/org/apache/cassandra/service/TruncateResponseHandler.java,0,0,0,0,1,0,0,0,0,0,0,0,0,NO,0,0,0,0,0,0,0,0,0,0,0,0,0,0,0,0,0,0,0,0,0,0,0,0,0,0,0,0,0,0,0,0,0,0,0,0,0,0,0,0,0,0,0,0,0,0,0,0,0,81
cassandra,cassandra-0.8.0,cassandra-1.0.0,F:/corpus/cassandra/cassandra#2011-06-03-06-03-47#cassandra-0.8.0#b44fa70/src/java/org/apache/cassandra/streaming/ReplicationFinishedVerbHandler.java,F:/corpus/cassandra/cassandra#2011-06-03-06-03-47#cassandra-0.8.0#b44fa70/src/java/org/apache/cassandra/streaming/ReplicationFinishedVerbHandler.java,0,0,1,0,0,0,0,0,0,0,0,0,0,NO,0,0,0,0,0,0,0,0,0,0,0,0,0,0,0,0,0,0,0,0,0,0,0,0,0,0,0,0,0,0,0,0,0,0,0,0,0,0,0,0,0,0,0,0,0,0,0,0,0,44
cassandra,cassandra-0.8.0,cassandra-1.0.0,F:/corpus/cassandra/cassandra#2011-06-03-06-03-47#cassandra-0.8.0#b44fa70/src/java/org/apache/cassandra/streaming/StreamHeader.java,F:/corpus/cassandra/cassandra#2011-06-03-06-03-47#cassandra-0.8.0#b44fa70/src/java/org/apache/cassandra/streaming/StreamHeader.java,1,0,0,0,0,0,0,0,0,0,0,0,0,NO,0,0,0,0,0,0,0,0,0,0,0,0,0,0,0,0,0,0,0,0,0,0,0,0,0,0,0,0,0,0,0,0,0,0,0,0,0,0,0,0,0,0,0,0,0,0,0,0,0,102
cassandra,cassandra-0.8.0,cassandra-1.0.0,F:/corpus/cassandra/cassandra#2011-06-03-06-03-47#cassandra-0.8.0#b44fa70/src/java/org/apache/cassandra/streaming/StreamingService.java,F:/corpus/cassandra/cassandra#2011-06-03-06-03-47#cassandra-0.8.0#b44fa70/src/java/org/apache/cassandra/streaming/StreamingService.java,0,0,0,0,0,0,0,0,0,0,0,0,0,NO,0,0,0,0,0,0,0,0,0,0,0,0,0,0,0,0,0,0,0,0,0,0,0,0,0,0,0,0,0,0,0,0,0,0,0,0,0,0,0,0,0,0,0,0,0,0,0,0,0,111
cassandra,cassandra-0.8.0,cassandra-1.0.0,F:/corpus/cassandra/cassandra#2011-06-03-06-03-47#cassandra-0.8.0#b44fa70/src/java/org/apache/cassandra/streaming/StreamingServiceMBean.java,F:/corpus/cassandra/cassandra#2011-06-03-06-03-47#cassandra-0.8.0#b44fa70/src/java/org/apache/cassandra/streaming/StreamingServiceMBean.java,0,0,0,0,1,0,0,0,0,0,0,0,0,NO,0,0,0,0,0,0,0,0,0,0,0,0,0,0,0,0,0,0,0,0,0,0,0,0,0,0,0,0,0,0,0,0,0,0,0,0,0,0,0,0,0,0,0,0,0,0,0,0,0,42
cassandra,cassandra-0.8.0,cassandra-1.0.0,F:/corpus/cassandra/cassandra#2011-06-03-06-03-47#cassandra-0.8.0#b44fa70/src/java/org/apache/cassandra/thrift/TBinaryProtocol.java,F:/corpus/cassandra/cassandra#2011-06-03-06-03-47#cassandra-0.8.0#b44fa70/src/java/org/apache/cassandra/thrift/TBinaryProtocol.java,0,0,0,0,0,0,0,0,0,0,0,0,0,NO,0,0,0,0,0,0,0,0,0,0,0,0,0,0,0,0,0,0,0,0,0,0,0,0,0,0,0,0,0,0,0,0,0,0,0,0,0,0,0,0,0,0,0,0,0,0,0,0,0,99
cassandra,cassandra-0.8.0,cassandra-1.0.0,F:/corpus/cassandra/cassandra#2011-06-03-06-03-47#cassandra-0.8.0#b44fa70/src/java/org/apache/cassandra/thrift/TCustomServerSocket.java,F:/corpus/cassandra/cassandra#2011-06-03-06-03-47#cassandra-0.8.0#b44fa70/src/java/org/apache/cassandra/thrift/TCustomServerSocket.java,0,0,0,0,0,0,0,0,0,0,0,0,0,NO,0,0,0,0,0,0,0,0,0,0,0,0,0,0,0,0,0,0,0,0,0,0,0,0,0,0,0,0,0,0,0,0,0,0,0,0,0,0,0,0,0,0,0,0,0,0,0,0,0,106
cassandra,cassandra-0.8.0,cassandra-1.0.0,F:/corpus/cassandra/cassandra#2011-06-03-06-03-47#cassandra-0.8.0#b44fa70/src/java/org/apache/cassandra/tools/GetVersion.java,F:/corpus/cassandra/cassandra#2011-06-03-06-03-47#cassandra-0.8.0#b44fa70/src/java/org/apache/cassandra/tools/GetVersion.java,0,0,0,0,1,0,0,0,0,0,0,0,0,NO,0,0,0,0,0,0,0,0,0,0,0,0,0,0,0,0,0,0,0,0,0,0,0,0,0,0,0,0,0,0,0,0,0,0,0,0,0,0,0,0,0,0,0,0,0,0,0,0,0,26
cassandra,cassandra-0.8.0,cassandra-1.0.0,F:/corpus/cassandra/cassandra#2011-06-03-06-03-47#cassandra-0.8.0#b44fa70/src/java/org/apache/cassandra/utils/AbstractStatsDeque.java,F:/corpus/cassandra/cassandra#2011-06-03-06-03-47#cassandra-0.8.0#b44fa70/src/java/org/apache/cassandra/utils/AbstractStatsDeque.java,0,0,0,0,0,0,0,0,0,0,0,0,0,NO,0,0,0,0,0,0,0,0,0,0,0,0,0,0,0,0,0,0,0,0,0,0,0,0,0,0,0,0,0,0,0,0,0,0,0,0,0,0,0,0,0,0,0,0,0,0,0,0,0,72
cassandra,cassandra-0.8.0,cassandra-1.0.0,F:/corpus/cassandra/cassandra#2011-06-03-06-03-47#cassandra-0.8.0#b44fa70/src/java/org/apache/cassandra/utils/BoundedStatsDeque.java,F:/corpus/cassandra/cassandra#2011-06-03-06-03-47#cassandra-0.8.0#b44fa70/src/java/org/apache/cassandra/utils/BoundedStatsDeque.java,0,0,0,0,0,0,0,0,0,0,0,0,0,NO,0,0,0,0,0,0,0,0,0,0,0,0,0,0,0,0,0,0,0,0,0,0,0,0,0,0,0,0,0,0,0,0,0,0,0,0,0,0,0,0,0,0,0,0,0,0,0,0,0,61
cassandra,cassandra-0.8.0,cassandra-1.0.0,F:/corpus/cassandra/cassandra#2011-06-03-06-03-47#cassandra-0.8.0#b44fa70/src/java/org/apache/cassandra/utils/CloseableIterator.java,F:/corpus/cassandra/cassandra#2011-06-03-06-03-47#cassandra-0.8.0#b44fa70/src/java/org/apache/cassandra/utils/CloseableIterator.java,0,0,0,0,1,0,0,0,0,0,0,0,0,NO,0,0,0,0,0,0,0,0,0,0,0,0,0,0,0,0,0,0,0,0,0,0,0,0,0,0,0,0,0,0,0,0,0,0,0,0,0,0,0,0,0,0,0,0,0,0,0,0,0,30
cassandra,cassandra-0.8.0,cassandra-1.0.0,F:/corpus/cassandra/cassandra#2011-06-03-06-03-47#cassandra-0.8.0#b44fa70/src/java/org/apache/cassandra/utils/DefaultDouble.java,F:/corpus/cassandra/cassandra#2011-06-03-06-03-47#cassandra-0.8.0#b44fa70/src/java/org/apache/cassandra/utils/DefaultDouble.java,0,0,0,0,0,0,0,0,0,0,0,0,0,NO,0,0,0,0,0,0,0,0,0,0,0,0,0,0,0,0,0,0,0,0,0,0,0,0,0,0,0,0,0,0,0,0,0,0,0,0,0,0,0,0,0,0,0,0,0,0,0,0,0,47
cassandra,cassandra-0.8.0,cassandra-1.0.0,F:/corpus/cassandra/cassandra#2011-06-03-06-03-47#cassandra-0.8.0#b44fa70/src/java/org/apache/cassandra/utils/DefaultInteger.java,F:/corpus/cassandra/cassandra#2011-06-03-06-03-47#cassandra-0.8.0#b44fa70/src/java/org/apache/cassandra/utils/DefaultInteger.java,0,0,0,0,0,0,0,0,0,0,0,0,0,NO,0,0,0,0,0,0,0,0,0,0,0,0,0,0,0,0,0,0,0,0,0,0,0,0,0,0,0,0,0,0,0,0,0,0,0,0,0,0,0,0,0,0,0,0,0,0,0,0,0,47
cassandra,cassandra-0.8.0,cassandra-1.0.0,F:/corpus/cassandra/cassandra#2011-06-03-06-03-47#cassandra-0.8.0#b44fa70/src/java/org/apache/cassandra/utils/DestructivePQIterator.java,F:/corpus/cassandra/cassandra#2011-06-03-06-03-47#cassandra-0.8.0#b44fa70/src/java/org/apache/cassandra/utils/DestructivePQIterator.java,0,0,0,0,0,0,0,0,0,0,0,0,0,NO,0,0,0,0,0,0,0,0,0,0,0,0,0,0,0,0,0,0,0,0,0,0,0,0,0,0,0,0,0,0,0,0,0,0,0,0,0,0,0,0,0,0,0,0,0,0,0,0,0,43
cassandra,cassandra-0.8.0,cassandra-1.0.0,F:/corpus/cassandra/cassandra#2011-06-03-06-03-47#cassandra-0.8.0#b44fa70/src/java/org/apache/cassandra/utils/Filter.java,F:/corpus/cassandra/cassandra#2011-06-03-06-03-47#cassandra-0.8.0#b44fa70/src/java/org/apache/cassandra/utils/Filter.java,0,0,0,0,0,0,0,0,0,0,0,0,0,NO,0,0,0,0,0,0,0,0,0,0,0,0,0,0,0,0,0,0,0,0,0,0,0,0,0,0,0,0,0,0,0,0,0,0,0,0,0,0,0,0,0,0,0,0,0,0,0,0,0,35
cassandra,cassandra-0.8.0,cassandra-1.0.0,F:/corpus/cassandra/cassandra#2011-06-03-06-03-47#cassandra-0.8.0#b44fa70/src/java/org/apache/cassandra/utils/GuidGenerator.java,F:/corpus/cassandra/cassandra#2011-06-03-06-03-47#cassandra-0.8.0#b44fa70/src/java/org/apache/cassandra/utils/GuidGenerator.java,0,0,0,0,0,0,0,0,0,0,0,0,0,NO,0,0,0,0,0,0,0,0,0,0,0,0,0,0,0,0,0,0,0,0,0,0,0,0,0,0,0,0,0,0,0,0,0,0,0,0,0,0,0,0,0,0,0,0,0,0,0,0,0,114
cassandra,cassandra-0.8.0,cassandra-1.0.0,F:/corpus/cassandra/cassandra#2011-06-03-06-03-47#cassandra-0.8.0#b44fa70/src/java/org/apache/cassandra/utils/LatencyTracker.java,F:/corpus/cassandra/cassandra#2011-06-03-06-03-47#cassandra-0.8.0#b44fa70/src/java/org/apache/cassandra/utils/LatencyTracker.java,0,0,0,0,0,0,0,0,0,0,0,0,0,NO,0,0,0,0,0,0,0,0,0,0,0,0,0,0,0,0,0,0,0,0,0,0,0,0,0,0,0,0,0,0,0,0,0,0,0,0,0,0,0,0,0,0,0,0,0,0,0,0,0,86
cassandra,cassandra-0.8.0,cassandra-1.0.0,F:/corpus/cassandra/cassandra#2011-06-03-06-03-47#cassandra-0.8.0#b44fa70/src/java/org/apache/cassandra/utils/LegacyBloomFilter.java,F:/corpus/cassandra/cassandra#2011-06-03-06-03-47#cassandra-0.8.0#b44fa70/src/java/org/apache/cassandra/utils/LegacyBloomFilter.java,0,0,0,0,0,0,0,0,0,0,0,0,0,NO,0,0,0,0,0,0,0,0,0,0,0,0,0,0,0,0,0,0,0,0,0,0,0,0,0,0,0,0,0,0,0,0,0,0,0,0,0,0,0,0,0,0,0,0,0,0,0,0,0,175
cassandra,cassandra-0.8.0,cassandra-1.0.0,F:/corpus/cassandra/cassandra#2011-06-03-06-03-47#cassandra-0.8.0#b44fa70/src/java/org/apache/cassandra/utils/LegacyBloomFilterSerializer.java,F:/corpus/cassandra/cassandra#2011-06-03-06-03-47#cassandra-0.8.0#b44fa70/src/java/org/apache/cassandra/utils/LegacyBloomFilterSerializer.java,0,0,0,0,2,0,0,0,0,0,0,0,0,NO,0,0,0,0,0,0,0,0,0,0,0,0,0,0,0,0,0,0,0,0,0,0,0,0,0,0,0,0,0,0,0,0,0,0,0,0,0,0,0,0,0,0,0,0,0,0,0,0,0,56
cassandra,cassandra-0.8.0,cassandra-1.0.0,F:/corpus/cassandra/cassandra#2011-06-03-06-03-47#cassandra-0.8.0#b44fa70/src/java/org/apache/cassandra/utils/MurmurHash.java,F:/corpus/cassandra/cassandra#2011-06-03-06-03-47#cassandra-0.8.0#b44fa70/src/java/org/apache/cassandra/utils/MurmurHash.java,0,0,0,0,0,0,0,0,0,0,0,0,0,NO,0,0,0,0,0,0,0,0,0,0,0,0,0,0,0,0,0,0,0,0,0,0,0,0,0,0,0,0,0,0,0,0,0,0,0,0,0,0,0,0,0,0,0,0,0,0,0,0,0,144
cassandra,cassandra-0.8.0,cassandra-1.0.0,F:/corpus/cassandra/cassandra#2011-06-03-06-03-47#cassandra-0.8.0#b44fa70/src/java/org/apache/cassandra/utils/obs/ArrayUtil.java,F:/corpus/cassandra/cassandra#2011-06-03-06-03-47#cassandra-0.8.0#b44fa70/src/java/org/apache/cassandra/utils/obs/ArrayUtil.java,0,0,0,0,0,0,0,0,0,0,0,0,0,NO,0,0,0,0,0,0,0,0,0,0,0,0,0,0,0,0,0,0,0,0,0,0,0,0,0,0,0,0,0,0,0,0,0,0,0,0,0,0,0,0,0,0,0,0,0,0,0,0,0,39
cassandra,cassandra-0.8.0,cassandra-1.0.0,F:/corpus/cassandra/cassandra#2011-06-03-06-03-47#cassandra-0.8.0#b44fa70/src/java/org/apache/cassandra/utils/obs/BitUtil.java,F:/corpus/cassandra/cassandra#2011-06-03-06-03-47#cassandra-0.8.0#b44fa70/src/java/org/apache/cassandra/utils/obs/BitUtil.java,0,0,0,0,0,0,0,0,0,5,0,0,0,NO,0,0,0,0,0,0,0,0,0,0,0,0,0,0,0,0,0,0,0,0,0,0,0,0,0,0,0,0,0,0,0,0,0,0,0,0,0,0,0,0,0,0,0,0,0,0,0,0,0,815
cassandra,cassandra-0.8.0,cassandra-1.0.0,F:/corpus/cassandra/cassandra#2011-06-03-06-03-47#cassandra-0.8.0#b44fa70/src/java/org/apache/cassandra/utils/obs/OpenBitSet.java,F:/corpus/cassandra/cassandra#2011-06-03-06-03-47#cassandra-0.8.0#b44fa70/src/java/org/apache/cassandra/utils/obs/OpenBitSet.java,0,0,0,0,0,0,0,0,0,0,0,0,0,NO,0,0,0,0,0,0,0,0,0,0,0,0,0,0,0,0,0,0,0,0,0,0,0,0,0,0,0,0,0,0,0,0,0,0,0,0,0,0,0,0,0,0,0,0,0,0,0,0,0,818
cassandra,cassandra-0.8.0,cassandra-1.0.0,F:/corpus/cassandra/cassandra#2011-06-03-06-03-47#cassandra-0.8.0#b44fa70/src/java/org/apache/cassandra/utils/Pair.java,F:/corpus/cassandra/cassandra#2011-06-03-06-03-47#cassandra-0.8.0#b44fa70/src/java/org/apache/cassandra/utils/Pair.java,0,0,0,0,0,0,0,0,0,0,0,0,0,NO,0,0,0,0,0,0,0,0,0,0,0,0,0,0,0,0,0,0,0,0,0,0,0,0,0,0,0,0,0,0,0,0,0,0,0,0,0,0,0,0,0,0,0,0,0,0,0,0,0,61
cassandra,cassandra-0.8.0,cassandra-1.0.0,F:/corpus/cassandra/cassandra#2011-06-03-06-03-47#cassandra-0.8.0#b44fa70/src/java/org/apache/cassandra/utils/ResourceWatcher.java,F:/corpus/cassandra/cassandra#2011-06-03-06-03-47#cassandra-0.8.0#b44fa70/src/java/org/apache/cassandra/utils/ResourceWatcher.java,0,0,0,0,0,0,0,0,0,0,0,0,0,NO,0,0,0,0,0,0,0,0,0,0,0,0,0,0,0,0,0,0,0,0,0,0,0,0,0,0,0,0,0,0,0,0,0,0,0,0,0,0,0,0,0,0,0,0,0,0,0,0,0,71
cassandra,cassandra-0.8.0,cassandra-1.0.0,F:/corpus/cassandra/cassandra#2011-06-03-06-03-47#cassandra-0.8.0#b44fa70/src/java/org/apache/cassandra/utils/SimpleCondition.java,F:/corpus/cassandra/cassandra#2011-06-03-06-03-47#cassandra-0.8.0#b44fa70/src/java/org/apache/cassandra/utils/SimpleCondition.java,0,0,0,0,2,0,0,0,0,0,0,1,0,NO,0,0,0,0,0,0,0,0,0,0,0,0,0,0,0,0,0,0,0,0,0,0,0,0,0,0,0,0,0,0,0,0,0,0,0,0,0,0,0,0,0,0,0,0,0,0,0,0,0,90
cassandra,cassandra-0.8.0,cassandra-1.0.0,F:/corpus/cassandra/cassandra#2011-06-03-06-03-47#cassandra-0.8.0#b44fa70/src/java/org/apache/cassandra/utils/SkipNullRepresenter.java,F:/corpus/cassandra/cassandra#2011-06-03-06-03-47#cassandra-0.8.0#b44fa70/src/java/org/apache/cassandra/utils/SkipNullRepresenter.java,0,0,0,0,0,0,0,0,0,0,0,0,0,NO,0,0,0,0,0,0,0,0,0,0,0,0,0,0,0,0,0,0,0,0,0,0,0,0,0,0,0,0,0,0,0,0,0,0,0,0,0,0,0,0,0,0,0,0,0,0,0,0,0,41
cassandra,cassandra-0.8.0,cassandra-1.0.0,F:/corpus/cassandra/cassandra#2011-06-03-06-03-47#cassandra-0.8.0#b44fa70/src/java/org/apache/cassandra/utils/WrappedRunnable.java,F:/corpus/cassandra/cassandra#2011-06-03-06-03-47#cassandra-0.8.0#b44fa70/src/java/org/apache/cassandra/utils/WrappedRunnable.java,0,0,0,0,0,0,0,0,0,0,0,0,0,NO,0,0,0,0,0,0,0,0,0,0,0,0,0,0,0,0,0,0,0,0,0,0,0,0,0,0,0,0,0,0,0,0,0,0,0,0,0,0,0,0,0,0,0,0,0,0,0,0,0,39
cassandra,cassandra-0.8.0,cassandra-1.0.0,F:/corpus/cassandra/cassandra#2011-06-03-06-03-47#cassandra-0.8.0#b44fa70/src/java/org/apache/cassandra/utils/XMLUtils.java,F:/corpus/cassandra/cassandra#2011-06-03-06-03-47#cassandra-0.8.0#b44fa70/src/java/org/apache/cassandra/utils/XMLUtils.java,0,0,0,0,0,1,0,0,0,0,0,0,0,NO,0,0,0,0,0,0,0,0,0,0,0,0,0,0,0,0,0,0,0,0,0,0,0,0,0,0,0,0,0,0,0,0,0,0,0,0,0,0,0,0,0,0,0,0,0,0,0,0,0,90
