projectName,oldVersionTag,newVersionTag,oldPath,newPath,DC,LC,MM,RPB,SG,MCH,DCLP,DIVC,FE,LM,LPL,SS,SC,fromChangeDistiller,adding_attribute_modifiability,adding_class_derivability,adding_method_overridability,additional_class,additional_functionality,additional_object_state,alternative_part_delete,alternative_part_insert,attribute_renaming,attribute_type_change,class_renaming,comment_delete,comment_insert,comment_move,comment_update,condition_expression_change,decreasing_accessibility_change,doc_delete,doc_insert,doc_update,increasing_accessibility_change,method_renaming,parameter_delete,parameter_insert,parameter_ordering_change,parameter_renaming,parameter_type_change,parent_class_change,parent_class_delete,parent_class_insert,parent_interface_change,parent_interface_delete,parent_interface_insert,removed_class,removed_functionality,removed_object_state,removing_attribute_modifiability,removing_class_derivability,removing_method_overridability,return_type_change,return_type_delete,return_type_insert,statement_delete,statement_insert,statement_ordering_change,statement_parent_change,statement_update,unclassified_change,codeChurn,LOC
cassandra,cassandra-0.6.0,cassandra-0.7.0,F:/corpus/cassandra/cassandra#2010-04-12-09-37-17#cassandra-0.6.0#bb948b4/contrib/javautils/src/main/java/org/apache/cassandra/contrib/utils/service/CassandraServiceDataCleaner.java,F:/corpus/cassandra/cassandra#2011-01-10-08-38-51#cassandra-0.7.0#7b7e357/contrib/javautils/src/main/java/org/apache/cassandra/contrib/utils/service/CassandraServiceDataCleaner.java,0,0,0,0,0,0,0,0,0,0,0,0,0,YES,0,0,0,0,0,0,0,0,0,0,0,0,0,0,0,0,0,0,0,0,0,0,0,0,0,0,0,0,0,0,0,0,0,0,0,0,0,0,0,0,0,0,2,3,0,0,1,0,3,101
cassandra,cassandra-0.6.0,cassandra-0.7.0,F:/corpus/cassandra/cassandra#2010-04-12-09-37-17#cassandra-0.6.0#bb948b4/contrib/pig/src/java/org/apache/cassandra/hadoop/pig/CassandraStorage.java,F:/corpus/cassandra/cassandra#2011-01-10-08-38-51#cassandra-0.7.0#7b7e357/contrib/pig/src/java/org/apache/cassandra/hadoop/pig/CassandraStorage.java,0,0,0,0,2,0,0,0,0,0,0,0,0,YES,0,0,0,0,0,4,0,0,0,0,0,0,1,0,0,1,0,0,0,0,0,0,0,0,0,0,1,0,0,0,0,0,0,0,0,1,0,0,0,0,0,0,0,6,0,0,7,0,16,145
cassandra,cassandra-0.6.0,cassandra-0.7.0,F:/corpus/cassandra/cassandra#2010-04-12-09-37-17#cassandra-0.6.0#bb948b4/interface/thrift/gen-java/org/apache/cassandra/thrift/AuthenticationException.java,F:/corpus/cassandra/cassandra#2011-01-10-08-38-51#cassandra-0.7.0#7b7e357/interface/thrift/gen-java/org/apache/cassandra/thrift/AuthenticationException.java,0,0,0,0,0,1,0,0,0,0,0,0,0,YES,0,0,0,0,2,0,0,0,0,0,0,0,0,0,0,0,0,0,0,1,0,0,0,0,0,0,0,0,0,0,1,1,0,0,4,0,0,0,0,0,0,0,1,8,0,0,1,0,43,333
cassandra,cassandra-0.6.0,cassandra-0.7.0,F:/corpus/cassandra/cassandra#2010-04-12-09-37-17#cassandra-0.6.0#bb948b4/interface/thrift/gen-java/org/apache/cassandra/thrift/AuthenticationRequest.java,F:/corpus/cassandra/cassandra#2011-01-10-08-38-51#cassandra-0.7.0#7b7e357/interface/thrift/gen-java/org/apache/cassandra/thrift/AuthenticationRequest.java,0,0,0,0,0,0,0,0,0,0,0,0,0,YES,0,0,0,0,3,0,0,0,0,0,0,0,0,0,0,2,0,0,0,1,0,0,0,0,0,0,0,0,0,0,1,0,0,0,4,0,0,0,0,0,0,0,2,9,0,0,10,0,76,358
cassandra,cassandra-0.6.0,cassandra-0.7.0,F:/corpus/cassandra/cassandra#2010-04-12-09-37-17#cassandra-0.6.0#bb948b4/interface/thrift/gen-java/org/apache/cassandra/thrift/AuthorizationException.java,F:/corpus/cassandra/cassandra#2011-01-10-08-38-51#cassandra-0.7.0#7b7e357/interface/thrift/gen-java/org/apache/cassandra/thrift/AuthorizationException.java,0,0,0,0,0,1,0,0,0,0,0,0,0,YES,0,0,0,0,2,0,0,0,0,0,0,0,0,0,0,0,0,0,0,0,0,0,0,0,0,0,0,0,0,0,1,1,0,0,4,0,0,0,0,0,0,0,1,8,0,0,1,0,42,333
cassandra,cassandra-0.6.0,cassandra-0.7.0,F:/corpus/cassandra/cassandra#2010-04-12-09-37-17#cassandra-0.6.0#bb948b4/interface/thrift/gen-java/org/apache/cassandra/thrift/Column.java,F:/corpus/cassandra/cassandra#2011-01-10-08-38-51#cassandra-0.7.0#7b7e357/interface/thrift/gen-java/org/apache/cassandra/thrift/Column.java,0,0,0,0,0,0,0,0,0,0,0,0,0,YES,0,0,0,0,11,3,0,2,0,2,0,0,1,0,0,3,0,0,0,1,0,0,0,0,1,0,2,0,0,0,1,1,0,0,4,0,0,0,0,0,0,0,26,69,0,3,7,0,155,523
cassandra,cassandra-0.6.0,cassandra-0.7.0,F:/corpus/cassandra/cassandra#2010-04-12-09-37-17#cassandra-0.6.0#bb948b4/interface/thrift/gen-java/org/apache/cassandra/thrift/ColumnOrSuperColumn.java,F:/corpus/cassandra/cassandra#2011-01-10-08-38-51#cassandra-0.7.0#7b7e357/interface/thrift/gen-java/org/apache/cassandra/thrift/ColumnOrSuperColumn.java,0,0,0,0,0,1,0,0,0,0,0,0,0,YES,0,0,0,0,2,0,0,0,0,0,0,0,0,0,0,0,0,0,0,0,0,0,0,0,0,0,0,0,0,0,1,1,0,0,4,0,0,0,0,0,0,0,1,12,0,0,2,0,47,423
cassandra,cassandra-0.6.0,cassandra-0.7.0,F:/corpus/cassandra/cassandra#2010-04-12-09-37-17#cassandra-0.6.0#bb948b4/interface/thrift/gen-java/org/apache/cassandra/thrift/ColumnParent.java,F:/corpus/cassandra/cassandra#2011-01-10-08-38-51#cassandra-0.7.0#7b7e357/interface/thrift/gen-java/org/apache/cassandra/thrift/ColumnParent.java,0,0,0,0,0,1,0,0,0,0,0,0,0,YES,0,0,0,0,4,0,0,0,0,1,0,0,0,0,0,1,0,0,0,0,0,0,0,0,0,0,0,0,0,0,1,1,0,0,4,0,0,0,0,0,0,0,15,18,0,0,3,0,64,429
cassandra,cassandra-0.6.0,cassandra-0.7.0,F:/corpus/cassandra/cassandra#2010-04-12-09-37-17#cassandra-0.6.0#bb948b4/interface/thrift/gen-java/org/apache/cassandra/thrift/ColumnPath.java,F:/corpus/cassandra/cassandra#2011-01-10-08-38-51#cassandra-0.7.0#7b7e357/interface/thrift/gen-java/org/apache/cassandra/thrift/ColumnPath.java,0,0,0,0,0,1,0,0,0,0,0,0,0,YES,0,0,0,0,6,0,0,0,0,2,0,0,0,0,0,2,0,0,0,0,0,0,0,0,0,0,0,0,0,0,1,1,0,0,4,0,0,0,0,0,0,0,29,28,0,0,5,0,86,526
cassandra,cassandra-0.6.0,cassandra-0.7.0,F:/corpus/cassandra/cassandra#2010-04-12-09-37-17#cassandra-0.6.0#bb948b4/interface/thrift/gen-java/org/apache/cassandra/thrift/ConsistencyLevel.java,F:/corpus/cassandra/cassandra#2011-01-10-08-38-51#cassandra-0.7.0#7b7e357/interface/thrift/gen-java/org/apache/cassandra/thrift/ConsistencyLevel.java,0,0,0,0,0,0,0,0,0,0,0,0,0,YES,0,0,0,0,0,0,0,0,0,0,0,0,0,0,0,0,0,0,0,0,0,0,0,0,0,0,0,0,0,0,0,0,0,0,0,0,0,0,0,0,0,0,0,0,0,0,0,0,21,106
cassandra,cassandra-0.6.0,cassandra-0.7.0,F:/corpus/cassandra/cassandra#2010-04-12-09-37-17#cassandra-0.6.0#bb948b4/interface/thrift/gen-java/org/apache/cassandra/thrift/Constants.java,F:/corpus/cassandra/cassandra#2011-01-10-08-38-51#cassandra-0.7.0#7b7e357/interface/thrift/gen-java/org/apache/cassandra/thrift/Constants.java,0,0,0,0,0,0,0,0,0,0,0,0,0,YES,0,0,0,0,0,0,0,0,0,0,0,0,0,0,0,0,0,0,0,0,0,0,0,0,0,0,0,0,0,0,0,0,0,0,0,0,0,0,0,0,0,0,0,0,0,0,0,0,3,47
cassandra,cassandra-0.6.0,cassandra-0.7.0,F:/corpus/cassandra/cassandra#2010-04-12-09-37-17#cassandra-0.6.0#bb948b4/interface/thrift/gen-java/org/apache/cassandra/thrift/Deletion.java,F:/corpus/cassandra/cassandra#2011-01-10-08-38-51#cassandra-0.7.0#7b7e357/interface/thrift/gen-java/org/apache/cassandra/thrift/Deletion.java,0,0,0,0,0,1,0,0,0,0,0,0,0,YES,0,0,0,0,4,0,0,0,0,1,0,0,0,0,0,1,0,0,0,0,0,0,0,0,0,0,0,0,0,0,1,1,0,0,4,0,0,0,0,0,0,0,15,22,0,0,4,0,69,509
cassandra,cassandra-0.6.0,cassandra-0.7.0,F:/corpus/cassandra/cassandra#2010-04-12-09-37-17#cassandra-0.6.0#bb948b4/interface/thrift/gen-java/org/apache/cassandra/thrift/InvalidRequestException.java,F:/corpus/cassandra/cassandra#2011-01-10-08-38-51#cassandra-0.7.0#7b7e357/interface/thrift/gen-java/org/apache/cassandra/thrift/InvalidRequestException.java,0,0,0,0,0,1,0,0,0,0,0,0,0,YES,0,0,0,0,2,0,0,0,0,0,0,0,0,0,0,0,0,0,0,0,0,0,0,0,0,0,0,0,0,0,1,1,0,0,4,0,0,0,0,0,0,0,1,8,0,0,1,0,42,334
cassandra,cassandra-0.6.0,cassandra-0.7.0,F:/corpus/cassandra/cassandra#2010-04-12-09-37-17#cassandra-0.6.0#bb948b4/interface/thrift/gen-java/org/apache/cassandra/thrift/KeyRange.java,F:/corpus/cassandra/cassandra#2011-01-10-08-38-51#cassandra-0.7.0#7b7e357/interface/thrift/gen-java/org/apache/cassandra/thrift/KeyRange.java,0,0,0,0,0,1,0,0,0,0,0,0,0,YES,0,0,0,0,7,0,2,2,0,2,0,0,0,0,0,0,0,0,0,0,0,0,0,0,0,0,1,0,0,0,1,1,0,0,5,0,0,0,0,0,0,0,8,33,0,0,12,0,80,686
cassandra,cassandra-0.6.0,cassandra-0.7.0,F:/corpus/cassandra/cassandra#2010-04-12-09-37-17#cassandra-0.6.0#bb948b4/interface/thrift/gen-java/org/apache/cassandra/thrift/KeySlice.java,F:/corpus/cassandra/cassandra#2011-01-10-08-38-51#cassandra-0.7.0#7b7e357/interface/thrift/gen-java/org/apache/cassandra/thrift/KeySlice.java,0,0,0,0,0,1,0,0,0,0,0,0,0,YES,0,0,0,0,5,1,1,1,0,0,0,0,0,0,0,2,0,0,0,0,0,0,0,0,0,0,1,0,0,0,1,1,0,0,5,1,0,0,0,0,0,0,5,17,0,0,14,0,59,463
cassandra,cassandra-0.6.0,cassandra-0.7.0,F:/corpus/cassandra/cassandra#2010-04-12-09-37-17#cassandra-0.6.0#bb948b4/interface/thrift/gen-java/org/apache/cassandra/thrift/Mutation.java,F:/corpus/cassandra/cassandra#2011-01-10-08-38-51#cassandra-0.7.0#7b7e357/interface/thrift/gen-java/org/apache/cassandra/thrift/Mutation.java,0,0,0,0,0,1,0,0,0,0,0,0,0,YES,0,0,0,0,2,0,0,0,0,0,0,0,0,0,0,0,0,0,0,0,0,0,0,0,0,0,0,0,0,0,1,1,0,0,4,0,0,0,0,0,0,0,1,12,0,0,2,0,47,418
cassandra,cassandra-0.6.0,cassandra-0.7.0,F:/corpus/cassandra/cassandra#2010-04-12-09-37-17#cassandra-0.6.0#bb948b4/interface/thrift/gen-java/org/apache/cassandra/thrift/SlicePredicate.java,F:/corpus/cassandra/cassandra#2011-01-10-08-38-51#cassandra-0.7.0#7b7e357/interface/thrift/gen-java/org/apache/cassandra/thrift/SlicePredicate.java,0,0,0,0,0,1,0,0,0,0,0,0,0,YES,0,0,0,0,2,0,0,0,0,1,0,0,0,0,0,1,0,0,0,0,0,0,0,0,0,0,2,0,0,0,1,1,0,0,4,0,0,0,0,1,0,0,4,14,0,1,7,0,54,463
cassandra,cassandra-0.6.0,cassandra-0.7.0,F:/corpus/cassandra/cassandra#2010-04-12-09-37-17#cassandra-0.6.0#bb948b4/interface/thrift/gen-java/org/apache/cassandra/thrift/SliceRange.java,F:/corpus/cassandra/cassandra#2011-01-10-08-38-51#cassandra-0.7.0#7b7e357/interface/thrift/gen-java/org/apache/cassandra/thrift/SliceRange.java,0,0,0,0,0,1,0,0,0,0,0,0,0,YES,0,0,0,0,6,0,0,0,0,2,0,0,0,0,0,2,0,0,0,1,0,0,0,0,0,0,2,0,0,0,1,1,0,0,4,0,0,0,0,0,0,0,29,32,0,0,6,0,95,619
cassandra,cassandra-0.6.0,cassandra-0.7.0,F:/corpus/cassandra/cassandra#2010-04-12-09-37-17#cassandra-0.6.0#bb948b4/interface/thrift/gen-java/org/apache/cassandra/thrift/SuperColumn.java,F:/corpus/cassandra/cassandra#2011-01-10-08-38-51#cassandra-0.7.0#7b7e357/interface/thrift/gen-java/org/apache/cassandra/thrift/SuperColumn.java,0,0,0,0,0,0,0,0,0,0,0,0,0,YES,0,0,0,0,4,0,0,0,0,1,0,0,0,0,0,1,0,0,0,0,0,0,0,0,0,0,1,0,0,0,1,1,0,0,4,0,0,0,0,0,0,0,15,18,0,0,3,0,58,468
cassandra,cassandra-0.6.0,cassandra-0.7.0,F:/corpus/cassandra/cassandra#2010-04-12-09-37-17#cassandra-0.6.0#bb948b4/interface/thrift/gen-java/org/apache/cassandra/thrift/TokenRange.java,F:/corpus/cassandra/cassandra#2011-01-10-08-38-51#cassandra-0.7.0#7b7e357/interface/thrift/gen-java/org/apache/cassandra/thrift/TokenRange.java,0,0,0,0,0,1,0,0,0,0,0,0,0,YES,0,0,0,0,2,0,0,0,0,0,0,0,0,0,0,2,0,0,0,0,0,0,0,0,0,0,0,0,0,0,1,1,0,0,4,0,0,0,0,0,0,0,1,16,0,0,11,0,50,543
cassandra,cassandra-0.6.0,cassandra-0.7.0,F:/corpus/cassandra/cassandra#2010-04-12-09-37-17#cassandra-0.6.0#bb948b4/src/java/org/apache/cassandra/auth/AllowAllAuthenticator.java,F:/corpus/cassandra/cassandra#2011-01-10-08-38-51#cassandra-0.7.0#7b7e357/src/java/org/apache/cassandra/auth/AllowAllAuthenticator.java,0,0,0,0,0,0,0,0,0,0,0,0,0,YES,0,0,0,0,3,1,0,0,0,0,0,0,0,0,0,0,0,0,0,0,0,0,0,0,0,0,0,0,0,0,0,0,0,0,1,0,0,0,0,0,0,0,0,0,0,0,0,0,8,35
cassandra,cassandra-0.6.0,cassandra-0.7.0,F:/corpus/cassandra/cassandra#2010-04-12-09-37-17#cassandra-0.6.0#bb948b4/src/java/org/apache/cassandra/auth/IAuthenticator.java,F:/corpus/cassandra/cassandra#2011-01-10-08-38-51#cassandra-0.7.0#7b7e357/src/java/org/apache/cassandra/auth/IAuthenticator.java,0,0,0,0,0,0,0,0,0,0,0,0,0,YES,0,0,0,0,3,0,0,0,0,0,0,0,0,0,0,0,0,0,0,0,0,0,0,0,0,0,0,0,0,0,0,0,0,0,1,0,0,0,0,0,0,0,0,0,0,0,0,0,5,31
cassandra,cassandra-0.6.0,cassandra-0.7.0,F:/corpus/cassandra/cassandra#2010-04-12-09-37-17#cassandra-0.6.0#bb948b4/src/java/org/apache/cassandra/auth/SimpleAuthenticator.java,F:/corpus/cassandra/cassandra#2011-01-10-08-38-51#cassandra-0.7.0#7b7e357/src/java/org/apache/cassandra/auth/SimpleAuthenticator.java,1,0,0,0,0,2,0,0,0,1,0,0,0,YES,0,0,0,0,3,0,0,0,0,0,0,0,0,0,0,0,0,0,0,0,0,0,0,0,0,0,0,0,0,0,0,0,0,0,2,1,0,0,0,0,0,0,0,0,0,0,0,0,57,165
cassandra,cassandra-0.6.0,cassandra-0.7.0,F:/corpus/cassandra/cassandra#2010-04-12-09-37-17#cassandra-0.6.0#bb948b4/src/java/org/apache/cassandra/avro/AvroValidation.java,F:/corpus/cassandra/cassandra#2011-01-10-08-38-51#cassandra-0.7.0#7b7e357/src/java/org/apache/cassandra/avro/AvroValidation.java,0,0,0,0,0,0,0,0,0,0,0,0,0,YES,0,0,0,0,12,0,0,1,0,0,0,0,0,0,0,13,0,0,0,0,1,1,1,1,0,0,2,0,0,0,0,0,0,0,0,0,0,0,0,1,0,0,6,14,0,0,7,0,213,142
cassandra,cassandra-0.6.0,cassandra-0.7.0,F:/corpus/cassandra/cassandra#2010-04-12-09-37-17#cassandra-0.6.0#bb948b4/src/java/org/apache/cassandra/avro/CassandraDaemon.java,F:/corpus/cassandra/cassandra#2011-01-10-08-38-51#cassandra-0.7.0#7b7e357/src/java/org/apache/cassandra/avro/CassandraDaemon.java,0,0,0,0,2,0,0,0,0,0,0,0,0,YES,0,0,0,0,0,1,0,0,0,0,0,1,2,0,0,0,0,0,0,0,0,0,0,0,0,0,0,0,0,1,0,0,0,0,3,3,0,0,0,0,0,0,20,15,0,0,1,0,110,156
cassandra,cassandra-0.6.0,cassandra-0.7.0,F:/corpus/cassandra/cassandra#2010-04-12-09-37-17#cassandra-0.6.0#bb948b4/src/java/org/apache/cassandra/avro/CassandraServer.java,F:/corpus/cassandra/cassandra#2011-01-10-08-38-51#cassandra-0.7.0#7b7e357/src/java/org/apache/cassandra/avro/CassandraServer.java,0,0,0,0,0,0,0,0,1,0,0,0,0,YES,0,0,0,0,43,10,5,2,0,0,0,2,1,0,0,3,1,0,0,0,1,4,5,3,2,6,3,0,0,0,0,0,0,0,2,0,0,0,0,4,1,0,61,38,3,4,20,0,650,347
cassandra,cassandra-0.6.0,cassandra-0.7.0,F:/corpus/cassandra/cassandra#2010-04-12-09-37-17#cassandra-0.6.0#bb948b4/src/java/org/apache/cassandra/cache/AbstractCache.java,F:/corpus/cassandra/cassandra#2011-01-10-08-38-51#cassandra-0.7.0#7b7e357/src/java/org/apache/cassandra/cache/AbstractCache.java,0,0,0,0,0,0,0,0,0,0,0,0,0,YES,0,0,0,0,0,0,0,0,0,0,0,0,1,0,0,0,0,0,0,0,0,0,0,0,0,0,0,0,0,0,0,0,0,0,0,0,0,0,0,0,0,0,0,2,0,0,2,0,2,43
cassandra,cassandra-0.6.0,cassandra-0.7.0,F:/corpus/cassandra/cassandra#2010-04-12-09-37-17#cassandra-0.6.0#bb948b4/src/java/org/apache/cassandra/cache/InstrumentedCache.java,F:/corpus/cassandra/cassandra#2011-01-10-08-38-51#cassandra-0.7.0#7b7e357/src/java/org/apache/cassandra/cache/InstrumentedCache.java,0,0,0,0,0,0,0,0,0,0,0,0,0,YES,0,0,0,0,4,2,0,0,0,0,0,0,0,0,0,0,0,0,0,0,0,0,0,0,0,0,0,0,0,0,0,0,0,0,0,1,0,0,0,0,0,0,4,2,0,0,2,0,15,114
cassandra,cassandra-0.6.0,cassandra-0.7.0,F:/corpus/cassandra/cassandra#2010-04-12-09-37-17#cassandra-0.6.0#bb948b4/src/java/org/apache/cassandra/cli/CliClient.java,F:/corpus/cassandra/cassandra#2011-01-10-08-38-51#cassandra-0.7.0#7b7e357/src/java/org/apache/cassandra/cli/CliClient.java,0,0,0,0,2,14,0,0,0,0,0,0,0,YES,0,0,0,2,47,5,2,2,2,0,0,4,11,1,2,8,0,0,0,0,1,3,6,6,0,2,1,0,0,1,0,0,0,0,4,1,0,0,0,0,0,0,78,132,14,8,54,0,525,521
cassandra,cassandra-0.6.0,cassandra-0.7.0,F:/corpus/cassandra/cassandra#2010-04-12-09-37-17#cassandra-0.6.0#bb948b4/src/java/org/apache/cassandra/cli/CliCompiler.java,F:/corpus/cassandra/cassandra#2011-01-10-08-38-51#cassandra-0.7.0#7b7e357/src/java/org/apache/cassandra/cli/CliCompiler.java,0,0,0,0,0,2,0,0,0,0,0,0,0,YES,0,0,0,0,3,0,0,0,0,0,0,0,1,1,0,0,0,0,0,0,0,0,0,1,0,0,4,0,0,0,0,0,0,0,1,0,0,0,0,1,0,0,6,3,0,0,5,0,23,122
cassandra,cassandra-0.6.0,cassandra-0.7.0,F:/corpus/cassandra/cassandra#2010-04-12-09-37-17#cassandra-0.6.0#bb948b4/src/java/org/apache/cassandra/cli/CliCompleter.java,F:/corpus/cassandra/cassandra#2011-01-10-08-38-51#cassandra-0.7.0#7b7e357/src/java/org/apache/cassandra/cli/CliCompleter.java,0,0,0,0,0,0,0,0,0,0,0,0,0,YES,0,0,0,0,0,0,0,0,0,0,0,0,0,0,0,0,0,0,0,0,0,0,0,0,0,0,0,0,0,0,0,0,0,0,0,0,0,0,0,0,0,0,0,0,0,0,0,0,29,51
cassandra,cassandra-0.6.0,cassandra-0.7.0,F:/corpus/cassandra/cassandra#2010-04-12-09-37-17#cassandra-0.6.0#bb948b4/src/java/org/apache/cassandra/cli/CliMain.java,F:/corpus/cassandra/cassandra#2011-01-10-08-38-51#cassandra-0.7.0#7b7e357/src/java/org/apache/cassandra/cli/CliMain.java,0,0,0,0,0,0,0,0,0,1,0,0,0,YES,0,0,0,0,3,1,0,2,5,0,0,4,3,0,1,9,0,0,0,1,2,1,0,0,0,0,0,0,0,0,0,0,0,0,0,1,0,0,0,0,0,0,22,59,5,14,29,0,192,273
cassandra,cassandra-0.6.0,cassandra-0.7.0,F:/corpus/cassandra/cassandra#2010-04-12-09-37-17#cassandra-0.6.0#bb948b4/src/java/org/apache/cassandra/cli/CliOptions.java,F:/corpus/cassandra/cassandra#2011-01-10-08-38-51#cassandra-0.7.0#7b7e357/src/java/org/apache/cassandra/cli/CliOptions.java,0,0,0,0,0,0,0,0,0,0,0,0,0,YES,0,0,0,0,0,4,0,0,1,0,0,0,0,5,0,1,0,0,0,0,0,0,0,0,0,0,0,0,0,0,0,0,0,0,0,1,0,0,0,0,0,0,5,13,0,9,2,0,71,134
cassandra,cassandra-0.6.0,cassandra-0.7.0,F:/corpus/cassandra/cassandra#2010-04-12-09-37-17#cassandra-0.6.0#bb948b4/src/java/org/apache/cassandra/cli/CliSessionState.java,F:/corpus/cassandra/cassandra#2011-01-10-08-38-51#cassandra-0.7.0#7b7e357/src/java/org/apache/cassandra/cli/CliSessionState.java,1,0,0,0,0,0,0,0,0,0,0,0,0,YES,0,0,0,0,4,3,0,0,0,0,0,0,0,0,0,0,0,0,0,0,0,0,0,0,0,0,0,0,0,0,0,0,0,0,0,0,0,0,0,0,0,0,0,0,0,0,0,0,39,50
cassandra,cassandra-0.6.0,cassandra-0.7.0,F:/corpus/cassandra/cassandra#2010-04-12-09-37-17#cassandra-0.6.0#bb948b4/src/java/org/apache/cassandra/cli/CliUtils.java,F:/corpus/cassandra/cassandra#2011-01-10-08-38-51#cassandra-0.7.0#7b7e357/src/java/org/apache/cassandra/cli/CliUtils.java,0,0,0,0,0,0,0,0,0,0,0,0,0,YES,0,0,0,0,2,0,0,0,0,0,0,0,0,0,0,1,0,0,1,0,0,0,0,0,0,0,0,0,0,0,0,0,0,0,0,0,0,0,0,0,0,0,2,5,0,1,1,0,33,65
cassandra,cassandra-0.6.0,cassandra-0.7.0,F:/corpus/cassandra/cassandra#2010-04-12-09-37-17#cassandra-0.6.0#bb948b4/src/java/org/apache/cassandra/client/RingCache.java,F:/corpus/cassandra/cassandra#2011-01-10-08-38-51#cassandra-0.7.0#7b7e357/src/java/org/apache/cassandra/client/RingCache.java,0,0,0,0,0,1,0,0,0,0,0,0,0,YES,0,0,0,0,4,2,0,0,0,0,0,0,0,0,0,0,0,0,0,1,0,1,0,0,0,0,0,0,0,0,0,0,0,0,2,1,1,0,0,0,0,0,5,8,0,2,3,1,57,111
cassandra,cassandra-0.6.0,cassandra-0.7.0,F:/corpus/cassandra/cassandra#2010-04-12-09-37-17#cassandra-0.6.0#bb948b4/src/java/org/apache/cassandra/concurrent/AIOExecutorService.java,F:/corpus/cassandra/cassandra#2011-01-10-08-38-51#cassandra-0.7.0#7b7e357/src/java/org/apache/cassandra/concurrent/AIOExecutorService.java,0,0,0,0,0,0,0,0,0,0,0,0,0,YES,0,0,0,0,0,0,0,0,0,0,0,0,0,0,0,0,0,0,0,0,0,0,0,0,0,0,0,0,0,0,0,0,0,0,0,0,0,0,0,0,0,0,0,0,0,0,0,0,11,319
cassandra,cassandra-0.6.0,cassandra-0.7.0,F:/corpus/cassandra/cassandra#2010-04-12-09-37-17#cassandra-0.6.0#bb948b4/src/java/org/apache/cassandra/concurrent/DebuggableThreadPoolExecutor.java,F:/corpus/cassandra/cassandra#2011-01-10-08-38-51#cassandra-0.7.0#7b7e357/src/java/org/apache/cassandra/concurrent/DebuggableThreadPoolExecutor.java,0,0,0,0,0,0,0,0,0,0,0,0,0,YES,0,0,0,0,0,0,0,0,0,0,0,0,0,0,0,0,0,0,0,0,0,0,0,1,0,0,0,0,0,0,0,0,0,0,0,0,0,0,0,0,0,0,2,3,0,0,1,0,5,104
cassandra,cassandra-0.6.0,cassandra-0.7.0,F:/corpus/cassandra/cassandra#2010-04-12-09-37-17#cassandra-0.6.0#bb948b4/src/java/org/apache/cassandra/concurrent/JMXEnabledThreadPoolExecutor.java,F:/corpus/cassandra/cassandra#2011-01-10-08-38-51#cassandra-0.7.0#7b7e357/src/java/org/apache/cassandra/concurrent/JMXEnabledThreadPoolExecutor.java,0,0,0,0,0,0,0,0,0,0,0,0,0,YES,0,0,0,0,3,0,0,0,0,0,0,0,0,0,0,0,0,0,0,0,0,0,0,1,0,0,0,0,0,0,0,0,0,0,0,0,0,0,0,0,0,0,0,0,0,0,2,0,9,116
cassandra,cassandra-0.6.0,cassandra-0.7.0,F:/corpus/cassandra/cassandra#2010-04-12-09-37-17#cassandra-0.6.0#bb948b4/src/java/org/apache/cassandra/concurrent/NamedThreadFactory.java,F:/corpus/cassandra/cassandra#2011-01-10-08-38-51#cassandra-0.7.0#7b7e357/src/java/org/apache/cassandra/concurrent/NamedThreadFactory.java,0,0,0,0,0,0,0,0,0,0,0,0,0,YES,0,0,0,0,1,1,0,0,0,0,0,0,0,0,0,0,0,0,0,0,0,0,0,0,0,0,0,0,0,0,0,0,0,0,0,0,0,0,0,0,0,0,3,4,0,0,0,0,11,45
cassandra,cassandra-0.6.0,cassandra-0.7.0,F:/corpus/cassandra/cassandra#2010-04-12-09-37-17#cassandra-0.6.0#bb948b4/src/java/org/apache/cassandra/concurrent/StageManager.java,F:/corpus/cassandra/cassandra#2011-01-10-08-38-51#cassandra-0.7.0#7b7e357/src/java/org/apache/cassandra/concurrent/StageManager.java,1,0,0,0,0,0,0,0,0,0,0,1,0,YES,0,0,0,0,1,1,0,0,0,1,0,0,0,0,0,1,0,0,0,1,0,0,1,1,0,1,1,0,0,0,0,0,0,0,0,7,0,0,0,0,0,0,1,0,0,0,2,0,29,97
cassandra,cassandra-0.6.0,cassandra-0.7.0,F:/corpus/cassandra/cassandra#2010-04-12-09-37-17#cassandra-0.6.0#bb948b4/src/java/org/apache/cassandra/config/CFMetaData.java,F:/corpus/cassandra/cassandra#2011-01-10-08-38-51#cassandra-0.7.0#7b7e357/src/java/org/apache/cassandra/config/CFMetaData.java,1,0,0,0,0,0,0,0,0,0,1,0,0,YES,3,0,0,0,43,30,0,1,0,0,0,0,0,0,0,1,3,0,1,0,0,1,0,0,0,0,0,0,0,0,0,0,0,0,3,1,0,0,0,0,0,0,17,4,0,1,1,0,257,129
cassandra,cassandra-0.6.0,cassandra-0.7.0,F:/corpus/cassandra/cassandra#2010-04-12-09-37-17#cassandra-0.6.0#bb948b4/src/java/org/apache/cassandra/config/DatabaseDescriptor.java,F:/corpus/cassandra/cassandra#2011-01-10-08-38-51#cassandra-0.7.0#7b7e357/src/java/org/apache/cassandra/config/DatabaseDescriptor.java,0,1,0,0,0,0,0,0,0,1,0,8,0,YES,0,0,0,0,33,9,1,0,1,1,0,7,0,4,2,12,1,0,1,1,1,5,1,1,0,0,0,0,0,0,0,0,0,1,17,35,0,0,0,3,0,0,116,68,0,13,31,0,875,1211
cassandra,cassandra-0.6.0,cassandra-0.7.0,F:/corpus/cassandra/cassandra#2010-04-12-09-37-17#cassandra-0.6.0#bb948b4/src/java/org/apache/cassandra/config/KSMetaData.java,F:/corpus/cassandra/cassandra#2011-01-10-08-38-51#cassandra-0.7.0#7b7e357/src/java/org/apache/cassandra/config/KSMetaData.java,0,0,0,0,0,1,0,0,0,0,0,0,0,YES,0,0,0,0,5,1,0,0,1,0,0,0,0,0,0,1,1,0,0,0,1,0,1,2,0,1,0,0,0,0,0,0,0,0,3,1,0,0,0,0,0,0,4,6,0,0,1,0,88,136
cassandra,cassandra-0.6.0,cassandra-0.7.0,F:/corpus/cassandra/cassandra#2010-04-12-09-37-17#cassandra-0.6.0#bb948b4/src/java/org/apache/cassandra/db/BinaryMemtable.java,F:/corpus/cassandra/cassandra#2011-01-10-08-38-51#cassandra-0.7.0#7b7e357/src/java/org/apache/cassandra/db/BinaryMemtable.java,0,0,0,0,0,0,0,0,0,0,0,0,0,YES,0,0,0,0,2,0,0,0,0,1,0,0,0,0,0,0,0,0,0,0,0,0,1,1,0,0,0,0,0,0,0,0,0,0,2,0,0,0,0,0,0,0,1,1,0,0,3,0,16,154
cassandra,cassandra-0.6.0,cassandra-0.7.0,F:/corpus/cassandra/cassandra#2010-04-12-09-37-17#cassandra-0.6.0#bb948b4/src/java/org/apache/cassandra/db/BinaryVerbHandler.java,F:/corpus/cassandra/cassandra#2011-01-10-08-38-51#cassandra-0.7.0#7b7e357/src/java/org/apache/cassandra/db/BinaryVerbHandler.java,0,0,0,0,0,0,0,0,0,0,0,0,0,YES,0,0,0,0,0,0,0,0,0,0,0,0,0,0,0,0,0,0,0,0,0,0,0,0,0,0,0,0,0,0,0,0,0,0,0,0,0,0,0,0,0,0,0,5,0,0,0,0,13,50
cassandra,cassandra-0.6.0,cassandra-0.7.0,F:/corpus/cassandra/cassandra#2010-04-12-09-37-17#cassandra-0.6.0#bb948b4/src/java/org/apache/cassandra/db/Column.java,F:/corpus/cassandra/cassandra#2011-01-10-08-38-51#cassandra-0.7.0#7b7e357/src/java/org/apache/cassandra/db/Column.java,0,0,0,0,2,0,0,0,0,0,0,0,0,YES,0,0,0,0,7,2,0,0,1,0,0,1,0,0,1,0,0,0,0,0,1,0,0,0,1,0,3,0,0,0,0,0,0,0,5,4,0,0,0,0,0,0,10,13,0,1,2,0,98,218
cassandra,cassandra-0.6.0,cassandra-0.7.0,F:/corpus/cassandra/cassandra#2010-04-12-09-37-17#cassandra-0.6.0#bb948b4/src/java/org/apache/cassandra/db/ColumnFamily.java,F:/corpus/cassandra/cassandra#2011-01-10-08-38-51#cassandra-0.7.0#7b7e357/src/java/org/apache/cassandra/db/ColumnFamily.java,0,0,0,0,0,2,0,0,0,0,0,7,0,YES,0,0,0,0,12,2,3,1,4,1,0,1,3,0,0,3,0,1,1,0,1,1,4,3,0,0,4,0,0,0,0,0,1,0,5,3,2,0,0,3,0,0,37,21,0,3,26,1,182,420
cassandra,cassandra-0.6.0,cassandra-0.7.0,F:/corpus/cassandra/cassandra#2010-04-12-09-37-17#cassandra-0.6.0#bb948b4/src/java/org/apache/cassandra/db/ColumnFamilySerializer.java,F:/corpus/cassandra/cassandra#2011-01-10-08-38-51#cassandra-0.7.0#7b7e357/src/java/org/apache/cassandra/db/ColumnFamilySerializer.java,0,0,0,0,0,0,0,0,0,0,0,1,0,YES,0,0,0,0,1,1,0,0,0,0,0,1,1,0,0,1,0,0,0,0,1,0,0,0,0,0,0,0,0,0,0,0,0,0,3,0,0,0,0,0,0,2,9,11,0,0,2,0,67,163
cassandra,cassandra-0.6.0,cassandra-0.7.0,F:/corpus/cassandra/cassandra#2010-04-12-09-37-17#cassandra-0.6.0#bb948b4/src/java/org/apache/cassandra/db/ColumnFamilyStore.java,F:/corpus/cassandra/cassandra#2011-01-10-08-38-51#cassandra-0.7.0#7b7e357/src/java/org/apache/cassandra/db/ColumnFamilyStore.java,0,1,0,0,0,9,0,0,0,1,0,4,0,YES,0,0,0,0,67,16,4,0,11,1,0,8,10,5,1,11,1,1,1,1,1,3,4,4,0,0,7,0,0,0,0,0,0,0,14,7,2,0,0,0,1,0,94,83,8,22,58,0,965,1154
cassandra,cassandra-0.6.0,cassandra-0.7.0,F:/corpus/cassandra/cassandra#2010-04-12-09-37-17#cassandra-0.6.0#bb948b4/src/java/org/apache/cassandra/db/ColumnFamilyStoreMBean.java,F:/corpus/cassandra/cassandra#2011-01-10-08-38-51#cassandra-0.7.0#7b7e357/src/java/org/apache/cassandra/db/ColumnFamilyStoreMBean.java,0,0,0,0,1,0,0,0,0,0,0,0,0,YES,0,0,0,0,25,0,0,0,0,0,0,0,0,0,0,0,0,0,0,0,0,3,0,0,0,0,0,0,0,0,0,0,0,0,0,0,0,0,0,0,0,0,0,0,0,0,0,0,37,139
cassandra,cassandra-0.6.0,cassandra-0.7.0,F:/corpus/cassandra/cassandra#2010-04-12-09-37-17#cassandra-0.6.0#bb948b4/src/java/org/apache/cassandra/db/ColumnIndexer.java,F:/corpus/cassandra/cassandra#2011-01-10-08-38-51#cassandra-0.7.0#7b7e357/src/java/org/apache/cassandra/db/ColumnIndexer.java,0,0,0,0,0,0,0,0,0,0,0,0,0,YES,0,0,0,0,3,0,0,0,0,0,0,4,0,0,0,0,0,0,0,1,0,0,1,1,0,0,0,0,0,0,0,0,0,0,2,0,0,0,0,0,0,0,9,3,0,0,0,0,128,164
cassandra,cassandra-0.6.0,cassandra-0.7.0,F:/corpus/cassandra/cassandra#2010-04-12-09-37-17#cassandra-0.6.0#bb948b4/src/java/org/apache/cassandra/db/ColumnSerializer.java,F:/corpus/cassandra/cassandra#2011-01-10-08-38-51#cassandra-0.7.0#7b7e357/src/java/org/apache/cassandra/db/ColumnSerializer.java,0,0,0,0,0,0,0,0,0,0,0,2,0,YES,0,0,0,1,0,3,0,3,0,0,0,0,1,0,0,0,0,0,0,0,0,0,0,0,0,0,0,0,0,0,0,0,0,0,2,0,0,0,0,0,0,0,7,20,0,4,4,0,39,91
cassandra,cassandra-0.6.0,cassandra-0.7.0,F:/corpus/cassandra/cassandra#2010-04-12-09-37-17#cassandra-0.6.0#bb948b4/src/java/org/apache/cassandra/db/CompactionManager.java,F:/corpus/cassandra/cassandra#2011-01-10-08-38-51#cassandra-0.7.0#7b7e357/src/java/org/apache/cassandra/db/CompactionManager.java,0,0,0,0,0,0,0,2,0,0,0,1,0,YES,0,0,0,3,12,1,0,2,0,1,1,1,2,0,0,1,0,0,0,0,0,2,0,0,0,0,1,0,0,0,0,0,0,0,10,2,0,0,0,0,1,0,20,70,0,4,16,0,351,633
cassandra,cassandra-0.6.0,cassandra-0.7.0,F:/corpus/cassandra/cassandra#2010-04-12-09-37-17#cassandra-0.6.0#bb948b4/src/java/org/apache/cassandra/db/CompactionManagerMBean.java,F:/corpus/cassandra/cassandra#2011-01-10-08-38-51#cassandra-0.7.0#7b7e357/src/java/org/apache/cassandra/db/CompactionManagerMBean.java,0,0,0,0,1,0,0,0,0,0,0,0,0,YES,0,0,0,0,2,0,0,0,0,0,0,0,0,0,0,0,0,0,0,0,0,0,0,0,0,0,0,0,0,0,0,0,0,0,4,0,0,0,0,0,0,0,0,0,0,0,0,0,29,62
cassandra,cassandra-0.6.0,cassandra-0.7.0,F:/corpus/cassandra/cassandra#2010-04-12-09-37-17#cassandra-0.6.0#bb948b4/src/java/org/apache/cassandra/db/DBConstants.java,F:/corpus/cassandra/cassandra#2011-01-10-08-38-51#cassandra-0.7.0#7b7e357/src/java/org/apache/cassandra/db/DBConstants.java,0,0,0,0,0,0,0,0,0,0,0,0,0,YES,0,0,0,0,0,1,0,0,0,0,0,0,0,0,0,0,0,0,0,0,1,0,0,0,0,0,0,0,0,0,0,0,0,0,0,0,0,0,0,0,0,0,0,0,0,0,0,0,2,27
cassandra,cassandra-0.6.0,cassandra-0.7.0,F:/corpus/cassandra/cassandra#2010-04-12-09-37-17#cassandra-0.6.0#bb948b4/src/java/org/apache/cassandra/db/DecoratedKey.java,F:/corpus/cassandra/cassandra#2011-01-10-08-38-51#cassandra-0.7.0#7b7e357/src/java/org/apache/cassandra/db/DecoratedKey.java,0,0,0,0,0,0,0,0,0,0,0,1,0,YES,0,0,0,0,0,0,0,0,0,1,0,0,0,0,0,0,0,0,0,0,0,0,0,0,0,0,1,0,0,0,0,0,0,0,1,1,0,0,0,0,0,0,0,1,0,0,1,0,28,120
cassandra,cassandra-0.6.0,cassandra-0.7.0,F:/corpus/cassandra/cassandra#2010-04-12-09-37-17#cassandra-0.6.0#bb948b4/src/java/org/apache/cassandra/db/HintedHandOffManager.java,F:/corpus/cassandra/cassandra#2011-01-10-08-38-51#cassandra-0.7.0#7b7e357/src/java/org/apache/cassandra/db/HintedHandOffManager.java,0,0,0,0,0,0,0,0,0,0,0,0,0,YES,0,0,0,0,5,2,1,1,0,0,0,1,0,0,1,3,1,1,0,1,1,1,0,2,0,3,1,0,0,0,0,0,0,0,2,1,0,0,0,0,0,0,44,33,1,10,9,2,212,285
cassandra,cassandra-0.6.0,cassandra-0.7.0,F:/corpus/cassandra/cassandra#2010-04-12-09-37-17#cassandra-0.6.0#bb948b4/src/java/org/apache/cassandra/db/IColumn.java,F:/corpus/cassandra/cassandra#2011-01-10-08-38-51#cassandra-0.7.0#7b7e357/src/java/org/apache/cassandra/db/IColumn.java,0,0,0,0,0,0,0,0,0,0,0,0,0,YES,0,0,0,0,3,0,0,0,0,0,0,0,0,0,0,0,0,0,0,0,0,0,0,0,0,0,1,0,0,0,0,0,0,0,1,1,0,0,0,0,0,0,0,0,0,0,0,0,19,47
cassandra,cassandra-0.6.0,cassandra-0.7.0,F:/corpus/cassandra/cassandra#2010-04-12-09-37-17#cassandra-0.6.0#bb948b4/src/java/org/apache/cassandra/db/IFlushable.java,F:/corpus/cassandra/cassandra#2011-01-10-08-38-51#cassandra-0.7.0#7b7e357/src/java/org/apache/cassandra/db/IFlushable.java,0,0,0,0,0,0,0,0,0,0,0,0,0,YES,0,0,0,0,0,0,0,0,0,0,0,0,0,0,0,0,0,0,0,0,0,0,0,0,0,0,1,0,0,0,0,0,0,0,0,0,0,0,0,0,0,0,0,0,0,0,0,0,3,30
cassandra,cassandra-0.6.0,cassandra-0.7.0,F:/corpus/cassandra/cassandra#2010-04-12-09-37-17#cassandra-0.6.0#bb948b4/src/java/org/apache/cassandra/db/Memtable.java,F:/corpus/cassandra/cassandra#2011-01-10-08-38-51#cassandra-0.7.0#7b7e357/src/java/org/apache/cassandra/db/Memtable.java,0,0,0,0,1,0,0,0,0,0,0,0,0,YES,0,0,0,0,0,0,2,0,0,0,0,5,1,0,0,0,0,0,1,0,2,1,1,3,0,0,3,0,0,0,0,0,0,0,0,1,0,0,0,3,0,0,21,13,0,0,11,0,86,303
cassandra,cassandra-0.6.0,cassandra-0.7.0,F:/corpus/cassandra/cassandra#2010-04-12-09-37-17#cassandra-0.6.0#bb948b4/src/java/org/apache/cassandra/db/RangeSliceCommand.java,F:/corpus/cassandra/cassandra#2011-01-10-08-38-51#cassandra-0.7.0#7b7e357/src/java/org/apache/cassandra/db/RangeSliceCommand.java,1,0,0,0,0,0,0,0,1,0,0,0,0,YES,0,0,0,0,0,0,0,0,0,1,0,0,0,0,0,0,0,0,0,0,0,0,0,0,0,0,1,0,0,0,0,0,0,0,0,0,0,0,0,0,0,0,2,3,0,0,5,0,18,162
cassandra,cassandra-0.6.0,cassandra-0.7.0,F:/corpus/cassandra/cassandra#2010-04-12-09-37-17#cassandra-0.6.0#bb948b4/src/java/org/apache/cassandra/db/RangeSliceReply.java,F:/corpus/cassandra/cassandra#2011-01-10-08-38-51#cassandra-0.7.0#7b7e357/src/java/org/apache/cassandra/db/RangeSliceReply.java,0,0,0,0,0,0,0,0,0,0,0,0,0,YES,0,0,0,0,0,0,0,0,0,0,0,0,0,0,0,0,0,0,0,0,0,0,0,0,0,0,0,0,0,0,0,0,0,0,0,0,0,0,0,0,0,0,0,0,0,0,0,0,6,72
cassandra,cassandra-0.6.0,cassandra-0.7.0,F:/corpus/cassandra/cassandra#2010-04-12-09-37-17#cassandra-0.6.0#bb948b4/src/java/org/apache/cassandra/db/ReadCommand.java,F:/corpus/cassandra/cassandra#2011-01-10-08-38-51#cassandra-0.7.0#7b7e357/src/java/org/apache/cassandra/db/ReadCommand.java,1,0,0,0,0,0,0,0,0,0,0,2,0,YES,0,0,0,0,0,0,0,0,0,1,0,0,0,0,0,0,0,0,0,0,0,0,0,0,0,0,1,0,0,0,0,0,0,0,0,2,0,0,0,0,0,0,0,0,0,0,1,0,12,122
cassandra,cassandra-0.6.0,cassandra-0.7.0,F:/corpus/cassandra/cassandra#2010-04-12-09-37-17#cassandra-0.6.0#bb948b4/src/java/org/apache/cassandra/db/ReadRepairVerbHandler.java,F:/corpus/cassandra/cassandra#2011-01-10-08-38-51#cassandra-0.7.0#7b7e357/src/java/org/apache/cassandra/db/ReadRepairVerbHandler.java,0,0,0,0,0,0,0,0,0,0,0,0,0,YES,0,0,0,0,0,0,0,0,0,0,0,0,0,0,0,0,0,0,0,0,0,0,0,0,0,0,0,0,0,0,0,0,0,0,0,0,0,0,0,0,0,0,0,0,0,0,0,0,4,48
cassandra,cassandra-0.6.0,cassandra-0.7.0,F:/corpus/cassandra/cassandra#2010-04-12-09-37-17#cassandra-0.6.0#bb948b4/src/java/org/apache/cassandra/db/ReadResponse.java,F:/corpus/cassandra/cassandra#2011-01-10-08-38-51#cassandra-0.7.0#7b7e357/src/java/org/apache/cassandra/db/ReadResponse.java,1,0,0,0,0,0,0,0,0,0,0,0,0,YES,0,0,0,0,0,1,0,0,0,0,0,0,0,0,0,1,0,0,0,0,0,0,0,0,0,0,1,0,0,0,0,0,0,0,1,2,1,0,0,0,0,0,6,11,1,1,2,0,35,121
cassandra,cassandra-0.6.0,cassandra-0.7.0,F:/corpus/cassandra/cassandra#2010-04-12-09-37-17#cassandra-0.6.0#bb948b4/src/java/org/apache/cassandra/db/ReadVerbHandler.java,F:/corpus/cassandra/cassandra#2011-01-10-08-38-51#cassandra-0.7.0#7b7e357/src/java/org/apache/cassandra/db/ReadVerbHandler.java,0,0,0,0,0,0,0,1,0,0,0,0,0,YES,0,0,0,0,0,0,0,0,0,0,0,2,0,0,0,0,0,0,0,0,0,0,0,0,0,0,0,0,0,0,0,0,0,0,2,0,0,0,0,0,0,0,6,0,0,0,1,0,29,121
cassandra,cassandra-0.6.0,cassandra-0.7.0,F:/corpus/cassandra/cassandra#2010-04-12-09-37-17#cassandra-0.6.0#bb948b4/src/java/org/apache/cassandra/db/Row.java,F:/corpus/cassandra/cassandra#2011-01-10-08-38-51#cassandra-0.7.0#7b7e357/src/java/org/apache/cassandra/db/Row.java,0,0,0,0,0,0,0,0,0,0,0,0,0,YES,0,0,0,0,0,1,0,0,0,0,0,0,0,0,0,0,0,0,0,0,0,0,0,0,0,0,1,0,0,0,0,0,0,0,0,1,0,0,0,0,0,0,1,1,0,0,2,0,12,75
cassandra,cassandra-0.6.0,cassandra-0.7.0,F:/corpus/cassandra/cassandra#2010-04-12-09-37-17#cassandra-0.6.0#bb948b4/src/java/org/apache/cassandra/db/RowMutation.java,F:/corpus/cassandra/cassandra#2011-01-10-08-38-51#cassandra-0.7.0#7b7e357/src/java/org/apache/cassandra/db/RowMutation.java,0,0,0,0,0,0,0,0,2,0,0,6,0,YES,0,0,0,0,5,1,0,0,0,1,0,0,1,0,0,3,0,0,0,0,0,0,0,0,0,0,7,0,0,0,0,0,0,0,3,1,0,0,0,2,0,0,19,9,0,3,18,0,111,374
cassandra,cassandra-0.6.0,cassandra-0.7.0,F:/corpus/cassandra/cassandra#2010-04-12-09-37-17#cassandra-0.6.0#bb948b4/src/java/org/apache/cassandra/db/RowMutationMessage.java,F:/corpus/cassandra/cassandra#2011-01-10-08-38-51#cassandra-0.7.0#7b7e357/src/java/org/apache/cassandra/db/RowMutationMessage.java,0,0,0,0,0,0,0,0,0,0,0,0,0,YES,0,0,0,0,0,0,0,0,0,0,0,0,0,0,0,0,0,0,0,0,0,0,0,0,0,0,0,0,0,0,0,0,0,0,0,0,0,0,0,0,0,0,0,0,0,0,1,0,3,86
cassandra,cassandra-0.6.0,cassandra-0.7.0,F:/corpus/cassandra/cassandra#2010-04-12-09-37-17#cassandra-0.6.0#bb948b4/src/java/org/apache/cassandra/db/RowMutationVerbHandler.java,F:/corpus/cassandra/cassandra#2011-01-10-08-38-51#cassandra-0.7.0#7b7e357/src/java/org/apache/cassandra/db/RowMutationVerbHandler.java,0,0,0,0,0,1,0,0,0,0,0,0,0,YES,0,0,0,0,0,0,0,0,0,0,0,0,0,0,0,0,0,0,0,0,0,0,0,0,0,0,0,0,0,0,0,0,0,0,0,0,0,0,0,0,0,0,7,5,0,3,2,0,16,81
cassandra,cassandra-0.6.0,cassandra-0.7.0,F:/corpus/cassandra/cassandra#2010-04-12-09-37-17#cassandra-0.6.0#bb948b4/src/java/org/apache/cassandra/db/SliceByNamesReadCommand.java,F:/corpus/cassandra/cassandra#2011-01-10-08-38-51#cassandra-0.7.0#7b7e357/src/java/org/apache/cassandra/db/SliceByNamesReadCommand.java,0,0,0,0,0,1,0,0,1,0,0,0,0,YES,0,0,0,0,0,0,0,0,0,1,0,0,0,0,0,0,0,0,0,0,0,0,0,0,0,0,4,0,0,0,0,0,0,0,0,0,0,0,0,0,0,0,6,7,0,0,4,0,16,110
cassandra,cassandra-0.6.0,cassandra-0.7.0,F:/corpus/cassandra/cassandra#2010-04-12-09-37-17#cassandra-0.6.0#bb948b4/src/java/org/apache/cassandra/db/SliceFromReadCommand.java,F:/corpus/cassandra/cassandra#2011-01-10-08-38-51#cassandra-0.7.0#7b7e357/src/java/org/apache/cassandra/db/SliceFromReadCommand.java,0,0,0,0,0,2,0,0,1,0,0,0,0,YES,0,0,0,0,0,0,0,0,0,2,0,0,0,0,0,0,0,0,0,0,0,0,0,0,0,0,6,0,0,0,0,0,0,0,0,0,0,0,0,0,0,0,3,4,0,0,3,0,16,107
cassandra,cassandra-0.6.0,cassandra-0.7.0,F:/corpus/cassandra/cassandra#2010-04-12-09-37-17#cassandra-0.6.0#bb948b4/src/java/org/apache/cassandra/db/SuperColumn.java,F:/corpus/cassandra/cassandra#2011-01-10-08-38-51#cassandra-0.7.0#7b7e357/src/java/org/apache/cassandra/db/SuperColumn.java,0,0,0,0,0,0,0,0,0,0,0,1,0,YES,0,0,0,0,4,0,0,0,0,2,0,0,2,0,0,0,0,0,0,0,0,0,0,0,0,0,4,0,0,0,0,0,0,0,2,0,0,0,0,0,0,0,5,5,0,1,6,0,66,340
cassandra,cassandra-0.6.0,cassandra-0.7.0,F:/corpus/cassandra/cassandra#2010-04-12-09-37-17#cassandra-0.6.0#bb948b4/src/java/org/apache/cassandra/db/SystemTable.java,F:/corpus/cassandra/cassandra#2011-01-10-08-38-51#cassandra-0.7.0#7b7e357/src/java/org/apache/cassandra/db/SystemTable.java,0,0,0,0,0,2,0,1,0,0,0,0,0,YES,0,0,0,0,11,8,0,0,0,2,0,0,0,0,0,0,0,0,0,0,0,0,0,0,0,0,0,0,0,0,0,0,0,1,2,5,0,0,0,0,0,0,8,6,0,2,4,0,278,260
cassandra,cassandra-0.6.0,cassandra-0.7.0,F:/corpus/cassandra/cassandra#2010-04-12-09-37-17#cassandra-0.6.0#bb948b4/src/java/org/apache/cassandra/db/Table.java,F:/corpus/cassandra/cassandra#2011-01-10-08-38-51#cassandra-0.7.0#7b7e357/src/java/org/apache/cassandra/db/Table.java,0,0,0,0,0,0,0,0,0,0,0,2,0,YES,0,0,0,1,18,3,0,0,0,1,0,0,11,0,2,3,0,0,2,0,2,1,0,0,0,0,0,0,0,0,0,0,0,1,4,4,0,0,0,0,0,0,36,69,1,4,11,0,309,507
cassandra,cassandra-0.6.0,cassandra-0.7.0,F:/corpus/cassandra/cassandra#2010-04-12-09-37-17#cassandra-0.6.0#bb948b4/src/java/org/apache/cassandra/db/WriteResponse.java,F:/corpus/cassandra/cassandra#2011-01-10-08-38-51#cassandra-0.7.0#7b7e357/src/java/org/apache/cassandra/db/WriteResponse.java,0,0,0,0,0,0,0,0,0,0,0,0,0,YES,0,0,0,0,0,0,0,0,0,1,0,0,0,0,0,0,0,0,0,0,0,0,0,0,0,0,1,0,0,0,0,0,0,0,0,0,0,0,0,1,0,0,2,2,0,0,0,0,6,95
cassandra,cassandra-0.6.0,cassandra-0.7.0,F:/corpus/cassandra/cassandra#2010-04-12-09-37-17#cassandra-0.6.0#bb948b4/src/java/org/apache/cassandra/db/commitlog/CommitLog.java,F:/corpus/cassandra/cassandra#2011-01-10-08-38-51#cassandra-0.7.0#7b7e357/src/java/org/apache/cassandra/db/commitlog/CommitLog.java,0,0,0,0,0,1,0,0,0,1,0,1,0,YES,0,0,0,0,3,3,0,2,0,0,0,7,6,3,1,3,0,0,0,0,1,0,2,1,1,0,1,0,0,0,0,1,2,1,3,1,0,0,0,0,0,0,25,55,4,13,15,0,236,478
cassandra,cassandra-0.6.0,cassandra-0.7.0,F:/corpus/cassandra/cassandra#2010-04-12-09-37-17#cassandra-0.6.0#bb948b4/src/java/org/apache/cassandra/db/commitlog/CommitLogHeader.java,F:/corpus/cassandra/cassandra#2011-01-10-08-38-51#cassandra-0.7.0#7b7e357/src/java/org/apache/cassandra/db/commitlog/CommitLogHeader.java,0,0,0,0,0,0,0,0,0,0,0,0,0,YES,0,0,0,0,6,1,0,0,0,0,0,0,5,0,0,0,0,0,0,0,2,0,5,4,0,0,2,0,0,0,1,0,0,0,6,2,0,0,0,0,0,0,31,34,0,1,5,0,102,180
cassandra,cassandra-0.6.0,cassandra-0.7.0,F:/corpus/cassandra/cassandra#2010-04-12-09-37-17#cassandra-0.6.0#bb948b4/src/java/org/apache/cassandra/db/commitlog/CommitLogSegment.java,F:/corpus/cassandra/cassandra#2011-01-10-08-38-51#cassandra-0.7.0#7b7e357/src/java/org/apache/cassandra/db/commitlog/CommitLogSegment.java,0,0,0,0,0,0,0,0,0,0,0,0,0,YES,0,0,0,0,2,0,0,1,0,0,0,0,1,0,1,0,0,0,0,0,0,0,1,0,0,0,0,0,0,0,0,0,0,0,2,0,0,0,0,0,0,0,8,10,0,5,8,0,56,214
cassandra,cassandra-0.6.0,cassandra-0.7.0,F:/corpus/cassandra/cassandra#2010-04-12-09-37-17#cassandra-0.6.0#bb948b4/src/java/org/apache/cassandra/db/filter/AbstractColumnIterator.java,F:/corpus/cassandra/cassandra#2011-01-10-08-38-51#cassandra-0.7.0#7b7e357/src/java/org/apache/cassandra/db/filter/AbstractColumnIterator.java,0,0,0,0,1,0,0,0,0,0,0,0,0,YES,0,0,0,0,0,0,0,0,0,0,0,0,0,0,0,0,0,0,0,0,0,0,0,0,0,0,0,0,0,0,0,0,0,0,0,0,0,0,0,0,0,0,0,0,0,0,0,0,1,35
cassandra,cassandra-0.6.0,cassandra-0.7.0,F:/corpus/cassandra/cassandra#2010-04-12-09-37-17#cassandra-0.6.0#bb948b4/src/java/org/apache/cassandra/db/filter/NamesQueryFilter.java,F:/corpus/cassandra/cassandra#2011-01-10-08-38-51#cassandra-0.7.0#7b7e357/src/java/org/apache/cassandra/db/filter/NamesQueryFilter.java,0,0,0,0,2,0,0,0,0,0,0,0,0,YES,0,0,0,0,3,0,0,0,0,1,0,0,0,0,0,1,0,0,0,0,0,1,3,2,1,0,1,0,0,0,1,0,0,0,2,0,0,0,0,2,0,0,1,1,0,0,1,0,41,93
cassandra,cassandra-0.6.0,cassandra-0.7.0,F:/corpus/cassandra/cassandra#2010-04-12-09-37-17#cassandra-0.6.0#bb948b4/src/java/org/apache/cassandra/db/filter/QueryFilter.java,F:/corpus/cassandra/cassandra#2011-01-10-08-38-51#cassandra-0.7.0#7b7e357/src/java/org/apache/cassandra/db/filter/QueryFilter.java,0,0,0,0,0,0,0,0,0,0,0,0,0,YES,0,0,0,0,8,4,0,0,0,0,0,0,2,0,0,0,0,2,0,0,0,2,1,1,0,0,0,0,0,0,0,0,0,0,4,1,0,0,0,3,0,0,0,10,0,0,3,3,100,129
cassandra,cassandra-0.6.0,cassandra-0.7.0,F:/corpus/cassandra/cassandra#2010-04-12-09-37-17#cassandra-0.6.0#bb948b4/src/java/org/apache/cassandra/db/filter/QueryPath.java,F:/corpus/cassandra/cassandra#2011-01-10-08-38-51#cassandra-0.7.0#7b7e357/src/java/org/apache/cassandra/db/filter/QueryPath.java,0,0,0,0,0,0,0,0,0,0,0,0,0,YES,0,0,0,0,1,0,0,0,0,2,0,0,0,0,0,0,0,0,0,0,0,0,0,0,1,0,3,0,0,0,0,0,0,0,1,0,0,0,0,0,0,0,2,2,0,0,5,0,17,99
cassandra,cassandra-0.6.0,cassandra-0.7.0,F:/corpus/cassandra/cassandra#2010-04-12-09-37-17#cassandra-0.6.0#bb948b4/src/java/org/apache/cassandra/db/filter/SliceQueryFilter.java,F:/corpus/cassandra/cassandra#2011-01-10-08-38-51#cassandra-0.7.0#7b7e357/src/java/org/apache/cassandra/db/filter/SliceQueryFilter.java,0,0,0,0,0,1,0,0,0,0,0,0,0,YES,0,0,0,0,1,0,0,0,0,2,0,0,0,0,0,2,0,0,0,0,0,1,3,2,0,0,2,0,0,0,1,0,0,0,0,0,0,0,0,2,0,0,1,1,0,0,4,0,29,136
cassandra,cassandra-0.6.0,cassandra-0.7.0,F:/corpus/cassandra/cassandra#2010-04-12-09-37-17#cassandra-0.6.0#bb948b4/src/java/org/apache/cassandra/db/marshal/AbstractType.java,F:/corpus/cassandra/cassandra#2011-01-10-08-38-51#cassandra-0.7.0#7b7e357/src/java/org/apache/cassandra/db/marshal/AbstractType.java,0,0,0,0,0,1,0,0,0,0,0,0,0,YES,0,0,0,0,2,0,0,0,0,0,0,0,0,0,0,1,0,2,0,1,0,0,0,0,0,0,2,0,0,0,1,0,0,0,2,0,0,0,0,1,0,0,0,0,0,0,1,0,28,97
cassandra,cassandra-0.6.0,cassandra-0.7.0,F:/corpus/cassandra/cassandra#2010-04-12-09-37-17#cassandra-0.6.0#bb948b4/src/java/org/apache/cassandra/db/marshal/AsciiType.java,F:/corpus/cassandra/cassandra#2011-01-10-08-38-51#cassandra-0.7.0#7b7e357/src/java/org/apache/cassandra/db/marshal/AsciiType.java,0,0,0,0,0,0,0,0,0,0,0,0,0,YES,0,0,0,0,2,1,0,0,0,0,0,0,0,0,0,0,0,0,0,0,0,0,0,0,0,0,1,0,0,0,0,0,0,0,0,0,0,0,0,0,0,0,4,1,0,0,0,0,12,40
cassandra,cassandra-0.6.0,cassandra-0.7.0,F:/corpus/cassandra/cassandra#2010-04-12-09-37-17#cassandra-0.6.0#bb948b4/src/java/org/apache/cassandra/db/marshal/BytesType.java,F:/corpus/cassandra/cassandra#2011-01-10-08-38-51#cassandra-0.7.0#7b7e357/src/java/org/apache/cassandra/db/marshal/BytesType.java,0,0,0,0,0,0,0,0,0,0,0,0,0,YES,0,0,0,0,3,1,0,0,0,0,0,0,0,0,0,0,0,0,0,0,0,0,0,0,0,0,1,0,0,0,0,0,0,0,1,0,0,0,0,0,0,0,0,0,0,0,0,0,15,39
cassandra,cassandra-0.6.0,cassandra-0.7.0,F:/corpus/cassandra/cassandra#2010-04-12-09-37-17#cassandra-0.6.0#bb948b4/src/java/org/apache/cassandra/db/marshal/LexicalUUIDType.java,F:/corpus/cassandra/cassandra#2011-01-10-08-38-51#cassandra-0.7.0#7b7e357/src/java/org/apache/cassandra/db/marshal/LexicalUUIDType.java,0,0,0,0,0,0,0,0,0,0,0,0,0,YES,0,0,0,0,3,1,0,0,0,0,0,0,0,0,0,2,0,0,0,0,0,0,0,0,0,0,1,0,0,0,0,0,0,0,2,0,0,0,0,0,0,0,0,0,0,0,1,0,18,61
cassandra,cassandra-0.6.0,cassandra-0.7.0,F:/corpus/cassandra/cassandra#2010-04-12-09-37-17#cassandra-0.6.0#bb948b4/src/java/org/apache/cassandra/db/marshal/LongType.java,F:/corpus/cassandra/cassandra#2011-01-10-08-38-51#cassandra-0.7.0#7b7e357/src/java/org/apache/cassandra/db/marshal/LongType.java,0,0,0,0,0,0,0,0,0,0,0,0,0,YES,0,0,0,0,3,1,0,0,0,0,0,0,0,0,0,2,0,0,0,0,0,0,0,0,0,0,1,0,0,0,0,0,0,0,1,0,0,0,0,0,0,0,0,0,0,0,2,0,13,57
cassandra,cassandra-0.6.0,cassandra-0.7.0,F:/corpus/cassandra/cassandra#2010-04-12-09-37-17#cassandra-0.6.0#bb948b4/src/java/org/apache/cassandra/db/marshal/MarshalException.java,F:/corpus/cassandra/cassandra#2011-01-10-08-38-51#cassandra-0.7.0#7b7e357/src/java/org/apache/cassandra/db/marshal/MarshalException.java,0,0,0,0,0,0,0,0,0,0,0,0,0,YES,0,0,0,0,1,0,0,0,0,0,0,0,0,0,0,0,0,0,0,0,0,0,0,0,0,0,0,0,0,0,0,0,0,0,0,0,0,0,0,0,0,0,0,0,0,0,0,0,5,30
cassandra,cassandra-0.6.0,cassandra-0.7.0,F:/corpus/cassandra/cassandra#2010-04-12-09-37-17#cassandra-0.6.0#bb948b4/src/java/org/apache/cassandra/db/marshal/TimeUUIDType.java,F:/corpus/cassandra/cassandra#2011-01-10-08-38-51#cassandra-0.7.0#7b7e357/src/java/org/apache/cassandra/db/marshal/TimeUUIDType.java,0,0,0,0,0,0,0,0,0,0,0,0,0,YES,0,0,0,0,4,1,0,0,0,0,0,0,0,0,0,2,0,0,0,0,0,0,0,0,0,0,1,0,0,0,0,0,0,0,1,0,0,0,0,0,0,0,0,0,0,0,1,0,38,62
cassandra,cassandra-0.6.0,cassandra-0.7.0,F:/corpus/cassandra/cassandra#2010-04-12-09-37-17#cassandra-0.6.0#bb948b4/src/java/org/apache/cassandra/db/marshal/UTF8Type.java,F:/corpus/cassandra/cassandra#2011-01-10-08-38-51#cassandra-0.7.0#7b7e357/src/java/org/apache/cassandra/db/marshal/UTF8Type.java,0,0,0,0,0,0,0,0,0,0,0,0,0,YES,0,0,0,1,2,1,0,0,0,0,0,0,0,0,0,0,0,0,0,0,0,0,0,0,0,0,1,1,0,0,0,0,0,0,1,0,0,0,0,0,0,0,4,4,0,0,0,0,16,51
cassandra,cassandra-0.6.0,cassandra-0.7.0,F:/corpus/cassandra/cassandra#2010-04-12-09-37-17#cassandra-0.6.0#bb948b4/src/java/org/apache/cassandra/dht/AbstractBounds.java,F:/corpus/cassandra/cassandra#2011-01-10-08-38-51#cassandra-0.7.0#7b7e357/src/java/org/apache/cassandra/dht/AbstractBounds.java,0,0,0,0,0,0,0,0,0,0,0,0,0,YES,0,0,0,0,3,1,0,0,0,0,0,0,0,0,0,0,0,0,0,0,0,0,0,0,0,0,0,0,0,0,0,0,0,0,1,0,0,0,0,0,0,0,1,1,0,0,0,0,42,92
cassandra,cassandra-0.6.0,cassandra-0.7.0,F:/corpus/cassandra/cassandra#2010-04-12-09-37-17#cassandra-0.6.0#bb948b4/src/java/org/apache/cassandra/dht/BootStrapper.java,F:/corpus/cassandra/cassandra#2011-01-10-08-38-51#cassandra-0.7.0#7b7e357/src/java/org/apache/cassandra/dht/BootStrapper.java,0,0,0,0,0,3,0,0,0,0,0,0,0,YES,0,0,0,0,0,0,0,0,0,0,0,0,0,1,0,1,0,0,0,1,1,1,0,0,0,0,0,0,0,0,0,0,0,0,0,0,0,0,0,0,0,0,9,20,0,5,12,0,101,254
cassandra,cassandra-0.6.0,cassandra-0.7.0,F:/corpus/cassandra/cassandra#2010-04-12-09-37-17#cassandra-0.6.0#bb948b4/src/java/org/apache/cassandra/dht/Bounds.java,F:/corpus/cassandra/cassandra#2011-01-10-08-38-51#cassandra-0.7.0#7b7e357/src/java/org/apache/cassandra/dht/Bounds.java,0,0,0,0,0,0,0,0,0,0,0,0,0,YES,0,0,0,0,1,0,0,0,0,0,0,0,0,0,0,0,0,0,0,0,0,0,0,0,0,0,0,0,0,0,0,0,0,0,1,0,0,0,0,0,0,0,1,1,0,0,0,0,27,94
cassandra,cassandra-0.6.0,cassandra-0.7.0,F:/corpus/cassandra/cassandra#2010-04-12-09-37-17#cassandra-0.6.0#bb948b4/src/java/org/apache/cassandra/dht/BytesToken.java,F:/corpus/cassandra/cassandra#2011-01-10-08-38-51#cassandra-0.7.0#7b7e357/src/java/org/apache/cassandra/dht/BytesToken.java,0,0,0,0,0,0,0,0,0,0,0,0,0,YES,0,0,0,0,1,0,0,0,0,0,0,0,0,0,0,0,0,0,0,0,0,0,0,0,0,0,0,0,0,0,0,0,0,0,0,0,0,0,0,0,0,0,0,0,0,0,1,0,9,62
cassandra,cassandra-0.6.0,cassandra-0.7.0,F:/corpus/cassandra/cassandra#2010-04-12-09-37-17#cassandra-0.6.0#bb948b4/src/java/org/apache/cassandra/dht/CollatingOrderPreservingPartitioner.java,F:/corpus/cassandra/cassandra#2011-01-10-08-38-51#cassandra-0.7.0#7b7e357/src/java/org/apache/cassandra/dht/CollatingOrderPreservingPartitioner.java,0,0,0,0,0,0,0,0,0,0,0,0,0,YES,0,0,0,0,2,0,0,0,0,0,0,0,0,0,0,0,0,0,0,0,0,0,0,0,0,0,0,0,0,1,0,1,0,0,11,3,0,0,0,0,0,0,0,0,0,0,0,0,125,155
cassandra,cassandra-0.6.0,cassandra-0.7.0,F:/corpus/cassandra/cassandra#2010-04-12-09-37-17#cassandra-0.6.0#bb948b4/src/java/org/apache/cassandra/dht/IPartitioner.java,F:/corpus/cassandra/cassandra#2011-01-10-08-38-51#cassandra-0.7.0#7b7e357/src/java/org/apache/cassandra/dht/IPartitioner.java,0,0,0,0,1,0,0,0,0,0,0,0,0,YES,0,0,0,0,3,0,0,0,0,0,0,0,0,0,0,0,0,0,0,1,0,0,0,0,0,0,3,0,0,0,0,0,0,0,3,0,0,0,0,1,0,0,0,0,0,0,0,0,25,83
cassandra,cassandra-0.6.0,cassandra-0.7.0,F:/corpus/cassandra/cassandra#2010-04-12-09-37-17#cassandra-0.6.0#bb948b4/src/java/org/apache/cassandra/dht/OrderPreservingPartitioner.java,F:/corpus/cassandra/cassandra#2011-01-10-08-38-51#cassandra-0.7.0#7b7e357/src/java/org/apache/cassandra/dht/OrderPreservingPartitioner.java,0,0,0,0,0,0,0,0,0,0,0,0,0,YES,0,0,0,0,3,0,0,0,0,0,0,0,0,0,0,0,0,0,0,0,0,0,0,0,0,0,3,0,0,0,0,0,0,0,3,0,0,0,0,0,0,0,0,0,0,0,4,0,43,168
cassandra,cassandra-0.6.0,cassandra-0.7.0,F:/corpus/cassandra/cassandra#2010-04-12-09-37-17#cassandra-0.6.0#bb948b4/src/java/org/apache/cassandra/dht/RandomPartitioner.java,F:/corpus/cassandra/cassandra#2011-01-10-08-38-51#cassandra-0.7.0#7b7e357/src/java/org/apache/cassandra/dht/RandomPartitioner.java,0,0,0,0,0,0,0,0,0,0,0,0,0,YES,0,0,0,0,3,1,0,0,1,0,0,0,3,0,0,0,0,0,0,0,0,0,1,1,0,0,2,0,0,0,0,0,0,0,3,1,0,0,0,1,0,0,4,12,0,0,3,0,32,120
cassandra,cassandra-0.6.0,cassandra-0.7.0,F:/corpus/cassandra/cassandra#2010-04-12-09-37-17#cassandra-0.6.0#bb948b4/src/java/org/apache/cassandra/dht/Range.java,F:/corpus/cassandra/cassandra#2011-01-10-08-38-51#cassandra-0.7.0#7b7e357/src/java/org/apache/cassandra/dht/Range.java,0,0,0,0,0,0,0,0,0,0,0,1,0,YES,0,0,0,0,2,0,0,0,0,0,0,0,0,0,0,0,0,0,0,0,0,0,0,0,0,0,0,0,0,0,0,0,0,0,1,0,0,0,0,0,0,0,0,0,1,0,6,0,16,261
cassandra,cassandra-0.6.0,cassandra-0.7.0,F:/corpus/cassandra/cassandra#2010-04-12-09-37-17#cassandra-0.6.0#bb948b4/src/java/org/apache/cassandra/dht/StringToken.java,F:/corpus/cassandra/cassandra#2011-01-10-08-38-51#cassandra-0.7.0#7b7e357/src/java/org/apache/cassandra/dht/StringToken.java,0,0,0,0,0,0,0,0,0,0,0,0,0,YES,0,0,0,0,0,0,0,0,0,0,0,0,0,0,0,0,0,0,0,0,0,0,0,0,0,0,0,0,0,0,0,0,0,0,0,0,0,0,0,0,0,0,0,0,0,0,0,0,1,35
cassandra,cassandra-0.6.0,cassandra-0.7.0,F:/corpus/cassandra/cassandra#2010-04-12-09-37-17#cassandra-0.6.0#bb948b4/src/java/org/apache/cassandra/dht/Token.java,F:/corpus/cassandra/cassandra#2011-01-10-08-38-51#cassandra-0.7.0#7b7e357/src/java/org/apache/cassandra/dht/Token.java,0,0,0,0,2,0,0,0,0,0,0,1,0,YES,0,0,0,0,0,0,0,0,0,0,0,0,0,0,0,0,0,0,0,0,1,0,0,0,0,0,1,0,0,0,0,0,0,0,0,0,1,0,0,0,0,0,1,1,0,0,3,0,8,96
cassandra,cassandra-0.6.0,cassandra-0.7.0,F:/corpus/cassandra/cassandra#2010-04-12-09-37-17#cassandra-0.6.0#bb948b4/src/java/org/apache/cassandra/gms/ApplicationState.java,F:/corpus/cassandra/cassandra#2011-01-10-08-38-51#cassandra-0.7.0#7b7e357/src/java/org/apache/cassandra/gms/ApplicationState.java,0,0,0,0,0,0,0,0,0,0,0,0,0,YES,0,0,0,0,0,0,0,0,0,0,0,0,0,0,0,0,0,0,0,0,0,0,0,0,0,0,0,0,0,0,0,0,0,0,0,0,0,0,0,0,0,0,0,0,0,0,0,0,92,104
cassandra,cassandra-0.6.0,cassandra-0.7.0,F:/corpus/cassandra/cassandra#2010-04-12-09-37-17#cassandra-0.6.0#bb948b4/src/java/org/apache/cassandra/gms/FailureDetector.java,F:/corpus/cassandra/cassandra#2011-01-10-08-38-51#cassandra-0.7.0#7b7e357/src/java/org/apache/cassandra/gms/FailureDetector.java,0,0,0,0,0,0,0,0,0,0,0,0,0,YES,1,0,0,0,3,0,0,0,0,0,0,2,1,0,0,1,0,0,0,0,0,0,0,0,0,0,0,0,0,0,0,0,0,0,1,2,0,0,0,0,0,0,3,5,0,0,5,0,62,279
cassandra,cassandra-0.6.0,cassandra-0.7.0,F:/corpus/cassandra/cassandra#2010-04-12-09-37-17#cassandra-0.6.0#bb948b4/src/java/org/apache/cassandra/gms/FailureDetectorMBean.java,F:/corpus/cassandra/cassandra#2011-01-10-08-38-51#cassandra-0.7.0#7b7e357/src/java/org/apache/cassandra/gms/FailureDetectorMBean.java,0,0,0,0,1,0,0,0,0,0,0,0,0,YES,0,0,0,0,3,0,0,0,0,0,0,0,0,0,0,0,0,0,0,0,0,0,0,0,0,0,0,0,0,0,0,0,0,0,0,0,0,0,0,0,0,0,0,0,0,0,0,0,6,24
cassandra,cassandra-0.6.0,cassandra-0.7.0,F:/corpus/cassandra/cassandra#2010-04-12-09-37-17#cassandra-0.6.0#bb948b4/src/java/org/apache/cassandra/gms/GossipDigest.java,F:/corpus/cassandra/cassandra#2011-01-10-08-38-51#cassandra-0.7.0#7b7e357/src/java/org/apache/cassandra/gms/GossipDigest.java,0,0,0,0,0,0,0,0,0,0,0,0,0,YES,0,0,0,0,0,0,0,0,1,0,0,0,0,0,0,0,0,0,0,1,0,1,0,0,0,1,0,0,0,0,0,0,0,0,0,0,0,0,0,0,0,0,0,0,0,0,6,0,14,109
cassandra,cassandra-0.6.0,cassandra-0.7.0,F:/corpus/cassandra/cassandra#2010-04-12-09-37-17#cassandra-0.6.0#bb948b4/src/java/org/apache/cassandra/gms/GossipDigestAck2Message.java,F:/corpus/cassandra/cassandra#2011-01-10-08-38-51#cassandra-0.7.0#7b7e357/src/java/org/apache/cassandra/gms/GossipDigestAck2Message.java,0,0,0,0,0,0,0,0,0,0,0,0,0,YES,0,0,0,0,0,0,0,0,0,1,0,0,0,0,1,0,0,0,0,0,0,1,0,0,0,0,1,0,0,0,0,0,0,0,0,0,0,0,0,1,0,0,0,0,0,0,2,0,9,75
cassandra,cassandra-0.6.0,cassandra-0.7.0,F:/corpus/cassandra/cassandra#2010-04-12-09-37-17#cassandra-0.6.0#bb948b4/src/java/org/apache/cassandra/gms/GossipDigestAckMessage.java,F:/corpus/cassandra/cassandra#2011-01-10-08-38-51#cassandra-0.7.0#7b7e357/src/java/org/apache/cassandra/gms/GossipDigestAckMessage.java,0,0,0,0,0,0,0,0,0,0,0,0,0,YES,0,0,0,0,0,0,0,0,0,1,0,2,2,0,0,0,0,0,0,0,0,1,0,0,0,0,1,0,0,0,0,0,0,0,1,0,0,0,0,1,0,0,5,2,1,1,3,0,26,100
cassandra,cassandra-0.6.0,cassandra-0.7.0,F:/corpus/cassandra/cassandra#2010-04-12-09-37-17#cassandra-0.6.0#bb948b4/src/java/org/apache/cassandra/gms/GossipDigestSynMessage.java,F:/corpus/cassandra/cassandra#2011-01-10-08-38-51#cassandra-0.7.0#7b7e357/src/java/org/apache/cassandra/gms/GossipDigestSynMessage.java,0,0,0,0,0,0,0,0,0,0,0,0,0,YES,0,0,0,0,0,0,0,0,0,0,0,0,0,0,0,0,0,0,0,0,0,0,0,0,0,0,0,0,0,0,0,0,0,0,0,0,0,0,0,0,1,0,16,2,0,0,2,0,67,180
cassandra,cassandra-0.6.0,cassandra-0.7.0,F:/corpus/cassandra/cassandra#2010-04-12-09-37-17#cassandra-0.6.0#bb948b4/src/java/org/apache/cassandra/gms/Gossiper.java,F:/corpus/cassandra/cassandra#2011-01-10-08-38-51#cassandra-0.7.0#7b7e357/src/java/org/apache/cassandra/gms/Gossiper.java,0,1,0,0,0,12,0,0,0,0,0,0,0,YES,0,0,0,0,2,3,0,0,3,2,1,4,2,0,1,20,0,0,2,3,1,4,2,2,0,3,16,0,1,0,0,1,1,4,0,2,0,0,0,2,0,0,19,17,0,7,87,8,436,1066
cassandra,cassandra-0.6.0,cassandra-0.7.0,F:/corpus/cassandra/cassandra#2010-04-12-09-37-17#cassandra-0.6.0#bb948b4/src/java/org/apache/cassandra/gms/PureRandom.java,F:/corpus/cassandra/cassandra#2011-01-10-08-38-51#cassandra-0.7.0#7b7e357/src/java/org/apache/cassandra/gms/PureRandom.java,0,0,0,0,1,0,0,0,0,0,0,0,0,YES,0,0,0,0,0,0,0,0,0,0,0,0,0,0,0,0,0,0,0,0,0,0,0,0,0,0,0,0,0,0,0,0,0,0,0,0,0,0,0,0,0,0,0,0,0,0,0,0,2,81
cassandra,cassandra-0.6.0,cassandra-0.7.0,F:/corpus/cassandra/cassandra#2010-04-12-09-37-17#cassandra-0.6.0#bb948b4/src/java/org/apache/cassandra/hadoop/ColumnFamilyInputFormat.java,F:/corpus/cassandra/cassandra#2011-01-10-08-38-51#cassandra-0.7.0#7b7e357/src/java/org/apache/cassandra/hadoop/ColumnFamilyInputFormat.java,0,0,0,0,1,1,0,0,0,0,0,0,0,YES,0,0,0,0,2,3,0,0,0,0,0,0,1,0,0,2,0,0,0,0,0,0,2,4,0,0,0,1,0,0,0,0,0,0,1,1,1,0,0,1,0,0,7,11,3,0,6,0,70,218
cassandra,cassandra-0.6.0,cassandra-0.7.0,F:/corpus/cassandra/cassandra#2010-04-12-09-37-17#cassandra-0.6.0#bb948b4/src/java/org/apache/cassandra/hadoop/ColumnFamilyRecordReader.java,F:/corpus/cassandra/cassandra#2011-01-10-08-38-51#cassandra-0.7.0#7b7e357/src/java/org/apache/cassandra/hadoop/ColumnFamilyRecordReader.java,0,0,0,0,0,0,0,0,0,0,0,0,0,YES,0,0,0,0,4,4,0,0,0,1,0,0,4,3,0,0,1,0,0,0,0,0,0,0,0,0,0,2,0,0,0,0,0,0,4,0,1,0,0,3,0,0,8,38,6,0,8,0,129,253
cassandra,cassandra-0.6.0,cassandra-0.7.0,F:/corpus/cassandra/cassandra#2010-04-12-09-37-17#cassandra-0.6.0#bb948b4/src/java/org/apache/cassandra/hadoop/ColumnFamilySplit.java,F:/corpus/cassandra/cassandra#2011-01-10-08-38-51#cassandra-0.7.0#7b7e357/src/java/org/apache/cassandra/hadoop/ColumnFamilySplit.java,0,0,0,0,0,0,0,0,0,0,0,0,0,YES,0,0,0,0,0,0,0,0,0,0,0,0,0,0,0,2,0,0,0,0,0,0,0,0,0,0,0,0,0,0,0,0,0,0,0,0,0,0,0,0,0,0,0,0,0,0,3,0,11,122
cassandra,cassandra-0.6.0,cassandra-0.7.0,F:/corpus/cassandra/cassandra#2010-04-12-09-37-17#cassandra-0.6.0#bb948b4/src/java/org/apache/cassandra/hadoop/ConfigHelper.java,F:/corpus/cassandra/cassandra#2011-01-10-08-38-51#cassandra-0.7.0#7b7e357/src/java/org/apache/cassandra/hadoop/ConfigHelper.java,0,0,0,0,0,0,0,0,0,0,0,0,0,YES,0,0,0,0,13,10,0,0,3,0,0,0,0,0,0,0,0,0,0,1,0,5,0,0,0,0,0,0,0,0,0,0,0,0,0,0,0,0,0,0,0,0,5,1,0,0,9,0,37,174
cassandra,cassandra-0.6.0,cassandra-0.7.0,F:/corpus/cassandra/cassandra#2010-04-12-09-37-17#cassandra-0.6.0#bb948b4/src/java/org/apache/cassandra/io/CompactionIterator.java,F:/corpus/cassandra/cassandra#2011-01-10-08-38-51#cassandra-0.7.0#7b7e357/src/java/org/apache/cassandra/io/CompactionIterator.java,0,0,0,0,0,1,0,0,0,0,0,0,0,YES,0,0,0,0,4,2,2,0,0,0,0,0,0,0,0,0,0,0,0,0,1,0,0,2,0,0,0,1,0,0,0,0,1,1,2,1,0,0,0,1,0,0,24,3,0,1,2,0,76,195
cassandra,cassandra-0.6.0,cassandra-0.7.0,F:/corpus/cassandra/cassandra#2010-04-12-09-37-17#cassandra-0.6.0#bb948b4/src/java/org/apache/cassandra/io/ICompactSerializer.java,F:/corpus/cassandra/cassandra#2011-01-10-08-38-51#cassandra-0.7.0#7b7e357/src/java/org/apache/cassandra/io/ICompactSerializer.java,0,0,0,0,1,0,0,0,0,0,0,0,0,YES,0,0,0,0,0,0,0,0,0,0,0,0,0,0,0,0,0,0,0,0,0,0,0,0,0,0,0,0,0,0,0,0,0,0,0,0,0,0,0,0,0,0,0,0,0,0,0,0,2,47
cassandra,cassandra-0.6.0,cassandra-0.7.0,F:/corpus/cassandra/cassandra#2010-04-12-09-37-17#cassandra-0.6.0#bb948b4/src/java/org/apache/cassandra/io/ICompactSerializer2.java,F:/corpus/cassandra/cassandra#2011-01-10-08-38-51#cassandra-0.7.0#7b7e357/src/java/org/apache/cassandra/io/ICompactSerializer2.java,0,0,0,0,1,0,0,0,0,0,0,0,0,YES,0,0,0,0,0,0,0,0,0,0,0,0,0,0,0,0,0,0,0,0,0,0,0,0,0,0,0,0,0,0,0,0,0,0,0,0,0,0,0,0,0,0,0,0,0,0,0,0,1,40
cassandra,cassandra-0.6.0,cassandra-0.7.0,F:/corpus/cassandra/cassandra#2010-04-12-09-37-17#cassandra-0.6.0#bb948b4/src/java/org/apache/cassandra/io/util/BufferedRandomAccessFile.java,F:/corpus/cassandra/cassandra#2011-01-10-08-38-51#cassandra-0.7.0#7b7e357/src/java/org/apache/cassandra/io/util/BufferedRandomAccessFile.java,0,0,0,0,0,0,0,0,0,0,0,3,0,YES,0,0,0,1,3,1,3,1,0,0,0,15,2,1,0,7,0,0,0,0,0,1,0,2,0,0,0,0,0,0,0,0,0,0,2,2,0,0,0,0,0,1,34,20,0,3,13,0,147,414
cassandra,cassandra-0.6.0,cassandra-0.7.0,F:/corpus/cassandra/cassandra#2010-04-12-09-37-17#cassandra-0.6.0#bb948b4/src/java/org/apache/cassandra/io/util/DataOutputBuffer.java,F:/corpus/cassandra/cassandra#2011-01-10-08-38-51#cassandra-0.7.0#7b7e357/src/java/org/apache/cassandra/io/util/DataOutputBuffer.java,0,0,0,0,0,0,0,0,0,0,0,2,0,YES,0,0,0,0,2,0,0,0,0,0,0,0,0,0,0,0,0,1,0,0,1,0,1,1,0,0,0,0,0,0,0,0,0,1,1,1,0,1,0,0,0,0,3,2,0,0,3,0,51,106
cassandra,cassandra-0.6.0,cassandra-0.7.0,F:/corpus/cassandra/cassandra#2010-04-12-09-37-17#cassandra-0.6.0#bb948b4/src/java/org/apache/cassandra/io/util/FileDataInput.java,F:/corpus/cassandra/cassandra#2011-01-10-08-38-51#cassandra-0.7.0#7b7e357/src/java/org/apache/cassandra/io/util/FileDataInput.java,0,0,0,0,0,0,0,0,0,0,0,0,0,YES,0,0,0,0,2,0,0,0,0,0,0,0,0,0,0,0,0,0,0,0,0,0,0,1,0,0,0,0,0,0,0,0,0,0,2,0,0,0,0,0,0,1,0,0,0,0,0,0,6,41
cassandra,cassandra-0.6.0,cassandra-0.7.0,F:/corpus/cassandra/cassandra#2010-04-12-09-37-17#cassandra-0.6.0#bb948b4/src/java/org/apache/cassandra/io/util/FileUtils.java,F:/corpus/cassandra/cassandra#2011-01-10-08-38-51#cassandra-0.7.0#7b7e357/src/java/org/apache/cassandra/io/util/FileUtils.java,0,0,0,0,0,0,0,0,0,0,0,1,0,YES,0,0,0,0,4,0,0,0,0,0,0,0,0,0,0,0,0,0,0,0,0,0,0,0,0,0,0,0,0,0,0,0,0,0,3,0,0,0,0,0,0,0,0,0,0,0,2,0,112,231
cassandra,cassandra-0.6.0,cassandra-0.7.0,F:/corpus/cassandra/cassandra#2010-04-12-09-37-17#cassandra-0.6.0#bb948b4/src/java/org/apache/cassandra/io/util/MappedFileDataInput.java,F:/corpus/cassandra/cassandra#2011-01-10-08-38-51#cassandra-0.7.0#7b7e357/src/java/org/apache/cassandra/io/util/MappedFileDataInput.java,0,0,0,0,1,0,0,0,0,0,0,0,1,YES,0,0,0,1,2,0,0,0,0,0,0,0,0,0,0,0,0,0,0,0,0,0,1,1,0,0,0,0,0,0,0,0,0,0,4,2,0,0,0,0,0,1,5,5,0,0,0,0,46,433
cassandra,cassandra-0.6.0,cassandra-0.7.0,F:/corpus/cassandra/cassandra#2010-04-12-09-37-17#cassandra-0.6.0#bb948b4/src/java/org/apache/cassandra/locator/AbstractEndpointSnitch.java,F:/corpus/cassandra/cassandra#2011-01-10-08-38-51#cassandra-0.7.0#7b7e357/src/java/org/apache/cassandra/locator/AbstractEndpointSnitch.java,0,0,0,0,0,0,0,0,0,0,0,0,0,YES,0,0,0,0,1,1,0,0,0,0,0,0,0,0,0,0,0,1,0,0,0,0,0,0,0,0,0,0,0,0,1,0,0,0,3,0,0,0,0,0,0,0,5,0,0,0,0,0,88,97
cassandra,cassandra-0.6.0,cassandra-0.7.0,F:/corpus/cassandra/cassandra#2010-04-12-09-37-17#cassandra-0.6.0#bb948b4/src/java/org/apache/cassandra/locator/AbstractReplicationStrategy.java,F:/corpus/cassandra/cassandra#2011-01-10-08-38-51#cassandra-0.7.0#7b7e357/src/java/org/apache/cassandra/locator/AbstractReplicationStrategy.java,0,0,0,0,1,1,0,0,0,0,0,0,0,YES,0,0,0,0,9,3,0,0,3,1,0,0,2,0,1,3,1,0,1,3,1,2,9,3,1,4,1,0,0,0,0,0,0,0,1,0,1,0,0,2,0,0,2,17,0,0,6,0,132,193
cassandra,cassandra-0.6.0,cassandra-0.7.0,F:/corpus/cassandra/cassandra#2010-04-12-09-37-17#cassandra-0.6.0#bb948b4/src/java/org/apache/cassandra/locator/TokenMetadata.java,F:/corpus/cassandra/cassandra#2011-01-10-08-38-51#cassandra-0.7.0#7b7e357/src/java/org/apache/cassandra/locator/TokenMetadata.java,0,0,1,0,0,0,0,0,0,0,0,4,0,YES,0,0,0,0,8,2,0,0,2,1,0,0,0,0,0,6,0,0,0,4,0,3,0,1,1,1,1,0,0,0,0,0,0,0,3,0,0,0,0,2,0,0,11,15,1,1,30,1,180,524
cassandra,cassandra-0.6.0,cassandra-0.7.0,F:/corpus/cassandra/cassandra#2010-04-12-09-37-17#cassandra-0.6.0#bb948b4/src/java/org/apache/cassandra/net/AsyncResult.java,F:/corpus/cassandra/cassandra#2011-01-10-08-38-51#cassandra-0.7.0#7b7e357/src/java/org/apache/cassandra/net/AsyncResult.java,0,0,0,0,1,0,0,0,0,0,0,0,0,YES,0,0,0,0,1,1,1,0,6,0,0,0,0,0,0,3,0,0,0,0,0,0,0,0,0,0,0,0,0,0,0,0,0,0,2,0,0,0,0,0,0,0,2,3,0,1,12,0,56,122
cassandra,cassandra-0.6.0,cassandra-0.7.0,F:/corpus/cassandra/cassandra#2010-04-12-09-37-17#cassandra-0.6.0#bb948b4/src/java/org/apache/cassandra/net/Header.java,F:/corpus/cassandra/cassandra#2011-01-10-08-38-51#cassandra-0.7.0#7b7e357/src/java/org/apache/cassandra/net/Header.java,0,0,0,0,0,0,0,0,1,0,0,0,0,YES,0,0,0,0,0,0,0,0,0,0,0,0,0,0,0,0,0,0,0,0,0,0,3,0,0,0,0,0,0,0,0,0,0,0,1,1,0,0,0,0,0,0,4,0,0,0,5,0,26,159
cassandra,cassandra-0.6.0,cassandra-0.7.0,F:/corpus/cassandra/cassandra#2010-04-12-09-37-17#cassandra-0.6.0#bb948b4/src/java/org/apache/cassandra/net/IAsyncCallback.java,F:/corpus/cassandra/cassandra#2011-01-10-08-38-51#cassandra-0.7.0#7b7e357/src/java/org/apache/cassandra/net/IAsyncCallback.java,0,0,0,0,0,0,0,0,0,0,0,0,0,YES,0,0,0,0,0,0,0,0,0,0,0,0,0,0,0,0,0,0,0,0,0,0,0,0,0,0,0,0,0,0,0,0,0,0,0,0,0,0,0,0,0,0,0,0,0,0,0,0,1,33
cassandra,cassandra-0.6.0,cassandra-0.7.0,F:/corpus/cassandra/cassandra#2010-04-12-09-37-17#cassandra-0.6.0#bb948b4/src/java/org/apache/cassandra/net/IAsyncResult.java,F:/corpus/cassandra/cassandra#2011-01-10-08-38-51#cassandra-0.7.0#7b7e357/src/java/org/apache/cassandra/net/IAsyncResult.java,0,0,0,0,1,0,0,0,0,0,0,0,0,YES,0,0,0,0,1,0,0,0,0,0,0,0,0,0,0,0,0,0,0,0,0,0,0,0,0,0,0,0,0,0,0,0,1,0,2,0,0,0,0,0,0,0,0,0,0,0,0,0,17,54
cassandra,cassandra-0.6.0,cassandra-0.7.0,F:/corpus/cassandra/cassandra#2010-04-12-09-37-17#cassandra-0.6.0#bb948b4/src/java/org/apache/cassandra/net/IncomingTcpConnection.java,F:/corpus/cassandra/cassandra#2011-01-10-08-38-51#cassandra-0.7.0#7b7e357/src/java/org/apache/cassandra/net/IncomingTcpConnection.java,0,0,0,0,0,0,0,0,0,0,0,0,0,YES,0,0,0,0,1,0,0,0,0,0,0,0,0,0,0,0,0,0,0,0,0,0,0,0,0,0,0,0,0,0,0,0,0,0,0,0,0,0,0,0,0,0,1,9,0,1,1,0,23,90
cassandra,cassandra-0.6.0,cassandra-0.7.0,F:/corpus/cassandra/cassandra#2010-04-12-09-37-17#cassandra-0.6.0#bb948b4/src/java/org/apache/cassandra/net/Message.java,F:/corpus/cassandra/cassandra#2011-01-10-08-38-51#cassandra-0.7.0#7b7e357/src/java/org/apache/cassandra/net/Message.java,0,0,0,0,0,0,0,0,0,0,0,4,0,YES,0,0,0,0,1,0,0,0,0,0,0,0,0,0,0,0,0,0,0,0,0,0,1,0,0,0,0,0,0,0,0,0,0,0,0,0,0,0,0,1,0,0,1,1,0,0,2,0,9,143
cassandra,cassandra-0.6.0,cassandra-0.7.0,F:/corpus/cassandra/cassandra#2010-04-12-09-37-17#cassandra-0.6.0#bb948b4/src/java/org/apache/cassandra/net/MessageDeliveryTask.java,F:/corpus/cassandra/cassandra#2011-01-10-08-38-51#cassandra-0.7.0#7b7e357/src/java/org/apache/cassandra/net/MessageDeliveryTask.java,0,0,0,0,0,0,0,0,0,0,0,0,0,YES,0,0,0,0,0,1,0,0,0,0,0,0,0,0,0,0,0,0,0,0,0,0,0,0,0,0,0,0,0,0,0,0,0,0,0,0,1,0,0,0,0,0,0,14,0,0,0,0,25,42
cassandra,cassandra-0.6.0,cassandra-0.7.0,F:/corpus/cassandra/cassandra#2010-04-12-09-37-17#cassandra-0.6.0#bb948b4/src/java/org/apache/cassandra/net/MessagingService.java,F:/corpus/cassandra/cassandra#2011-01-10-08-38-51#cassandra-0.7.0#7b7e357/src/java/org/apache/cassandra/net/MessagingService.java,0,0,0,0,0,0,0,0,0,0,0,1,0,YES,0,0,0,0,10,5,1,0,1,1,0,3,2,0,0,1,0,0,0,2,0,0,6,4,0,0,2,0,0,0,0,1,2,0,2,2,0,0,0,1,0,1,14,33,0,1,10,0,163,499
cassandra,cassandra-0.6.0,cassandra-0.7.0,F:/corpus/cassandra/cassandra#2010-04-12-09-37-17#cassandra-0.6.0#bb948b4/src/java/org/apache/cassandra/net/OutboundTcpConnection.java,F:/corpus/cassandra/cassandra#2011-01-10-08-38-51#cassandra-0.7.0#7b7e357/src/java/org/apache/cassandra/net/OutboundTcpConnection.java,0,0,0,0,0,0,0,0,0,0,0,0,0,YES,0,0,0,0,2,1,0,1,0,0,0,0,1,0,0,0,1,0,0,0,0,0,1,0,0,0,0,0,0,0,0,0,0,0,0,1,0,0,0,0,0,0,1,4,0,0,1,0,26,171
cassandra,cassandra-0.6.0,cassandra-0.7.0,F:/corpus/cassandra/cassandra#2010-04-12-09-37-17#cassandra-0.6.0#bb948b4/src/java/org/apache/cassandra/net/OutboundTcpConnectionPool.java,F:/corpus/cassandra/cassandra#2011-01-10-08-38-51#cassandra-0.7.0#7b7e357/src/java/org/apache/cassandra/net/OutboundTcpConnectionPool.java,0,0,0,0,0,0,0,0,0,0,0,0,0,YES,0,0,0,0,0,0,1,0,0,0,0,0,0,0,0,0,0,0,0,0,2,0,0,0,0,0,0,0,0,0,0,0,0,0,0,1,2,0,0,0,0,0,11,6,0,1,0,1,30,72
cassandra,cassandra-0.6.0,cassandra-0.7.0,F:/corpus/cassandra/cassandra#2010-04-12-09-37-17#cassandra-0.6.0#bb948b4/src/java/org/apache/cassandra/net/ResponseVerbHandler.java,F:/corpus/cassandra/cassandra#2011-01-10-08-38-51#cassandra-0.7.0#7b7e357/src/java/org/apache/cassandra/net/ResponseVerbHandler.java,0,0,0,0,0,0,0,0,0,0,0,0,0,YES,0,0,0,0,1,1,1,1,0,0,0,0,1,0,0,1,0,0,0,0,0,0,0,0,0,0,0,0,0,0,0,0,1,0,0,0,0,0,0,0,0,0,2,6,0,2,3,0,20,48
cassandra,cassandra-0.6.0,cassandra-0.7.0,F:/corpus/cassandra/cassandra#2010-04-12-09-37-17#cassandra-0.6.0#bb948b4/src/java/org/apache/cassandra/net/sink/IMessageSink.java,F:/corpus/cassandra/cassandra#2011-01-10-08-38-51#cassandra-0.7.0#7b7e357/src/java/org/apache/cassandra/net/sink/IMessageSink.java,0,0,0,0,1,0,0,0,0,0,0,0,0,YES,0,0,0,0,0,0,0,0,0,0,0,0,0,0,0,0,0,0,0,0,0,0,0,1,0,0,0,0,0,0,0,0,0,0,0,0,0,0,0,0,0,0,0,0,0,0,0,0,2,27
cassandra,cassandra-0.6.0,cassandra-0.7.0,F:/corpus/cassandra/cassandra#2010-04-12-09-37-17#cassandra-0.6.0#bb948b4/src/java/org/apache/cassandra/net/sink/SinkManager.java,F:/corpus/cassandra/cassandra#2011-01-10-08-38-51#cassandra-0.7.0#7b7e357/src/java/org/apache/cassandra/net/sink/SinkManager.java,0,0,0,0,0,0,0,0,0,0,0,0,0,YES,0,0,0,0,1,0,0,0,1,1,0,0,0,0,0,0,0,0,0,0,0,3,0,1,0,0,0,0,0,0,0,0,0,0,2,0,0,0,0,0,0,0,7,7,0,6,2,0,31,74
cassandra,cassandra-0.6.0,cassandra-0.7.0,F:/corpus/cassandra/cassandra#2010-04-12-09-37-17#cassandra-0.6.0#bb948b4/src/java/org/apache/cassandra/service/AntiEntropyService.java,F:/corpus/cassandra/cassandra#2011-01-10-08-38-51#cassandra-0.7.0#7b7e357/src/java/org/apache/cassandra/service/AntiEntropyService.java,1,0,0,0,0,0,0,0,0,0,0,0,0,YES,0,0,0,3,6,5,1,0,0,1,0,3,5,0,4,2,1,0,0,11,1,1,8,5,2,4,3,0,0,0,1,1,0,2,9,8,0,0,0,4,0,0,37,40,1,2,39,0,341,795
cassandra,cassandra-0.6.0,cassandra-0.7.0,F:/corpus/cassandra/cassandra#2010-04-12-09-37-17#cassandra-0.6.0#bb948b4/src/java/org/apache/cassandra/service/DatacenterSyncWriteResponseHandler.java,F:/corpus/cassandra/cassandra#2011-01-10-08-38-51#cassandra-0.7.0#7b7e357/src/java/org/apache/cassandra/service/DatacenterSyncWriteResponseHandler.java,0,0,0,0,0,0,0,0,0,0,0,0,0,YES,1,0,0,0,2,3,2,0,1,1,0,5,1,0,0,0,1,0,0,1,0,0,1,3,0,0,0,1,0,0,0,0,0,0,0,2,0,0,0,0,0,0,15,9,0,3,2,1,55,97
cassandra,cassandra-0.6.0,cassandra-0.7.0,F:/corpus/cassandra/cassandra#2010-04-12-09-37-17#cassandra-0.6.0#bb948b4/src/java/org/apache/cassandra/service/DatacenterWriteResponseHandler.java,F:/corpus/cassandra/cassandra#2011-01-10-08-38-51#cassandra-0.7.0#7b7e357/src/java/org/apache/cassandra/service/DatacenterWriteResponseHandler.java,0,0,0,0,0,0,0,0,0,0,0,0,0,YES,0,0,0,0,4,2,0,0,0,0,0,2,0,0,0,1,0,0,0,1,0,0,0,0,0,0,0,0,0,0,0,0,0,0,1,3,0,0,0,0,0,0,9,1,0,1,0,0,52,82
cassandra,cassandra-0.6.0,cassandra-0.7.0,F:/corpus/cassandra/cassandra#2010-04-12-09-37-17#cassandra-0.6.0#bb948b4/src/java/org/apache/cassandra/service/DigestMismatchException.java,F:/corpus/cassandra/cassandra#2011-01-10-08-38-51#cassandra-0.7.0#7b7e357/src/java/org/apache/cassandra/service/DigestMismatchException.java,0,0,0,0,0,0,0,0,0,0,0,0,0,YES,0,0,0,0,0,0,0,0,0,0,0,0,0,0,0,0,0,0,0,0,0,0,1,3,0,0,0,0,0,0,0,0,0,0,0,0,0,0,0,0,0,0,1,1,0,0,0,0,9,27
cassandra,cassandra-0.6.0,cassandra-0.7.0,F:/corpus/cassandra/cassandra#2010-04-12-09-37-17#cassandra-0.6.0#bb948b4/src/java/org/apache/cassandra/service/EmbeddedCassandraService.java,F:/corpus/cassandra/cassandra#2011-01-10-08-38-51#cassandra-0.7.0#7b7e357/src/java/org/apache/cassandra/service/EmbeddedCassandraService.java,0,0,1,0,0,0,0,0,0,0,0,0,0,YES,0,0,0,0,0,0,0,0,0,0,0,0,0,0,0,0,0,0,0,0,0,0,0,0,0,0,0,0,0,0,0,0,0,0,0,0,0,0,0,0,0,0,0,0,0,0,0,0,11,81
cassandra,cassandra-0.6.0,cassandra-0.7.0,F:/corpus/cassandra/cassandra#2010-04-12-09-37-17#cassandra-0.6.0#bb948b4/src/java/org/apache/cassandra/service/GCInspector.java,F:/corpus/cassandra/cassandra#2011-01-10-08-38-51#cassandra-0.7.0#7b7e357/src/java/org/apache/cassandra/service/GCInspector.java,0,0,0,0,0,1,0,0,0,0,0,0,0,YES,0,0,0,1,1,3,0,0,0,0,0,0,3,0,0,6,0,0,0,0,0,0,0,0,0,0,0,0,0,0,0,0,0,0,0,1,0,0,0,0,0,0,2,12,1,0,5,0,197,115
cassandra,cassandra-0.6.0,cassandra-0.7.0,F:/corpus/cassandra/cassandra#2010-04-12-09-37-17#cassandra-0.6.0#bb948b4/src/java/org/apache/cassandra/service/IResponseResolver.java,F:/corpus/cassandra/cassandra#2011-01-10-08-38-51#cassandra-0.7.0#7b7e357/src/java/org/apache/cassandra/service/IResponseResolver.java,0,0,0,0,1,0,0,0,0,0,0,0,0,YES,0,0,0,0,5,0,0,0,0,0,0,0,0,0,0,0,0,0,0,0,0,0,0,0,0,0,0,0,0,0,0,0,0,0,2,0,0,0,0,0,0,0,0,0,0,0,0,0,7,40
cassandra,cassandra-0.6.0,cassandra-0.7.0,F:/corpus/cassandra/cassandra#2010-04-12-09-37-17#cassandra-0.6.0#bb948b4/src/java/org/apache/cassandra/service/QuorumResponseHandler.java,F:/corpus/cassandra/cassandra#2011-01-10-08-38-51#cassandra-0.7.0#7b7e357/src/java/org/apache/cassandra/service/QuorumResponseHandler.java,0,0,0,0,1,0,0,0,0,0,0,0,0,YES,0,0,0,0,2,2,0,0,0,0,0,0,0,0,0,3,0,0,1,0,0,0,1,2,1,1,0,0,0,0,0,0,0,0,0,2,0,0,0,0,0,0,2,5,0,0,4,0,48,97
cassandra,cassandra-0.6.0,cassandra-0.7.0,F:/corpus/cassandra/cassandra#2010-04-12-09-37-17#cassandra-0.6.0#bb948b4/src/java/org/apache/cassandra/service/RangeSliceResponseResolver.java,F:/corpus/cassandra/cassandra#2011-01-10-08-38-51#cassandra-0.7.0#7b7e357/src/java/org/apache/cassandra/service/RangeSliceResponseResolver.java,0,0,0,0,0,0,0,0,0,0,0,0,0,YES,0,0,0,0,5,1,0,0,0,0,0,0,0,0,0,0,0,0,0,0,0,0,0,0,0,0,0,0,0,0,0,0,0,0,2,0,0,0,0,0,0,0,0,0,0,0,0,0,16,131
cassandra,cassandra-0.6.0,cassandra-0.7.0,F:/corpus/cassandra/cassandra#2010-04-12-09-37-17#cassandra-0.6.0#bb948b4/src/java/org/apache/cassandra/service/RangeSliceVerbHandler.java,F:/corpus/cassandra/cassandra#2011-01-10-08-38-51#cassandra-0.7.0#7b7e357/src/java/org/apache/cassandra/service/RangeSliceVerbHandler.java,0,0,0,0,0,0,0,0,1,0,0,0,0,YES,0,0,0,0,0,0,0,0,0,0,0,0,1,0,0,0,0,0,0,0,0,0,0,0,0,0,0,0,0,0,0,0,0,0,0,0,0,0,0,0,0,0,0,2,0,0,1,0,16,56
cassandra,cassandra-0.6.0,cassandra-0.7.0,F:/corpus/cassandra/cassandra#2010-04-12-09-37-17#cassandra-0.6.0#bb948b4/src/java/org/apache/cassandra/service/ReadResponseResolver.java,F:/corpus/cassandra/cassandra#2011-01-10-08-38-51#cassandra-0.7.0#7b7e357/src/java/org/apache/cassandra/service/ReadResponseResolver.java,0,0,0,0,0,0,0,0,0,0,0,0,0,YES,0,0,0,0,6,2,0,0,0,0,0,0,0,0,0,0,0,0,0,0,0,0,1,1,0,1,1,0,0,0,0,0,0,0,2,1,0,0,0,0,0,0,3,7,0,0,1,0,84,189
cassandra,cassandra-0.6.0,cassandra-0.7.0,F:/corpus/cassandra/cassandra#2010-04-12-09-37-17#cassandra-0.6.0#bb948b4/src/java/org/apache/cassandra/service/StorageLoadBalancer.java,F:/corpus/cassandra/cassandra#2011-01-10-08-38-51#cassandra-0.7.0#7b7e357/src/java/org/apache/cassandra/service/StorageLoadBalancer.java,0,0,1,0,0,0,0,0,0,0,0,0,0,YES,0,0,0,0,1,0,0,0,0,0,0,0,0,0,0,1,0,0,0,0,0,0,1,1,0,0,3,0,0,0,1,0,0,0,0,3,0,0,0,0,0,0,3,4,0,0,5,0,55,388
cassandra,cassandra-0.6.0,cassandra-0.7.0,F:/corpus/cassandra/cassandra#2010-04-12-09-37-17#cassandra-0.6.0#bb948b4/src/java/org/apache/cassandra/service/StorageProxy.java,F:/corpus/cassandra/cassandra#2011-01-10-08-38-51#cassandra-0.7.0#7b7e357/src/java/org/apache/cassandra/service/StorageProxy.java,0,0,0,0,0,0,0,3,1,0,0,0,0,YES,0,0,0,0,14,3,1,2,0,0,0,5,10,3,1,7,0,0,1,1,1,2,2,0,1,0,1,0,0,0,0,0,0,0,5,1,0,0,0,1,0,0,46,83,1,26,39,0,635,772
cassandra,cassandra-0.6.0,cassandra-0.7.0,F:/corpus/cassandra/cassandra#2010-04-12-09-37-17#cassandra-0.6.0#bb948b4/src/java/org/apache/cassandra/service/StorageProxyMBean.java,F:/corpus/cassandra/cassandra#2011-01-10-08-38-51#cassandra-0.7.0#7b7e357/src/java/org/apache/cassandra/service/StorageProxyMBean.java,0,0,0,0,1,0,0,0,0,0,0,0,0,YES,0,0,0,0,8,0,0,0,0,0,0,0,0,0,0,0,0,0,0,0,0,0,0,0,0,0,0,0,0,0,0,0,0,0,0,0,0,0,0,0,0,0,0,0,0,0,0,0,9,34
cassandra,cassandra-0.6.0,cassandra-0.7.0,F:/corpus/cassandra/cassandra#2010-04-12-09-37-17#cassandra-0.6.0#bb948b4/src/java/org/apache/cassandra/service/StorageService.java,F:/corpus/cassandra/cassandra#2011-01-10-08-38-51#cassandra-0.7.0#7b7e357/src/java/org/apache/cassandra/service/StorageService.java,0,1,0,0,1,4,0,1,1,0,0,2,0,YES,0,0,0,1,21,8,1,7,0,0,0,16,20,0,0,24,0,2,1,5,2,8,7,15,0,8,7,0,0,0,1,0,0,0,7,11,0,0,0,4,0,0,94,150,9,15,99,0,682,1577
cassandra,cassandra-0.6.0,cassandra-0.7.0,F:/corpus/cassandra/cassandra#2010-04-12-09-37-17#cassandra-0.6.0#bb948b4/src/java/org/apache/cassandra/service/StorageServiceMBean.java,F:/corpus/cassandra/cassandra#2011-01-10-08-38-51#cassandra-0.7.0#7b7e357/src/java/org/apache/cassandra/service/StorageServiceMBean.java,0,0,0,0,1,0,0,0,0,0,0,0,0,YES,0,0,0,0,15,0,0,0,0,0,0,0,0,0,0,0,0,0,0,2,0,1,0,4,0,0,1,0,0,0,0,0,0,0,0,0,0,0,0,2,0,0,0,0,0,0,0,0,48,173
cassandra,cassandra-0.6.0,cassandra-0.7.0,F:/corpus/cassandra/cassandra#2010-04-12-09-37-17#cassandra-0.6.0#bb948b4/src/java/org/apache/cassandra/service/WriteResponseHandler.java,F:/corpus/cassandra/cassandra#2011-01-10-08-38-51#cassandra-0.7.0#7b7e357/src/java/org/apache/cassandra/service/WriteResponseHandler.java,0,0,0,0,0,0,0,0,0,0,0,0,0,YES,0,0,0,0,5,0,0,0,0,1,0,1,0,0,0,0,1,0,1,0,0,0,2,1,0,1,0,0,0,1,0,1,0,0,3,4,0,0,0,0,0,0,7,4,0,0,0,0,120,108
cassandra,cassandra-0.6.0,cassandra-0.7.0,F:/corpus/cassandra/cassandra#2010-04-12-09-37-17#cassandra-0.6.0#bb948b4/src/java/org/apache/cassandra/streaming/IncomingStreamReader.java,F:/corpus/cassandra/cassandra#2011-01-10-08-38-51#cassandra-0.7.0#7b7e357/src/java/org/apache/cassandra/streaming/IncomingStreamReader.java,0,0,0,0,0,0,0,0,0,0,0,0,0,YES,0,0,0,0,1,2,0,0,1,0,0,2,2,0,0,0,0,0,0,0,0,0,0,1,0,0,0,0,0,0,0,0,0,0,1,1,3,0,0,0,0,0,30,8,0,0,1,0,52,105
cassandra,cassandra-0.6.0,cassandra-0.7.0,F:/corpus/cassandra/cassandra#2010-04-12-09-37-17#cassandra-0.6.0#bb948b4/src/java/org/apache/cassandra/streaming/PendingFile.java,F:/corpus/cassandra/cassandra#2011-01-10-08-38-51#cassandra-0.7.0#7b7e357/src/java/org/apache/cassandra/streaming/PendingFile.java,0,0,0,0,0,0,0,0,0,0,0,1,0,YES,0,0,0,0,2,6,0,0,1,1,1,0,0,0,0,0,0,0,1,0,2,1,0,0,0,0,0,0,0,0,0,0,0,0,6,4,0,0,0,0,0,0,4,4,0,0,0,0,60,123
cassandra,cassandra-0.6.0,cassandra-0.7.0,F:/corpus/cassandra/cassandra#2010-04-12-09-37-17#cassandra-0.6.0#bb948b4/src/java/org/apache/cassandra/streaming/StreamIn.java,F:/corpus/cassandra/cassandra#2011-01-10-08-38-51#cassandra-0.7.0#7b7e357/src/java/org/apache/cassandra/streaming/StreamIn.java,0,0,0,0,0,0,0,0,0,0,0,0,0,YES,0,0,0,0,2,0,0,0,0,0,0,0,0,0,0,0,0,0,0,1,0,0,0,0,0,0,0,0,0,0,0,0,0,0,0,0,0,0,0,0,0,0,5,1,0,0,0,0,33,51
cassandra,cassandra-0.6.0,cassandra-0.7.0,F:/corpus/cassandra/cassandra#2010-04-12-09-37-17#cassandra-0.6.0#bb948b4/src/java/org/apache/cassandra/streaming/StreamOut.java,F:/corpus/cassandra/cassandra#2011-01-10-08-38-51#cassandra-0.7.0#7b7e357/src/java/org/apache/cassandra/streaming/StreamOut.java,0,0,0,0,0,0,0,0,0,0,0,0,0,YES,0,0,0,0,4,0,0,0,0,0,0,3,2,0,0,0,0,0,0,1,0,0,0,0,0,0,0,0,0,0,0,0,0,0,2,1,0,0,0,0,0,0,13,3,0,1,2,0,132,153
cassandra,cassandra-0.6.0,cassandra-0.7.0,F:/corpus/cassandra/cassandra#2010-04-12-09-37-17#cassandra-0.6.0#bb948b4/src/java/org/apache/cassandra/streaming/StreamRequestMessage.java,F:/corpus/cassandra/cassandra#2011-01-10-08-38-51#cassandra-0.7.0#7b7e357/src/java/org/apache/cassandra/streaming/StreamRequestMessage.java,0,0,0,0,0,0,0,0,0,0,0,0,0,YES,0,0,0,0,4,5,0,2,0,0,0,0,0,0,0,0,0,0,0,1,0,0,0,0,0,1,0,0,0,0,0,0,0,0,2,1,0,0,0,0,0,0,6,19,0,3,1,0,48,97
cassandra,cassandra-0.6.0,cassandra-0.7.0,F:/corpus/cassandra/cassandra#2010-04-12-09-37-17#cassandra-0.6.0#bb948b4/src/java/org/apache/cassandra/streaming/StreamRequestVerbHandler.java,F:/corpus/cassandra/cassandra#2011-01-10-08-38-51#cassandra-0.7.0#7b7e357/src/java/org/apache/cassandra/streaming/StreamRequestVerbHandler.java,0,0,0,0,0,0,0,0,1,0,0,0,0,YES,0,0,0,0,0,0,0,0,1,0,0,0,0,0,0,2,0,0,0,0,0,0,0,0,0,0,0,0,0,0,0,0,0,0,0,0,0,0,0,0,0,0,2,1,0,2,4,0,19,64
cassandra,cassandra-0.6.0,cassandra-0.7.0,F:/corpus/cassandra/cassandra#2010-04-12-09-37-17#cassandra-0.6.0#bb948b4/src/java/org/apache/cassandra/streaming/StreamingService.java,F:/corpus/cassandra/cassandra#2011-01-10-08-38-51#cassandra-0.7.0#7b7e357/src/java/org/apache/cassandra/streaming/StreamingService.java,0,0,0,0,0,0,0,0,0,0,0,0,0,YES,0,0,0,0,0,0,0,0,0,0,0,0,0,0,0,2,0,0,0,0,0,0,0,0,0,0,0,0,0,0,0,0,0,0,1,2,0,0,0,0,0,0,2,12,0,0,4,0,27,103
cassandra,cassandra-0.6.0,cassandra-0.7.0,F:/corpus/cassandra/cassandra#2010-04-12-09-37-17#cassandra-0.6.0#bb948b4/src/java/org/apache/cassandra/thrift/CassandraDaemon.java,F:/corpus/cassandra/cassandra#2011-01-10-08-38-51#cassandra-0.7.0#7b7e357/src/java/org/apache/cassandra/thrift/CassandraDaemon.java,0,0,0,0,2,0,0,0,0,0,0,0,0,YES,0,0,0,0,0,0,0,0,0,1,0,6,0,0,0,0,0,0,0,0,1,0,0,0,0,0,0,0,0,1,0,0,0,0,2,0,0,0,0,0,0,0,32,11,0,1,7,0,114,204
cassandra,cassandra-0.6.0,cassandra-0.7.0,F:/corpus/cassandra/cassandra#2010-04-12-09-37-17#cassandra-0.6.0#bb948b4/src/java/org/apache/cassandra/thrift/CassandraServer.java,F:/corpus/cassandra/cassandra#2011-01-10-08-38-51#cassandra-0.7.0#7b7e357/src/java/org/apache/cassandra/thrift/CassandraServer.java,0,0,0,0,0,1,0,0,3,0,0,0,0,YES,0,0,0,0,17,2,3,1,0,0,0,1,2,0,0,6,0,0,0,0,1,2,18,6,0,2,9,0,0,0,0,0,0,0,6,3,0,0,0,6,0,0,77,107,0,9,24,0,639,666
cassandra,cassandra-0.6.0,cassandra-0.7.0,F:/corpus/cassandra/cassandra#2010-04-12-09-37-17#cassandra-0.6.0#bb948b4/src/java/org/apache/cassandra/thrift/ThriftValidation.java,F:/corpus/cassandra/cassandra#2011-01-10-08-38-51#cassandra-0.7.0#7b7e357/src/java/org/apache/cassandra/thrift/ThriftValidation.java,0,0,0,0,0,0,0,0,2,0,0,0,0,YES,0,0,0,0,5,1,0,0,0,0,0,0,0,0,0,10,0,0,0,0,1,0,0,0,0,0,4,0,0,0,0,0,0,0,1,0,0,0,0,1,0,0,2,9,0,0,13,0,166,334
cassandra,cassandra-0.6.0,cassandra-0.7.0,F:/corpus/cassandra/cassandra#2010-04-12-09-37-17#cassandra-0.6.0#bb948b4/src/java/org/apache/cassandra/tools/ClusterCmd.java,F:/corpus/cassandra/cassandra#2011-01-10-08-38-51#cassandra-0.7.0#7b7e357/src/java/org/apache/cassandra/tools/ClusterCmd.java,0,0,0,0,0,0,0,0,0,0,0,0,0,YES,0,0,0,0,2,0,0,1,0,0,0,0,0,0,0,2,0,0,0,0,0,1,1,1,0,0,0,0,0,0,0,0,0,0,0,2,0,0,0,0,0,0,22,13,1,5,12,0,73,286
cassandra,cassandra-0.6.0,cassandra-0.7.0,F:/corpus/cassandra/cassandra#2010-04-12-09-37-17#cassandra-0.6.0#bb948b4/src/java/org/apache/cassandra/tools/NodeCmd.java,F:/corpus/cassandra/cassandra#2011-01-10-08-38-51#cassandra-0.7.0#7b7e357/src/java/org/apache/cassandra/tools/NodeCmd.java,0,0,0,0,0,0,0,0,0,2,0,0,0,YES,0,0,0,0,7,0,22,5,0,0,0,4,6,0,0,1,0,0,0,0,0,1,0,0,0,0,0,0,0,0,0,0,0,0,0,0,0,0,0,0,0,0,106,121,4,28,37,0,394,565
cassandra,cassandra-0.6.0,cassandra-0.7.0,F:/corpus/cassandra/cassandra#2010-04-12-09-37-17#cassandra-0.6.0#bb948b4/src/java/org/apache/cassandra/tools/NodeProbe.java,F:/corpus/cassandra/cassandra#2011-01-10-08-38-51#cassandra-0.7.0#7b7e357/src/java/org/apache/cassandra/tools/NodeProbe.java,0,0,0,0,0,0,0,0,0,0,0,0,0,YES,0,0,0,0,16,1,0,0,1,0,0,0,0,0,0,0,0,0,0,0,2,1,1,9,1,0,0,0,0,0,0,0,0,0,2,0,2,0,0,2,0,0,3,5,2,1,9,0,205,496
cassandra,cassandra-0.6.0,cassandra-0.7.0,F:/corpus/cassandra/cassandra#2010-04-12-09-37-17#cassandra-0.6.0#bb948b4/src/java/org/apache/cassandra/tools/SSTableExport.java,F:/corpus/cassandra/cassandra#2011-01-10-08-38-51#cassandra-0.7.0#7b7e357/src/java/org/apache/cassandra/tools/SSTableExport.java,0,0,0,0,1,0,0,0,0,0,0,0,0,YES,0,0,0,0,1,0,0,0,0,0,0,0,3,0,0,1,0,0,0,0,0,0,0,1,0,0,0,0,0,0,0,0,0,0,4,0,0,0,0,0,1,0,18,38,1,1,15,0,133,371
cassandra,cassandra-0.6.0,cassandra-0.7.0,F:/corpus/cassandra/cassandra#2010-04-12-09-37-17#cassandra-0.6.0#bb948b4/src/java/org/apache/cassandra/tools/SSTableImport.java,F:/corpus/cassandra/cassandra#2011-01-10-08-38-51#cassandra-0.7.0#7b7e357/src/java/org/apache/cassandra/tools/SSTableImport.java,0,0,0,0,0,2,0,0,0,0,0,0,0,YES,0,0,0,0,0,2,0,4,0,0,0,0,1,0,0,2,0,0,0,0,0,0,0,0,0,0,0,0,0,0,0,0,0,0,0,0,0,0,0,0,0,0,4,20,0,2,13,0,51,212
cassandra,cassandra-0.6.0,cassandra-0.7.0,F:/corpus/cassandra/cassandra#2010-04-12-09-37-17#cassandra-0.6.0#bb948b4/src/java/org/apache/cassandra/utils/AbstractStatsDeque.java,F:/corpus/cassandra/cassandra#2011-01-10-08-38-51#cassandra-0.7.0#7b7e357/src/java/org/apache/cassandra/utils/AbstractStatsDeque.java,0,0,0,0,1,0,0,0,0,0,0,0,0,YES,0,0,0,0,0,0,0,0,0,0,0,0,0,0,0,0,0,0,0,0,0,0,0,0,0,0,0,0,0,0,0,0,0,0,0,0,0,0,0,0,0,0,0,0,0,0,0,0,1,73
cassandra,cassandra-0.6.0,cassandra-0.7.0,F:/corpus/cassandra/cassandra#2010-04-12-09-37-17#cassandra-0.6.0#bb948b4/src/java/org/apache/cassandra/utils/BitSetSerializer.java,F:/corpus/cassandra/cassandra#2011-01-10-08-38-51#cassandra-0.7.0#7b7e357/src/java/org/apache/cassandra/utils/BitSetSerializer.java,0,0,0,0,0,0,0,0,0,0,0,0,0,YES,0,0,0,0,0,0,0,0,0,0,0,0,0,0,0,0,0,0,0,0,0,0,0,0,0,0,0,0,0,0,0,0,0,0,0,0,0,0,0,0,0,0,0,0,0,0,0,0,7,51
cassandra,cassandra-0.6.0,cassandra-0.7.0,F:/corpus/cassandra/cassandra#2010-04-12-09-37-17#cassandra-0.6.0#bb948b4/src/java/org/apache/cassandra/utils/BloomCalculations.java,F:/corpus/cassandra/cassandra#2011-01-10-08-38-51#cassandra-0.7.0#7b7e357/src/java/org/apache/cassandra/utils/BloomCalculations.java,0,0,0,0,0,0,0,0,0,0,0,0,0,YES,0,0,0,0,0,0,0,0,0,0,0,0,0,0,0,0,0,0,1,0,0,0,0,0,0,0,0,0,0,0,0,0,0,0,0,0,0,0,0,0,0,0,0,0,0,0,0,0,40,137
cassandra,cassandra-0.6.0,cassandra-0.7.0,F:/corpus/cassandra/cassandra#2010-04-12-09-37-17#cassandra-0.6.0#bb948b4/src/java/org/apache/cassandra/utils/BloomFilter.java,F:/corpus/cassandra/cassandra#2011-01-10-08-38-51#cassandra-0.7.0#7b7e357/src/java/org/apache/cassandra/utils/BloomFilter.java,0,0,0,0,0,0,0,0,0,0,0,0,0,YES,0,0,0,0,1,0,0,0,0,0,0,0,0,0,0,0,0,0,0,0,0,0,0,0,0,0,1,0,0,0,0,0,0,0,3,0,0,0,0,0,0,0,0,0,0,0,0,0,29,210
cassandra,cassandra-0.6.0,cassandra-0.7.0,F:/corpus/cassandra/cassandra#2010-04-12-09-37-17#cassandra-0.6.0#bb948b4/src/java/org/apache/cassandra/utils/ExpiringMap.java,F:/corpus/cassandra/cassandra#2011-01-10-08-38-51#cassandra-0.7.0#7b7e357/src/java/org/apache/cassandra/utils/ExpiringMap.java,0,0,0,0,0,0,0,0,0,0,0,0,0,YES,0,0,0,0,1,3,1,0,5,0,0,1,0,0,0,0,0,0,1,0,0,0,1,1,0,0,1,0,0,0,0,0,0,0,5,4,3,0,0,1,0,0,18,8,0,1,17,0,128,219
cassandra,cassandra-0.6.0,cassandra-0.7.0,F:/corpus/cassandra/cassandra#2010-04-12-09-37-17#cassandra-0.6.0#bb948b4/src/java/org/apache/cassandra/utils/FBUtilities.java,F:/corpus/cassandra/cassandra#2011-01-10-08-38-51#cassandra-0.7.0#7b7e357/src/java/org/apache/cassandra/utils/FBUtilities.java,0,0,0,0,0,0,0,0,0,0,0,2,0,YES,0,0,0,0,22,3,0,1,0,0,0,4,2,0,0,4,0,0,1,0,0,3,3,6,0,2,1,0,0,0,0,0,0,0,10,0,0,0,0,0,0,0,20,38,0,0,6,0,156,466
cassandra,cassandra-0.6.0,cassandra-0.7.0,F:/corpus/cassandra/cassandra#2010-04-12-09-37-17#cassandra-0.6.0#bb948b4/src/java/org/apache/cassandra/utils/Filter.java,F:/corpus/cassandra/cassandra#2011-01-10-08-38-51#cassandra-0.7.0#7b7e357/src/java/org/apache/cassandra/utils/Filter.java,0,0,0,0,1,1,0,0,0,0,0,0,0,YES,0,0,0,0,2,0,0,0,0,0,0,0,0,0,0,0,0,0,0,0,0,0,0,0,0,0,2,0,0,0,0,0,0,0,4,0,0,0,0,0,0,0,2,2,0,0,0,0,29,101
cassandra,cassandra-0.6.0,cassandra-0.7.0,F:/corpus/cassandra/cassandra#2010-04-12-09-37-17#cassandra-0.6.0#bb948b4/src/java/org/apache/cassandra/utils/GuidGenerator.java,F:/corpus/cassandra/cassandra#2011-01-10-08-38-51#cassandra-0.7.0#7b7e357/src/java/org/apache/cassandra/utils/GuidGenerator.java,0,0,0,0,0,0,0,0,0,0,0,0,0,YES,0,0,0,0,0,0,0,0,0,0,0,0,0,0,0,1,0,0,0,0,0,0,0,0,0,0,0,0,0,0,0,0,0,0,0,0,0,0,0,0,0,0,1,1,0,0,3,0,10,124
cassandra,cassandra-0.6.0,cassandra-0.7.0,F:/corpus/cassandra/cassandra#2010-04-12-09-37-17#cassandra-0.6.0#bb948b4/src/java/org/apache/cassandra/utils/LatencyTracker.java,F:/corpus/cassandra/cassandra#2011-01-10-08-38-51#cassandra-0.7.0#7b7e357/src/java/org/apache/cassandra/utils/LatencyTracker.java,0,0,0,0,0,0,0,0,0,0,0,0,0,YES,0,0,0,0,2,2,0,0,0,0,0,0,0,0,0,0,0,0,0,0,0,0,0,0,0,0,0,0,0,0,0,0,0,0,0,0,0,0,0,0,0,0,0,2,0,0,0,0,14,72
cassandra,cassandra-0.6.0,cassandra-0.7.0,F:/corpus/cassandra/cassandra#2010-04-12-09-37-17#cassandra-0.6.0#bb948b4/src/java/org/apache/cassandra/utils/MerkleTree.java,F:/corpus/cassandra/cassandra#2011-01-10-08-38-51#cassandra-0.7.0#7b7e357/src/java/org/apache/cassandra/utils/MerkleTree.java,1,0,0,0,1,0,0,0,0,0,0,0,0,YES,0,0,0,0,0,0,0,0,0,0,0,0,0,0,0,0,0,0,0,0,0,0,0,0,0,0,0,0,0,0,0,0,0,0,0,0,0,0,0,0,0,0,0,0,0,0,0,0,4,808
cassandra,cassandra-0.6.0,cassandra-0.7.0,F:/corpus/cassandra/cassandra#2010-04-12-09-37-17#cassandra-0.6.0#bb948b4/src/java/org/apache/cassandra/utils/MurmurHash.java,F:/corpus/cassandra/cassandra#2011-01-10-08-38-51#cassandra-0.7.0#7b7e357/src/java/org/apache/cassandra/utils/MurmurHash.java,0,0,0,0,0,0,0,0,0,0,0,0,0,YES,0,0,0,0,0,0,0,0,0,0,0,0,0,0,0,0,0,0,0,0,0,0,0,1,0,0,0,0,0,0,0,0,0,0,0,0,0,0,0,0,0,0,0,0,0,0,7,0,8,77
cassandra,cassandra-0.6.0,cassandra-0.7.0,F:/corpus/cassandra/cassandra#2010-04-12-09-37-17#cassandra-0.6.0#bb948b4/src/java/org/apache/cassandra/utils/SimpleCondition.java,F:/corpus/cassandra/cassandra#2011-01-10-08-38-51#cassandra-0.7.0#7b7e357/src/java/org/apache/cassandra/utils/SimpleCondition.java,0,0,0,0,2,0,0,0,0,0,0,0,0,YES,0,0,0,0,1,0,0,0,0,0,0,0,0,0,0,0,0,0,0,0,0,0,0,0,0,0,0,0,0,0,0,0,0,0,0,0,0,0,0,0,0,0,0,0,0,0,0,0,9,85
cassandra,cassandra-0.6.0,cassandra-0.7.0,F:/corpus/cassandra/cassandra#2010-04-12-09-37-17#cassandra-0.6.0#bb948b4/src/java/org/apache/cassandra/utils/XMLUtils.java,F:/corpus/cassandra/cassandra#2011-01-10-08-38-51#cassandra-0.7.0#7b7e357/src/java/org/apache/cassandra/utils/XMLUtils.java,0,0,0,0,1,1,0,0,0,0,0,0,0,YES,0,0,0,0,0,0,0,0,0,0,0,0,0,0,0,0,0,0,0,0,0,0,0,0,0,0,0,0,0,0,0,0,0,0,1,0,0,0,0,0,0,0,0,0,0,0,0,0,18,95
cassandra,cassandra-0.6.0,cassandra-0.7.0,F:/corpus/cassandra/cassandra#2010-04-12-09-37-17#cassandra-0.6.0#bb948b4/contrib/circuit/src/org/apache/cassandra/contrib/circuit/AboutDialog.java,F:/corpus/cassandra/cassandra#2010-04-12-09-37-17#cassandra-0.6.0#bb948b4/contrib/circuit/src/org/apache/cassandra/contrib/circuit/AboutDialog.java,0,0,0,0,1,0,0,0,0,0,0,0,0,NO,0,0,0,0,0,0,0,0,0,0,0,0,0,0,0,0,0,0,0,0,0,0,0,0,0,0,0,0,0,0,0,0,0,0,0,0,0,0,0,0,0,0,0,0,0,0,0,0,0,82
cassandra,cassandra-0.6.0,cassandra-0.7.0,F:/corpus/cassandra/cassandra#2010-04-12-09-37-17#cassandra-0.6.0#bb948b4/contrib/circuit/src/org/apache/cassandra/contrib/circuit/CircuitFrame.java,F:/corpus/cassandra/cassandra#2010-04-12-09-37-17#cassandra-0.6.0#bb948b4/contrib/circuit/src/org/apache/cassandra/contrib/circuit/CircuitFrame.java,0,0,0,0,1,0,0,0,0,0,0,0,0,NO,0,0,0,0,0,0,0,0,0,0,0,0,0,0,0,0,0,0,0,0,0,0,0,0,0,0,0,0,0,0,0,0,0,0,0,0,0,0,0,0,0,0,0,0,0,0,0,0,0,247
cassandra,cassandra-0.6.0,cassandra-0.7.0,F:/corpus/cassandra/cassandra#2010-04-12-09-37-17#cassandra-0.6.0#bb948b4/contrib/circuit/src/org/apache/cassandra/contrib/circuit/RingPanel.java,F:/corpus/cassandra/cassandra#2010-04-12-09-37-17#cassandra-0.6.0#bb948b4/contrib/circuit/src/org/apache/cassandra/contrib/circuit/RingPanel.java,0,0,0,0,0,0,0,0,0,0,0,0,0,NO,0,0,0,0,0,0,0,0,0,0,0,0,0,0,0,0,0,0,0,0,0,0,0,0,0,0,0,0,0,0,0,0,0,0,0,0,0,0,0,0,0,0,0,0,0,0,0,0,0,168
cassandra,cassandra-0.6.0,cassandra-0.7.0,F:/corpus/cassandra/cassandra#2010-04-12-09-37-17#cassandra-0.6.0#bb948b4/src/java/org/apache/cassandra/avro/KeyspaceNotDefinedException.java,F:/corpus/cassandra/cassandra#2010-04-12-09-37-17#cassandra-0.6.0#bb948b4/src/java/org/apache/cassandra/avro/KeyspaceNotDefinedException.java,0,0,0,0,0,0,0,0,0,0,0,0,0,NO,0,0,0,0,0,0,0,0,0,0,0,0,0,0,0,0,0,0,0,0,0,0,0,0,0,0,0,0,0,0,0,0,0,0,0,0,0,0,0,0,0,0,0,0,0,0,0,0,0,34
cassandra,cassandra-0.6.0,cassandra-0.7.0,F:/corpus/cassandra/cassandra#2010-04-12-09-37-17#cassandra-0.6.0#bb948b4/src/java/org/apache/cassandra/cache/IAggregatableCacheProvider.java,F:/corpus/cassandra/cassandra#2010-04-12-09-37-17#cassandra-0.6.0#bb948b4/src/java/org/apache/cassandra/cache/IAggregatableCacheProvider.java,0,0,0,0,1,0,0,0,0,0,0,0,0,NO,0,0,0,0,0,0,0,0,0,0,0,0,0,0,0,0,0,0,0,0,0,0,0,0,0,0,0,0,0,0,0,0,0,0,0,0,0,0,0,0,0,0,0,0,0,0,0,0,0,28
cassandra,cassandra-0.6.0,cassandra-0.7.0,F:/corpus/cassandra/cassandra#2010-04-12-09-37-17#cassandra-0.6.0#bb948b4/src/java/org/apache/cassandra/cache/JMXInstrumentedCache.java,F:/corpus/cassandra/cassandra#2010-04-12-09-37-17#cassandra-0.6.0#bb948b4/src/java/org/apache/cassandra/cache/JMXInstrumentedCache.java,0,0,0,0,0,0,0,0,0,0,0,0,0,NO,0,0,0,0,0,0,0,0,0,0,0,0,0,0,0,0,0,0,0,0,0,0,0,0,0,0,0,0,0,0,0,0,0,0,0,0,0,0,0,0,0,0,0,0,0,0,0,0,0,31
cassandra,cassandra-0.6.0,cassandra-0.7.0,F:/corpus/cassandra/cassandra#2010-04-12-09-37-17#cassandra-0.6.0#bb948b4/src/java/org/apache/cassandra/cache/JMXInstrumentedCacheMBean.java,F:/corpus/cassandra/cassandra#2010-04-12-09-37-17#cassandra-0.6.0#bb948b4/src/java/org/apache/cassandra/cache/JMXInstrumentedCacheMBean.java,0,0,0,0,1,0,0,0,0,0,0,0,0,NO,0,0,0,0,0,0,0,0,0,0,0,0,0,0,0,0,0,0,0,0,0,0,0,0,0,0,0,0,0,0,0,0,0,0,0,0,0,0,0,0,0,0,0,0,0,0,0,0,0,42
cassandra,cassandra-0.6.0,cassandra-0.7.0,F:/corpus/cassandra/cassandra#2010-04-12-09-37-17#cassandra-0.6.0#bb948b4/src/java/org/apache/cassandra/concurrent/Context.java,F:/corpus/cassandra/cassandra#2010-04-12-09-37-17#cassandra-0.6.0#bb948b4/src/java/org/apache/cassandra/concurrent/Context.java,0,0,0,0,0,0,0,0,0,0,0,0,0,NO,0,0,0,0,0,0,0,0,0,0,0,0,0,0,0,0,0,0,0,0,0,0,0,0,0,0,0,0,0,0,0,0,0,0,0,0,0,0,0,0,0,0,0,0,0,0,0,0,0,51
cassandra,cassandra-0.6.0,cassandra-0.7.0,F:/corpus/cassandra/cassandra#2010-04-12-09-37-17#cassandra-0.6.0#bb948b4/src/java/org/apache/cassandra/concurrent/IExecutorMBean.java,F:/corpus/cassandra/cassandra#2010-04-12-09-37-17#cassandra-0.6.0#bb948b4/src/java/org/apache/cassandra/concurrent/IExecutorMBean.java,0,0,0,0,0,0,0,0,0,0,0,0,0,NO,0,0,0,0,0,0,0,0,0,0,0,0,0,0,0,0,0,0,0,0,0,0,0,0,0,0,0,0,0,0,0,0,0,0,0,0,0,0,0,0,0,0,0,0,0,0,0,0,0,38
cassandra,cassandra-0.6.0,cassandra-0.7.0,F:/corpus/cassandra/cassandra#2010-04-12-09-37-17#cassandra-0.6.0#bb948b4/src/java/org/apache/cassandra/concurrent/JMXEnabledThreadPoolExecutorMBean.java,F:/corpus/cassandra/cassandra#2010-04-12-09-37-17#cassandra-0.6.0#bb948b4/src/java/org/apache/cassandra/concurrent/JMXEnabledThreadPoolExecutorMBean.java,0,0,0,0,1,0,0,0,0,0,0,0,0,NO,0,0,0,0,0,0,0,0,0,0,0,0,0,0,0,0,0,0,0,0,0,0,0,0,0,0,0,0,0,0,0,0,0,0,0,0,0,0,0,0,0,0,0,0,0,0,0,0,0,23
cassandra,cassandra-0.6.0,cassandra-0.7.0,F:/corpus/cassandra/cassandra#2010-04-12-09-37-17#cassandra-0.6.0#bb948b4/src/java/org/apache/cassandra/db/ColumnFamilyNotDefinedException.java,F:/corpus/cassandra/cassandra#2010-04-12-09-37-17#cassandra-0.6.0#bb948b4/src/java/org/apache/cassandra/db/ColumnFamilyNotDefinedException.java,0,0,0,0,0,0,0,0,0,0,0,0,0,NO,0,0,0,0,0,0,0,0,0,0,0,0,0,0,0,0,0,0,0,0,0,0,0,0,0,0,0,0,0,0,0,0,0,0,0,0,0,0,0,0,0,0,0,0,0,0,0,0,0,29
cassandra,cassandra-0.6.0,cassandra-0.7.0,F:/corpus/cassandra/cassandra#2010-04-12-09-37-17#cassandra-0.6.0#bb948b4/src/java/org/apache/cassandra/db/IColumnContainer.java,F:/corpus/cassandra/cassandra#2010-04-12-09-37-17#cassandra-0.6.0#bb948b4/src/java/org/apache/cassandra/db/IColumnContainer.java,0,0,0,0,0,0,0,0,0,0,0,0,0,NO,0,0,0,0,0,0,0,0,0,0,0,0,0,0,0,0,0,0,0,0,0,0,0,0,0,0,0,0,0,0,0,0,0,0,0,0,0,0,0,0,0,0,0,0,0,0,0,0,0,34
cassandra,cassandra-0.6.0,cassandra-0.7.0,F:/corpus/cassandra/cassandra#2010-04-12-09-37-17#cassandra-0.6.0#bb948b4/src/java/org/apache/cassandra/db/KeyspaceNotDefinedException.java,F:/corpus/cassandra/cassandra#2010-04-12-09-37-17#cassandra-0.6.0#bb948b4/src/java/org/apache/cassandra/db/KeyspaceNotDefinedException.java,0,0,0,0,0,0,0,0,0,0,0,0,0,NO,0,0,0,0,0,0,0,0,0,0,0,0,0,0,0,0,0,0,0,0,0,0,0,0,0,0,0,0,0,0,0,0,0,0,0,0,0,0,0,0,0,0,0,0,0,0,0,0,0,29
cassandra,cassandra-0.6.0,cassandra-0.7.0,F:/corpus/cassandra/cassandra#2010-04-12-09-37-17#cassandra-0.6.0#bb948b4/src/java/org/apache/cassandra/dht/BigIntegerToken.java,F:/corpus/cassandra/cassandra#2010-04-12-09-37-17#cassandra-0.6.0#bb948b4/src/java/org/apache/cassandra/dht/BigIntegerToken.java,0,0,0,0,0,0,0,0,0,0,0,0,0,NO,0,0,0,0,0,0,0,0,0,0,0,0,0,0,0,0,0,0,0,0,0,0,0,0,0,0,0,0,0,0,0,0,0,0,0,0,0,0,0,0,0,0,0,0,0,0,0,0,0,40
cassandra,cassandra-0.6.0,cassandra-0.7.0,F:/corpus/cassandra/cassandra#2010-04-12-09-37-17#cassandra-0.6.0#bb948b4/src/java/org/apache/cassandra/gms/HeartBeatState.java,F:/corpus/cassandra/cassandra#2010-04-12-09-37-17#cassandra-0.6.0#bb948b4/src/java/org/apache/cassandra/gms/HeartBeatState.java,0,0,0,0,0,0,0,0,0,0,0,0,0,NO,0,0,0,0,0,0,0,0,0,0,0,0,0,0,0,0,0,0,0,0,0,0,0,0,0,0,0,0,0,0,0,0,0,0,0,0,0,0,0,0,0,0,0,0,0,0,0,0,0,88
cassandra,cassandra-0.6.0,cassandra-0.7.0,F:/corpus/cassandra/cassandra#2010-04-12-09-37-17#cassandra-0.6.0#bb948b4/src/java/org/apache/cassandra/gms/IFailureDetectionEventListener.java,F:/corpus/cassandra/cassandra#2010-04-12-09-37-17#cassandra-0.6.0#bb948b4/src/java/org/apache/cassandra/gms/IFailureDetectionEventListener.java,0,0,0,0,0,0,0,0,0,0,0,0,0,NO,0,0,0,0,0,0,0,0,0,0,0,0,0,0,0,0,0,0,0,0,0,0,0,0,0,0,0,0,0,0,0,0,0,0,0,0,0,0,0,0,0,0,0,0,0,0,0,0,0,37
cassandra,cassandra-0.6.0,cassandra-0.7.0,F:/corpus/cassandra/cassandra#2010-04-12-09-37-17#cassandra-0.6.0#bb948b4/src/java/org/apache/cassandra/gms/IFailureDetector.java,F:/corpus/cassandra/cassandra#2010-04-12-09-37-17#cassandra-0.6.0#bb948b4/src/java/org/apache/cassandra/gms/IFailureDetector.java,0,0,0,0,1,0,0,0,0,0,0,0,0,NO,0,0,0,0,0,0,0,0,0,0,0,0,0,0,0,0,0,0,0,0,0,0,0,0,0,0,0,0,0,0,0,0,0,0,0,0,0,0,0,0,0,0,0,0,0,0,0,0,0,75
cassandra,cassandra-0.6.0,cassandra-0.7.0,F:/corpus/cassandra/cassandra#2010-04-12-09-37-17#cassandra-0.6.0#bb948b4/src/java/org/apache/cassandra/gms/IFailureNotification.java,F:/corpus/cassandra/cassandra#2010-04-12-09-37-17#cassandra-0.6.0#bb948b4/src/java/org/apache/cassandra/gms/IFailureNotification.java,0,0,0,0,1,0,0,0,0,0,0,0,0,NO,0,0,0,0,0,0,0,0,0,0,0,0,0,0,0,0,0,0,0,0,0,0,0,0,0,0,0,0,0,0,0,0,0,0,0,0,0,0,0,0,0,0,0,0,0,0,0,0,0,27
cassandra,cassandra-0.6.0,cassandra-0.7.0,F:/corpus/cassandra/cassandra#2010-04-12-09-37-17#cassandra-0.6.0#bb948b4/src/java/org/apache/cassandra/gms/VersionGenerator.java,F:/corpus/cassandra/cassandra#2010-04-12-09-37-17#cassandra-0.6.0#bb948b4/src/java/org/apache/cassandra/gms/VersionGenerator.java,0,0,0,0,0,0,0,0,0,0,0,0,0,NO,0,0,0,0,0,0,0,0,0,0,0,0,0,0,0,0,0,0,0,0,0,0,0,0,0,0,0,0,0,0,0,0,0,0,0,0,0,0,0,0,0,0,0,0,0,0,0,0,0,36
cassandra,cassandra-0.6.0,cassandra-0.7.0,F:/corpus/cassandra/cassandra#2010-04-12-09-37-17#cassandra-0.6.0#bb948b4/src/java/org/apache/cassandra/io/DeletionService.java,F:/corpus/cassandra/cassandra#2010-04-12-09-37-17#cassandra-0.6.0#bb948b4/src/java/org/apache/cassandra/io/DeletionService.java,0,0,0,0,0,0,0,0,0,0,0,0,0,NO,0,0,0,0,0,0,0,0,0,0,0,0,0,0,0,0,0,0,0,0,0,0,0,0,0,0,0,0,0,0,0,0,0,0,0,0,0,0,0,0,0,0,0,0,0,0,0,0,0,56
cassandra,cassandra-0.6.0,cassandra-0.7.0,F:/corpus/cassandra/cassandra#2010-04-12-09-37-17#cassandra-0.6.0#bb948b4/src/java/org/apache/cassandra/net/HeaderTypes.java,F:/corpus/cassandra/cassandra#2010-04-12-09-37-17#cassandra-0.6.0#bb948b4/src/java/org/apache/cassandra/net/HeaderTypes.java,0,0,0,0,0,0,0,0,0,0,0,0,0,NO,0,0,0,0,0,0,0,0,0,0,0,0,0,0,0,0,0,0,0,0,0,0,0,0,0,0,0,0,0,0,0,0,0,0,0,0,0,0,0,0,0,0,0,0,0,0,0,0,0,25
cassandra,cassandra-0.6.0,cassandra-0.7.0,F:/corpus/cassandra/cassandra#2010-04-12-09-37-17#cassandra-0.6.0#bb948b4/src/java/org/apache/cassandra/net/io/SerializerType.java,F:/corpus/cassandra/cassandra#2010-04-12-09-37-17#cassandra-0.6.0#bb948b4/src/java/org/apache/cassandra/net/io/SerializerType.java,0,0,0,0,0,0,0,0,0,0,0,0,0,NO,0,0,0,0,0,0,0,0,0,0,0,0,0,0,0,0,0,0,0,0,0,0,0,0,0,0,0,0,0,0,0,0,0,0,0,0,0,0,0,0,0,0,0,0,0,0,0,0,0,27
cassandra,cassandra-0.6.0,cassandra-0.7.0,F:/corpus/cassandra/cassandra#2010-04-12-09-37-17#cassandra-0.6.0#bb948b4/src/java/org/apache/cassandra/net/IVerbHandler.java,F:/corpus/cassandra/cassandra#2010-04-12-09-37-17#cassandra-0.6.0#bb948b4/src/java/org/apache/cassandra/net/IVerbHandler.java,0,0,0,0,0,0,0,0,0,0,0,0,0,NO,0,0,0,0,0,0,0,0,0,0,0,0,0,0,0,0,0,0,0,0,0,0,0,0,0,0,0,0,0,0,0,0,0,0,0,0,0,0,0,0,0,0,0,0,0,0,0,0,0,38
cassandra,cassandra-0.6.0,cassandra-0.7.0,F:/corpus/cassandra/cassandra#2010-04-12-09-37-17#cassandra-0.6.0#bb948b4/src/java/org/apache/cassandra/net/ProtocolHeader.java,F:/corpus/cassandra/cassandra#2010-04-12-09-37-17#cassandra-0.6.0#bb948b4/src/java/org/apache/cassandra/net/ProtocolHeader.java,1,0,0,0,0,0,0,0,0,0,0,0,0,NO,0,0,0,0,0,0,0,0,0,0,0,0,0,0,0,0,0,0,0,0,0,0,0,0,0,0,0,0,0,0,0,0,0,0,0,0,0,0,0,0,0,0,0,0,0,0,0,0,0,31
cassandra,cassandra-0.6.0,cassandra-0.7.0,F:/corpus/cassandra/cassandra#2010-04-12-09-37-17#cassandra-0.6.0#bb948b4/src/java/org/apache/cassandra/streaming/StreamingServiceMBean.java,F:/corpus/cassandra/cassandra#2010-04-12-09-37-17#cassandra-0.6.0#bb948b4/src/java/org/apache/cassandra/streaming/StreamingServiceMBean.java,0,0,0,0,1,0,0,0,0,0,0,0,0,NO,0,0,0,0,0,0,0,0,0,0,0,0,0,0,0,0,0,0,0,0,0,0,0,0,0,0,0,0,0,0,0,0,0,0,0,0,0,0,0,0,0,0,0,0,0,0,0,0,0,42
cassandra,cassandra-0.6.0,cassandra-0.7.0,F:/corpus/cassandra/cassandra#2010-04-12-09-37-17#cassandra-0.6.0#bb948b4/src/java/org/apache/cassandra/utils/BoundedStatsDeque.java,F:/corpus/cassandra/cassandra#2010-04-12-09-37-17#cassandra-0.6.0#bb948b4/src/java/org/apache/cassandra/utils/BoundedStatsDeque.java,0,0,0,0,0,0,0,0,0,0,0,0,0,NO,0,0,0,0,0,0,0,0,0,0,0,0,0,0,0,0,0,0,0,0,0,0,0,0,0,0,0,0,0,0,0,0,0,0,0,0,0,0,0,0,0,0,0,0,0,0,0,0,0,61
cassandra,cassandra-0.6.0,cassandra-0.7.0,F:/corpus/cassandra/cassandra#2010-04-12-09-37-17#cassandra-0.6.0#bb948b4/src/java/org/apache/cassandra/utils/CloseableIterator.java,F:/corpus/cassandra/cassandra#2010-04-12-09-37-17#cassandra-0.6.0#bb948b4/src/java/org/apache/cassandra/utils/CloseableIterator.java,0,0,0,0,1,0,0,0,0,0,0,0,0,NO,0,0,0,0,0,0,0,0,0,0,0,0,0,0,0,0,0,0,0,0,0,0,0,0,0,0,0,0,0,0,0,0,0,0,0,0,0,0,0,0,0,0,0,0,0,0,0,0,0,30
cassandra,cassandra-0.6.0,cassandra-0.7.0,F:/corpus/cassandra/cassandra#2010-04-12-09-37-17#cassandra-0.6.0#bb948b4/src/java/org/apache/cassandra/utils/DestructivePQIterator.java,F:/corpus/cassandra/cassandra#2010-04-12-09-37-17#cassandra-0.6.0#bb948b4/src/java/org/apache/cassandra/utils/DestructivePQIterator.java,0,0,0,0,0,0,0,0,0,0,0,0,0,NO,0,0,0,0,0,0,0,0,0,0,0,0,0,0,0,0,0,0,0,0,0,0,0,0,0,0,0,0,0,0,0,0,0,0,0,0,0,0,0,0,0,0,0,0,0,0,0,0,0,43
cassandra,cassandra-0.6.0,cassandra-0.7.0,F:/corpus/cassandra/cassandra#2010-04-12-09-37-17#cassandra-0.6.0#bb948b4/src/java/org/apache/cassandra/utils/Pair.java,F:/corpus/cassandra/cassandra#2010-04-12-09-37-17#cassandra-0.6.0#bb948b4/src/java/org/apache/cassandra/utils/Pair.java,0,0,0,0,0,0,0,0,0,0,0,0,0,NO,0,0,0,0,0,0,0,0,0,0,0,0,0,0,0,0,0,0,0,0,0,0,0,0,0,0,0,0,0,0,0,0,0,0,0,0,0,0,0,0,0,0,0,0,0,0,0,0,0,61
cassandra,cassandra-0.6.0,cassandra-0.7.0,F:/corpus/cassandra/cassandra#2010-04-12-09-37-17#cassandra-0.6.0#bb948b4/src/java/org/apache/cassandra/utils/ReducingIterator.java,F:/corpus/cassandra/cassandra#2010-04-12-09-37-17#cassandra-0.6.0#bb948b4/src/java/org/apache/cassandra/utils/ReducingIterator.java,0,0,0,0,1,0,0,0,0,0,0,0,0,NO,0,0,0,0,0,0,0,0,0,0,0,0,0,0,0,0,0,0,0,0,0,0,0,0,0,0,0,0,0,0,0,0,0,0,0,0,0,0,0,0,0,0,0,0,0,0,0,0,0,80
cassandra,cassandra-0.6.0,cassandra-0.7.0,F:/corpus/cassandra/cassandra#2010-04-12-09-37-17#cassandra-0.6.0#bb948b4/src/java/org/apache/cassandra/utils/SafeMessageDigest.java,F:/corpus/cassandra/cassandra#2010-04-12-09-37-17#cassandra-0.6.0#bb948b4/src/java/org/apache/cassandra/utils/SafeMessageDigest.java,0,0,0,0,0,0,0,0,0,0,0,0,0,NO,0,0,0,0,0,0,0,0,0,0,0,0,0,0,0,0,0,0,0,0,0,0,0,0,0,0,0,0,0,0,0,0,0,0,0,0,0,0,0,0,0,0,0,0,0,0,0,0,0,82
cassandra,cassandra-0.6.0,cassandra-0.7.0,F:/corpus/cassandra/cassandra#2010-04-12-09-37-17#cassandra-0.6.0#bb948b4/src/java/org/apache/cassandra/utils/WrappedRunnable.java,F:/corpus/cassandra/cassandra#2010-04-12-09-37-17#cassandra-0.6.0#bb948b4/src/java/org/apache/cassandra/utils/WrappedRunnable.java,0,0,0,0,1,0,0,0,0,0,0,0,0,NO,0,0,0,0,0,0,0,0,0,0,0,0,0,0,0,0,0,0,0,0,0,0,0,0,0,0,0,0,0,0,0,0,0,0,0,0,0,0,0,0,0,0,0,0,0,0,0,0,0,39
