projectName,oldVersionTag,newVersionTag,oldPath,newPath,DC,LC,MM,RPB,SG,MCH,DCLP,DIVC,FE,LM,LPL,SS,SC,fromChangeDistiller,adding_attribute_modifiability,adding_class_derivability,adding_method_overridability,additional_class,additional_functionality,additional_object_state,alternative_part_delete,alternative_part_insert,attribute_renaming,attribute_type_change,class_renaming,comment_delete,comment_insert,comment_move,comment_update,condition_expression_change,decreasing_accessibility_change,doc_delete,doc_insert,doc_update,increasing_accessibility_change,method_renaming,parameter_delete,parameter_insert,parameter_ordering_change,parameter_renaming,parameter_type_change,parent_class_change,parent_class_delete,parent_class_insert,parent_interface_change,parent_interface_delete,parent_interface_insert,removed_class,removed_functionality,removed_object_state,removing_attribute_modifiability,removing_class_derivability,removing_method_overridability,return_type_change,return_type_delete,return_type_insert,statement_delete,statement_insert,statement_ordering_change,statement_parent_change,statement_update,unclassified_change,codeChurn,LOC
cassandra,cassandra-0.7.0,cassandra-0.8.0,F:/corpus/cassandra/cassandra#2011-01-10-08-38-51#cassandra-0.7.0#7b7e357/contrib/pig/src/java/org/apache/cassandra/hadoop/pig/CassandraStorage.java,F:/corpus/cassandra/cassandra#2011-06-03-06-03-47#cassandra-0.8.0#b44fa70/contrib/pig/src/java/org/apache/cassandra/hadoop/pig/CassandraStorage.java,0,0,0,0,2,0,0,0,0,0,0,0,0,YES,0,0,0,0,21,9,0,2,0,0,0,3,1,0,0,1,0,0,0,1,1,0,0,1,0,0,0,0,0,0,0,0,1,0,0,1,0,0,0,0,0,0,21,15,0,3,4,0,360,168
cassandra,cassandra-0.7.0,cassandra-0.8.0,F:/corpus/cassandra/cassandra#2011-01-10-08-38-51#cassandra-0.7.0#7b7e357/interface/thrift/gen-java/org/apache/cassandra/thrift/AuthenticationException.java,F:/corpus/cassandra/cassandra#2011-06-03-06-03-47#cassandra-0.8.0#b44fa70/interface/thrift/gen-java/org/apache/cassandra/thrift/AuthenticationException.java,0,0,0,0,0,1,0,0,0,0,0,0,0,YES,0,0,0,0,2,2,0,0,0,1,0,0,0,0,0,0,0,0,0,0,0,0,0,0,0,0,0,0,0,2,0,1,1,0,2,2,0,0,0,0,0,0,0,0,0,0,2,0,27,344
cassandra,cassandra-0.7.0,cassandra-0.8.0,F:/corpus/cassandra/cassandra#2011-01-10-08-38-51#cassandra-0.7.0#7b7e357/interface/thrift/gen-java/org/apache/cassandra/thrift/AuthenticationRequest.java,F:/corpus/cassandra/cassandra#2011-06-03-06-03-47#cassandra-0.8.0#b44fa70/interface/thrift/gen-java/org/apache/cassandra/thrift/AuthenticationRequest.java,0,0,0,0,0,1,0,0,0,0,0,0,0,YES,0,0,0,0,2,2,0,0,0,1,0,0,0,0,0,0,0,0,0,0,0,0,0,0,0,0,0,0,0,2,0,1,1,0,2,2,0,0,0,0,0,0,0,0,0,0,2,0,41,389
cassandra,cassandra-0.7.0,cassandra-0.8.0,F:/corpus/cassandra/cassandra#2011-01-10-08-38-51#cassandra-0.7.0#7b7e357/interface/thrift/gen-java/org/apache/cassandra/thrift/AuthorizationException.java,F:/corpus/cassandra/cassandra#2011-06-03-06-03-47#cassandra-0.8.0#b44fa70/interface/thrift/gen-java/org/apache/cassandra/thrift/AuthorizationException.java,0,0,0,0,0,1,0,0,0,0,0,0,0,YES,0,0,0,0,2,2,0,0,0,1,0,0,0,0,0,0,0,0,0,0,0,0,0,0,0,0,0,0,0,2,0,1,1,0,2,2,0,0,0,0,0,0,0,0,0,0,2,0,27,344
cassandra,cassandra-0.7.0,cassandra-0.8.0,F:/corpus/cassandra/cassandra#2011-01-10-08-38-51#cassandra-0.7.0#7b7e357/interface/thrift/gen-java/org/apache/cassandra/thrift/Cassandra.java,F:/corpus/cassandra/cassandra#2011-06-03-06-03-47#cassandra-0.8.0#b44fa70/interface/thrift/gen-java/org/apache/cassandra/thrift/Cassandra.java,0,3,1,0,8,84,941,0,0,0,9,2,0,YES,0,0,0,12,168,195,0,14,0,56,0,0,0,0,0,56,0,0,0,7,0,5,0,7,29,0,263,29,0,114,0,60,60,0,115,181,0,0,0,0,0,0,5,339,0,3,591,0,3220,26801
cassandra,cassandra-0.7.0,cassandra-0.8.0,F:/corpus/cassandra/cassandra#2011-01-10-08-38-51#cassandra-0.7.0#7b7e357/interface/thrift/gen-java/org/apache/cassandra/thrift/CfDef.java,F:/corpus/cassandra/cassandra#2011-06-03-06-03-47#cassandra-0.8.0#b44fa70/interface/thrift/gen-java/org/apache/cassandra/thrift/CfDef.java,0,1,0,0,0,0,0,0,0,7,0,0,0,YES,0,0,0,0,29,33,0,8,0,1,0,0,0,0,0,0,0,0,0,1,0,0,0,0,0,0,0,0,0,2,0,1,1,0,2,21,0,0,0,0,0,0,0,187,0,0,22,0,547,2147
cassandra,cassandra-0.7.0,cassandra-0.8.0,F:/corpus/cassandra/cassandra#2011-01-10-08-38-51#cassandra-0.7.0#7b7e357/interface/thrift/gen-java/org/apache/cassandra/thrift/Column.java,F:/corpus/cassandra/cassandra#2011-06-03-06-03-47#cassandra-0.8.0#b44fa70/interface/thrift/gen-java/org/apache/cassandra/thrift/Column.java,0,0,0,0,0,0,0,0,0,0,0,0,0,YES,0,0,0,0,2,5,0,0,0,1,0,0,0,0,0,0,0,0,0,0,0,2,2,0,1,0,0,0,0,2,0,1,1,0,2,5,0,0,0,0,0,0,7,4,0,8,16,0,91,653
cassandra,cassandra-0.7.0,cassandra-0.8.0,F:/corpus/cassandra/cassandra#2011-01-10-08-38-51#cassandra-0.7.0#7b7e357/interface/thrift/gen-java/org/apache/cassandra/thrift/ColumnDef.java,F:/corpus/cassandra/cassandra#2011-06-03-06-03-47#cassandra-0.8.0#b44fa70/interface/thrift/gen-java/org/apache/cassandra/thrift/ColumnDef.java,0,0,0,0,0,0,0,0,0,0,0,0,0,YES,0,0,0,0,2,5,0,0,0,1,0,0,0,0,0,0,0,0,0,0,0,1,0,0,0,0,0,0,0,2,0,1,1,0,2,5,0,0,0,0,0,0,1,1,0,0,10,0,55,657
cassandra,cassandra-0.7.0,cassandra-0.8.0,F:/corpus/cassandra/cassandra#2011-01-10-08-38-51#cassandra-0.7.0#7b7e357/interface/thrift/gen-java/org/apache/cassandra/thrift/ColumnOrSuperColumn.java,F:/corpus/cassandra/cassandra#2011-06-03-06-03-47#cassandra-0.8.0#b44fa70/interface/thrift/gen-java/org/apache/cassandra/thrift/ColumnOrSuperColumn.java,0,0,0,0,0,1,0,0,0,0,0,0,0,YES,0,0,0,0,12,7,0,4,0,1,0,0,0,0,0,0,0,0,0,2,0,0,0,0,0,0,0,0,0,2,0,1,1,0,2,3,0,0,0,0,0,0,0,76,0,0,2,0,189,443
cassandra,cassandra-0.7.0,cassandra-0.8.0,F:/corpus/cassandra/cassandra#2011-01-10-08-38-51#cassandra-0.7.0#7b7e357/interface/thrift/gen-java/org/apache/cassandra/thrift/ColumnParent.java,F:/corpus/cassandra/cassandra#2011-06-03-06-03-47#cassandra-0.8.0#b44fa70/interface/thrift/gen-java/org/apache/cassandra/thrift/ColumnParent.java,0,0,0,0,0,1,0,0,0,0,0,0,0,YES,0,0,0,0,2,3,0,0,0,1,0,0,0,0,0,0,0,0,0,0,0,1,0,0,0,0,0,0,0,2,0,1,1,0,2,3,0,0,0,0,0,0,0,0,0,0,8,0,40,454
cassandra,cassandra-0.7.0,cassandra-0.8.0,F:/corpus/cassandra/cassandra#2011-01-10-08-38-51#cassandra-0.7.0#7b7e357/interface/thrift/gen-java/org/apache/cassandra/thrift/ColumnPath.java,F:/corpus/cassandra/cassandra#2011-06-03-06-03-47#cassandra-0.8.0#b44fa70/interface/thrift/gen-java/org/apache/cassandra/thrift/ColumnPath.java,0,0,0,0,0,1,0,0,0,0,0,0,0,YES,0,0,0,0,2,4,0,0,0,1,0,0,0,0,0,0,0,0,0,0,0,2,0,0,0,0,0,0,0,2,0,1,1,0,2,4,0,0,0,0,0,0,1,1,0,0,13,0,53,565
cassandra,cassandra-0.7.0,cassandra-0.8.0,F:/corpus/cassandra/cassandra#2011-01-10-08-38-51#cassandra-0.7.0#7b7e357/interface/thrift/gen-java/org/apache/cassandra/thrift/ConsistencyLevel.java,F:/corpus/cassandra/cassandra#2011-06-03-06-03-47#cassandra-0.8.0#b44fa70/interface/thrift/gen-java/org/apache/cassandra/thrift/ConsistencyLevel.java,0,0,0,0,0,0,0,0,0,0,0,0,0,YES,0,0,0,0,0,0,0,0,0,0,0,0,0,0,0,0,0,0,0,0,0,0,0,0,0,0,0,0,0,0,0,0,0,0,0,0,0,0,0,0,0,0,0,0,0,0,0,0,19,102
cassandra,cassandra-0.7.0,cassandra-0.8.0,F:/corpus/cassandra/cassandra#2011-01-10-08-38-51#cassandra-0.7.0#7b7e357/interface/thrift/gen-java/org/apache/cassandra/thrift/Constants.java,F:/corpus/cassandra/cassandra#2011-06-03-06-03-47#cassandra-0.8.0#b44fa70/interface/thrift/gen-java/org/apache/cassandra/thrift/Constants.java,0,0,0,0,0,0,0,0,0,0,0,0,0,YES,0,0,0,0,0,0,0,0,0,0,0,0,0,0,0,0,0,0,0,0,0,0,0,0,0,0,0,0,0,0,0,0,0,0,0,0,0,0,0,0,0,0,0,0,0,0,0,0,1,49
cassandra,cassandra-0.7.0,cassandra-0.8.0,F:/corpus/cassandra/cassandra#2011-01-10-08-38-51#cassandra-0.7.0#7b7e357/interface/thrift/gen-java/org/apache/cassandra/thrift/Deletion.java,F:/corpus/cassandra/cassandra#2011-06-03-06-03-47#cassandra-0.8.0#b44fa70/interface/thrift/gen-java/org/apache/cassandra/thrift/Deletion.java,0,0,0,0,0,1,0,0,0,0,0,0,0,YES,0,0,0,0,2,4,0,0,0,1,0,0,0,0,0,0,0,0,1,0,0,1,0,0,0,0,0,0,0,2,0,1,1,0,3,4,0,0,0,0,0,0,0,1,0,3,11,0,67,544
cassandra,cassandra-0.7.0,cassandra-0.8.0,F:/corpus/cassandra/cassandra#2011-01-10-08-38-51#cassandra-0.7.0#7b7e357/interface/thrift/gen-java/org/apache/cassandra/thrift/IndexClause.java,F:/corpus/cassandra/cassandra#2011-06-03-06-03-47#cassandra-0.8.0#b44fa70/interface/thrift/gen-java/org/apache/cassandra/thrift/IndexClause.java,0,0,0,0,0,1,0,0,0,0,0,0,0,YES,0,0,0,0,2,4,0,0,0,1,0,0,0,0,0,0,0,0,0,0,0,1,0,0,0,0,0,0,0,2,0,1,1,0,2,4,0,0,0,0,0,0,0,0,0,0,10,0,60,585
cassandra,cassandra-0.7.0,cassandra-0.8.0,F:/corpus/cassandra/cassandra#2011-01-10-08-38-51#cassandra-0.7.0#7b7e357/interface/thrift/gen-java/org/apache/cassandra/thrift/IndexExpression.java,F:/corpus/cassandra/cassandra#2011-06-03-06-03-47#cassandra-0.8.0#b44fa70/interface/thrift/gen-java/org/apache/cassandra/thrift/IndexExpression.java,0,0,0,0,0,1,0,0,0,0,0,0,0,YES,0,0,0,0,2,4,0,0,0,1,0,0,0,0,0,0,0,0,0,0,0,2,0,0,0,0,0,0,0,2,0,1,1,0,2,4,0,0,0,0,0,0,1,1,0,0,15,0,55,573
cassandra,cassandra-0.7.0,cassandra-0.8.0,F:/corpus/cassandra/cassandra#2011-01-10-08-38-51#cassandra-0.7.0#7b7e357/interface/thrift/gen-java/org/apache/cassandra/thrift/IndexOperator.java,F:/corpus/cassandra/cassandra#2011-06-03-06-03-47#cassandra-0.8.0#b44fa70/interface/thrift/gen-java/org/apache/cassandra/thrift/IndexOperator.java,0,0,0,0,0,0,0,0,0,0,0,0,0,YES,0,0,0,0,0,0,0,0,0,0,0,0,0,0,0,0,0,0,0,0,0,0,0,0,0,0,0,0,0,0,0,0,0,0,0,0,0,0,0,0,0,0,0,0,0,0,0,0,1,74
cassandra,cassandra-0.7.0,cassandra-0.8.0,F:/corpus/cassandra/cassandra#2011-01-10-08-38-51#cassandra-0.7.0#7b7e357/interface/thrift/gen-java/org/apache/cassandra/thrift/IndexType.java,F:/corpus/cassandra/cassandra#2011-06-03-06-03-47#cassandra-0.8.0#b44fa70/interface/thrift/gen-java/org/apache/cassandra/thrift/IndexType.java,0,0,0,0,0,0,0,0,0,0,0,0,0,YES,0,0,0,0,0,0,0,0,0,0,0,0,0,0,0,0,0,0,0,0,0,0,0,0,0,0,0,0,0,0,0,0,0,0,0,0,0,0,0,0,0,0,0,0,0,0,0,0,1,62
cassandra,cassandra-0.7.0,cassandra-0.8.0,F:/corpus/cassandra/cassandra#2011-01-10-08-38-51#cassandra-0.7.0#7b7e357/interface/thrift/gen-java/org/apache/cassandra/thrift/InvalidRequestException.java,F:/corpus/cassandra/cassandra#2011-06-03-06-03-47#cassandra-0.8.0#b44fa70/interface/thrift/gen-java/org/apache/cassandra/thrift/InvalidRequestException.java,0,0,0,0,0,1,0,0,0,0,0,0,0,YES,0,0,0,0,2,2,0,0,0,1,0,0,0,0,0,0,0,0,0,0,0,0,0,0,0,0,0,0,0,2,0,1,1,0,2,2,0,0,0,0,0,0,0,0,0,0,2,0,27,345
cassandra,cassandra-0.7.0,cassandra-0.8.0,F:/corpus/cassandra/cassandra#2011-01-10-08-38-51#cassandra-0.7.0#7b7e357/interface/thrift/gen-java/org/apache/cassandra/thrift/KeyCount.java,F:/corpus/cassandra/cassandra#2011-06-03-06-03-47#cassandra-0.8.0#b44fa70/interface/thrift/gen-java/org/apache/cassandra/thrift/KeyCount.java,0,0,0,0,0,1,0,0,0,0,0,0,0,YES,0,0,0,0,2,3,0,0,0,1,0,0,0,0,0,0,0,0,0,0,0,1,0,0,0,0,0,0,0,2,0,1,1,0,2,3,0,0,0,0,0,0,1,1,0,0,7,0,41,448
cassandra,cassandra-0.7.0,cassandra-0.8.0,F:/corpus/cassandra/cassandra#2011-01-10-08-38-51#cassandra-0.7.0#7b7e357/interface/thrift/gen-java/org/apache/cassandra/thrift/KeyRange.java,F:/corpus/cassandra/cassandra#2011-06-03-06-03-47#cassandra-0.8.0#b44fa70/interface/thrift/gen-java/org/apache/cassandra/thrift/KeyRange.java,0,0,0,0,0,1,0,0,0,0,0,0,0,YES,0,0,0,0,2,6,0,0,0,1,0,0,0,0,0,0,0,0,0,0,0,2,0,0,0,0,0,0,0,2,0,1,1,0,2,6,0,0,0,0,0,0,0,0,0,0,15,0,67,756
cassandra,cassandra-0.7.0,cassandra-0.8.0,F:/corpus/cassandra/cassandra#2011-01-10-08-38-51#cassandra-0.7.0#7b7e357/interface/thrift/gen-java/org/apache/cassandra/thrift/KeySlice.java,F:/corpus/cassandra/cassandra#2011-06-03-06-03-47#cassandra-0.8.0#b44fa70/interface/thrift/gen-java/org/apache/cassandra/thrift/KeySlice.java,0,0,0,0,0,1,0,0,0,0,0,0,0,YES,0,0,0,0,2,3,0,0,0,1,0,0,0,0,0,0,0,0,0,0,0,1,0,0,0,0,0,0,0,2,0,1,1,0,2,3,0,0,0,0,0,0,1,1,0,0,8,0,52,494
cassandra,cassandra-0.7.0,cassandra-0.8.0,F:/corpus/cassandra/cassandra#2011-01-10-08-38-51#cassandra-0.7.0#7b7e357/interface/thrift/gen-java/org/apache/cassandra/thrift/KsDef.java,F:/corpus/cassandra/cassandra#2011-06-03-06-03-47#cassandra-0.8.0#b44fa70/interface/thrift/gen-java/org/apache/cassandra/thrift/KsDef.java,0,0,0,0,0,0,0,0,0,0,0,0,0,YES,0,0,0,0,2,6,0,0,0,1,0,1,0,0,0,0,0,0,3,0,0,0,1,0,0,0,0,0,0,2,0,1,1,0,2,6,0,0,0,0,0,0,2,1,0,4,11,0,111,810
cassandra,cassandra-0.7.0,cassandra-0.8.0,F:/corpus/cassandra/cassandra#2011-01-10-08-38-51#cassandra-0.7.0#7b7e357/interface/thrift/gen-java/org/apache/cassandra/thrift/Mutation.java,F:/corpus/cassandra/cassandra#2011-06-03-06-03-47#cassandra-0.8.0#b44fa70/interface/thrift/gen-java/org/apache/cassandra/thrift/Mutation.java,0,0,0,0,0,1,0,0,0,0,0,0,0,YES,0,0,0,0,2,3,0,0,0,1,0,0,0,0,0,0,0,0,0,1,0,0,0,0,0,0,0,0,0,2,0,1,1,0,2,3,0,0,0,0,0,0,0,0,0,0,2,0,35,438
cassandra,cassandra-0.7.0,cassandra-0.8.0,F:/corpus/cassandra/cassandra#2011-01-10-08-38-51#cassandra-0.7.0#7b7e357/interface/thrift/gen-java/org/apache/cassandra/thrift/NotFoundException.java,F:/corpus/cassandra/cassandra#2011-06-03-06-03-47#cassandra-0.8.0#b44fa70/interface/thrift/gen-java/org/apache/cassandra/thrift/NotFoundException.java,0,0,0,0,1,1,0,0,0,0,0,0,0,YES,0,0,0,0,2,1,0,0,0,1,0,0,0,0,0,0,0,0,0,0,0,0,0,0,0,0,0,0,0,2,0,1,1,0,2,1,0,0,0,0,0,0,0,0,0,0,0,0,19,241
cassandra,cassandra-0.7.0,cassandra-0.8.0,F:/corpus/cassandra/cassandra#2011-01-10-08-38-51#cassandra-0.7.0#7b7e357/interface/thrift/gen-java/org/apache/cassandra/thrift/SlicePredicate.java,F:/corpus/cassandra/cassandra#2011-06-03-06-03-47#cassandra-0.8.0#b44fa70/interface/thrift/gen-java/org/apache/cassandra/thrift/SlicePredicate.java,0,0,0,0,0,1,0,0,0,0,0,0,0,YES,0,0,0,0,2,3,0,0,0,1,0,0,0,0,0,0,0,0,0,0,0,0,0,0,0,0,0,0,0,2,0,1,1,0,2,3,0,0,0,0,0,0,0,0,0,0,3,0,44,483
cassandra,cassandra-0.7.0,cassandra-0.8.0,F:/corpus/cassandra/cassandra#2011-01-10-08-38-51#cassandra-0.7.0#7b7e357/interface/thrift/gen-java/org/apache/cassandra/thrift/SliceRange.java,F:/corpus/cassandra/cassandra#2011-06-03-06-03-47#cassandra-0.8.0#b44fa70/interface/thrift/gen-java/org/apache/cassandra/thrift/SliceRange.java,0,0,0,0,0,1,0,0,0,0,0,0,0,YES,0,0,0,0,2,5,0,0,0,1,0,0,0,0,0,0,0,0,0,0,0,2,0,0,0,0,0,0,0,2,0,1,1,0,2,5,0,0,0,0,0,0,2,2,0,0,14,0,63,669
cassandra,cassandra-0.7.0,cassandra-0.8.0,F:/corpus/cassandra/cassandra#2011-01-10-08-38-51#cassandra-0.7.0#7b7e357/interface/thrift/gen-java/org/apache/cassandra/thrift/SuperColumn.java,F:/corpus/cassandra/cassandra#2011-06-03-06-03-47#cassandra-0.8.0#b44fa70/interface/thrift/gen-java/org/apache/cassandra/thrift/SuperColumn.java,0,0,0,0,0,0,0,0,0,0,0,0,0,YES,0,0,0,0,2,3,0,0,0,1,0,0,0,0,0,0,0,0,0,0,0,1,0,0,0,0,0,0,0,2,0,1,1,0,2,3,0,0,0,0,0,0,1,1,0,0,8,0,44,493
cassandra,cassandra-0.7.0,cassandra-0.8.0,F:/corpus/cassandra/cassandra#2011-01-10-08-38-51#cassandra-0.7.0#7b7e357/interface/thrift/gen-java/org/apache/cassandra/thrift/TimedOutException.java,F:/corpus/cassandra/cassandra#2011-06-03-06-03-47#cassandra-0.8.0#b44fa70/interface/thrift/gen-java/org/apache/cassandra/thrift/TimedOutException.java,0,0,0,0,1,1,0,0,0,0,0,0,0,YES,0,0,0,0,2,1,0,0,0,1,0,0,0,0,0,0,0,0,0,0,0,0,0,0,0,0,0,0,0,2,0,1,1,0,2,1,0,0,0,0,0,0,0,0,0,0,0,0,19,241
cassandra,cassandra-0.7.0,cassandra-0.8.0,F:/corpus/cassandra/cassandra#2011-01-10-08-38-51#cassandra-0.7.0#7b7e357/interface/thrift/gen-java/org/apache/cassandra/thrift/TokenRange.java,F:/corpus/cassandra/cassandra#2011-06-03-06-03-47#cassandra-0.8.0#b44fa70/interface/thrift/gen-java/org/apache/cassandra/thrift/TokenRange.java,0,0,0,0,0,1,0,0,0,0,0,0,0,YES,0,0,0,0,2,4,0,0,0,1,0,0,0,0,0,0,0,0,0,0,0,0,0,0,0,0,0,0,0,2,0,1,1,0,2,4,0,0,0,0,0,0,0,0,0,0,6,0,53,572
cassandra,cassandra-0.7.0,cassandra-0.8.0,F:/corpus/cassandra/cassandra#2011-01-10-08-38-51#cassandra-0.7.0#7b7e357/interface/thrift/gen-java/org/apache/cassandra/thrift/UnavailableException.java,F:/corpus/cassandra/cassandra#2011-06-03-06-03-47#cassandra-0.8.0#b44fa70/interface/thrift/gen-java/org/apache/cassandra/thrift/UnavailableException.java,0,0,0,0,1,1,0,0,0,0,0,0,0,YES,0,0,0,0,2,1,0,0,0,1,0,0,0,0,0,0,0,0,0,0,0,0,0,0,0,0,0,0,0,2,0,1,1,0,2,1,0,0,0,0,0,0,0,0,0,0,0,0,19,241
cassandra,cassandra-0.7.0,cassandra-0.8.0,F:/corpus/cassandra/cassandra#2011-01-10-08-38-51#cassandra-0.7.0#7b7e357/src/java/org/apache/cassandra/auth/AllowAllAuthenticator.java,F:/corpus/cassandra/cassandra#2011-06-03-06-03-47#cassandra-0.8.0#b44fa70/src/java/org/apache/cassandra/auth/AllowAllAuthenticator.java,0,0,0,0,1,0,0,0,0,0,0,0,0,YES,0,0,0,0,0,0,0,0,0,0,0,0,0,0,0,0,0,0,0,0,0,0,0,0,0,0,0,0,0,0,0,0,0,0,0,0,0,0,0,0,0,0,0,0,0,0,0,0,3,49
cassandra,cassandra-0.7.0,cassandra-0.8.0,F:/corpus/cassandra/cassandra#2011-01-10-08-38-51#cassandra-0.7.0#7b7e357/src/java/org/apache/cassandra/auth/AllowAllAuthority.java,F:/corpus/cassandra/cassandra#2011-06-03-06-03-47#cassandra-0.8.0#b44fa70/src/java/org/apache/cassandra/auth/AllowAllAuthority.java,0,0,0,0,1,0,0,0,0,0,0,0,0,YES,0,0,0,0,0,0,0,0,0,0,0,0,0,0,0,0,0,0,0,0,0,0,0,0,0,0,0,0,0,0,0,0,0,0,0,0,0,0,0,0,0,0,0,0,0,0,0,0,2,41
cassandra,cassandra-0.7.0,cassandra-0.8.0,F:/corpus/cassandra/cassandra#2011-01-10-08-38-51#cassandra-0.7.0#7b7e357/src/java/org/apache/cassandra/auth/SimpleAuthenticator.java,F:/corpus/cassandra/cassandra#2011-06-03-06-03-47#cassandra-0.8.0#b44fa70/src/java/org/apache/cassandra/auth/SimpleAuthenticator.java,0,0,0,0,0,1,0,0,0,0,0,0,0,YES,0,0,0,0,0,0,0,0,0,0,0,0,0,0,0,0,0,0,0,0,0,0,0,0,0,0,0,0,0,0,0,0,0,0,0,0,0,0,0,0,0,0,3,2,0,1,2,0,18,152
cassandra,cassandra-0.7.0,cassandra-0.8.0,F:/corpus/cassandra/cassandra#2011-01-10-08-38-51#cassandra-0.7.0#7b7e357/src/java/org/apache/cassandra/auth/SimpleAuthority.java,F:/corpus/cassandra/cassandra#2011-06-03-06-03-47#cassandra-0.8.0#b44fa70/src/java/org/apache/cassandra/auth/SimpleAuthority.java,0,0,0,0,0,0,0,0,0,1,0,0,0,YES,0,0,0,0,0,0,0,0,0,0,0,0,0,0,0,0,0,0,0,0,0,0,0,0,0,0,0,0,0,0,0,0,0,0,0,0,0,0,0,0,0,0,0,0,0,0,0,0,3,157
cassandra,cassandra-0.7.0,cassandra-0.8.0,F:/corpus/cassandra/cassandra#2011-01-10-08-38-51#cassandra-0.7.0#7b7e357/src/java/org/apache/cassandra/cli/CliClient.java,F:/corpus/cassandra/cassandra#2011-06-03-06-03-47#cassandra-0.8.0#b44fa70/src/java/org/apache/cassandra/cli/CliClient.java,0,1,0,1,0,15,0,2,1,1,0,0,1,YES,0,0,0,0,10,2,1,6,0,0,0,0,7,1,1,3,0,0,0,2,0,1,2,2,0,0,0,0,1,0,0,0,0,0,1,0,0,0,0,0,0,0,18,103,9,11,43,0,438,1978
cassandra,cassandra-0.7.0,cassandra-0.8.0,F:/corpus/cassandra/cassandra#2011-01-10-08-38-51#cassandra-0.7.0#7b7e357/src/java/org/apache/cassandra/cli/CliCompleter.java,F:/corpus/cassandra/cassandra#2011-06-03-06-03-47#cassandra-0.8.0#b44fa70/src/java/org/apache/cassandra/cli/CliCompleter.java,0,0,0,0,0,0,0,0,0,0,0,0,0,YES,0,0,0,0,0,0,0,0,0,0,0,0,0,0,0,0,0,0,0,0,0,0,0,0,0,0,0,0,0,0,0,0,0,0,0,0,0,0,0,0,0,0,0,0,0,0,0,0,3,79
cassandra,cassandra-0.7.0,cassandra-0.8.0,F:/corpus/cassandra/cassandra#2011-01-10-08-38-51#cassandra-0.7.0#7b7e357/src/java/org/apache/cassandra/cli/CliMain.java,F:/corpus/cassandra/cassandra#2011-06-03-06-03-47#cassandra-0.8.0#b44fa70/src/java/org/apache/cassandra/cli/CliMain.java,0,0,0,0,0,2,0,0,0,2,0,0,0,YES,0,0,0,0,0,0,0,0,0,0,0,0,3,1,0,5,0,0,0,0,0,0,0,0,0,0,0,0,0,0,0,0,0,0,1,0,0,0,0,0,0,0,3,8,12,12,1,0,75,394
cassandra,cassandra-0.7.0,cassandra-0.8.0,F:/corpus/cassandra/cassandra#2011-01-10-08-38-51#cassandra-0.7.0#7b7e357/src/java/org/apache/cassandra/cli/CliOptions.java,F:/corpus/cassandra/cassandra#2011-06-03-06-03-47#cassandra-0.8.0#b44fa70/src/java/org/apache/cassandra/cli/CliOptions.java,0,0,0,0,0,0,0,0,0,0,0,0,0,YES,0,0,0,1,0,3,1,4,0,1,0,0,1,1,0,1,0,0,0,0,0,0,0,0,0,0,0,0,0,0,0,0,0,0,0,0,0,0,0,0,0,0,2,14,0,4,3,0,99,161
cassandra,cassandra-0.7.0,cassandra-0.8.0,F:/corpus/cassandra/cassandra#2011-01-10-08-38-51#cassandra-0.7.0#7b7e357/src/java/org/apache/cassandra/cli/CliSessionState.java,F:/corpus/cassandra/cassandra#2011-06-03-06-03-47#cassandra-0.8.0#b44fa70/src/java/org/apache/cassandra/cli/CliSessionState.java,1,0,0,0,0,0,0,0,0,0,0,0,0,YES,0,0,0,0,0,2,0,0,0,0,0,0,0,0,0,0,0,0,0,0,0,0,0,0,0,0,0,0,0,0,0,0,0,0,0,0,0,0,0,0,0,0,0,0,0,0,0,0,3,86
cassandra,cassandra-0.7.0,cassandra-0.8.0,F:/corpus/cassandra/cassandra#2011-01-10-08-38-51#cassandra-0.7.0#7b7e357/src/java/org/apache/cassandra/cli/CliUserHelp.java,F:/corpus/cassandra/cassandra#2011-06-03-06-03-47#cassandra-0.8.0#b44fa70/src/java/org/apache/cassandra/cli/CliUserHelp.java,0,0,0,0,0,1,0,0,0,1,0,0,1,YES,0,0,0,0,0,3,0,0,0,0,0,0,0,0,0,0,0,0,0,0,0,0,0,0,0,0,0,0,0,0,0,0,0,0,1,1,0,0,0,0,0,0,0,0,0,0,0,0,339,365
cassandra,cassandra-0.7.0,cassandra-0.8.0,F:/corpus/cassandra/cassandra#2011-01-10-08-38-51#cassandra-0.7.0#7b7e357/src/java/org/apache/cassandra/cli/CliUtils.java,F:/corpus/cassandra/cassandra#2011-06-03-06-03-47#cassandra-0.8.0#b44fa70/src/java/org/apache/cassandra/cli/CliUtils.java,0,0,0,0,0,0,0,0,1,0,0,0,0,YES,0,0,0,0,1,0,1,0,0,0,0,0,0,0,0,1,0,0,0,0,0,0,0,0,0,0,0,0,0,0,0,0,0,0,0,0,0,0,0,0,0,0,48,2,0,1,0,0,68,152
cassandra,cassandra-0.7.0,cassandra-0.8.0,F:/corpus/cassandra/cassandra#2011-01-10-08-38-51#cassandra-0.7.0#7b7e357/src/java/org/apache/cassandra/client/RingCache.java,F:/corpus/cassandra/cassandra#2011-06-03-06-03-47#cassandra-0.8.0#b44fa70/src/java/org/apache/cassandra/client/RingCache.java,0,0,0,0,0,0,0,0,0,0,0,0,0,YES,0,0,0,0,0,0,0,0,0,1,0,0,0,0,0,0,0,0,0,0,0,0,0,0,0,0,1,0,0,0,0,0,0,0,0,0,0,0,0,0,0,0,0,0,0,0,0,0,4,137
cassandra,cassandra-0.7.0,cassandra-0.8.0,F:/corpus/cassandra/cassandra#2011-01-10-08-38-51#cassandra-0.7.0#7b7e357/src/java/org/apache/cassandra/concurrent/DebuggableThreadPoolExecutor.java,F:/corpus/cassandra/cassandra#2011-06-03-06-03-47#cassandra-0.8.0#b44fa70/src/java/org/apache/cassandra/concurrent/DebuggableThreadPoolExecutor.java,0,0,0,0,0,0,0,0,0,0,0,0,0,YES,0,0,0,0,1,0,1,0,0,0,0,3,0,1,0,0,0,0,1,0,0,0,1,0,0,0,0,0,0,0,0,0,0,0,0,0,0,0,0,0,0,0,12,2,0,1,2,0,57,106
cassandra,cassandra-0.7.0,cassandra-0.8.0,F:/corpus/cassandra/cassandra#2011-01-10-08-38-51#cassandra-0.7.0#7b7e357/src/java/org/apache/cassandra/concurrent/JMXConfigurableThreadPoolExecutor.java,F:/corpus/cassandra/cassandra#2011-06-03-06-03-47#cassandra-0.8.0#b44fa70/src/java/org/apache/cassandra/concurrent/JMXConfigurableThreadPoolExecutor.java,0,0,0,0,0,0,0,0,0,0,0,0,0,YES,0,0,0,0,0,0,0,0,0,0,0,0,0,0,0,0,0,0,0,0,0,0,1,0,0,0,0,0,0,0,0,0,0,0,0,0,0,0,0,0,0,0,0,0,0,0,1,0,3,38
cassandra,cassandra-0.7.0,cassandra-0.8.0,F:/corpus/cassandra/cassandra#2011-01-10-08-38-51#cassandra-0.7.0#7b7e357/src/java/org/apache/cassandra/concurrent/JMXConfigurableThreadPoolExecutorMBean.java,F:/corpus/cassandra/cassandra#2011-06-03-06-03-47#cassandra-0.8.0#b44fa70/src/java/org/apache/cassandra/concurrent/JMXConfigurableThreadPoolExecutorMBean.java,0,0,0,0,1,0,0,0,0,0,0,0,0,YES,0,0,0,0,0,0,0,0,0,0,0,0,0,0,0,0,0,0,0,0,0,0,0,0,0,0,0,0,0,0,0,0,0,0,0,0,0,0,0,0,0,0,0,0,0,0,0,0,2,28
cassandra,cassandra-0.7.0,cassandra-0.8.0,F:/corpus/cassandra/cassandra#2011-01-10-08-38-51#cassandra-0.7.0#7b7e357/src/java/org/apache/cassandra/concurrent/JMXEnabledThreadPoolExecutor.java,F:/corpus/cassandra/cassandra#2011-06-03-06-03-47#cassandra-0.8.0#b44fa70/src/java/org/apache/cassandra/concurrent/JMXEnabledThreadPoolExecutor.java,0,0,0,0,0,0,0,0,0,0,0,0,0,YES,0,0,0,0,0,0,0,0,0,0,0,0,0,0,0,0,0,0,0,0,0,0,1,0,0,0,0,0,0,0,0,0,0,0,0,0,0,0,0,0,0,0,0,0,0,0,4,0,5,133
cassandra,cassandra-0.7.0,cassandra-0.8.0,F:/corpus/cassandra/cassandra#2011-01-10-08-38-51#cassandra-0.7.0#7b7e357/src/java/org/apache/cassandra/concurrent/RetryingScheduledThreadPoolExecutor.java,F:/corpus/cassandra/cassandra#2011-06-03-06-03-47#cassandra-0.8.0#b44fa70/src/java/org/apache/cassandra/concurrent/RetryingScheduledThreadPoolExecutor.java,0,0,0,0,1,0,0,0,0,0,0,0,0,YES,0,0,0,0,0,0,0,0,0,0,0,0,0,0,0,0,0,0,1,0,0,0,0,0,0,0,0,0,0,0,0,0,0,0,0,1,0,0,0,0,0,0,2,3,0,0,0,0,10,114
cassandra,cassandra-0.7.0,cassandra-0.8.0,F:/corpus/cassandra/cassandra#2011-01-10-08-38-51#cassandra-0.7.0#7b7e357/src/java/org/apache/cassandra/concurrent/Stage.java,F:/corpus/cassandra/cassandra#2011-06-03-06-03-47#cassandra-0.8.0#b44fa70/src/java/org/apache/cassandra/concurrent/Stage.java,0,0,0,0,0,0,0,0,0,0,0,0,0,YES,0,0,0,0,0,0,0,0,0,0,0,0,0,0,0,0,0,0,0,0,0,0,0,0,0,0,0,0,0,0,0,0,0,0,0,0,0,0,0,0,0,0,0,0,0,0,0,0,3,65
cassandra,cassandra-0.7.0,cassandra-0.8.0,F:/corpus/cassandra/cassandra#2011-01-10-08-38-51#cassandra-0.7.0#7b7e357/src/java/org/apache/cassandra/concurrent/StageManager.java,F:/corpus/cassandra/cassandra#2011-06-03-06-03-47#cassandra-0.8.0#b44fa70/src/java/org/apache/cassandra/concurrent/StageManager.java,0,0,0,0,0,0,0,0,0,0,0,1,0,YES,0,0,0,0,0,0,0,0,0,0,0,1,0,0,0,0,0,0,0,0,0,0,0,0,0,0,0,0,0,0,0,0,0,0,0,0,0,0,0,0,0,0,2,0,0,0,2,0,13,102
cassandra,cassandra-0.7.0,cassandra-0.8.0,F:/corpus/cassandra/cassandra#2011-01-10-08-38-51#cassandra-0.7.0#7b7e357/src/java/org/apache/cassandra/config/CFMetaData.java,F:/corpus/cassandra/cassandra#2011-06-03-06-03-47#cassandra-0.8.0#b44fa70/src/java/org/apache/cassandra/config/CFMetaData.java,0,0,0,0,0,7,0,0,1,0,2,2,0,YES,1,0,0,0,30,11,0,0,1,2,0,3,3,0,1,9,0,2,0,0,0,2,33,5,0,11,4,0,0,0,0,0,0,0,2,0,0,0,0,3,0,1,43,108,0,1,39,0,461,930
cassandra,cassandra-0.7.0,cassandra-0.8.0,F:/corpus/cassandra/cassandra#2011-01-10-08-38-51#cassandra-0.7.0#7b7e357/src/java/org/apache/cassandra/config/ColumnDefinition.java,F:/corpus/cassandra/cassandra#2011-06-03-06-03-47#cassandra-0.8.0#b44fa70/src/java/org/apache/cassandra/config/ColumnDefinition.java,0,0,0,0,0,1,0,0,0,0,0,0,0,YES,1,0,0,0,2,2,0,0,0,0,0,0,0,0,0,0,1,0,0,0,0,0,1,1,0,0,3,0,0,0,0,0,0,0,1,0,0,0,0,1,0,0,4,7,0,0,6,0,50,184
cassandra,cassandra-0.7.0,cassandra-0.8.0,F:/corpus/cassandra/cassandra#2011-01-10-08-38-51#cassandra-0.7.0#7b7e357/src/java/org/apache/cassandra/config/Config.java,F:/corpus/cassandra/cassandra#2011-06-03-06-03-47#cassandra-0.8.0#b44fa70/src/java/org/apache/cassandra/config/Config.java,1,0,0,0,0,0,0,0,0,0,0,0,0,YES,0,0,0,0,0,16,0,0,0,0,0,0,0,0,0,0,0,0,0,0,0,0,0,0,0,0,0,0,0,0,0,0,0,0,0,2,0,0,0,0,0,0,0,0,0,0,0,0,12,122
cassandra,cassandra-0.7.0,cassandra-0.8.0,F:/corpus/cassandra/cassandra#2011-01-10-08-38-51#cassandra-0.7.0#7b7e357/src/java/org/apache/cassandra/config/DatabaseDescriptor.java,F:/corpus/cassandra/cassandra#2011-06-03-06-03-47#cassandra-0.8.0#b44fa70/src/java/org/apache/cassandra/config/DatabaseDescriptor.java,0,1,0,0,0,0,0,0,0,1,0,13,0,YES,0,0,0,0,25,1,1,1,0,0,0,1,1,0,0,0,0,0,0,0,0,1,0,1,0,1,0,0,0,0,0,0,0,0,5,1,0,0,0,0,0,0,7,7,0,0,6,0,381,1117
cassandra,cassandra-0.7.0,cassandra-0.8.0,F:/corpus/cassandra/cassandra#2011-01-10-08-38-51#cassandra-0.7.0#7b7e357/src/java/org/apache/cassandra/config/KSMetaData.java,F:/corpus/cassandra/cassandra#2011-06-03-06-03-47#cassandra-0.8.0#b44fa70/src/java/org/apache/cassandra/config/KSMetaData.java,0,0,0,0,0,0,0,0,0,0,0,3,0,YES,0,0,0,0,6,0,0,0,0,0,0,0,0,0,0,0,0,0,0,0,0,0,1,0,0,0,1,0,0,0,0,0,0,0,0,1,0,0,0,1,0,0,3,1,0,0,8,0,48,131
cassandra,cassandra-0.7.0,cassandra-0.8.0,F:/corpus/cassandra/cassandra#2011-01-10-08-38-51#cassandra-0.7.0#7b7e357/src/java/org/apache/cassandra/db/BinaryMemtable.java,F:/corpus/cassandra/cassandra#2011-06-03-06-03-47#cassandra-0.8.0#b44fa70/src/java/org/apache/cassandra/db/BinaryMemtable.java,0,0,0,0,0,0,0,0,0,0,0,0,0,YES,0,0,0,0,0,0,0,0,0,0,0,0,0,0,0,0,0,0,0,0,0,0,0,2,0,0,0,0,0,0,0,0,0,0,0,0,0,0,0,0,0,0,2,1,0,0,2,0,9,160
cassandra,cassandra-0.7.0,cassandra-0.8.0,F:/corpus/cassandra/cassandra#2011-01-10-08-38-51#cassandra-0.7.0#7b7e357/src/java/org/apache/cassandra/db/BinaryVerbHandler.java,F:/corpus/cassandra/cassandra#2011-06-03-06-03-47#cassandra-0.8.0#b44fa70/src/java/org/apache/cassandra/db/BinaryVerbHandler.java,0,0,0,0,0,0,0,0,0,0,0,0,0,YES,0,0,0,0,0,0,0,0,0,0,0,0,0,0,0,0,0,0,0,0,0,0,0,1,0,0,0,0,0,0,0,0,0,0,0,0,0,0,0,0,0,0,1,0,0,0,3,0,5,57
cassandra,cassandra-0.7.0,cassandra-0.8.0,F:/corpus/cassandra/cassandra#2011-01-10-08-38-51#cassandra-0.7.0#7b7e357/src/java/org/apache/cassandra/db/Column.java,F:/corpus/cassandra/cassandra#2011-06-03-06-03-47#cassandra-0.8.0#b44fa70/src/java/org/apache/cassandra/db/Column.java,0,0,0,0,2,0,0,0,0,0,0,0,0,YES,0,0,0,0,4,0,0,0,0,0,0,0,0,0,0,0,0,0,0,0,0,0,0,0,0,0,0,0,0,0,0,0,0,0,1,0,0,0,0,0,0,0,3,3,0,0,2,0,31,238
cassandra,cassandra-0.7.0,cassandra-0.8.0,F:/corpus/cassandra/cassandra#2011-01-10-08-38-51#cassandra-0.7.0#7b7e357/src/java/org/apache/cassandra/db/ColumnFamily.java,F:/corpus/cassandra/cassandra#2011-06-03-06-03-47#cassandra-0.8.0#b44fa70/src/java/org/apache/cassandra/db/ColumnFamily.java,0,0,0,0,1,0,0,0,0,0,0,16,0,YES,0,0,0,0,6,1,0,0,0,1,0,2,1,0,0,0,0,1,0,1,1,0,0,0,0,0,0,0,0,0,0,0,0,0,3,2,0,0,0,0,0,0,15,11,0,1,5,0,101,439
cassandra,cassandra-0.7.0,cassandra-0.8.0,F:/corpus/cassandra/cassandra#2011-01-10-08-38-51#cassandra-0.7.0#7b7e357/src/java/org/apache/cassandra/db/ColumnFamilySerializer.java,F:/corpus/cassandra/cassandra#2011-06-03-06-03-47#cassandra-0.8.0#b44fa70/src/java/org/apache/cassandra/db/ColumnFamilySerializer.java,0,0,1,0,0,0,0,0,0,0,0,1,0,YES,0,0,0,0,2,0,0,0,0,0,0,1,0,0,0,0,0,0,0,0,0,0,0,2,0,0,0,0,0,0,1,0,0,0,0,0,0,0,0,0,0,0,10,3,0,0,0,0,17,139
cassandra,cassandra-0.7.0,cassandra-0.8.0,F:/corpus/cassandra/cassandra#2011-01-10-08-38-51#cassandra-0.7.0#7b7e357/src/java/org/apache/cassandra/db/ColumnFamilyStore.java,F:/corpus/cassandra/cassandra#2011-06-03-06-03-47#cassandra-0.8.0#b44fa70/src/java/org/apache/cassandra/db/ColumnFamilyStore.java,0,1,0,0,0,13,0,2,2,1,0,9,0,YES,0,0,0,0,27,10,0,0,0,0,0,4,9,0,1,10,0,0,0,1,1,2,0,3,0,0,1,0,0,0,0,0,0,0,3,6,0,0,0,3,0,0,133,89,3,11,62,0,626,1970
cassandra,cassandra-0.7.0,cassandra-0.8.0,F:/corpus/cassandra/cassandra#2011-01-10-08-38-51#cassandra-0.7.0#7b7e357/src/java/org/apache/cassandra/db/ColumnFamilyStoreMBean.java,F:/corpus/cassandra/cassandra#2011-06-03-06-03-47#cassandra-0.8.0#b44fa70/src/java/org/apache/cassandra/db/ColumnFamilyStoreMBean.java,0,0,0,0,1,0,0,0,0,0,0,0,0,YES,0,0,0,0,5,0,0,0,0,0,0,0,0,0,0,0,0,0,0,0,0,0,0,0,0,0,0,0,0,0,0,0,0,0,0,0,0,0,0,2,0,0,0,0,0,0,0,0,18,223
cassandra,cassandra-0.7.0,cassandra-0.8.0,F:/corpus/cassandra/cassandra#2011-01-10-08-38-51#cassandra-0.7.0#7b7e357/src/java/org/apache/cassandra/db/ColumnIndexer.java,F:/corpus/cassandra/cassandra#2011-06-03-06-03-47#cassandra-0.8.0#b44fa70/src/java/org/apache/cassandra/db/ColumnIndexer.java,0,0,0,0,0,0,0,0,0,0,0,0,0,YES,0,0,0,0,0,0,0,0,0,0,0,0,0,0,0,0,0,0,0,0,0,0,0,0,0,0,0,0,0,0,0,0,0,0,0,0,0,0,0,0,0,0,0,1,0,0,0,0,1,147
cassandra,cassandra-0.7.0,cassandra-0.8.0,F:/corpus/cassandra/cassandra#2011-01-10-08-38-51#cassandra-0.7.0#7b7e357/src/java/org/apache/cassandra/db/ColumnSerializer.java,F:/corpus/cassandra/cassandra#2011-06-03-06-03-47#cassandra-0.8.0#b44fa70/src/java/org/apache/cassandra/db/ColumnSerializer.java,0,0,0,0,0,0,0,0,0,0,0,0,0,YES,0,0,0,0,2,2,3,1,0,0,0,1,0,0,0,0,0,0,0,0,0,0,0,0,0,0,0,0,0,0,0,1,1,0,0,0,0,0,0,0,0,0,20,4,0,1,2,0,24,108
cassandra,cassandra-0.7.0,cassandra-0.8.0,F:/corpus/cassandra/cassandra#2011-01-10-08-38-51#cassandra-0.7.0#7b7e357/src/java/org/apache/cassandra/db/CompactionManager.java,F:/corpus/cassandra/cassandra#2011-06-03-06-03-47#cassandra-0.8.0#b44fa70/src/java/org/apache/cassandra/db/CompactionManager.java,0,0,0,0,3,0,0,1,0,0,0,2,0,YES,0,0,0,1,17,1,0,0,0,1,0,5,8,1,0,4,0,1,5,0,0,2,1,5,1,0,1,0,0,0,0,1,1,0,12,2,0,0,0,0,0,0,52,28,1,12,18,0,556,848
cassandra,cassandra-0.7.0,cassandra-0.8.0,F:/corpus/cassandra/cassandra#2011-01-10-08-38-51#cassandra-0.7.0#7b7e357/src/java/org/apache/cassandra/db/CompactionManagerMBean.java,F:/corpus/cassandra/cassandra#2011-06-03-06-03-47#cassandra-0.8.0#b44fa70/src/java/org/apache/cassandra/db/CompactionManagerMBean.java,0,0,0,0,1,0,0,0,0,0,0,0,0,YES,0,0,0,0,2,0,0,0,0,0,0,0,0,0,0,0,0,0,0,1,0,1,0,0,0,0,0,0,0,0,0,0,0,0,3,0,0,0,0,0,0,0,0,0,0,0,0,0,32,53
cassandra,cassandra-0.7.0,cassandra-0.8.0,F:/corpus/cassandra/cassandra#2011-01-10-08-38-51#cassandra-0.7.0#7b7e357/src/java/org/apache/cassandra/db/DecoratedKey.java,F:/corpus/cassandra/cassandra#2011-06-03-06-03-47#cassandra-0.8.0#b44fa70/src/java/org/apache/cassandra/db/DecoratedKey.java,0,0,0,0,0,0,0,0,0,0,0,2,0,YES,0,0,0,0,0,0,0,0,0,0,0,0,0,0,0,0,0,0,0,0,0,0,0,0,0,0,0,0,0,0,0,0,0,0,0,0,0,0,0,0,0,0,0,0,0,0,1,0,2,97
cassandra,cassandra-0.7.0,cassandra-0.8.0,F:/corpus/cassandra/cassandra#2011-01-10-08-38-51#cassandra-0.7.0#7b7e357/src/java/org/apache/cassandra/db/DefinitionsAnnounceVerbHandler.java,F:/corpus/cassandra/cassandra#2011-06-03-06-03-47#cassandra-0.8.0#b44fa70/src/java/org/apache/cassandra/db/DefinitionsAnnounceVerbHandler.java,0,0,1,0,0,0,0,0,0,0,0,0,0,YES,0,0,0,0,0,0,0,0,0,0,0,0,0,0,0,0,0,0,0,0,0,0,0,1,0,0,0,0,0,0,0,0,0,0,0,0,0,0,0,0,0,0,0,0,0,0,0,0,1,36
cassandra,cassandra-0.7.0,cassandra-0.8.0,F:/corpus/cassandra/cassandra#2011-01-10-08-38-51#cassandra-0.7.0#7b7e357/src/java/org/apache/cassandra/db/DefinitionsUpdateResponseVerbHandler.java,F:/corpus/cassandra/cassandra#2011-06-03-06-03-47#cassandra-0.8.0#b44fa70/src/java/org/apache/cassandra/db/DefinitionsUpdateResponseVerbHandler.java,0,0,0,0,0,0,0,0,0,0,0,0,0,YES,0,0,0,0,0,0,0,0,0,0,0,0,1,0,0,0,0,0,0,0,0,0,0,1,0,0,0,0,0,0,0,0,0,0,0,0,0,0,0,0,0,0,0,0,0,0,2,0,5,92
cassandra,cassandra-0.7.0,cassandra-0.8.0,F:/corpus/cassandra/cassandra#2011-01-10-08-38-51#cassandra-0.7.0#7b7e357/src/java/org/apache/cassandra/db/DefsTable.java,F:/corpus/cassandra/cassandra#2011-06-03-06-03-47#cassandra-0.8.0#b44fa70/src/java/org/apache/cassandra/db/DefsTable.java,0,0,0,0,0,0,0,1,0,0,0,0,0,YES,0,0,0,0,0,0,0,0,0,0,0,0,0,0,0,0,0,0,0,0,0,0,0,0,0,0,0,0,0,0,0,0,0,0,0,0,0,0,0,0,0,0,1,2,0,0,3,0,6,121
cassandra,cassandra-0.7.0,cassandra-0.8.0,F:/corpus/cassandra/cassandra#2011-01-10-08-38-51#cassandra-0.7.0#7b7e357/src/java/org/apache/cassandra/db/DeletedColumn.java,F:/corpus/cassandra/cassandra#2011-06-03-06-03-47#cassandra-0.8.0#b44fa70/src/java/org/apache/cassandra/db/DeletedColumn.java,0,0,0,0,0,0,0,0,0,0,0,0,0,YES,0,0,0,0,4,0,0,0,0,0,0,0,0,0,0,0,0,0,0,0,0,0,0,0,0,0,0,0,0,0,0,0,0,0,1,1,0,0,0,0,0,0,0,0,0,0,1,0,18,66
cassandra,cassandra-0.7.0,cassandra-0.8.0,F:/corpus/cassandra/cassandra#2011-01-10-08-38-51#cassandra-0.7.0#7b7e357/src/java/org/apache/cassandra/db/ExpiringColumn.java,F:/corpus/cassandra/cassandra#2011-06-03-06-03-47#cassandra-0.8.0#b44fa70/src/java/org/apache/cassandra/db/ExpiringColumn.java,0,0,0,0,0,0,0,0,0,0,0,1,0,YES,0,0,0,0,3,0,0,0,0,0,0,0,0,0,0,0,0,0,0,0,0,0,0,0,0,0,0,0,0,0,0,0,0,0,1,1,0,0,0,0,0,0,3,3,0,0,0,0,26,137
cassandra,cassandra-0.7.0,cassandra-0.8.0,F:/corpus/cassandra/cassandra#2011-01-10-08-38-51#cassandra-0.7.0#7b7e357/src/java/org/apache/cassandra/db/HintedHandOffManager.java,F:/corpus/cassandra/cassandra#2011-06-03-06-03-47#cassandra-0.8.0#b44fa70/src/java/org/apache/cassandra/db/HintedHandOffManager.java,0,0,0,0,0,0,0,2,0,0,0,0,0,YES,0,0,0,0,6,1,0,0,0,0,0,0,3,0,0,2,0,0,0,1,1,1,0,0,0,0,0,0,0,0,0,0,1,0,0,0,0,0,0,0,0,0,15,28,1,2,17,1,271,307
cassandra,cassandra-0.7.0,cassandra-0.8.0,F:/corpus/cassandra/cassandra#2011-01-10-08-38-51#cassandra-0.7.0#7b7e357/src/java/org/apache/cassandra/db/IColumn.java,F:/corpus/cassandra/cassandra#2011-06-03-06-03-47#cassandra-0.8.0#b44fa70/src/java/org/apache/cassandra/db/IColumn.java,0,0,0,0,0,0,0,0,0,0,0,0,0,YES,0,0,0,0,3,0,0,0,0,0,0,0,0,0,0,0,0,0,0,0,0,0,0,0,0,0,0,0,0,0,0,0,0,0,1,0,0,0,0,0,0,0,0,0,0,0,0,0,6,58
cassandra,cassandra-0.7.0,cassandra-0.8.0,F:/corpus/cassandra/cassandra#2011-01-10-08-38-51#cassandra-0.7.0#7b7e357/src/java/org/apache/cassandra/db/IColumnContainer.java,F:/corpus/cassandra/cassandra#2011-06-03-06-03-47#cassandra-0.8.0#b44fa70/src/java/org/apache/cassandra/db/IColumnContainer.java,0,0,0,0,0,0,0,0,0,0,0,0,0,YES,0,0,0,0,2,0,0,0,0,0,0,0,0,0,0,0,0,0,0,0,0,0,0,0,0,0,0,0,0,0,0,0,0,0,0,0,0,0,0,0,0,0,0,0,0,0,0,0,5,34
cassandra,cassandra-0.7.0,cassandra-0.8.0,F:/corpus/cassandra/cassandra#2011-01-10-08-38-51#cassandra-0.7.0#7b7e357/src/java/org/apache/cassandra/db/IFlushable.java,F:/corpus/cassandra/cassandra#2011-06-03-06-03-47#cassandra-0.8.0#b44fa70/src/java/org/apache/cassandra/db/IFlushable.java,0,0,0,0,0,0,0,0,0,0,0,0,0,YES,0,0,0,0,0,0,0,0,0,0,0,0,0,0,0,0,0,0,0,0,0,0,0,1,0,0,0,0,0,0,0,0,0,0,0,0,0,0,0,0,0,0,0,0,0,0,0,0,3,30
cassandra,cassandra-0.7.0,cassandra-0.8.0,F:/corpus/cassandra/cassandra#2011-01-10-08-38-51#cassandra-0.7.0#7b7e357/src/java/org/apache/cassandra/db/IndexScanCommand.java,F:/corpus/cassandra/cassandra#2011-06-03-06-03-47#cassandra-0.8.0#b44fa70/src/java/org/apache/cassandra/db/IndexScanCommand.java,0,0,0,0,0,0,0,0,0,0,0,0,0,YES,0,0,0,0,0,0,0,0,0,0,0,0,0,0,0,0,0,0,0,0,0,0,0,1,0,0,0,0,0,0,0,0,1,0,0,0,0,0,0,0,0,0,0,0,0,0,1,0,5,107
cassandra,cassandra-0.7.0,cassandra-0.8.0,F:/corpus/cassandra/cassandra#2011-01-10-08-38-51#cassandra-0.7.0#7b7e357/src/java/org/apache/cassandra/db/Memtable.java,F:/corpus/cassandra/cassandra#2011-06-03-06-03-47#cassandra-0.8.0#b44fa70/src/java/org/apache/cassandra/db/Memtable.java,0,0,0,0,1,0,0,0,0,0,0,0,0,YES,0,0,0,0,3,5,0,0,0,4,0,1,5,0,0,0,0,0,0,0,0,1,0,2,0,0,0,0,0,0,0,0,0,0,1,0,0,0,0,1,0,0,1,4,0,0,7,0,97,300
cassandra,cassandra-0.7.0,cassandra-0.8.0,F:/corpus/cassandra/cassandra#2011-01-10-08-38-51#cassandra-0.7.0#7b7e357/src/java/org/apache/cassandra/db/RangeSliceCommand.java,F:/corpus/cassandra/cassandra#2011-06-03-06-03-47#cassandra-0.8.0#b44fa70/src/java/org/apache/cassandra/db/RangeSliceCommand.java,1,0,0,0,0,0,0,0,1,0,0,0,0,YES,0,0,0,0,1,0,0,0,0,0,0,0,0,0,0,0,0,0,0,0,0,0,0,3,0,0,0,0,0,0,0,0,2,0,0,0,0,0,0,0,0,0,2,2,0,0,3,0,12,161
cassandra,cassandra-0.7.0,cassandra-0.8.0,F:/corpus/cassandra/cassandra#2011-01-10-08-38-51#cassandra-0.7.0#7b7e357/src/java/org/apache/cassandra/db/RangeSliceReply.java,F:/corpus/cassandra/cassandra#2011-06-03-06-03-47#cassandra-0.8.0#b44fa70/src/java/org/apache/cassandra/db/RangeSliceReply.java,0,0,0,0,0,0,0,0,0,0,0,0,0,YES,0,0,0,0,0,0,0,0,0,0,0,0,0,0,0,0,0,0,0,0,0,0,0,1,0,0,0,0,0,0,0,0,0,0,0,0,0,0,0,0,0,0,0,0,0,0,3,0,4,75
cassandra,cassandra-0.7.0,cassandra-0.8.0,F:/corpus/cassandra/cassandra#2011-01-10-08-38-51#cassandra-0.7.0#7b7e357/src/java/org/apache/cassandra/db/ReadCommand.java,F:/corpus/cassandra/cassandra#2011-06-03-06-03-47#cassandra-0.8.0#b44fa70/src/java/org/apache/cassandra/db/ReadCommand.java,0,0,0,0,0,0,0,0,0,0,0,2,0,YES,0,0,0,0,2,0,0,0,0,0,0,0,0,0,0,0,0,0,0,0,0,0,0,2,0,0,0,0,0,0,0,0,2,0,1,0,0,0,0,0,0,0,0,0,0,0,2,0,15,119
cassandra,cassandra-0.7.0,cassandra-0.8.0,F:/corpus/cassandra/cassandra#2011-01-10-08-38-51#cassandra-0.7.0#7b7e357/src/java/org/apache/cassandra/db/ReadRepairVerbHandler.java,F:/corpus/cassandra/cassandra#2011-06-03-06-03-47#cassandra-0.8.0#b44fa70/src/java/org/apache/cassandra/db/ReadRepairVerbHandler.java,0,0,0,0,0,0,0,0,0,0,0,0,0,YES,0,0,0,0,0,0,0,0,0,0,0,0,0,0,0,0,0,0,0,0,0,0,0,1,0,0,0,0,0,0,0,0,0,0,0,1,0,0,0,0,0,0,1,0,0,0,1,0,10,52
cassandra,cassandra-0.7.0,cassandra-0.8.0,F:/corpus/cassandra/cassandra#2011-01-10-08-38-51#cassandra-0.7.0#7b7e357/src/java/org/apache/cassandra/db/ReadResponse.java,F:/corpus/cassandra/cassandra#2011-06-03-06-03-47#cassandra-0.8.0#b44fa70/src/java/org/apache/cassandra/db/ReadResponse.java,0,0,0,0,0,0,0,0,0,0,0,0,0,YES,0,0,0,0,0,0,0,0,0,0,0,0,1,0,0,0,0,0,0,0,0,0,0,2,0,0,0,0,0,0,0,0,0,0,0,0,0,0,0,0,0,0,1,1,0,0,3,0,7,117
cassandra,cassandra-0.7.0,cassandra-0.8.0,F:/corpus/cassandra/cassandra#2011-01-10-08-38-51#cassandra-0.7.0#7b7e357/src/java/org/apache/cassandra/db/ReadVerbHandler.java,F:/corpus/cassandra/cassandra#2011-06-03-06-03-47#cassandra-0.8.0#b44fa70/src/java/org/apache/cassandra/db/ReadVerbHandler.java,0,0,0,0,0,0,0,1,0,0,0,0,0,YES,0,0,0,0,1,0,1,0,0,0,0,0,0,0,0,0,0,0,0,0,0,0,0,1,0,0,0,0,0,0,0,0,0,0,0,0,0,0,0,0,0,0,6,1,0,0,5,0,32,99
cassandra,cassandra-0.7.0,cassandra-0.8.0,F:/corpus/cassandra/cassandra#2011-01-10-08-38-51#cassandra-0.7.0#7b7e357/src/java/org/apache/cassandra/db/Row.java,F:/corpus/cassandra/cassandra#2011-06-03-06-03-47#cassandra-0.8.0#b44fa70/src/java/org/apache/cassandra/db/Row.java,0,0,0,0,0,0,0,0,0,0,0,0,0,YES,0,0,0,0,1,0,0,0,0,1,0,0,0,0,0,0,0,0,0,0,1,0,0,2,0,0,1,0,0,0,0,0,0,0,0,1,0,0,0,0,0,0,1,1,0,0,1,0,13,76
cassandra,cassandra-0.7.0,cassandra-0.8.0,F:/corpus/cassandra/cassandra#2011-01-10-08-38-51#cassandra-0.7.0#7b7e357/src/java/org/apache/cassandra/db/RowIterator.java,F:/corpus/cassandra/cassandra#2011-06-03-06-03-47#cassandra-0.8.0#b44fa70/src/java/org/apache/cassandra/db/RowIterator.java,0,0,0,0,0,0,0,0,0,0,0,0,0,YES,0,0,0,0,0,0,0,0,0,0,0,0,0,0,0,1,0,0,0,0,0,0,0,0,0,0,0,0,0,0,0,0,0,0,0,0,0,0,0,0,0,0,0,0,0,0,0,0,1,72
cassandra,cassandra-0.7.0,cassandra-0.8.0,F:/corpus/cassandra/cassandra#2011-01-10-08-38-51#cassandra-0.7.0#7b7e357/src/java/org/apache/cassandra/db/RowIteratorFactory.java,F:/corpus/cassandra/cassandra#2011-06-03-06-03-47#cassandra-0.8.0#b44fa70/src/java/org/apache/cassandra/db/RowIteratorFactory.java,0,0,0,0,0,0,0,1,0,1,0,0,0,YES,0,0,0,0,0,0,0,0,0,0,0,2,0,0,0,0,0,0,0,0,0,0,0,0,0,0,0,0,0,0,0,0,0,0,1,0,0,0,0,0,0,0,1,0,0,0,1,0,54,215
cassandra,cassandra-0.7.0,cassandra-0.8.0,F:/corpus/cassandra/cassandra#2011-01-10-08-38-51#cassandra-0.7.0#7b7e357/src/java/org/apache/cassandra/db/RowMutation.java,F:/corpus/cassandra/cassandra#2011-06-03-06-03-47#cassandra-0.8.0#b44fa70/src/java/org/apache/cassandra/db/RowMutation.java,0,0,0,0,0,1,0,0,2,0,0,7,0,YES,0,0,0,1,4,3,0,2,0,0,0,0,1,0,0,2,0,0,0,0,2,2,2,2,0,0,0,0,0,0,0,0,2,0,4,1,0,0,0,0,0,0,5,13,0,3,11,2,162,398
cassandra,cassandra-0.7.0,cassandra-0.8.0,F:/corpus/cassandra/cassandra#2011-01-10-08-38-51#cassandra-0.7.0#7b7e357/src/java/org/apache/cassandra/db/RowMutationVerbHandler.java,F:/corpus/cassandra/cassandra#2011-06-03-06-03-47#cassandra-0.8.0#b44fa70/src/java/org/apache/cassandra/db/RowMutationVerbHandler.java,0,0,0,0,0,0,0,1,0,0,0,0,0,YES,0,0,0,0,1,0,0,0,0,0,0,0,1,0,0,0,0,0,0,0,0,0,0,1,0,0,0,0,0,0,0,0,0,0,0,0,0,0,0,0,0,0,3,4,0,0,5,0,55,86
cassandra,cassandra-0.7.0,cassandra-0.8.0,F:/corpus/cassandra/cassandra#2011-01-10-08-38-51#cassandra-0.7.0#7b7e357/src/java/org/apache/cassandra/db/SchemaCheckVerbHandler.java,F:/corpus/cassandra/cassandra#2011-06-03-06-03-47#cassandra-0.8.0#b44fa70/src/java/org/apache/cassandra/db/SchemaCheckVerbHandler.java,0,0,1,0,0,0,0,0,0,0,0,0,0,YES,0,0,0,0,0,0,0,0,0,0,0,0,0,0,0,0,0,0,0,0,0,0,0,1,0,0,0,0,0,0,0,0,0,0,0,0,0,0,0,0,0,0,0,0,0,0,2,0,3,40
cassandra,cassandra-0.7.0,cassandra-0.8.0,F:/corpus/cassandra/cassandra#2011-01-10-08-38-51#cassandra-0.7.0#7b7e357/src/java/org/apache/cassandra/db/SliceByNamesReadCommand.java,F:/corpus/cassandra/cassandra#2011-06-03-06-03-47#cassandra-0.8.0#b44fa70/src/java/org/apache/cassandra/db/SliceByNamesReadCommand.java,0,0,0,0,0,1,0,0,1,0,0,0,0,YES,0,0,0,0,0,0,0,0,0,0,0,0,0,0,0,0,0,0,0,0,0,0,0,2,0,0,0,0,0,0,0,0,0,0,0,0,0,0,0,0,0,0,0,0,0,0,6,0,11,114
cassandra,cassandra-0.7.0,cassandra-0.8.0,F:/corpus/cassandra/cassandra#2011-01-10-08-38-51#cassandra-0.7.0#7b7e357/src/java/org/apache/cassandra/db/SliceFromReadCommand.java,F:/corpus/cassandra/cassandra#2011-06-03-06-03-47#cassandra-0.8.0#b44fa70/src/java/org/apache/cassandra/db/SliceFromReadCommand.java,0,0,0,0,0,2,0,0,1,0,0,0,0,YES,0,0,0,0,0,0,0,0,0,0,0,0,0,0,0,0,0,0,0,0,0,0,0,2,0,0,0,0,0,0,0,0,0,0,0,0,0,0,0,0,0,0,0,0,0,0,6,0,13,111
cassandra,cassandra-0.7.0,cassandra-0.8.0,F:/corpus/cassandra/cassandra#2011-01-10-08-38-51#cassandra-0.7.0#7b7e357/src/java/org/apache/cassandra/db/SuperColumn.java,F:/corpus/cassandra/cassandra#2011-06-03-06-03-47#cassandra-0.8.0#b44fa70/src/java/org/apache/cassandra/db/SuperColumn.java,0,0,0,0,1,0,0,0,0,0,0,3,0,YES,0,0,0,0,8,0,0,0,0,0,0,3,0,0,0,0,0,0,0,0,1,0,0,0,0,0,0,0,0,0,0,1,1,0,1,1,0,0,0,0,0,0,19,6,0,1,1,0,62,369
cassandra,cassandra-0.7.0,cassandra-0.8.0,F:/corpus/cassandra/cassandra#2011-01-10-08-38-51#cassandra-0.7.0#7b7e357/src/java/org/apache/cassandra/db/SystemTable.java,F:/corpus/cassandra/cassandra#2011-06-03-06-03-47#cassandra-0.8.0#b44fa70/src/java/org/apache/cassandra/db/SystemTable.java,0,0,0,0,0,8,0,1,0,0,0,0,0,YES,0,0,0,0,3,3,0,0,0,0,0,0,0,0,0,2,0,0,0,0,0,0,0,0,0,0,0,0,0,0,0,0,0,0,0,0,0,0,0,0,0,0,2,1,0,1,12,0,118,373
cassandra,cassandra-0.7.0,cassandra-0.8.0,F:/corpus/cassandra/cassandra#2011-01-10-08-38-51#cassandra-0.7.0#7b7e357/src/java/org/apache/cassandra/db/Table.java,F:/corpus/cassandra/cassandra#2011-06-03-06-03-47#cassandra-0.8.0#b44fa70/src/java/org/apache/cassandra/db/Table.java,0,0,0,0,0,0,0,1,0,0,0,3,0,YES,0,0,0,0,5,0,0,0,1,0,0,1,4,0,0,0,1,0,0,2,0,0,2,2,0,1,1,0,0,0,0,1,1,0,7,0,0,0,0,0,0,0,13,15,0,3,21,0,149,750
cassandra,cassandra-0.7.0,cassandra-0.8.0,F:/corpus/cassandra/cassandra#2011-01-10-08-38-51#cassandra-0.7.0#7b7e357/src/java/org/apache/cassandra/db/TruncateResponse.java,F:/corpus/cassandra/cassandra#2011-06-03-06-03-47#cassandra-0.8.0#b44fa70/src/java/org/apache/cassandra/db/TruncateResponse.java,0,0,0,0,0,0,0,0,0,0,0,0,0,YES,0,0,0,0,0,0,0,0,0,0,0,0,0,0,0,0,0,0,0,0,0,0,0,2,0,0,0,0,0,0,0,0,0,0,0,0,0,0,0,0,0,0,0,0,0,0,2,0,4,83
cassandra,cassandra-0.7.0,cassandra-0.8.0,F:/corpus/cassandra/cassandra#2011-01-10-08-38-51#cassandra-0.7.0#7b7e357/src/java/org/apache/cassandra/db/TruncateVerbHandler.java,F:/corpus/cassandra/cassandra#2011-06-03-06-03-47#cassandra-0.8.0#b44fa70/src/java/org/apache/cassandra/db/TruncateVerbHandler.java,0,0,0,0,0,0,0,0,0,0,0,0,0,YES,0,0,0,0,0,0,0,0,0,0,0,0,0,0,0,0,0,0,0,0,0,0,0,1,0,0,0,0,0,0,0,0,0,0,0,0,0,0,0,0,0,0,0,0,0,0,4,0,6,106
cassandra,cassandra-0.7.0,cassandra-0.8.0,F:/corpus/cassandra/cassandra#2011-01-10-08-38-51#cassandra-0.7.0#7b7e357/src/java/org/apache/cassandra/db/Truncation.java,F:/corpus/cassandra/cassandra#2011-06-03-06-03-47#cassandra-0.8.0#b44fa70/src/java/org/apache/cassandra/db/Truncation.java,0,0,0,0,0,0,0,0,0,0,0,0,0,YES,0,0,0,0,1,0,0,0,0,0,0,0,0,0,0,0,0,0,0,0,0,0,0,2,0,0,0,0,0,0,0,0,1,0,1,0,0,0,0,0,0,0,0,0,0,0,0,0,7,97
cassandra,cassandra-0.7.0,cassandra-0.8.0,F:/corpus/cassandra/cassandra#2011-01-10-08-38-51#cassandra-0.7.0#7b7e357/src/java/org/apache/cassandra/db/WriteResponse.java,F:/corpus/cassandra/cassandra#2011-06-03-06-03-47#cassandra-0.8.0#b44fa70/src/java/org/apache/cassandra/db/WriteResponse.java,0,0,0,0,0,0,0,0,0,0,0,0,0,YES,0,0,0,0,0,0,0,0,0,0,0,0,0,0,0,0,0,0,0,0,0,0,0,2,0,0,0,0,0,0,0,0,0,0,0,0,0,0,0,0,0,0,0,0,0,0,4,0,7,96
cassandra,cassandra-0.7.0,cassandra-0.8.0,F:/corpus/cassandra/cassandra#2011-01-10-08-38-51#cassandra-0.7.0#7b7e357/src/java/org/apache/cassandra/db/columniterator/IColumnIterator.java,F:/corpus/cassandra/cassandra#2011-06-03-06-03-47#cassandra-0.8.0#b44fa70/src/java/org/apache/cassandra/db/columniterator/IColumnIterator.java,0,0,0,0,0,0,0,0,0,0,0,0,0,YES,0,0,0,0,0,0,0,0,0,0,0,0,0,0,0,0,0,0,0,1,0,0,0,0,0,0,0,0,0,0,0,0,0,0,0,0,0,0,0,0,0,0,0,0,0,0,0,0,5,49
cassandra,cassandra-0.7.0,cassandra-0.8.0,F:/corpus/cassandra/cassandra#2011-01-10-08-38-51#cassandra-0.7.0#7b7e357/src/java/org/apache/cassandra/db/columniterator/IdentityQueryFilter.java,F:/corpus/cassandra/cassandra#2011-06-03-06-03-47#cassandra-0.8.0#b44fa70/src/java/org/apache/cassandra/db/columniterator/IdentityQueryFilter.java,0,0,0,0,1,0,0,0,0,0,0,0,0,YES,0,0,0,0,0,0,0,0,0,0,0,0,0,0,0,0,0,0,0,0,0,0,0,0,0,0,0,0,0,0,0,0,0,0,0,0,0,0,0,0,0,0,0,0,0,0,1,0,2,43
cassandra,cassandra-0.7.0,cassandra-0.8.0,F:/corpus/cassandra/cassandra#2011-01-10-08-38-51#cassandra-0.7.0#7b7e357/src/java/org/apache/cassandra/db/columniterator/IndexedSliceReader.java,F:/corpus/cassandra/cassandra#2011-06-03-06-03-47#cassandra-0.8.0#b44fa70/src/java/org/apache/cassandra/db/columniterator/IndexedSliceReader.java,0,0,0,0,0,0,0,0,0,0,0,0,0,YES,0,0,0,0,0,0,0,0,0,0,0,0,0,0,0,0,0,0,0,0,0,0,1,1,0,0,0,0,0,0,0,0,0,0,0,0,0,0,0,0,0,0,4,1,0,0,2,0,9,230
cassandra,cassandra-0.7.0,cassandra-0.8.0,F:/corpus/cassandra/cassandra#2011-01-10-08-38-51#cassandra-0.7.0#7b7e357/src/java/org/apache/cassandra/db/columniterator/SSTableNamesIterator.java,F:/corpus/cassandra/cassandra#2011-06-03-06-03-47#cassandra-0.8.0#b44fa70/src/java/org/apache/cassandra/db/columniterator/SSTableNamesIterator.java,0,0,0,0,0,0,0,0,1,0,0,0,0,YES,0,0,0,0,0,0,0,0,0,0,0,2,0,0,0,0,0,0,0,0,0,0,2,2,0,0,0,0,0,0,0,0,0,0,0,0,0,0,0,0,0,0,6,6,0,2,7,0,25,208
cassandra,cassandra-0.7.0,cassandra-0.8.0,F:/corpus/cassandra/cassandra#2011-01-10-08-38-51#cassandra-0.7.0#7b7e357/src/java/org/apache/cassandra/db/columniterator/SSTableSliceIterator.java,F:/corpus/cassandra/cassandra#2011-06-03-06-03-47#cassandra-0.8.0#b44fa70/src/java/org/apache/cassandra/db/columniterator/SSTableSliceIterator.java,0,0,0,0,0,0,0,0,0,0,0,0,0,YES,0,0,0,0,0,0,0,0,0,0,0,0,0,0,0,0,0,0,0,0,0,0,2,2,0,0,0,0,0,0,0,0,0,0,0,0,0,0,0,0,0,0,0,0,0,0,4,0,9,127
cassandra,cassandra-0.7.0,cassandra-0.8.0,F:/corpus/cassandra/cassandra#2011-01-10-08-38-51#cassandra-0.7.0#7b7e357/src/java/org/apache/cassandra/db/columniterator/SimpleSliceReader.java,F:/corpus/cassandra/cassandra#2011-06-03-06-03-47#cassandra-0.8.0#b44fa70/src/java/org/apache/cassandra/db/columniterator/SimpleSliceReader.java,0,0,0,0,0,0,0,0,0,0,0,0,0,YES,0,0,0,0,0,0,0,0,0,0,0,0,0,0,0,0,0,0,0,0,0,0,1,1,0,0,0,0,0,0,0,0,0,0,0,0,0,0,0,0,0,0,0,0,0,0,2,0,5,104
cassandra,cassandra-0.7.0,cassandra-0.8.0,F:/corpus/cassandra/cassandra#2011-01-10-08-38-51#cassandra-0.7.0#7b7e357/src/java/org/apache/cassandra/db/commitlog/AbstractCommitLogExecutorService.java,F:/corpus/cassandra/cassandra#2011-06-03-06-03-47#cassandra-0.8.0#b44fa70/src/java/org/apache/cassandra/db/commitlog/AbstractCommitLogExecutorService.java,0,0,0,0,2,0,0,0,0,0,0,0,0,YES,0,0,0,0,0,0,0,0,0,0,0,0,0,0,0,0,0,0,0,0,0,0,0,0,0,0,0,0,0,0,0,0,0,0,1,0,0,0,0,0,0,0,2,2,0,0,0,0,9,90
cassandra,cassandra-0.7.0,cassandra-0.8.0,F:/corpus/cassandra/cassandra#2011-01-10-08-38-51#cassandra-0.7.0#7b7e357/src/java/org/apache/cassandra/db/commitlog/BatchCommitLogExecutorService.java,F:/corpus/cassandra/cassandra#2011-06-03-06-03-47#cassandra-0.8.0#b44fa70/src/java/org/apache/cassandra/db/commitlog/BatchCommitLogExecutorService.java,0,0,0,0,0,0,0,0,0,0,0,0,0,YES,0,0,0,0,2,2,0,0,0,0,0,0,0,0,0,0,0,0,0,0,0,0,0,0,0,0,0,0,0,0,0,0,0,0,0,0,0,0,0,0,0,1,2,6,0,0,2,0,29,172
cassandra,cassandra-0.7.0,cassandra-0.8.0,F:/corpus/cassandra/cassandra#2011-01-10-08-38-51#cassandra-0.7.0#7b7e357/src/java/org/apache/cassandra/db/commitlog/CommitLog.java,F:/corpus/cassandra/cassandra#2011-06-03-06-03-47#cassandra-0.8.0#b44fa70/src/java/org/apache/cassandra/db/commitlog/CommitLog.java,0,0,0,0,0,0,0,1,0,1,0,1,0,YES,0,0,0,0,1,0,1,2,1,0,0,1,7,4,1,5,0,0,0,0,0,0,2,0,0,0,2,0,0,0,0,0,0,0,1,1,0,0,0,0,0,2,29,23,15,6,16,1,142,529
cassandra,cassandra-0.7.0,cassandra-0.8.0,F:/corpus/cassandra/cassandra#2011-01-10-08-38-51#cassandra-0.7.0#7b7e357/src/java/org/apache/cassandra/db/commitlog/CommitLogHeader.java,F:/corpus/cassandra/cassandra#2011-06-03-06-03-47#cassandra-0.8.0#b44fa70/src/java/org/apache/cassandra/db/commitlog/CommitLogHeader.java,0,0,0,0,0,0,0,0,0,0,0,0,0,YES,0,0,0,0,0,0,0,0,0,0,0,0,0,0,0,0,0,0,0,0,0,0,0,0,0,0,0,0,0,0,0,0,0,0,0,0,0,0,0,0,0,0,0,0,0,0,0,0,199,199
cassandra,cassandra-0.7.0,cassandra-0.8.0,F:/corpus/cassandra/cassandra#2011-01-10-08-38-51#cassandra-0.7.0#7b7e357/src/java/org/apache/cassandra/db/commitlog/CommitLogSegment.java,F:/corpus/cassandra/cassandra#2011-06-03-06-03-47#cassandra-0.8.0#b44fa70/src/java/org/apache/cassandra/db/commitlog/CommitLogSegment.java,0,0,0,0,0,0,0,0,0,0,0,0,0,YES,0,0,0,0,6,3,2,0,0,0,0,2,0,0,0,0,0,0,0,0,0,0,1,0,0,0,0,0,0,0,0,0,0,1,3,1,0,0,0,1,0,0,17,7,0,0,7,0,115,217
cassandra,cassandra-0.7.0,cassandra-0.8.0,F:/corpus/cassandra/cassandra#2011-01-10-08-38-51#cassandra-0.7.0#7b7e357/src/java/org/apache/cassandra/db/commitlog/ICommitLogExecutorService.java,F:/corpus/cassandra/cassandra#2011-06-03-06-03-47#cassandra-0.8.0#b44fa70/src/java/org/apache/cassandra/db/commitlog/ICommitLogExecutorService.java,0,0,0,0,0,0,0,0,0,0,0,0,0,YES,0,0,0,0,2,0,0,0,0,0,0,0,0,0,0,0,0,0,0,0,0,0,0,0,0,0,0,0,0,0,0,0,0,0,0,0,0,0,0,0,0,0,0,0,0,0,0,0,5,41
cassandra,cassandra-0.7.0,cassandra-0.8.0,F:/corpus/cassandra/cassandra#2011-01-10-08-38-51#cassandra-0.7.0#7b7e357/src/java/org/apache/cassandra/db/commitlog/PeriodicCommitLogExecutorService.java,F:/corpus/cassandra/cassandra#2011-06-03-06-03-47#cassandra-0.8.0#b44fa70/src/java/org/apache/cassandra/db/commitlog/PeriodicCommitLogExecutorService.java,0,0,0,0,0,0,0,0,0,0,0,0,0,YES,0,0,0,0,2,2,0,0,0,0,0,0,0,0,0,0,0,0,0,0,0,0,0,1,0,0,0,0,0,0,0,0,0,0,1,0,0,0,0,0,0,0,1,8,0,0,0,0,34,97
cassandra,cassandra-0.7.0,cassandra-0.8.0,F:/corpus/cassandra/cassandra#2011-01-10-08-38-51#cassandra-0.7.0#7b7e357/src/java/org/apache/cassandra/db/filter/IFilter.java,F:/corpus/cassandra/cassandra#2011-06-03-06-03-47#cassandra-0.8.0#b44fa70/src/java/org/apache/cassandra/db/filter/IFilter.java,0,0,0,0,0,0,0,0,0,0,0,0,0,YES,0,0,0,0,0,0,0,0,0,0,0,0,0,0,0,0,0,0,0,1,0,0,1,1,0,0,0,0,0,0,0,0,0,0,0,0,0,0,0,0,0,0,0,0,0,0,0,0,2,77
cassandra,cassandra-0.7.0,cassandra-0.8.0,F:/corpus/cassandra/cassandra#2011-01-10-08-38-51#cassandra-0.7.0#7b7e357/src/java/org/apache/cassandra/db/filter/NamesQueryFilter.java,F:/corpus/cassandra/cassandra#2011-06-03-06-03-47#cassandra-0.8.0#b44fa70/src/java/org/apache/cassandra/db/filter/NamesQueryFilter.java,0,0,0,0,1,0,0,0,0,0,0,0,0,YES,0,0,0,0,1,0,0,0,0,0,0,0,0,0,0,0,0,0,0,0,0,0,1,1,0,0,0,0,0,0,0,0,0,0,0,0,0,0,0,0,0,0,0,0,0,0,2,0,4,93
cassandra,cassandra-0.7.0,cassandra-0.8.0,F:/corpus/cassandra/cassandra#2011-01-10-08-38-51#cassandra-0.7.0#7b7e357/src/java/org/apache/cassandra/db/filter/QueryFilter.java,F:/corpus/cassandra/cassandra#2011-06-03-06-03-47#cassandra-0.8.0#b44fa70/src/java/org/apache/cassandra/db/filter/QueryFilter.java,0,0,0,0,0,0,0,0,1,0,0,4,0,YES,0,0,0,0,1,0,0,0,0,0,0,0,1,0,0,0,0,0,0,0,0,0,0,0,0,0,0,0,0,0,0,0,0,0,1,0,0,0,0,0,0,0,0,0,0,0,3,0,24,213
cassandra,cassandra-0.7.0,cassandra-0.8.0,F:/corpus/cassandra/cassandra#2011-01-10-08-38-51#cassandra-0.7.0#7b7e357/src/java/org/apache/cassandra/db/filter/QueryPath.java,F:/corpus/cassandra/cassandra#2011-06-03-06-03-47#cassandra-0.8.0#b44fa70/src/java/org/apache/cassandra/db/filter/QueryPath.java,0,0,0,0,0,0,0,0,0,0,0,0,0,YES,0,0,0,0,0,0,0,0,0,0,0,0,0,0,0,0,0,0,0,0,0,0,0,0,0,0,0,0,0,0,0,0,0,0,0,0,0,0,0,0,0,0,0,0,0,0,5,0,6,100
cassandra,cassandra-0.7.0,cassandra-0.8.0,F:/corpus/cassandra/cassandra#2011-01-10-08-38-51#cassandra-0.7.0#7b7e357/src/java/org/apache/cassandra/db/filter/SliceQueryFilter.java,F:/corpus/cassandra/cassandra#2011-06-03-06-03-47#cassandra-0.8.0#b44fa70/src/java/org/apache/cassandra/db/filter/SliceQueryFilter.java,0,0,0,0,0,1,0,0,0,0,0,0,0,YES,0,0,0,0,1,0,0,0,0,0,0,0,0,0,0,0,0,0,0,0,0,0,1,1,0,0,0,0,0,0,0,0,0,0,0,0,0,0,0,0,0,0,0,0,0,0,3,0,15,146
cassandra,cassandra-0.7.0,cassandra-0.8.0,F:/corpus/cassandra/cassandra#2011-01-10-08-38-51#cassandra-0.7.0#7b7e357/src/java/org/apache/cassandra/db/marshal/AbstractType.java,F:/corpus/cassandra/cassandra#2011-06-03-06-03-47#cassandra-0.8.0#b44fa70/src/java/org/apache/cassandra/db/marshal/AbstractType.java,0,0,0,0,1,0,0,0,0,0,0,0,0,YES,0,0,0,0,12,5,0,0,0,0,0,0,0,0,0,0,0,0,1,0,1,0,0,0,0,0,0,0,0,0,0,0,0,0,0,0,0,0,0,0,0,0,1,6,0,0,0,0,62,94
cassandra,cassandra-0.7.0,cassandra-0.8.0,F:/corpus/cassandra/cassandra#2011-01-10-08-38-51#cassandra-0.7.0#7b7e357/src/java/org/apache/cassandra/db/marshal/AsciiType.java,F:/corpus/cassandra/cassandra#2011-06-03-06-03-47#cassandra-0.8.0#b44fa70/src/java/org/apache/cassandra/db/marshal/AsciiType.java,0,0,0,0,0,0,0,0,0,0,0,0,0,YES,0,0,0,0,12,0,0,0,0,0,0,0,0,0,0,1,0,0,0,0,0,0,0,0,0,0,0,1,0,0,0,0,0,0,0,0,0,0,0,0,0,0,3,6,0,1,0,0,48,57
cassandra,cassandra-0.7.0,cassandra-0.8.0,F:/corpus/cassandra/cassandra#2011-01-10-08-38-51#cassandra-0.7.0#7b7e357/src/java/org/apache/cassandra/db/marshal/BytesType.java,F:/corpus/cassandra/cassandra#2011-06-03-06-03-47#cassandra-0.8.0#b44fa70/src/java/org/apache/cassandra/db/marshal/BytesType.java,0,0,0,0,0,0,0,0,0,0,0,0,0,YES,0,0,0,0,12,0,1,0,0,0,0,0,0,0,0,0,0,0,0,0,0,0,0,0,0,0,0,1,0,0,0,0,0,0,0,0,0,0,0,0,0,0,5,4,0,1,2,0,59,59
cassandra,cassandra-0.7.0,cassandra-0.8.0,F:/corpus/cassandra/cassandra#2011-01-10-08-38-51#cassandra-0.7.0#7b7e357/src/java/org/apache/cassandra/db/marshal/IntegerType.java,F:/corpus/cassandra/cassandra#2011-06-03-06-03-47#cassandra-0.8.0#b44fa70/src/java/org/apache/cassandra/db/marshal/IntegerType.java,0,0,0,0,0,0,0,0,0,0,0,0,0,YES,0,0,0,0,11,0,0,0,0,0,0,0,1,0,0,0,0,0,0,0,0,0,0,0,0,0,0,1,0,0,0,0,0,0,0,0,0,0,0,0,0,0,3,5,0,0,7,0,68,147
cassandra,cassandra-0.7.0,cassandra-0.8.0,F:/corpus/cassandra/cassandra#2011-01-10-08-38-51#cassandra-0.7.0#7b7e357/src/java/org/apache/cassandra/db/marshal/LexicalUUIDType.java,F:/corpus/cassandra/cassandra#2011-06-03-06-03-47#cassandra-0.8.0#b44fa70/src/java/org/apache/cassandra/db/marshal/LexicalUUIDType.java,0,0,0,0,0,0,0,0,0,0,0,0,0,YES,0,0,0,0,4,0,0,0,0,0,0,0,1,0,0,0,0,0,0,0,0,0,0,0,0,0,0,1,0,0,0,0,0,0,0,0,0,0,0,0,0,0,0,5,0,1,1,0,19,73
cassandra,cassandra-0.7.0,cassandra-0.8.0,F:/corpus/cassandra/cassandra#2011-01-10-08-38-51#cassandra-0.7.0#7b7e357/src/java/org/apache/cassandra/db/marshal/LocalByPartionerType.java,F:/corpus/cassandra/cassandra#2011-06-03-06-03-47#cassandra-0.8.0#b44fa70/src/java/org/apache/cassandra/db/marshal/LocalByPartionerType.java,0,0,0,0,2,0,0,0,0,0,0,0,0,YES,0,0,0,0,11,0,0,0,0,0,0,0,0,0,0,0,0,0,0,0,0,0,0,0,0,0,0,1,0,0,0,0,0,0,0,0,0,0,0,0,0,0,0,0,0,0,1,0,53,60
cassandra,cassandra-0.7.0,cassandra-0.8.0,F:/corpus/cassandra/cassandra#2011-01-10-08-38-51#cassandra-0.7.0#7b7e357/src/java/org/apache/cassandra/db/marshal/LongType.java,F:/corpus/cassandra/cassandra#2011-06-03-06-03-47#cassandra-0.8.0#b44fa70/src/java/org/apache/cassandra/db/marshal/LongType.java,0,0,0,0,0,0,0,0,0,0,0,0,0,YES,0,0,0,0,11,0,0,0,0,0,0,0,1,0,0,0,0,0,0,0,0,0,0,0,0,0,0,1,0,0,0,0,0,0,0,0,0,0,0,0,0,0,3,5,0,0,1,0,67,90
cassandra,cassandra-0.7.0,cassandra-0.8.0,F:/corpus/cassandra/cassandra#2011-01-10-08-38-51#cassandra-0.7.0#7b7e357/src/java/org/apache/cassandra/db/marshal/TimeUUIDType.java,F:/corpus/cassandra/cassandra#2011-06-03-06-03-47#cassandra-0.8.0#b44fa70/src/java/org/apache/cassandra/db/marshal/TimeUUIDType.java,0,0,0,0,0,0,0,0,0,0,0,0,0,YES,0,0,0,0,4,2,0,3,0,0,0,0,4,0,0,0,0,0,0,0,0,0,0,0,0,0,0,1,0,0,0,0,0,0,0,0,0,0,0,0,0,0,2,23,0,1,11,0,52,114
cassandra,cassandra-0.7.0,cassandra-0.8.0,F:/corpus/cassandra/cassandra#2011-01-10-08-38-51#cassandra-0.7.0#7b7e357/src/java/org/apache/cassandra/db/marshal/UTF8Type.java,F:/corpus/cassandra/cassandra#2011-06-03-06-03-47#cassandra-0.8.0#b44fa70/src/java/org/apache/cassandra/db/marshal/UTF8Type.java,0,0,0,0,0,0,0,0,1,0,0,0,1,YES,0,0,0,0,12,0,0,0,0,0,0,0,0,0,0,0,0,0,0,0,0,0,0,0,0,0,0,1,0,0,0,0,0,0,0,0,0,0,0,0,0,0,2,2,0,0,1,0,69,176
cassandra,cassandra-0.7.0,cassandra-0.8.0,F:/corpus/cassandra/cassandra#2011-01-10-08-38-51#cassandra-0.7.0#7b7e357/src/java/org/apache/cassandra/db/migration/AddColumnFamily.java,F:/corpus/cassandra/cassandra#2011-06-03-06-03-47#cassandra-0.8.0#b44fa70/src/java/org/apache/cassandra/db/migration/AddColumnFamily.java,0,0,0,0,0,0,0,0,1,0,0,0,0,YES,0,0,0,0,1,0,0,0,0,0,0,0,0,0,0,0,0,0,0,0,0,0,0,0,0,0,0,0,0,0,0,0,0,0,0,0,0,0,0,0,0,0,1,5,0,0,5,0,19,100
cassandra,cassandra-0.7.0,cassandra-0.8.0,F:/corpus/cassandra/cassandra#2011-01-10-08-38-51#cassandra-0.7.0#7b7e357/src/java/org/apache/cassandra/db/migration/AddKeyspace.java,F:/corpus/cassandra/cassandra#2011-06-03-06-03-47#cassandra-0.8.0#b44fa70/src/java/org/apache/cassandra/db/migration/AddKeyspace.java,0,0,0,0,0,0,0,0,0,0,0,0,0,YES,0,0,0,0,1,0,0,0,0,0,0,0,0,0,0,0,0,0,0,0,0,0,0,0,0,0,0,0,0,0,0,0,0,0,0,0,0,0,0,0,0,0,0,0,0,0,0,0,7,91
cassandra,cassandra-0.7.0,cassandra-0.8.0,F:/corpus/cassandra/cassandra#2011-01-10-08-38-51#cassandra-0.7.0#7b7e357/src/java/org/apache/cassandra/db/migration/DropColumnFamily.java,F:/corpus/cassandra/cassandra#2011-06-03-06-03-47#cassandra-0.8.0#b44fa70/src/java/org/apache/cassandra/db/migration/DropColumnFamily.java,0,0,0,0,0,0,0,0,1,0,0,0,0,YES,0,0,0,0,1,0,0,0,0,0,0,0,0,1,0,0,0,0,0,0,0,0,0,0,0,0,0,0,0,0,0,0,0,0,1,0,0,0,0,0,0,0,3,7,0,8,1,0,33,116
cassandra,cassandra-0.7.0,cassandra-0.8.0,F:/corpus/cassandra/cassandra#2011-01-10-08-38-51#cassandra-0.7.0#7b7e357/src/java/org/apache/cassandra/db/migration/DropKeyspace.java,F:/corpus/cassandra/cassandra#2011-06-03-06-03-47#cassandra-0.8.0#b44fa70/src/java/org/apache/cassandra/db/migration/DropKeyspace.java,0,0,0,0,0,0,0,0,0,0,0,0,0,YES,0,0,0,0,1,0,0,0,0,0,0,0,0,3,0,0,0,0,0,0,0,0,0,0,0,0,0,0,0,0,0,0,0,0,1,0,0,0,0,0,0,0,4,9,5,2,1,0,28,105
cassandra,cassandra-0.7.0,cassandra-0.8.0,F:/corpus/cassandra/cassandra#2011-01-10-08-38-51#cassandra-0.7.0#7b7e357/src/java/org/apache/cassandra/db/migration/Migration.java,F:/corpus/cassandra/cassandra#2011-06-03-06-03-47#cassandra-0.8.0#b44fa70/src/java/org/apache/cassandra/db/migration/Migration.java,0,0,0,0,0,1,0,0,0,0,0,3,0,YES,0,0,0,0,1,0,0,0,0,0,0,0,0,0,0,0,0,0,0,0,0,0,0,1,0,0,0,0,0,0,0,0,0,0,3,0,0,0,0,0,0,0,3,4,0,0,6,0,36,325
cassandra,cassandra-0.7.0,cassandra-0.8.0,F:/corpus/cassandra/cassandra#2011-01-10-08-38-51#cassandra-0.7.0#7b7e357/src/java/org/apache/cassandra/db/migration/RenameColumnFamily.java,F:/corpus/cassandra/cassandra#2011-06-03-06-03-47#cassandra-0.8.0#b44fa70/src/java/org/apache/cassandra/db/migration/RenameColumnFamily.java,0,0,0,0,0,0,0,0,0,0,0,0,0,YES,0,0,0,0,1,0,0,0,0,0,0,0,0,0,0,0,0,0,0,0,0,0,0,0,0,0,0,0,0,0,0,0,0,0,0,0,0,0,0,0,0,0,2,2,0,0,1,0,9,128
cassandra,cassandra-0.7.0,cassandra-0.8.0,F:/corpus/cassandra/cassandra#2011-01-10-08-38-51#cassandra-0.7.0#7b7e357/src/java/org/apache/cassandra/db/migration/RenameKeyspace.java,F:/corpus/cassandra/cassandra#2011-06-03-06-03-47#cassandra-0.8.0#b44fa70/src/java/org/apache/cassandra/db/migration/RenameKeyspace.java,0,0,0,0,0,0,0,0,0,0,0,0,0,YES,0,0,0,0,1,0,0,0,0,0,0,0,0,0,0,0,0,0,0,0,0,0,0,0,0,0,0,0,0,0,0,0,0,0,0,0,0,0,0,0,0,0,0,0,0,0,1,0,8,146
cassandra,cassandra-0.7.0,cassandra-0.8.0,F:/corpus/cassandra/cassandra#2011-01-10-08-38-51#cassandra-0.7.0#7b7e357/src/java/org/apache/cassandra/db/migration/UpdateColumnFamily.java,F:/corpus/cassandra/cassandra#2011-06-03-06-03-47#cassandra-0.8.0#b44fa70/src/java/org/apache/cassandra/db/migration/UpdateColumnFamily.java,0,0,0,0,0,0,0,0,1,0,0,0,0,YES,0,0,0,0,1,0,0,0,0,0,0,0,0,0,0,0,0,0,0,0,0,0,0,0,0,0,1,0,0,0,0,0,0,0,1,0,0,0,0,0,0,0,2,6,0,0,1,0,23,103
cassandra,cassandra-0.7.0,cassandra-0.8.0,F:/corpus/cassandra/cassandra#2011-01-10-08-38-51#cassandra-0.7.0#7b7e357/src/java/org/apache/cassandra/db/migration/UpdateKeyspace.java,F:/corpus/cassandra/cassandra#2011-06-03-06-03-47#cassandra-0.8.0#b44fa70/src/java/org/apache/cassandra/db/migration/UpdateKeyspace.java,0,0,0,0,0,0,0,0,1,0,0,0,0,YES,0,0,0,0,1,0,0,0,0,0,0,0,0,0,0,0,0,0,0,0,0,0,0,0,0,0,0,0,0,0,0,0,0,0,0,0,0,0,0,0,0,0,0,0,0,0,1,0,7,91
cassandra,cassandra-0.7.0,cassandra-0.8.0,F:/corpus/cassandra/cassandra#2011-01-10-08-38-51#cassandra-0.7.0#7b7e357/src/java/org/apache/cassandra/dht/AbstractBounds.java,F:/corpus/cassandra/cassandra#2011-06-03-06-03-47#cassandra-0.8.0#b44fa70/src/java/org/apache/cassandra/dht/AbstractBounds.java,0,0,0,0,0,0,0,0,0,0,0,0,0,YES,0,0,0,0,0,0,0,0,0,0,0,0,0,0,0,0,0,0,0,0,0,0,0,0,0,0,0,0,0,0,0,0,0,0,0,0,0,0,0,0,0,0,0,0,0,0,0,0,1,130
cassandra,cassandra-0.7.0,cassandra-0.8.0,F:/corpus/cassandra/cassandra#2011-01-10-08-38-51#cassandra-0.7.0#7b7e357/src/java/org/apache/cassandra/dht/AbstractByteOrderedPartitioner.java,F:/corpus/cassandra/cassandra#2011-06-03-06-03-47#cassandra-0.8.0#b44fa70/src/java/org/apache/cassandra/dht/AbstractByteOrderedPartitioner.java,0,0,0,0,0,0,0,0,0,0,0,0,0,YES,0,0,0,0,1,0,0,0,0,0,0,0,0,0,0,0,0,0,0,0,0,0,0,0,0,0,0,0,0,0,0,0,0,0,0,0,0,0,0,0,0,0,0,0,0,0,1,0,50,163
cassandra,cassandra-0.7.0,cassandra-0.8.0,F:/corpus/cassandra/cassandra#2011-01-10-08-38-51#cassandra-0.7.0#7b7e357/src/java/org/apache/cassandra/dht/BigIntegerToken.java,F:/corpus/cassandra/cassandra#2011-06-03-06-03-47#cassandra-0.8.0#b44fa70/src/java/org/apache/cassandra/dht/BigIntegerToken.java,0,0,0,0,0,0,0,0,0,0,0,0,0,YES,0,0,0,0,0,1,0,0,0,0,0,0,0,0,0,0,0,0,0,0,0,0,0,0,0,0,0,0,0,0,0,0,0,0,0,0,0,0,0,0,0,0,0,0,0,0,0,0,3,40
cassandra,cassandra-0.7.0,cassandra-0.8.0,F:/corpus/cassandra/cassandra#2011-01-10-08-38-51#cassandra-0.7.0#7b7e357/src/java/org/apache/cassandra/dht/BootStrapper.java,F:/corpus/cassandra/cassandra#2011-06-03-06-03-47#cassandra-0.8.0#b44fa70/src/java/org/apache/cassandra/dht/BootStrapper.java,0,0,1,0,0,4,0,0,0,0,0,0,0,YES,0,0,0,0,1,0,0,0,0,0,0,0,0,0,0,0,0,0,0,0,1,0,0,1,0,0,0,0,0,0,0,0,0,0,0,0,0,0,0,0,0,0,0,0,0,0,6,0,15,286
cassandra,cassandra-0.7.0,cassandra-0.8.0,F:/corpus/cassandra/cassandra#2011-01-10-08-38-51#cassandra-0.7.0#7b7e357/src/java/org/apache/cassandra/dht/Bounds.java,F:/corpus/cassandra/cassandra#2011-06-03-06-03-47#cassandra-0.8.0#b44fa70/src/java/org/apache/cassandra/dht/Bounds.java,0,0,0,0,0,0,0,0,0,0,0,0,0,YES,0,0,0,0,0,0,0,0,0,0,0,0,0,0,0,0,0,0,0,0,0,0,0,0,0,0,0,0,0,0,0,0,0,0,0,0,0,0,0,0,0,0,0,0,0,0,0,0,1,72
cassandra,cassandra-0.7.0,cassandra-0.8.0,F:/corpus/cassandra/cassandra#2011-01-10-08-38-51#cassandra-0.7.0#7b7e357/src/java/org/apache/cassandra/dht/ByteOrderedPartitioner.java,F:/corpus/cassandra/cassandra#2011-06-03-06-03-47#cassandra-0.8.0#b44fa70/src/java/org/apache/cassandra/dht/ByteOrderedPartitioner.java,0,0,0,0,1,0,0,0,0,0,0,0,0,YES,0,0,0,0,0,0,0,0,0,0,0,0,0,0,0,0,0,0,0,0,0,0,0,0,0,0,0,0,0,0,0,0,0,0,1,0,0,0,0,0,0,0,0,0,0,0,0,0,4,35
cassandra,cassandra-0.7.0,cassandra-0.8.0,F:/corpus/cassandra/cassandra#2011-01-10-08-38-51#cassandra-0.7.0#7b7e357/src/java/org/apache/cassandra/dht/BytesToken.java,F:/corpus/cassandra/cassandra#2011-06-03-06-03-47#cassandra-0.8.0#b44fa70/src/java/org/apache/cassandra/dht/BytesToken.java,0,0,0,0,0,0,0,0,0,0,0,0,0,YES,0,0,0,0,0,1,0,0,0,0,0,0,0,0,0,0,0,0,0,0,0,0,0,0,0,0,0,0,0,0,0,0,0,0,0,0,0,0,0,0,0,0,0,0,0,0,1,0,6,70
cassandra,cassandra-0.7.0,cassandra-0.8.0,F:/corpus/cassandra/cassandra#2011-01-10-08-38-51#cassandra-0.7.0#7b7e357/src/java/org/apache/cassandra/dht/CollatingOrderPreservingPartitioner.java,F:/corpus/cassandra/cassandra#2011-06-03-06-03-47#cassandra-0.8.0#b44fa70/src/java/org/apache/cassandra/dht/CollatingOrderPreservingPartitioner.java,0,0,0,0,1,0,0,0,0,0,0,0,0,YES,0,0,0,0,0,0,0,0,0,0,0,0,0,0,0,0,0,0,0,0,0,0,0,0,0,0,0,0,0,0,0,0,0,0,0,0,0,0,0,0,0,0,1,1,0,0,0,0,2,52
cassandra,cassandra-0.7.0,cassandra-0.8.0,F:/corpus/cassandra/cassandra#2011-01-10-08-38-51#cassandra-0.7.0#7b7e357/src/java/org/apache/cassandra/dht/LocalPartitioner.java,F:/corpus/cassandra/cassandra#2011-06-03-06-03-47#cassandra-0.8.0#b44fa70/src/java/org/apache/cassandra/dht/LocalPartitioner.java,0,0,0,0,2,0,0,0,0,0,0,0,0,YES,0,0,0,0,0,0,0,0,0,0,0,0,0,0,0,0,0,0,0,0,0,0,0,0,0,0,0,0,0,0,0,0,0,0,0,0,0,0,0,0,0,0,0,0,0,0,1,0,2,84
cassandra,cassandra-0.7.0,cassandra-0.8.0,F:/corpus/cassandra/cassandra#2011-01-10-08-38-51#cassandra-0.7.0#7b7e357/src/java/org/apache/cassandra/dht/LocalToken.java,F:/corpus/cassandra/cassandra#2011-06-03-06-03-47#cassandra-0.8.0#b44fa70/src/java/org/apache/cassandra/dht/LocalToken.java,0,0,0,0,0,0,0,0,0,0,0,0,0,YES,0,0,0,0,0,1,0,0,0,0,0,0,0,0,0,0,0,0,0,0,0,0,0,0,0,0,0,0,0,0,0,0,0,0,0,0,0,0,0,0,0,0,0,0,0,0,0,0,3,65
cassandra,cassandra-0.7.0,cassandra-0.8.0,F:/corpus/cassandra/cassandra#2011-01-10-08-38-51#cassandra-0.7.0#7b7e357/src/java/org/apache/cassandra/dht/OrderPreservingPartitioner.java,F:/corpus/cassandra/cassandra#2011-06-03-06-03-47#cassandra-0.8.0#b44fa70/src/java/org/apache/cassandra/dht/OrderPreservingPartitioner.java,0,0,0,0,0,0,0,0,0,0,0,0,0,YES,0,0,0,0,0,0,0,0,0,0,0,0,0,0,1,3,0,0,0,0,0,0,0,0,0,0,0,0,0,0,0,0,0,0,0,0,0,0,0,0,0,0,1,1,0,0,9,0,21,200
cassandra,cassandra-0.7.0,cassandra-0.8.0,F:/corpus/cassandra/cassandra#2011-01-10-08-38-51#cassandra-0.7.0#7b7e357/src/java/org/apache/cassandra/dht/RandomPartitioner.java,F:/corpus/cassandra/cassandra#2011-06-03-06-03-47#cassandra-0.8.0#b44fa70/src/java/org/apache/cassandra/dht/RandomPartitioner.java,0,0,0,0,0,0,0,0,0,0,0,0,0,YES,0,0,0,0,0,0,0,0,0,0,0,0,0,0,2,2,0,0,0,0,0,0,0,0,0,0,0,0,0,0,0,0,0,0,0,0,0,0,0,0,0,0,3,9,0,0,3,0,22,165
cassandra,cassandra-0.7.0,cassandra-0.8.0,F:/corpus/cassandra/cassandra#2011-01-10-08-38-51#cassandra-0.7.0#7b7e357/src/java/org/apache/cassandra/dht/Range.java,F:/corpus/cassandra/cassandra#2011-06-03-06-03-47#cassandra-0.8.0#b44fa70/src/java/org/apache/cassandra/dht/Range.java,0,0,0,0,0,0,0,0,0,0,0,1,0,YES,0,0,0,0,1,0,1,1,0,0,0,0,0,0,0,0,0,0,0,0,0,0,0,0,0,0,0,0,0,0,0,0,0,0,0,0,0,0,0,0,0,0,14,2,4,0,5,0,32,302
cassandra,cassandra-0.7.0,cassandra-0.8.0,F:/corpus/cassandra/cassandra#2011-01-10-08-38-51#cassandra-0.7.0#7b7e357/src/java/org/apache/cassandra/dht/StringToken.java,F:/corpus/cassandra/cassandra#2011-06-03-06-03-47#cassandra-0.8.0#b44fa70/src/java/org/apache/cassandra/dht/StringToken.java,0,0,0,0,0,0,0,0,0,0,0,0,0,YES,0,0,0,0,0,1,0,0,0,0,0,0,0,0,0,0,0,0,0,0,0,0,0,0,0,0,0,0,0,0,0,0,0,0,0,0,0,0,0,0,0,0,0,0,0,0,0,0,3,34
cassandra,cassandra-0.7.0,cassandra-0.8.0,F:/corpus/cassandra/cassandra#2011-01-10-08-38-51#cassandra-0.7.0#7b7e357/src/java/org/apache/cassandra/dht/Token.java,F:/corpus/cassandra/cassandra#2011-06-03-06-03-47#cassandra-0.8.0#b44fa70/src/java/org/apache/cassandra/dht/Token.java,0,0,0,0,2,0,0,0,0,0,0,1,0,YES,0,0,0,0,0,0,0,0,0,0,0,0,0,0,0,0,0,0,0,0,0,0,0,0,0,0,0,0,0,0,0,0,0,0,0,0,0,0,0,0,0,0,2,1,0,0,0,0,3,97
cassandra,cassandra-0.7.0,cassandra-0.8.0,F:/corpus/cassandra/cassandra#2011-01-10-08-38-51#cassandra-0.7.0#7b7e357/src/java/org/apache/cassandra/gms/ApplicationState.java,F:/corpus/cassandra/cassandra#2011-06-03-06-03-47#cassandra-0.8.0#b44fa70/src/java/org/apache/cassandra/gms/ApplicationState.java,0,0,0,0,0,0,0,0,0,0,0,0,0,YES,0,0,0,0,0,0,0,0,0,0,0,0,0,0,0,0,0,0,0,0,0,0,0,0,0,0,0,0,0,0,0,0,0,0,0,0,0,0,0,0,0,0,0,0,0,0,0,0,3,35
cassandra,cassandra-0.7.0,cassandra-0.8.0,F:/corpus/cassandra/cassandra#2011-01-10-08-38-51#cassandra-0.7.0#7b7e357/src/java/org/apache/cassandra/gms/EndpointState.java,F:/corpus/cassandra/cassandra#2011-06-03-06-03-47#cassandra-0.8.0#b44fa70/src/java/org/apache/cassandra/gms/EndpointState.java,1,0,0,0,0,0,0,0,0,0,0,0,0,YES,0,0,0,0,2,1,0,0,7,0,0,0,0,0,0,1,4,0,0,0,0,0,0,2,0,2,0,0,0,0,0,0,0,0,3,1,0,0,0,0,0,0,2,1,0,0,19,0,49,186
cassandra,cassandra-0.7.0,cassandra-0.8.0,F:/corpus/cassandra/cassandra#2011-01-10-08-38-51#cassandra-0.7.0#7b7e357/src/java/org/apache/cassandra/gms/FailureDetector.java,F:/corpus/cassandra/cassandra#2011-06-03-06-03-47#cassandra-0.8.0#b44fa70/src/java/org/apache/cassandra/gms/FailureDetector.java,0,0,0,0,0,0,0,0,0,0,0,0,0,YES,0,0,0,0,0,0,0,0,0,0,0,0,0,0,0,2,0,0,0,0,0,0,0,0,0,0,0,0,0,0,0,0,0,0,0,0,0,0,0,0,0,0,2,3,0,0,2,0,16,276
cassandra,cassandra-0.7.0,cassandra-0.8.0,F:/corpus/cassandra/cassandra#2011-01-10-08-38-51#cassandra-0.7.0#7b7e357/src/java/org/apache/cassandra/gms/GossipDigest.java,F:/corpus/cassandra/cassandra#2011-06-03-06-03-47#cassandra-0.8.0#b44fa70/src/java/org/apache/cassandra/gms/GossipDigest.java,0,0,0,0,0,0,0,0,0,0,0,0,0,YES,0,0,0,0,0,0,0,0,4,0,0,0,0,0,0,1,0,0,0,0,0,0,0,2,0,3,0,0,0,0,0,0,0,0,0,0,0,0,0,0,0,0,0,0,0,0,17,0,26,108
cassandra,cassandra-0.7.0,cassandra-0.8.0,F:/corpus/cassandra/cassandra#2011-01-10-08-38-51#cassandra-0.7.0#7b7e357/src/java/org/apache/cassandra/gms/GossipDigestAck2Message.java,F:/corpus/cassandra/cassandra#2011-06-03-06-03-47#cassandra-0.8.0#b44fa70/src/java/org/apache/cassandra/gms/GossipDigestAck2Message.java,0,0,0,0,0,0,0,0,0,0,0,0,0,YES,0,0,0,0,0,0,0,0,0,0,0,0,0,0,0,0,0,0,0,0,0,0,0,2,0,0,0,0,0,0,0,0,0,0,0,0,0,0,0,0,0,0,0,0,0,0,2,0,4,76
cassandra,cassandra-0.7.0,cassandra-0.8.0,F:/corpus/cassandra/cassandra#2011-01-10-08-38-51#cassandra-0.7.0#7b7e357/src/java/org/apache/cassandra/gms/GossipDigestAck2VerbHandler.java,F:/corpus/cassandra/cassandra#2011-06-03-06-03-47#cassandra-0.8.0#b44fa70/src/java/org/apache/cassandra/gms/GossipDigestAck2VerbHandler.java,0,0,0,0,0,0,0,0,0,0,0,0,0,YES,0,0,0,0,0,0,0,0,0,0,0,0,0,0,0,0,0,0,0,0,0,0,0,1,0,0,0,0,0,0,0,0,0,0,0,0,0,0,0,0,0,0,0,0,0,0,1,0,2,62
cassandra,cassandra-0.7.0,cassandra-0.8.0,F:/corpus/cassandra/cassandra#2011-01-10-08-38-51#cassandra-0.7.0#7b7e357/src/java/org/apache/cassandra/gms/GossipDigestAckMessage.java,F:/corpus/cassandra/cassandra#2011-06-03-06-03-47#cassandra-0.8.0#b44fa70/src/java/org/apache/cassandra/gms/GossipDigestAckMessage.java,0,0,1,0,0,0,0,0,0,0,0,0,0,YES,0,0,0,0,0,0,0,0,0,0,0,0,0,0,0,0,0,0,0,0,0,0,0,2,0,0,0,0,0,0,0,0,0,0,0,0,0,0,0,0,0,0,0,0,0,0,4,0,6,88
cassandra,cassandra-0.7.0,cassandra-0.8.0,F:/corpus/cassandra/cassandra#2011-01-10-08-38-51#cassandra-0.7.0#7b7e357/src/java/org/apache/cassandra/gms/GossipDigestAckVerbHandler.java,F:/corpus/cassandra/cassandra#2011-06-03-06-03-47#cassandra-0.8.0#b44fa70/src/java/org/apache/cassandra/gms/GossipDigestAckVerbHandler.java,0,0,0,0,0,0,0,0,0,0,0,0,0,YES,0,0,0,0,0,0,0,0,0,0,0,0,0,0,0,0,0,0,0,0,0,0,0,1,0,0,0,0,0,0,0,0,0,0,0,0,0,0,0,0,0,0,0,4,0,0,3,0,10,86
cassandra,cassandra-0.7.0,cassandra-0.8.0,F:/corpus/cassandra/cassandra#2011-01-10-08-38-51#cassandra-0.7.0#7b7e357/src/java/org/apache/cassandra/gms/GossipDigestSynMessage.java,F:/corpus/cassandra/cassandra#2011-06-03-06-03-47#cassandra-0.8.0#b44fa70/src/java/org/apache/cassandra/gms/GossipDigestSynMessage.java,0,0,0,0,0,0,0,0,0,0,0,0,0,YES,0,0,0,0,0,0,0,0,0,0,0,0,0,0,0,0,0,0,0,0,0,0,0,6,0,0,0,0,0,0,0,0,0,0,0,0,0,0,0,0,0,0,0,0,0,0,6,0,12,145
cassandra,cassandra-0.7.0,cassandra-0.8.0,F:/corpus/cassandra/cassandra#2011-01-10-08-38-51#cassandra-0.7.0#7b7e357/src/java/org/apache/cassandra/gms/GossipDigestSynVerbHandler.java,F:/corpus/cassandra/cassandra#2011-06-03-06-03-47#cassandra-0.8.0#b44fa70/src/java/org/apache/cassandra/gms/GossipDigestSynVerbHandler.java,0,0,0,0,0,0,0,0,0,0,0,0,0,YES,0,0,0,0,0,0,0,0,0,0,0,0,0,0,0,0,0,0,0,0,0,0,0,1,0,0,0,0,0,0,0,0,0,0,0,0,0,0,0,0,0,0,0,10,2,1,3,0,20,125
cassandra,cassandra-0.7.0,cassandra-0.8.0,F:/corpus/cassandra/cassandra#2011-01-10-08-38-51#cassandra-0.7.0#7b7e357/src/java/org/apache/cassandra/gms/Gossiper.java,F:/corpus/cassandra/cassandra#2011-06-03-06-03-47#cassandra-0.8.0#b44fa70/src/java/org/apache/cassandra/gms/Gossiper.java,0,0,0,0,0,15,0,0,0,0,0,0,0,YES,0,0,0,0,6,3,1,6,11,1,0,9,13,0,2,23,13,1,1,2,2,4,7,9,0,5,0,0,0,0,0,0,0,0,2,1,0,0,0,0,0,0,76,83,2,13,74,0,447,903
cassandra,cassandra-0.7.0,cassandra-0.8.0,F:/corpus/cassandra/cassandra#2011-01-10-08-38-51#cassandra-0.7.0#7b7e357/src/java/org/apache/cassandra/gms/HeartBeatState.java,F:/corpus/cassandra/cassandra#2011-06-03-06-03-47#cassandra-0.8.0#b44fa70/src/java/org/apache/cassandra/gms/HeartBeatState.java,0,0,0,0,0,0,0,0,0,0,0,0,0,YES,0,0,0,0,0,2,0,0,1,0,0,0,0,0,0,0,0,0,0,0,0,0,0,2,0,3,0,0,0,0,0,0,0,0,0,2,0,0,0,0,0,0,0,0,0,0,9,0,17,88
cassandra,cassandra-0.7.0,cassandra-0.8.0,F:/corpus/cassandra/cassandra#2011-01-10-08-38-51#cassandra-0.7.0#7b7e357/src/java/org/apache/cassandra/gms/VersionedValue.java,F:/corpus/cassandra/cassandra#2011-06-03-06-03-47#cassandra-0.8.0#b44fa70/src/java/org/apache/cassandra/gms/VersionedValue.java,0,0,0,0,0,0,0,0,0,0,0,0,0,YES,0,0,0,0,5,1,0,0,0,0,0,0,0,0,0,0,0,0,0,0,0,0,0,2,0,0,0,0,0,0,0,0,0,0,0,0,0,0,0,0,0,0,0,0,0,0,2,0,31,153
cassandra,cassandra-0.7.0,cassandra-0.8.0,F:/corpus/cassandra/cassandra#2011-01-10-08-38-51#cassandra-0.7.0#7b7e357/src/java/org/apache/cassandra/hadoop/ColumnFamilyInputFormat.java,F:/corpus/cassandra/cassandra#2011-06-03-06-03-47#cassandra-0.8.0#b44fa70/src/java/org/apache/cassandra/hadoop/ColumnFamilyInputFormat.java,0,0,0,0,1,1,0,0,0,0,0,0,0,YES,0,0,0,0,0,0,0,0,0,0,0,1,0,0,0,0,0,0,0,0,0,0,0,0,0,0,0,0,0,0,0,0,0,0,0,0,0,0,0,0,0,0,3,5,0,1,1,0,33,233
cassandra,cassandra-0.7.0,cassandra-0.8.0,F:/corpus/cassandra/cassandra#2011-01-10-08-38-51#cassandra-0.7.0#7b7e357/src/java/org/apache/cassandra/hadoop/ColumnFamilyOutputFormat.java,F:/corpus/cassandra/cassandra#2011-06-03-06-03-47#cassandra-0.8.0#b44fa70/src/java/org/apache/cassandra/hadoop/ColumnFamilyOutputFormat.java,0,0,0,0,4,0,0,0,0,0,0,0,0,YES,0,0,0,0,0,0,0,0,0,0,0,0,0,0,0,0,0,0,0,0,0,0,0,0,0,0,0,0,0,0,0,0,0,0,0,0,0,0,0,0,0,0,0,0,0,0,0,0,3,187
cassandra,cassandra-0.7.0,cassandra-0.8.0,F:/corpus/cassandra/cassandra#2011-01-10-08-38-51#cassandra-0.7.0#7b7e357/src/java/org/apache/cassandra/hadoop/ColumnFamilyRecordReader.java,F:/corpus/cassandra/cassandra#2011-06-03-06-03-47#cassandra-0.8.0#b44fa70/src/java/org/apache/cassandra/hadoop/ColumnFamilyRecordReader.java,0,0,0,0,0,0,0,0,0,0,0,0,0,YES,0,0,0,0,0,1,0,0,0,0,0,0,0,0,0,0,0,0,0,0,0,0,0,0,0,0,0,0,0,0,0,0,0,0,0,0,0,0,0,0,0,0,0,1,0,0,1,0,7,313
cassandra,cassandra-0.7.0,cassandra-0.8.0,F:/corpus/cassandra/cassandra#2011-01-10-08-38-51#cassandra-0.7.0#7b7e357/src/java/org/apache/cassandra/hadoop/ColumnFamilyRecordWriter.java,F:/corpus/cassandra/cassandra#2011-06-03-06-03-47#cassandra-0.8.0#b44fa70/src/java/org/apache/cassandra/hadoop/ColumnFamilyRecordWriter.java,0,0,0,0,2,0,0,0,0,0,0,0,0,YES,0,0,0,0,0,1,0,0,0,0,0,0,0,0,0,3,0,0,0,0,0,0,0,0,0,0,1,2,0,0,0,0,0,0,3,0,0,0,0,0,0,0,0,2,0,0,2,0,77,381
cassandra,cassandra-0.7.0,cassandra-0.8.0,F:/corpus/cassandra/cassandra#2011-01-10-08-38-51#cassandra-0.7.0#7b7e357/src/java/org/apache/cassandra/hadoop/ColumnFamilySplit.java,F:/corpus/cassandra/cassandra#2011-06-03-06-03-47#cassandra-0.8.0#b44fa70/src/java/org/apache/cassandra/hadoop/ColumnFamilySplit.java,0,0,0,0,0,0,0,0,0,0,0,0,0,YES,0,0,0,0,0,0,0,0,0,0,0,0,0,0,0,0,0,0,0,0,0,0,0,0,0,0,0,0,0,0,0,0,0,0,0,0,0,0,0,0,0,0,1,1,0,0,0,0,1,116
cassandra,cassandra-0.7.0,cassandra-0.8.0,F:/corpus/cassandra/cassandra#2011-01-10-08-38-51#cassandra-0.7.0#7b7e357/src/java/org/apache/cassandra/hadoop/ConfigHelper.java,F:/corpus/cassandra/cassandra#2011-06-03-06-03-47#cassandra-0.8.0#b44fa70/src/java/org/apache/cassandra/hadoop/ConfigHelper.java,0,0,0,0,0,0,0,0,0,0,0,0,0,YES,0,0,0,0,3,2,0,0,0,0,0,0,0,0,0,0,0,0,0,0,0,0,0,0,0,0,0,0,0,0,0,0,0,0,0,0,0,0,0,0,0,0,0,0,0,0,0,0,20,267
cassandra,cassandra-0.7.0,cassandra-0.8.0,F:/corpus/cassandra/cassandra#2011-01-10-08-38-51#cassandra-0.7.0#7b7e357/src/java/org/apache/cassandra/io/CompactionIterator.java,F:/corpus/cassandra/cassandra#2011-06-03-06-03-47#cassandra-0.8.0#b44fa70/src/java/org/apache/cassandra/io/CompactionIterator.java,0,0,0,0,0,0,0,0,0,0,0,0,0,YES,0,0,0,0,3,5,0,0,0,0,0,0,1,0,0,0,0,0,0,0,0,0,6,4,0,0,0,0,0,0,0,1,1,0,3,3,0,0,0,0,0,0,6,9,0,0,5,0,47,168
cassandra,cassandra-0.7.0,cassandra-0.8.0,F:/corpus/cassandra/cassandra#2011-01-10-08-38-51#cassandra-0.7.0#7b7e357/src/java/org/apache/cassandra/io/DeletionService.java,F:/corpus/cassandra/cassandra#2011-06-03-06-03-47#cassandra-0.8.0#b44fa70/src/java/org/apache/cassandra/io/DeletionService.java,0,0,0,0,0,0,0,0,0,0,0,0,0,YES,0,0,0,0,0,0,0,0,0,0,0,0,0,0,0,0,0,0,0,0,0,1,0,0,0,0,0,0,0,0,0,0,0,0,0,0,0,0,0,0,0,0,0,0,0,0,2,0,3,56
cassandra,cassandra-0.7.0,cassandra-0.8.0,F:/corpus/cassandra/cassandra#2011-01-10-08-38-51#cassandra-0.7.0#7b7e357/src/java/org/apache/cassandra/io/ICompactSerializer.java,F:/corpus/cassandra/cassandra#2011-06-03-06-03-47#cassandra-0.8.0#b44fa70/src/java/org/apache/cassandra/io/ICompactSerializer.java,0,0,0,0,1,0,0,0,0,0,0,0,0,YES,0,0,0,0,0,0,0,0,0,0,0,0,0,0,0,0,0,0,0,0,0,0,0,2,0,0,0,0,0,0,0,0,0,0,0,0,0,0,0,0,0,0,0,0,0,0,0,0,2,46
cassandra,cassandra-0.7.0,cassandra-0.8.0,F:/corpus/cassandra/cassandra#2011-01-10-08-38-51#cassandra-0.7.0#7b7e357/src/java/org/apache/cassandra/io/LazilyCompactedRow.java,F:/corpus/cassandra/cassandra#2011-06-03-06-03-47#cassandra-0.8.0#b44fa70/src/java/org/apache/cassandra/io/LazilyCompactedRow.java,0,0,0,0,0,1,0,0,0,0,0,0,0,YES,0,0,0,0,0,1,0,0,0,0,0,0,0,0,0,1,0,0,0,0,0,0,3,1,0,0,0,0,0,0,0,0,0,0,0,1,0,0,0,0,0,0,9,10,1,2,4,0,45,223
cassandra,cassandra-0.7.0,cassandra-0.8.0,F:/corpus/cassandra/cassandra#2011-01-10-08-38-51#cassandra-0.7.0#7b7e357/src/java/org/apache/cassandra/io/PrecompactedRow.java,F:/corpus/cassandra/cassandra#2011-06-03-06-03-47#cassandra-0.8.0#b44fa70/src/java/org/apache/cassandra/io/PrecompactedRow.java,0,0,0,0,0,1,0,0,0,0,0,0,0,YES,0,0,0,0,1,1,1,0,0,0,0,0,0,0,0,0,0,0,0,0,0,0,4,2,0,0,0,0,0,0,0,0,0,0,0,2,0,0,0,0,0,0,19,20,3,4,1,0,66,134
cassandra,cassandra-0.7.0,cassandra-0.8.0,F:/corpus/cassandra/cassandra#2011-01-10-08-38-51#cassandra-0.7.0#7b7e357/src/java/org/apache/cassandra/io/SerDeUtils.java,F:/corpus/cassandra/cassandra#2011-06-03-06-03-47#cassandra-0.8.0#b44fa70/src/java/org/apache/cassandra/io/SerDeUtils.java,0,0,0,0,0,0,0,0,0,0,0,0,0,YES,0,0,0,0,0,0,0,0,0,0,0,0,0,0,0,0,0,0,0,0,0,0,0,0,0,0,0,0,0,0,0,0,0,0,1,0,0,0,0,0,0,0,0,0,0,0,2,0,11,131
cassandra,cassandra-0.7.0,cassandra-0.8.0,F:/corpus/cassandra/cassandra#2011-01-10-08-38-51#cassandra-0.7.0#7b7e357/src/java/org/apache/cassandra/io/sstable/Descriptor.java,F:/corpus/cassandra/cassandra#2011-06-03-06-03-47#cassandra-0.8.0#b44fa70/src/java/org/apache/cassandra/io/sstable/Descriptor.java,1,0,0,0,0,0,0,0,0,0,0,3,0,YES,0,0,0,0,2,1,0,0,0,0,0,0,0,0,0,0,0,0,0,0,1,0,0,0,0,0,0,0,0,0,0,0,0,0,0,0,0,0,0,0,0,0,0,1,0,0,0,0,14,203
cassandra,cassandra-0.7.0,cassandra-0.8.0,F:/corpus/cassandra/cassandra#2011-01-10-08-38-51#cassandra-0.7.0#7b7e357/src/java/org/apache/cassandra/io/sstable/IndexHelper.java,F:/corpus/cassandra/cassandra#2011-06-03-06-03-47#cassandra-0.8.0#b44fa70/src/java/org/apache/cassandra/io/sstable/IndexHelper.java,0,0,0,0,0,0,0,0,0,0,0,1,0,YES,0,0,0,0,1,0,0,0,0,0,0,0,1,0,0,0,0,1,0,3,0,0,0,2,0,0,3,0,0,0,0,0,0,0,0,0,0,0,0,1,0,0,11,4,0,0,5,0,39,162
cassandra,cassandra-0.7.0,cassandra-0.8.0,F:/corpus/cassandra/cassandra#2011-01-10-08-38-51#cassandra-0.7.0#7b7e357/src/java/org/apache/cassandra/io/sstable/KeyIterator.java,F:/corpus/cassandra/cassandra#2011-06-03-06-03-47#cassandra-0.8.0#b44fa70/src/java/org/apache/cassandra/io/sstable/KeyIterator.java,0,0,0,0,0,0,0,0,0,0,0,0,0,YES,0,0,0,0,0,0,0,0,0,0,0,0,0,0,0,0,0,0,0,0,0,0,0,0,0,0,0,0,0,0,0,0,0,0,0,0,0,0,0,0,0,0,0,0,0,0,2,0,3,92
cassandra,cassandra-0.7.0,cassandra-0.8.0,F:/corpus/cassandra/cassandra#2011-01-10-08-38-51#cassandra-0.7.0#7b7e357/src/java/org/apache/cassandra/io/sstable/SSTable.java,F:/corpus/cassandra/cassandra#2011-06-03-06-03-47#cassandra-0.8.0#b44fa70/src/java/org/apache/cassandra/io/sstable/SSTable.java,0,0,0,0,0,1,0,0,0,0,0,1,0,YES,0,0,0,0,0,1,0,0,0,0,0,0,0,0,0,1,0,0,0,0,0,0,0,4,0,0,0,0,0,0,0,0,0,0,0,0,0,0,0,0,0,0,2,10,0,0,5,0,29,266
cassandra,cassandra-0.7.0,cassandra-0.8.0,F:/corpus/cassandra/cassandra#2011-01-10-08-38-51#cassandra-0.7.0#7b7e357/src/java/org/apache/cassandra/io/sstable/SSTableDeletingReference.java,F:/corpus/cassandra/cassandra#2011-06-03-06-03-47#cassandra-0.8.0#b44fa70/src/java/org/apache/cassandra/io/sstable/SSTableDeletingReference.java,0,0,0,0,0,0,0,0,0,0,0,0,0,YES,0,0,0,0,0,0,0,0,0,1,0,0,0,0,0,0,0,0,0,0,0,0,0,0,0,0,1,0,0,0,0,0,0,0,0,0,0,0,0,0,0,0,2,1,0,0,2,0,9,99
cassandra,cassandra-0.7.0,cassandra-0.8.0,F:/corpus/cassandra/cassandra#2011-01-10-08-38-51#cassandra-0.7.0#7b7e357/src/java/org/apache/cassandra/io/sstable/SSTableIdentityIterator.java,F:/corpus/cassandra/cassandra#2011-06-03-06-03-47#cassandra-0.8.0#b44fa70/src/java/org/apache/cassandra/io/sstable/SSTableIdentityIterator.java,0,0,0,0,0,0,0,0,0,0,0,1,0,YES,0,0,0,0,3,4,0,0,0,0,0,0,0,0,0,0,0,0,0,0,0,0,0,0,0,0,0,0,0,0,0,0,0,0,0,1,0,0,0,0,0,0,18,12,0,0,1,0,53,157
cassandra,cassandra-0.7.0,cassandra-0.8.0,F:/corpus/cassandra/cassandra#2011-01-10-08-38-51#cassandra-0.7.0#7b7e357/src/java/org/apache/cassandra/io/sstable/SSTableReader.java,F:/corpus/cassandra/cassandra#2011-06-03-06-03-47#cassandra-0.8.0#b44fa70/src/java/org/apache/cassandra/io/sstable/SSTableReader.java,0,0,0,0,0,2,0,1,0,0,2,4,0,YES,0,0,0,0,3,0,0,1,0,2,0,0,3,1,0,2,0,1,0,1,0,1,0,2,0,0,4,0,0,0,0,0,0,0,0,0,0,0,0,1,0,0,10,21,0,10,17,0,200,667
cassandra,cassandra-0.7.0,cassandra-0.8.0,F:/corpus/cassandra/cassandra#2011-01-10-08-38-51#cassandra-0.7.0#7b7e357/src/java/org/apache/cassandra/io/sstable/SSTableScanner.java,F:/corpus/cassandra/cassandra#2011-06-03-06-03-47#cassandra-0.8.0#b44fa70/src/java/org/apache/cassandra/io/sstable/SSTableScanner.java,0,0,0,0,0,0,0,0,0,0,0,0,0,YES,0,0,0,0,2,0,0,0,0,0,0,0,0,0,0,0,0,0,0,0,6,0,0,1,0,0,0,0,0,0,0,0,0,0,0,0,0,0,0,0,0,0,2,2,0,0,2,0,28,197
cassandra,cassandra-0.7.0,cassandra-0.8.0,F:/corpus/cassandra/cassandra#2011-01-10-08-38-51#cassandra-0.7.0#7b7e357/src/java/org/apache/cassandra/io/sstable/SSTableWriter.java,F:/corpus/cassandra/cassandra#2011-06-03-06-03-47#cassandra-0.8.0#b44fa70/src/java/org/apache/cassandra/io/sstable/SSTableWriter.java,0,0,0,0,1,0,0,1,0,0,0,1,0,YES,0,0,0,2,2,2,0,0,0,0,0,1,1,0,0,1,1,0,0,0,0,1,0,4,0,1,0,0,0,0,0,1,1,0,3,1,0,0,0,0,0,0,36,8,0,0,17,0,87,419
cassandra,cassandra-0.7.0,cassandra-0.8.0,F:/corpus/cassandra/cassandra#2011-01-10-08-38-51#cassandra-0.7.0#7b7e357/src/java/org/apache/cassandra/io/util/BufferedRandomAccessFile.java,F:/corpus/cassandra/cassandra#2011-06-03-06-03-47#cassandra-0.8.0#b44fa70/src/java/org/apache/cassandra/io/util/BufferedRandomAccessFile.java,0,0,0,0,0,0,0,0,0,0,0,4,0,YES,0,0,0,0,9,12,1,0,4,0,0,2,5,0,1,5,0,2,2,0,2,0,2,2,0,12,0,0,0,0,0,0,0,0,2,8,1,0,0,1,0,0,53,76,0,5,18,0,309,384
cassandra,cassandra-0.7.0,cassandra-0.8.0,F:/corpus/cassandra/cassandra#2011-01-10-08-38-51#cassandra-0.7.0#7b7e357/src/java/org/apache/cassandra/io/util/FileDataInput.java,F:/corpus/cassandra/cassandra#2011-06-03-06-03-47#cassandra-0.8.0#b44fa70/src/java/org/apache/cassandra/io/util/FileDataInput.java,0,0,0,0,0,0,0,0,0,0,0,0,0,YES,0,0,0,0,1,0,0,0,0,0,0,0,0,0,0,0,0,0,0,0,0,0,0,0,0,0,0,0,0,0,0,0,0,0,0,0,0,0,0,1,0,0,0,0,0,0,0,0,2,41
cassandra,cassandra-0.7.0,cassandra-0.8.0,F:/corpus/cassandra/cassandra#2011-01-10-08-38-51#cassandra-0.7.0#7b7e357/src/java/org/apache/cassandra/io/util/FileUtils.java,F:/corpus/cassandra/cassandra#2011-06-03-06-03-47#cassandra-0.8.0#b44fa70/src/java/org/apache/cassandra/io/util/FileUtils.java,0,0,0,0,0,0,0,0,0,0,0,1,0,YES,0,0,0,0,4,0,0,0,0,0,0,0,0,0,0,0,0,0,0,0,0,0,0,0,0,0,0,0,0,0,0,0,0,0,0,0,0,0,0,0,0,0,0,0,0,0,0,0,63,203
cassandra,cassandra-0.7.0,cassandra-0.8.0,F:/corpus/cassandra/cassandra#2011-01-10-08-38-51#cassandra-0.7.0#7b7e357/src/java/org/apache/cassandra/io/util/MappedFileDataInput.java,F:/corpus/cassandra/cassandra#2011-06-03-06-03-47#cassandra-0.8.0#b44fa70/src/java/org/apache/cassandra/io/util/MappedFileDataInput.java,0,0,0,0,0,0,0,0,0,0,0,0,1,YES,0,0,1,0,3,0,0,0,0,0,0,1,0,0,0,0,0,2,0,1,1,1,0,1,0,0,0,1,0,0,0,0,0,0,11,0,0,0,0,2,0,0,15,9,0,0,0,0,383,431
cassandra,cassandra-0.7.0,cassandra-0.8.0,F:/corpus/cassandra/cassandra#2011-01-10-08-38-51#cassandra-0.7.0#7b7e357/src/java/org/apache/cassandra/io/util/MmappedSegmentedFile.java,F:/corpus/cassandra/cassandra#2011-06-03-06-03-47#cassandra-0.8.0#b44fa70/src/java/org/apache/cassandra/io/util/MmappedSegmentedFile.java,0,0,0,0,0,0,0,0,0,0,0,0,0,YES,0,0,0,0,0,0,0,0,0,0,0,0,0,0,0,0,0,0,0,0,0,0,0,0,0,0,0,0,0,0,0,0,0,0,0,0,0,0,0,0,0,0,5,1,0,1,0,0,10,188
cassandra,cassandra-0.7.0,cassandra-0.8.0,F:/corpus/cassandra/cassandra#2011-01-10-08-38-51#cassandra-0.7.0#7b7e357/src/java/org/apache/cassandra/io/util/SegmentedFile.java,F:/corpus/cassandra/cassandra#2011-06-03-06-03-47#cassandra-0.8.0#b44fa70/src/java/org/apache/cassandra/io/util/SegmentedFile.java,0,0,0,0,1,0,0,0,0,0,0,0,0,YES,0,0,0,0,1,0,0,0,0,0,0,0,0,0,0,0,0,0,0,0,0,0,0,0,0,0,0,0,0,0,0,0,0,0,0,0,0,0,0,0,0,0,0,0,0,0,0,0,7,144
cassandra,cassandra-0.7.0,cassandra-0.8.0,F:/corpus/cassandra/cassandra#2011-01-10-08-38-51#cassandra-0.7.0#7b7e357/src/java/org/apache/cassandra/locator/AbstractEndpointSnitch.java,F:/corpus/cassandra/cassandra#2011-06-03-06-03-47#cassandra-0.8.0#b44fa70/src/java/org/apache/cassandra/locator/AbstractEndpointSnitch.java,0,0,0,0,1,0,0,0,0,0,0,0,0,YES,0,0,0,0,1,0,0,0,0,0,0,0,0,0,0,0,0,0,0,0,0,0,0,0,0,0,0,0,0,0,0,0,0,0,0,0,0,0,0,0,0,0,0,0,0,0,0,0,5,40
cassandra,cassandra-0.7.0,cassandra-0.8.0,F:/corpus/cassandra/cassandra#2011-01-10-08-38-51#cassandra-0.7.0#7b7e357/src/java/org/apache/cassandra/locator/AbstractReplicationStrategy.java,F:/corpus/cassandra/cassandra#2011-06-03-06-03-47#cassandra-0.8.0#b44fa70/src/java/org/apache/cassandra/locator/AbstractReplicationStrategy.java,0,0,0,0,0,1,0,0,0,0,0,2,0,YES,1,0,0,0,2,0,0,1,0,0,0,0,2,0,0,0,0,0,1,0,0,0,0,0,0,1,0,0,0,0,0,0,0,0,1,0,0,0,0,0,0,0,1,9,0,0,1,0,48,277
cassandra,cassandra-0.7.0,cassandra-0.8.0,F:/corpus/cassandra/cassandra#2011-01-10-08-38-51#cassandra-0.7.0#7b7e357/src/java/org/apache/cassandra/locator/DynamicEndpointSnitch.java,F:/corpus/cassandra/cassandra#2011-06-03-06-03-47#cassandra-0.8.0#b44fa70/src/java/org/apache/cassandra/locator/DynamicEndpointSnitch.java,0,0,0,0,0,0,0,0,0,0,0,0,0,YES,3,0,0,0,8,1,0,0,0,0,0,0,1,0,0,0,0,0,0,0,0,0,0,0,0,0,0,0,0,0,0,0,0,0,0,0,0,0,0,0,0,0,9,7,0,2,0,3,72,266
cassandra,cassandra-0.7.0,cassandra-0.8.0,F:/corpus/cassandra/cassandra#2011-01-10-08-38-51#cassandra-0.7.0#7b7e357/src/java/org/apache/cassandra/locator/DynamicEndpointSnitchMBean.java,F:/corpus/cassandra/cassandra#2011-06-03-06-03-47#cassandra-0.8.0#b44fa70/src/java/org/apache/cassandra/locator/DynamicEndpointSnitchMBean.java,0,0,0,0,1,0,0,0,0,0,0,0,0,YES,0,0,0,0,5,0,0,0,0,0,0,0,0,0,0,0,0,0,0,0,0,0,0,0,0,0,0,0,0,0,0,0,0,0,0,0,0,0,0,0,0,0,0,0,0,0,0,0,7,27
cassandra,cassandra-0.7.0,cassandra-0.8.0,F:/corpus/cassandra/cassandra#2011-01-10-08-38-51#cassandra-0.7.0#7b7e357/src/java/org/apache/cassandra/locator/IEndpointSnitch.java,F:/corpus/cassandra/cassandra#2011-06-03-06-03-47#cassandra-0.8.0#b44fa70/src/java/org/apache/cassandra/locator/IEndpointSnitch.java,0,0,0,0,1,0,0,0,0,0,0,0,0,YES,0,0,0,0,1,0,0,0,0,0,0,0,0,0,0,0,0,0,0,0,0,0,0,0,0,0,0,0,0,0,0,0,0,0,0,0,0,0,0,0,0,0,0,0,0,0,0,0,5,57
cassandra,cassandra-0.7.0,cassandra-0.8.0,F:/corpus/cassandra/cassandra#2011-01-10-08-38-51#cassandra-0.7.0#7b7e357/src/java/org/apache/cassandra/locator/LocalStrategy.java,F:/corpus/cassandra/cassandra#2011-06-03-06-03-47#cassandra-0.8.0#b44fa70/src/java/org/apache/cassandra/locator/LocalStrategy.java,0,0,0,0,1,0,0,0,0,0,0,0,0,YES,0,0,0,0,2,0,0,0,0,0,0,0,0,0,0,0,0,0,0,0,0,0,0,0,0,0,0,0,0,0,0,0,0,0,0,0,0,0,0,0,0,0,0,0,0,0,0,0,11,41
cassandra,cassandra-0.7.0,cassandra-0.8.0,F:/corpus/cassandra/cassandra#2011-01-10-08-38-51#cassandra-0.7.0#7b7e357/src/java/org/apache/cassandra/locator/NetworkTopologyStrategy.java,F:/corpus/cassandra/cassandra#2011-06-03-06-03-47#cassandra-0.8.0#b44fa70/src/java/org/apache/cassandra/locator/NetworkTopologyStrategy.java,0,0,0,0,0,0,0,0,0,0,0,0,0,YES,0,0,0,0,1,0,0,0,0,0,0,0,1,0,0,1,0,0,0,0,0,0,0,0,0,0,0,0,0,0,0,0,0,0,1,0,0,0,0,0,0,0,1,5,0,0,0,0,18,167
cassandra,cassandra-0.7.0,cassandra-0.8.0,F:/corpus/cassandra/cassandra#2011-01-10-08-38-51#cassandra-0.7.0#7b7e357/src/java/org/apache/cassandra/locator/OldNetworkTopologyStrategy.java,F:/corpus/cassandra/cassandra#2011-06-03-06-03-47#cassandra-0.8.0#b44fa70/src/java/org/apache/cassandra/locator/OldNetworkTopologyStrategy.java,0,0,0,0,0,0,0,0,0,0,0,0,0,YES,0,0,0,0,2,0,0,0,0,0,0,0,0,0,0,0,0,0,0,0,0,0,0,0,0,0,0,0,0,0,0,0,0,0,0,0,0,0,0,0,0,0,0,0,0,0,0,0,15,105
cassandra,cassandra-0.7.0,cassandra-0.8.0,F:/corpus/cassandra/cassandra#2011-01-10-08-38-51#cassandra-0.7.0#7b7e357/src/java/org/apache/cassandra/locator/PropertyFileSnitch.java,F:/corpus/cassandra/cassandra#2011-06-03-06-03-47#cassandra-0.8.0#b44fa70/src/java/org/apache/cassandra/locator/PropertyFileSnitch.java,0,0,0,0,0,0,0,0,0,0,0,0,0,YES,0,0,0,0,0,0,0,0,0,0,0,0,0,0,0,0,0,0,0,0,0,0,0,0,0,0,0,0,0,0,0,0,0,0,0,0,0,0,0,0,0,0,2,4,0,0,0,0,10,158
cassandra,cassandra-0.7.0,cassandra-0.8.0,F:/corpus/cassandra/cassandra#2011-01-10-08-38-51#cassandra-0.7.0#7b7e357/src/java/org/apache/cassandra/locator/SimpleSnitch.java,F:/corpus/cassandra/cassandra#2011-06-03-06-03-47#cassandra-0.8.0#b44fa70/src/java/org/apache/cassandra/locator/SimpleSnitch.java,0,0,0,0,3,0,0,0,0,0,0,0,0,YES,0,0,0,0,0,0,0,0,0,0,0,0,0,0,0,0,0,0,0,0,0,0,0,0,0,0,0,0,0,0,0,0,0,0,0,0,0,0,0,0,0,0,2,2,0,0,0,0,2,51
cassandra,cassandra-0.7.0,cassandra-0.8.0,F:/corpus/cassandra/cassandra#2011-01-10-08-38-51#cassandra-0.7.0#7b7e357/src/java/org/apache/cassandra/locator/SimpleStrategy.java,F:/corpus/cassandra/cassandra#2011-06-03-06-03-47#cassandra-0.8.0#b44fa70/src/java/org/apache/cassandra/locator/SimpleStrategy.java,0,0,0,0,0,0,0,0,0,0,0,0,0,YES,0,0,0,0,2,0,0,0,0,0,0,0,0,0,0,0,0,0,0,0,0,0,0,0,0,0,0,0,0,0,0,0,0,0,0,0,0,0,0,0,0,0,0,0,0,0,0,0,14,65
cassandra,cassandra-0.7.0,cassandra-0.8.0,F:/corpus/cassandra/cassandra#2011-01-10-08-38-51#cassandra-0.7.0#7b7e357/src/java/org/apache/cassandra/locator/TokenMetadata.java,F:/corpus/cassandra/cassandra#2011-06-03-06-03-47#cassandra-0.8.0#b44fa70/src/java/org/apache/cassandra/locator/TokenMetadata.java,0,0,0,0,0,1,0,0,0,0,0,6,0,YES,0,0,0,0,5,1,0,0,0,0,0,0,1,0,0,0,0,0,0,1,0,0,0,0,0,0,0,0,0,0,0,0,0,0,0,0,0,0,0,0,0,0,4,3,0,0,1,0,128,588
cassandra,cassandra-0.7.0,cassandra-0.8.0,F:/corpus/cassandra/cassandra#2011-01-10-08-38-51#cassandra-0.7.0#7b7e357/src/java/org/apache/cassandra/net/AsyncResult.java,F:/corpus/cassandra/cassandra#2011-06-03-06-03-47#cassandra-0.8.0#b44fa70/src/java/org/apache/cassandra/net/AsyncResult.java,0,0,0,0,0,0,0,0,0,0,0,0,0,YES,0,0,0,0,1,0,0,0,0,0,0,0,0,0,0,0,0,0,0,0,0,0,0,0,0,0,0,0,0,0,0,0,0,0,0,0,0,0,0,0,0,0,1,0,0,0,0,0,2,105
cassandra,cassandra-0.7.0,cassandra-0.8.0,F:/corpus/cassandra/cassandra#2011-01-10-08-38-51#cassandra-0.7.0#7b7e357/src/java/org/apache/cassandra/net/Header.java,F:/corpus/cassandra/cassandra#2011-06-03-06-03-47#cassandra-0.8.0#b44fa70/src/java/org/apache/cassandra/net/Header.java,0,0,0,0,0,0,0,0,0,0,0,0,0,YES,0,0,0,0,2,0,0,0,0,0,0,0,0,0,0,0,0,0,0,0,0,0,1,2,0,0,0,0,0,0,0,0,0,0,4,2,2,0,0,0,0,0,3,5,0,0,2,0,45,151
cassandra,cassandra-0.7.0,cassandra-0.8.0,F:/corpus/cassandra/cassandra#2011-01-10-08-38-51#cassandra-0.7.0#7b7e357/src/java/org/apache/cassandra/net/IMessageCallback.java,F:/corpus/cassandra/cassandra#2011-06-03-06-03-47#cassandra-0.8.0#b44fa70/src/java/org/apache/cassandra/net/IMessageCallback.java,0,0,0,0,0,0,0,0,0,0,0,0,0,YES,0,0,0,0,0,0,0,0,0,0,0,0,0,0,0,0,0,0,0,0,0,0,0,0,0,0,0,0,0,0,0,0,0,0,0,0,0,0,0,0,0,0,0,0,0,0,0,0,5,26
cassandra,cassandra-0.7.0,cassandra-0.8.0,F:/corpus/cassandra/cassandra#2011-01-10-08-38-51#cassandra-0.7.0#7b7e357/src/java/org/apache/cassandra/net/IVerbHandler.java,F:/corpus/cassandra/cassandra#2011-06-03-06-03-47#cassandra-0.8.0#b44fa70/src/java/org/apache/cassandra/net/IVerbHandler.java,0,0,0,0,0,0,0,0,0,0,0,0,0,YES,0,0,0,0,0,0,0,0,0,0,0,0,0,0,0,0,0,0,0,1,0,0,0,1,0,0,0,0,0,0,0,0,0,0,0,0,0,0,0,0,0,0,0,0,0,0,0,0,3,38
cassandra,cassandra-0.7.0,cassandra-0.8.0,F:/corpus/cassandra/cassandra#2011-01-10-08-38-51#cassandra-0.7.0#7b7e357/src/java/org/apache/cassandra/net/IncomingTcpConnection.java,F:/corpus/cassandra/cassandra#2011-06-03-06-03-47#cassandra-0.8.0#b44fa70/src/java/org/apache/cassandra/net/IncomingTcpConnection.java,0,0,0,0,0,0,0,0,0,0,0,0,0,YES,0,0,0,0,1,0,0,1,0,0,0,0,4,0,0,1,0,0,1,0,0,0,0,0,0,0,0,0,0,0,0,0,0,0,0,1,0,0,0,0,0,0,10,28,5,6,2,0,62,115
cassandra,cassandra-0.7.0,cassandra-0.8.0,F:/corpus/cassandra/cassandra#2011-01-10-08-38-51#cassandra-0.7.0#7b7e357/src/java/org/apache/cassandra/net/Message.java,F:/corpus/cassandra/cassandra#2011-06-03-06-03-47#cassandra-0.8.0#b44fa70/src/java/org/apache/cassandra/net/Message.java,0,0,0,0,0,0,0,0,0,0,0,4,0,YES,0,0,0,1,3,1,0,0,0,1,0,0,0,0,0,0,1,0,0,0,0,0,1,5,1,0,0,0,0,0,0,0,0,0,3,0,0,0,0,0,0,0,0,1,0,0,6,0,59,150
cassandra,cassandra-0.7.0,cassandra-0.8.0,F:/corpus/cassandra/cassandra#2011-01-10-08-38-51#cassandra-0.7.0#7b7e357/src/java/org/apache/cassandra/net/MessageDeliveryTask.java,F:/corpus/cassandra/cassandra#2011-06-03-06-03-47#cassandra-0.8.0#b44fa70/src/java/org/apache/cassandra/net/MessageDeliveryTask.java,0,0,0,0,0,0,0,0,1,0,0,0,0,YES,0,0,0,0,0,1,0,0,2,0,0,0,1,0,0,1,0,0,0,0,0,0,0,1,0,0,0,0,0,0,0,0,0,0,0,0,0,0,0,0,0,0,0,5,0,0,5,0,16,65
cassandra,cassandra-0.7.0,cassandra-0.8.0,F:/corpus/cassandra/cassandra#2011-01-10-08-38-51#cassandra-0.7.0#7b7e357/src/java/org/apache/cassandra/net/MessagingService.java,F:/corpus/cassandra/cassandra#2011-06-03-06-03-47#cassandra-0.8.0#b44fa70/src/java/org/apache/cassandra/net/MessagingService.java,0,0,0,0,0,0,0,0,0,0,0,1,0,YES,0,0,0,1,7,2,0,1,0,1,0,6,1,0,0,0,3,1,0,1,1,0,1,5,1,0,3,0,0,0,0,1,0,0,5,2,8,1,0,0,0,0,42,13,0,1,12,17,207,624
cassandra,cassandra-0.7.0,cassandra-0.8.0,F:/corpus/cassandra/cassandra#2011-01-10-08-38-51#cassandra-0.7.0#7b7e357/src/java/org/apache/cassandra/net/OutboundTcpConnection.java,F:/corpus/cassandra/cassandra#2011-06-03-06-03-47#cassandra-0.8.0#b44fa70/src/java/org/apache/cassandra/net/OutboundTcpConnection.java,0,0,0,0,0,0,0,0,0,0,0,0,0,YES,0,0,0,0,0,0,0,1,0,0,0,0,0,0,0,0,0,0,0,0,0,0,0,0,0,0,0,0,0,0,0,0,0,0,0,0,0,0,0,0,0,0,2,4,0,2,2,0,9,187
cassandra,cassandra-0.7.0,cassandra-0.8.0,F:/corpus/cassandra/cassandra#2011-01-10-08-38-51#cassandra-0.7.0#7b7e357/src/java/org/apache/cassandra/net/ResponseVerbHandler.java,F:/corpus/cassandra/cassandra#2011-06-03-06-03-47#cassandra-0.8.0#b44fa70/src/java/org/apache/cassandra/net/ResponseVerbHandler.java,0,0,0,0,0,0,0,0,0,0,0,0,0,YES,0,0,0,0,0,0,0,0,0,0,0,1,0,0,0,1,0,0,0,0,0,0,0,1,0,0,0,0,0,0,0,1,0,0,1,1,0,0,0,0,0,0,4,3,0,0,4,0,24,68
cassandra,cassandra-0.7.0,cassandra-0.8.0,F:/corpus/cassandra/cassandra#2011-01-10-08-38-51#cassandra-0.7.0#7b7e357/src/java/org/apache/cassandra/net/sink/IMessageSink.java,F:/corpus/cassandra/cassandra#2011-06-03-06-03-47#cassandra-0.8.0#b44fa70/src/java/org/apache/cassandra/net/sink/IMessageSink.java,0,0,0,0,0,0,0,0,0,0,0,0,0,YES,0,0,0,0,0,0,0,0,0,0,0,0,0,0,0,0,0,0,0,0,0,0,0,1,0,0,0,0,0,0,0,0,0,0,0,0,0,0,0,0,0,0,0,0,0,0,0,0,1,28
cassandra,cassandra-0.7.0,cassandra-0.8.0,F:/corpus/cassandra/cassandra#2011-01-10-08-38-51#cassandra-0.7.0#7b7e357/src/java/org/apache/cassandra/net/sink/SinkManager.java,F:/corpus/cassandra/cassandra#2011-06-03-06-03-47#cassandra-0.8.0#b44fa70/src/java/org/apache/cassandra/net/sink/SinkManager.java,0,0,0,0,0,0,0,0,0,0,0,0,0,YES,0,0,0,0,0,0,0,0,0,0,0,0,0,0,0,0,0,0,0,0,0,0,0,2,0,0,0,0,0,0,0,0,0,0,0,0,0,0,0,0,0,0,0,0,0,0,2,0,4,68
cassandra,cassandra-0.7.0,cassandra-0.8.0,F:/corpus/cassandra/cassandra#2011-01-10-08-38-51#cassandra-0.7.0#7b7e357/src/java/org/apache/cassandra/service/AbstractCassandraDaemon.java,F:/corpus/cassandra/cassandra#2011-06-03-06-03-47#cassandra-0.8.0#b44fa70/src/java/org/apache/cassandra/service/AbstractCassandraDaemon.java,0,0,0,0,2,0,0,1,0,1,0,0,0,YES,0,0,0,0,5,1,0,1,0,0,0,0,1,0,1,0,0,0,0,2,0,0,0,0,0,0,0,0,0,0,0,1,0,0,5,1,0,0,0,0,0,0,2,13,1,0,1,2,62,311
cassandra,cassandra-0.7.0,cassandra-0.8.0,F:/corpus/cassandra/cassandra#2011-01-10-08-38-51#cassandra-0.7.0#7b7e357/src/java/org/apache/cassandra/service/AbstractWriteResponseHandler.java,F:/corpus/cassandra/cassandra#2011-06-03-06-03-47#cassandra-0.8.0#b44fa70/src/java/org/apache/cassandra/service/AbstractWriteResponseHandler.java,0,0,0,0,0,0,0,0,0,0,0,0,0,YES,0,0,0,0,0,0,0,0,0,0,0,0,0,0,0,0,0,0,0,0,0,0,0,0,0,0,0,0,0,0,0,0,0,0,1,0,0,0,0,0,0,0,0,0,0,0,0,0,7,84
cassandra,cassandra-0.7.0,cassandra-0.8.0,F:/corpus/cassandra/cassandra#2011-01-10-08-38-51#cassandra-0.7.0#7b7e357/src/java/org/apache/cassandra/service/AntiEntropyService.java,F:/corpus/cassandra/cassandra#2011-06-03-06-03-47#cassandra-0.8.0#b44fa70/src/java/org/apache/cassandra/service/AntiEntropyService.java,0,0,1,0,0,0,0,0,0,0,0,0,0,YES,1,0,0,0,3,3,0,1,0,0,0,5,3,0,1,2,0,0,0,2,0,0,0,12,0,0,0,0,0,0,0,1,1,0,1,1,0,0,0,0,0,0,30,32,1,1,34,0,145,826
cassandra,cassandra-0.7.0,cassandra-0.8.0,F:/corpus/cassandra/cassandra#2011-01-10-08-38-51#cassandra-0.7.0#7b7e357/src/java/org/apache/cassandra/service/CassandraDaemon.java,F:/corpus/cassandra/cassandra#2011-06-03-06-03-47#cassandra-0.8.0#b44fa70/src/java/org/apache/cassandra/service/CassandraDaemon.java,0,0,0,0,1,0,0,0,0,0,0,0,0,YES,0,0,0,0,3,0,0,0,0,0,0,0,0,0,0,0,0,0,0,0,0,0,0,0,0,0,0,0,0,0,0,0,0,0,0,0,0,0,0,0,0,0,0,0,0,0,0,0,4,74
cassandra,cassandra-0.7.0,cassandra-0.8.0,F:/corpus/cassandra/cassandra#2011-01-10-08-38-51#cassandra-0.7.0#7b7e357/src/java/org/apache/cassandra/service/ClientState.java,F:/corpus/cassandra/cassandra#2011-06-03-06-03-47#cassandra-0.8.0#b44fa70/src/java/org/apache/cassandra/service/ClientState.java,0,0,0,0,0,0,0,0,0,0,0,0,0,YES,0,0,0,0,0,0,0,0,0,0,0,0,1,0,0,0,0,0,0,0,0,0,0,0,0,0,0,0,0,0,0,0,0,0,0,0,0,0,0,0,0,0,0,4,0,0,0,0,4,176
cassandra,cassandra-0.7.0,cassandra-0.8.0,F:/corpus/cassandra/cassandra#2011-01-10-08-38-51#cassandra-0.7.0#7b7e357/src/java/org/apache/cassandra/service/DatacenterSyncWriteResponseHandler.java,F:/corpus/cassandra/cassandra#2011-06-03-06-03-47#cassandra-0.8.0#b44fa70/src/java/org/apache/cassandra/service/DatacenterSyncWriteResponseHandler.java,0,0,0,0,0,3,0,0,0,0,0,0,0,YES,0,0,0,0,1,0,0,0,0,0,0,0,0,1,0,0,0,0,0,0,0,0,0,0,0,0,0,0,0,0,0,0,0,0,0,0,0,0,0,0,0,0,1,1,0,2,1,0,10,118
cassandra,cassandra-0.7.0,cassandra-0.8.0,F:/corpus/cassandra/cassandra#2011-01-10-08-38-51#cassandra-0.7.0#7b7e357/src/java/org/apache/cassandra/service/DatacenterWriteResponseHandler.java,F:/corpus/cassandra/cassandra#2011-06-03-06-03-47#cassandra-0.8.0#b44fa70/src/java/org/apache/cassandra/service/DatacenterWriteResponseHandler.java,0,0,0,0,0,0,0,0,0,0,0,0,0,YES,0,0,0,0,0,0,0,0,0,0,0,0,0,0,0,2,0,0,0,0,0,0,0,0,0,0,0,0,0,0,0,0,0,0,0,0,0,0,0,0,0,0,0,0,0,0,0,0,2,98
cassandra,cassandra-0.7.0,cassandra-0.8.0,F:/corpus/cassandra/cassandra#2011-01-10-08-38-51#cassandra-0.7.0#7b7e357/src/java/org/apache/cassandra/service/DigestMismatchException.java,F:/corpus/cassandra/cassandra#2011-06-03-06-03-47#cassandra-0.8.0#b44fa70/src/java/org/apache/cassandra/service/DigestMismatchException.java,0,0,0,0,0,0,0,0,0,0,0,0,0,YES,0,0,0,0,0,0,0,0,0,0,0,0,0,0,0,0,0,0,0,0,0,0,0,0,0,0,0,0,0,0,0,0,0,0,0,0,0,0,0,0,0,0,0,0,0,0,1,0,3,35
cassandra,cassandra-0.7.0,cassandra-0.8.0,F:/corpus/cassandra/cassandra#2011-01-10-08-38-51#cassandra-0.7.0#7b7e357/src/java/org/apache/cassandra/service/EmbeddedCassandraService.java,F:/corpus/cassandra/cassandra#2011-06-03-06-03-47#cassandra-0.8.0#b44fa70/src/java/org/apache/cassandra/service/EmbeddedCassandraService.java,0,0,1,0,0,0,0,0,0,0,0,0,0,YES,0,0,0,0,1,0,0,0,0,0,0,0,0,0,0,0,0,0,0,1,0,0,0,0,0,0,0,0,0,0,0,1,0,0,2,0,0,0,0,0,0,0,0,0,0,0,0,0,13,71
cassandra,cassandra-0.7.0,cassandra-0.8.0,F:/corpus/cassandra/cassandra#2011-01-10-08-38-51#cassandra-0.7.0#7b7e357/src/java/org/apache/cassandra/service/GCInspector.java,F:/corpus/cassandra/cassandra#2011-06-03-06-03-47#cassandra-0.8.0#b44fa70/src/java/org/apache/cassandra/service/GCInspector.java,0,0,0,0,0,7,0,0,0,0,0,0,0,YES,0,0,0,0,1,1,0,0,0,0,0,0,0,0,0,0,0,0,0,0,0,0,0,0,0,0,0,0,0,0,0,0,0,0,2,1,0,0,0,0,0,0,0,0,0,0,1,0,69,271
cassandra,cassandra-0.7.0,cassandra-0.8.0,F:/corpus/cassandra/cassandra#2011-01-10-08-38-51#cassandra-0.7.0#7b7e357/src/java/org/apache/cassandra/service/IResponseResolver.java,F:/corpus/cassandra/cassandra#2011-06-03-06-03-47#cassandra-0.8.0#b44fa70/src/java/org/apache/cassandra/service/IResponseResolver.java,0,0,0,0,1,0,0,0,0,0,0,0,0,YES,0,0,0,0,1,0,0,0,0,0,0,0,0,0,0,0,0,0,1,0,0,0,0,0,0,0,0,0,0,0,0,0,0,0,1,0,0,0,0,0,0,0,0,0,0,0,0,0,8,41
cassandra,cassandra-0.7.0,cassandra-0.8.0,F:/corpus/cassandra/cassandra#2011-01-10-08-38-51#cassandra-0.7.0#7b7e357/src/java/org/apache/cassandra/service/IWriteResponseHandler.java,F:/corpus/cassandra/cassandra#2011-06-03-06-03-47#cassandra-0.8.0#b44fa70/src/java/org/apache/cassandra/service/IWriteResponseHandler.java,0,0,0,0,1,0,0,0,0,0,0,0,0,YES,0,0,0,0,0,0,0,0,0,0,0,0,0,0,0,0,0,0,0,0,0,0,0,0,0,0,0,0,0,0,0,0,0,0,1,0,0,0,0,0,0,0,0,0,0,0,0,0,3,35
cassandra,cassandra-0.7.0,cassandra-0.8.0,F:/corpus/cassandra/cassandra#2011-01-10-08-38-51#cassandra-0.7.0#7b7e357/src/java/org/apache/cassandra/service/IndexScanVerbHandler.java,F:/corpus/cassandra/cassandra#2011-06-03-06-03-47#cassandra-0.8.0#b44fa70/src/java/org/apache/cassandra/service/IndexScanVerbHandler.java,0,0,0,0,0,0,0,0,1,0,0,0,0,YES,0,0,0,0,0,0,0,0,0,0,0,0,0,0,0,0,0,0,0,0,0,0,0,1,0,0,0,0,0,0,0,0,0,0,0,0,0,0,0,0,0,0,0,0,0,0,2,0,3,54
cassandra,cassandra-0.7.0,cassandra-0.8.0,F:/corpus/cassandra/cassandra#2011-01-10-08-38-51#cassandra-0.7.0#7b7e357/src/java/org/apache/cassandra/service/MigrationManager.java,F:/corpus/cassandra/cassandra#2011-06-03-06-03-47#cassandra-0.8.0#b44fa70/src/java/org/apache/cassandra/service/MigrationManager.java,0,0,0,0,0,0,0,0,0,0,0,0,0,YES,0,0,0,0,1,0,0,0,0,0,0,1,3,0,0,0,0,0,0,2,0,0,0,2,0,0,0,0,0,0,0,0,0,0,0,0,0,0,0,0,0,0,7,9,0,3,6,0,29,214
cassandra,cassandra-0.7.0,cassandra-0.8.0,F:/corpus/cassandra/cassandra#2011-01-10-08-38-51#cassandra-0.7.0#7b7e357/src/java/org/apache/cassandra/service/RangeSliceResponseResolver.java,F:/corpus/cassandra/cassandra#2011-06-03-06-03-47#cassandra-0.8.0#b44fa70/src/java/org/apache/cassandra/service/RangeSliceResponseResolver.java,0,0,0,0,0,0,0,0,0,0,0,0,0,YES,0,0,0,0,1,0,0,0,0,0,0,0,0,0,0,0,0,0,0,0,0,0,0,0,0,0,0,0,0,0,1,0,0,0,1,0,0,0,0,1,0,0,6,1,0,0,1,0,21,149
cassandra,cassandra-0.7.0,cassandra-0.8.0,F:/corpus/cassandra/cassandra#2011-01-10-08-38-51#cassandra-0.7.0#7b7e357/src/java/org/apache/cassandra/service/RangeSliceVerbHandler.java,F:/corpus/cassandra/cassandra#2011-06-03-06-03-47#cassandra-0.8.0#b44fa70/src/java/org/apache/cassandra/service/RangeSliceVerbHandler.java,0,0,0,0,0,0,0,1,1,0,0,0,0,YES,0,0,0,0,0,0,0,0,0,0,0,0,0,0,0,0,0,0,0,0,0,0,0,1,0,0,0,0,0,0,0,0,0,0,0,0,0,0,0,0,0,0,0,0,0,0,2,0,3,63
cassandra,cassandra-0.7.0,cassandra-0.8.0,F:/corpus/cassandra/cassandra#2011-01-10-08-38-51#cassandra-0.7.0#7b7e357/src/java/org/apache/cassandra/service/StorageLoadBalancer.java,F:/corpus/cassandra/cassandra#2011-06-03-06-03-47#cassandra-0.8.0#b44fa70/src/java/org/apache/cassandra/service/StorageLoadBalancer.java,0,0,1,0,0,0,0,0,0,0,0,0,0,YES,0,0,0,0,0,0,0,0,0,0,0,0,0,0,0,0,0,0,0,0,0,0,0,0,0,0,0,0,0,0,0,0,0,1,0,0,0,0,0,0,0,0,0,0,0,0,2,0,17,375
cassandra,cassandra-0.7.0,cassandra-0.8.0,F:/corpus/cassandra/cassandra#2011-01-10-08-38-51#cassandra-0.7.0#7b7e357/src/java/org/apache/cassandra/service/StorageProxy.java,F:/corpus/cassandra/cassandra#2011-06-03-06-03-47#cassandra-0.8.0#b44fa70/src/java/org/apache/cassandra/service/StorageProxy.java,0,0,0,0,0,2,0,4,1,0,0,0,0,YES,0,0,0,3,13,5,4,3,0,0,0,11,8,3,1,3,1,0,1,2,2,3,0,0,0,0,1,0,0,0,0,0,0,1,2,1,0,0,0,0,0,0,114,105,8,10,20,0,645,832
cassandra,cassandra-0.7.0,cassandra-0.8.0,F:/corpus/cassandra/cassandra#2011-01-10-08-38-51#cassandra-0.7.0#7b7e357/src/java/org/apache/cassandra/service/StorageProxyMBean.java,F:/corpus/cassandra/cassandra#2011-06-03-06-03-47#cassandra-0.8.0#b44fa70/src/java/org/apache/cassandra/service/StorageProxyMBean.java,0,0,0,0,1,0,0,0,0,0,0,0,0,YES,0,0,0,0,2,0,0,0,0,0,0,0,0,0,0,0,0,0,0,0,0,0,0,0,0,0,0,0,0,0,0,0,0,0,0,0,0,0,0,0,0,0,0,0,0,0,0,0,2,43
cassandra,cassandra-0.7.0,cassandra-0.8.0,F:/corpus/cassandra/cassandra#2011-01-10-08-38-51#cassandra-0.7.0#7b7e357/src/java/org/apache/cassandra/service/StorageService.java,F:/corpus/cassandra/cassandra#2011-06-03-06-03-47#cassandra-0.8.0#b44fa70/src/java/org/apache/cassandra/service/StorageService.java,0,1,0,0,2,14,0,2,1,1,0,3,0,YES,0,0,0,0,25,4,4,6,1,0,0,8,19,1,2,10,0,1,2,6,0,0,1,3,0,1,0,0,0,0,0,0,0,1,6,1,0,0,0,0,0,0,73,117,1,13,58,2,848,2016
cassandra,cassandra-0.7.0,cassandra-0.8.0,F:/corpus/cassandra/cassandra#2011-01-10-08-38-51#cassandra-0.7.0#7b7e357/src/java/org/apache/cassandra/service/StorageServiceMBean.java,F:/corpus/cassandra/cassandra#2011-06-03-06-03-47#cassandra-0.8.0#b44fa70/src/java/org/apache/cassandra/service/StorageServiceMBean.java,0,0,0,0,1,0,0,0,0,0,0,0,0,YES,0,0,0,0,15,0,0,0,0,0,0,0,0,0,0,0,0,0,0,2,0,0,1,3,0,0,0,0,0,0,0,0,0,0,4,0,0,0,0,0,0,0,0,0,0,0,0,0,87,262
cassandra,cassandra-0.7.0,cassandra-0.8.0,F:/corpus/cassandra/cassandra#2011-01-10-08-38-51#cassandra-0.7.0#7b7e357/src/java/org/apache/cassandra/service/TruncateResponseHandler.java,F:/corpus/cassandra/cassandra#2011-06-03-06-03-47#cassandra-0.8.0#b44fa70/src/java/org/apache/cassandra/service/TruncateResponseHandler.java,0,0,0,0,1,0,0,0,0,0,0,0,0,YES,0,0,0,0,1,0,0,0,0,0,0,0,0,0,0,0,0,0,0,0,0,0,0,0,0,0,0,0,0,0,0,0,0,0,0,0,0,0,0,0,0,0,0,0,0,0,0,0,5,76
cassandra,cassandra-0.7.0,cassandra-0.8.0,F:/corpus/cassandra/cassandra#2011-01-10-08-38-51#cassandra-0.7.0#7b7e357/src/java/org/apache/cassandra/service/WriteResponseHandler.java,F:/corpus/cassandra/cassandra#2011-06-03-06-03-47#cassandra-0.8.0#b44fa70/src/java/org/apache/cassandra/service/WriteResponseHandler.java,0,0,0,0,1,1,0,0,1,0,0,0,0,YES,0,0,0,0,1,0,0,0,0,0,0,1,0,0,0,0,0,0,0,1,0,0,0,0,0,0,0,0,0,0,0,0,0,0,0,0,0,0,0,0,0,0,11,9,0,0,0,0,22,124
cassandra,cassandra-0.7.0,cassandra-0.8.0,F:/corpus/cassandra/cassandra#2011-01-10-08-38-51#cassandra-0.7.0#7b7e357/src/java/org/apache/cassandra/streaming/FileStreamTask.java,F:/corpus/cassandra/cassandra#2011-06-03-06-03-47#cassandra-0.8.0#b44fa70/src/java/org/apache/cassandra/streaming/FileStreamTask.java,0,0,0,0,0,0,0,0,0,0,0,0,0,YES,0,0,0,0,6,1,0,0,0,0,0,2,0,1,0,0,0,1,0,0,3,0,0,0,0,0,0,0,0,0,0,0,0,0,1,0,0,0,0,0,1,0,16,1,0,1,2,0,61,164
cassandra,cassandra-0.7.0,cassandra-0.8.0,F:/corpus/cassandra/cassandra#2011-01-10-08-38-51#cassandra-0.7.0#7b7e357/src/java/org/apache/cassandra/streaming/IncomingStreamReader.java,F:/corpus/cassandra/cassandra#2011-06-03-06-03-47#cassandra-0.8.0#b44fa70/src/java/org/apache/cassandra/streaming/IncomingStreamReader.java,0,0,0,0,0,0,0,0,0,0,0,0,0,YES,0,0,0,0,1,0,0,0,0,0,0,0,0,0,0,0,0,0,0,0,4,0,0,0,0,1,1,0,0,0,0,0,0,0,0,0,0,0,0,0,0,0,4,1,0,0,2,0,27,109
cassandra,cassandra-0.7.0,cassandra-0.8.0,F:/corpus/cassandra/cassandra#2011-01-10-08-38-51#cassandra-0.7.0#7b7e357/src/java/org/apache/cassandra/streaming/PendingFile.java,F:/corpus/cassandra/cassandra#2011-06-03-06-03-47#cassandra-0.8.0#b44fa70/src/java/org/apache/cassandra/streaming/PendingFile.java,0,0,0,0,0,0,0,0,0,0,0,1,0,YES,0,0,0,0,0,1,0,0,0,0,0,0,1,0,0,0,0,0,0,0,0,0,0,3,0,0,0,0,0,0,0,0,0,0,0,0,0,0,0,0,0,0,0,6,0,0,3,0,14,135
cassandra,cassandra-0.7.0,cassandra-0.8.0,F:/corpus/cassandra/cassandra#2011-01-10-08-38-51#cassandra-0.7.0#7b7e357/src/java/org/apache/cassandra/streaming/ReplicationFinishedVerbHandler.java,F:/corpus/cassandra/cassandra#2011-06-03-06-03-47#cassandra-0.8.0#b44fa70/src/java/org/apache/cassandra/streaming/ReplicationFinishedVerbHandler.java,0,0,1,0,0,0,0,0,0,0,0,0,0,YES,0,0,0,0,0,0,0,0,0,0,0,0,0,0,0,0,0,0,0,0,0,0,0,1,0,0,0,0,0,0,0,0,0,0,0,0,0,0,0,0,0,0,0,0,0,0,3,0,4,44
cassandra,cassandra-0.7.0,cassandra-0.8.0,F:/corpus/cassandra/cassandra#2011-01-10-08-38-51#cassandra-0.7.0#7b7e357/src/java/org/apache/cassandra/streaming/StreamHeader.java,F:/corpus/cassandra/cassandra#2011-06-03-06-03-47#cassandra-0.8.0#b44fa70/src/java/org/apache/cassandra/streaming/StreamHeader.java,1,0,0,0,0,0,0,0,0,0,0,0,0,YES,0,0,0,0,0,0,0,0,0,0,0,0,0,0,0,0,0,0,0,0,0,0,0,2,0,0,0,0,0,0,0,0,0,0,0,0,0,0,0,0,0,0,0,0,0,0,4,0,6,102
cassandra,cassandra-0.7.0,cassandra-0.8.0,F:/corpus/cassandra/cassandra#2011-01-10-08-38-51#cassandra-0.7.0#7b7e357/src/java/org/apache/cassandra/streaming/StreamIn.java,F:/corpus/cassandra/cassandra#2011-06-03-06-03-47#cassandra-0.8.0#b44fa70/src/java/org/apache/cassandra/streaming/StreamIn.java,0,0,0,0,0,0,0,0,0,0,0,0,0,YES,0,0,0,0,0,0,0,0,0,0,0,0,0,0,0,0,0,0,1,0,0,0,0,1,0,0,0,0,0,0,0,0,0,0,1,0,0,0,0,0,0,0,0,0,0,0,3,0,10,81
cassandra,cassandra-0.7.0,cassandra-0.8.0,F:/corpus/cassandra/cassandra#2011-01-10-08-38-51#cassandra-0.7.0#7b7e357/src/java/org/apache/cassandra/streaming/StreamInSession.java,F:/corpus/cassandra/cassandra#2011-06-03-06-03-47#cassandra-0.8.0#b44fa70/src/java/org/apache/cassandra/streaming/StreamInSession.java,0,0,0,0,0,0,0,0,0,0,0,0,0,YES,0,0,0,0,0,0,0,0,0,0,0,0,0,0,0,1,0,0,0,0,0,0,0,0,0,0,0,0,0,0,0,0,0,0,0,1,0,0,0,0,0,0,3,6,0,1,6,0,15,207
cassandra,cassandra-0.7.0,cassandra-0.8.0,F:/corpus/cassandra/cassandra#2011-01-10-08-38-51#cassandra-0.7.0#7b7e357/src/java/org/apache/cassandra/streaming/StreamOut.java,F:/corpus/cassandra/cassandra#2011-06-03-06-03-47#cassandra-0.8.0#b44fa70/src/java/org/apache/cassandra/streaming/StreamOut.java,0,0,0,0,0,0,0,0,0,0,0,0,0,YES,0,0,0,0,0,0,0,0,0,0,0,0,0,0,0,1,0,0,0,0,0,0,0,4,0,0,0,0,0,0,0,0,0,0,0,0,0,0,0,0,0,0,0,0,0,0,4,0,9,176
cassandra,cassandra-0.7.0,cassandra-0.8.0,F:/corpus/cassandra/cassandra#2011-01-10-08-38-51#cassandra-0.7.0#7b7e357/src/java/org/apache/cassandra/streaming/StreamOutSession.java,F:/corpus/cassandra/cassandra#2011-06-03-06-03-47#cassandra-0.8.0#b44fa70/src/java/org/apache/cassandra/streaming/StreamOutSession.java,0,0,0,0,0,0,0,0,0,0,0,0,0,YES,0,0,0,0,0,0,0,0,0,0,0,0,0,0,0,0,0,0,0,0,0,0,0,0,0,0,0,0,0,0,0,0,0,0,0,0,0,0,0,0,0,0,0,0,0,0,2,0,2,178
cassandra,cassandra-0.7.0,cassandra-0.8.0,F:/corpus/cassandra/cassandra#2011-01-10-08-38-51#cassandra-0.7.0#7b7e357/src/java/org/apache/cassandra/streaming/StreamReply.java,F:/corpus/cassandra/cassandra#2011-06-03-06-03-47#cassandra-0.8.0#b44fa70/src/java/org/apache/cassandra/streaming/StreamReply.java,0,0,0,0,0,0,0,0,0,0,0,0,0,YES,0,0,0,0,1,0,0,0,0,0,0,0,0,0,0,0,0,0,0,0,0,0,0,2,0,0,0,0,0,0,0,0,1,0,1,0,0,0,0,0,0,0,0,0,0,0,0,0,7,91
cassandra,cassandra-0.7.0,cassandra-0.8.0,F:/corpus/cassandra/cassandra#2011-01-10-08-38-51#cassandra-0.7.0#7b7e357/src/java/org/apache/cassandra/streaming/StreamReplyVerbHandler.java,F:/corpus/cassandra/cassandra#2011-06-03-06-03-47#cassandra-0.8.0#b44fa70/src/java/org/apache/cassandra/streaming/StreamReplyVerbHandler.java,0,0,0,0,0,0,0,0,1,0,0,0,1,YES,0,0,0,0,0,0,0,0,0,0,0,0,0,0,0,0,0,0,0,0,0,0,0,1,0,0,0,0,0,0,0,0,0,0,0,0,0,0,0,0,0,0,0,3,0,0,1,0,7,73
cassandra,cassandra-0.7.0,cassandra-0.8.0,F:/corpus/cassandra/cassandra#2011-01-10-08-38-51#cassandra-0.7.0#7b7e357/src/java/org/apache/cassandra/streaming/StreamRequestMessage.java,F:/corpus/cassandra/cassandra#2011-06-03-06-03-47#cassandra-0.8.0#b44fa70/src/java/org/apache/cassandra/streaming/StreamRequestMessage.java,0,0,0,0,0,0,0,0,0,0,0,0,0,YES,0,0,0,0,1,1,0,0,0,0,0,0,0,0,0,0,0,0,0,0,0,0,0,3,0,0,0,0,0,0,0,0,1,0,1,0,0,0,0,0,0,0,0,8,0,0,3,0,18,169
cassandra,cassandra-0.7.0,cassandra-0.8.0,F:/corpus/cassandra/cassandra#2011-01-10-08-38-51#cassandra-0.7.0#7b7e357/src/java/org/apache/cassandra/streaming/StreamRequestVerbHandler.java,F:/corpus/cassandra/cassandra#2011-06-03-06-03-47#cassandra-0.8.0#b44fa70/src/java/org/apache/cassandra/streaming/StreamRequestVerbHandler.java,0,0,0,0,0,0,0,0,1,0,0,0,0,YES,0,0,0,0,0,0,0,0,0,0,0,0,0,0,0,0,0,0,0,0,0,0,0,1,0,0,0,0,0,0,0,0,0,0,0,0,0,0,0,0,0,0,0,0,0,0,2,0,3,62
cassandra,cassandra-0.7.0,cassandra-0.8.0,F:/corpus/cassandra/cassandra#2011-01-10-08-38-51#cassandra-0.7.0#7b7e357/src/java/org/apache/cassandra/streaming/StreamingService.java,F:/corpus/cassandra/cassandra#2011-06-03-06-03-47#cassandra-0.8.0#b44fa70/src/java/org/apache/cassandra/streaming/StreamingService.java,0,0,0,0,0,0,0,0,0,0,0,0,0,YES,0,0,0,0,0,0,0,0,0,0,0,0,0,0,0,0,0,0,0,0,0,0,0,0,0,0,0,0,0,0,0,0,0,0,0,1,0,0,0,0,0,0,0,0,0,0,0,0,3,114
cassandra,cassandra-0.7.0,cassandra-0.8.0,F:/corpus/cassandra/cassandra#2011-01-10-08-38-51#cassandra-0.7.0#7b7e357/src/java/org/apache/cassandra/thrift/CassandraDaemon.java,F:/corpus/cassandra/cassandra#2011-06-03-06-03-47#cassandra-0.8.0#b44fa70/src/java/org/apache/cassandra/thrift/CassandraDaemon.java,0,0,0,0,1,0,0,0,0,0,0,0,0,YES,0,0,0,1,2,1,0,0,0,0,0,0,0,0,0,0,0,0,0,0,0,0,0,0,0,0,0,0,0,0,0,0,0,0,3,1,0,0,0,0,0,0,0,0,0,0,0,0,149,136
cassandra,cassandra-0.7.0,cassandra-0.8.0,F:/corpus/cassandra/cassandra#2011-01-10-08-38-51#cassandra-0.7.0#7b7e357/src/java/org/apache/cassandra/thrift/CassandraServer.java,F:/corpus/cassandra/cassandra#2011-06-03-06-03-47#cassandra-0.8.0#b44fa70/src/java/org/apache/cassandra/thrift/CassandraServer.java,0,0,0,0,0,6,0,0,3,0,0,0,0,YES,0,0,0,0,11,1,1,1,0,0,0,2,0,0,0,0,0,0,0,1,0,0,0,0,0,0,1,0,0,0,0,0,0,0,1,0,0,0,0,0,0,0,67,28,0,4,18,0,367,920
cassandra,cassandra-0.7.0,cassandra-0.8.0,F:/corpus/cassandra/cassandra#2011-01-10-08-38-51#cassandra-0.7.0#7b7e357/src/java/org/apache/cassandra/thrift/CustomTThreadPoolServer.java,F:/corpus/cassandra/cassandra#2011-06-03-06-03-47#cassandra-0.8.0#b44fa70/src/java/org/apache/cassandra/thrift/CustomTThreadPoolServer.java,0,0,0,0,0,0,0,0,0,0,1,0,0,YES,0,0,0,0,0,2,0,0,0,0,0,0,1,0,0,0,0,0,0,1,0,0,7,1,0,0,0,0,0,0,0,0,0,1,0,1,0,0,0,0,0,0,2,11,0,2,1,0,146,189
cassandra,cassandra-0.7.0,cassandra-0.8.0,F:/corpus/cassandra/cassandra#2011-01-10-08-38-51#cassandra-0.7.0#7b7e357/src/java/org/apache/cassandra/thrift/ThriftValidation.java,F:/corpus/cassandra/cassandra#2011-06-03-06-03-47#cassandra-0.8.0#b44fa70/src/java/org/apache/cassandra/thrift/ThriftValidation.java,0,0,0,0,0,1,0,0,3,0,0,0,0,YES,0,0,0,0,6,0,1,2,0,0,0,0,3,0,0,9,0,0,3,0,3,3,21,16,4,0,0,0,0,0,0,0,0,0,0,1,0,0,0,1,0,1,23,78,11,5,31,0,229,432
cassandra,cassandra-0.7.0,cassandra-0.8.0,F:/corpus/cassandra/cassandra#2011-01-10-08-38-51#cassandra-0.7.0#7b7e357/src/java/org/apache/cassandra/tools/NodeCmd.java,F:/corpus/cassandra/cassandra#2011-06-03-06-03-47#cassandra-0.8.0#b44fa70/src/java/org/apache/cassandra/tools/NodeCmd.java,0,0,0,0,0,0,0,0,0,2,0,0,2,YES,0,0,0,2,2,5,2,3,1,1,0,2,2,0,0,10,0,0,0,0,0,0,0,0,0,0,0,0,0,0,0,0,0,0,0,4,0,0,0,0,0,0,45,97,10,80,32,0,263,653
cassandra,cassandra-0.7.0,cassandra-0.8.0,F:/corpus/cassandra/cassandra#2011-01-10-08-38-51#cassandra-0.7.0#7b7e357/src/java/org/apache/cassandra/tools/NodeProbe.java,F:/corpus/cassandra/cassandra#2011-06-03-06-03-47#cassandra-0.8.0#b44fa70/src/java/org/apache/cassandra/tools/NodeProbe.java,0,0,0,0,0,0,0,0,0,0,0,0,0,YES,0,0,0,0,13,2,0,0,0,0,0,0,1,0,0,0,0,0,0,0,0,0,0,3,0,0,0,0,0,0,0,0,0,0,3,0,0,0,0,2,0,0,0,4,0,0,9,0,91,544
cassandra,cassandra-0.7.0,cassandra-0.8.0,F:/corpus/cassandra/cassandra#2011-01-10-08-38-51#cassandra-0.7.0#7b7e357/src/java/org/apache/cassandra/tools/SSTableExport.java,F:/corpus/cassandra/cassandra#2011-06-03-06-03-47#cassandra-0.8.0#b44fa70/src/java/org/apache/cassandra/tools/SSTableExport.java,0,0,0,0,1,0,0,0,0,0,0,0,0,YES,0,0,0,0,1,1,1,1,0,0,0,1,1,0,0,9,0,0,4,4,0,0,2,4,1,3,0,0,0,0,0,0,0,0,0,1,0,0,0,0,0,0,41,17,3,9,30,0,157,366
cassandra,cassandra-0.7.0,cassandra-0.8.0,F:/corpus/cassandra/cassandra#2011-01-10-08-38-51#cassandra-0.7.0#7b7e357/src/java/org/apache/cassandra/tools/SSTableImport.java,F:/corpus/cassandra/cassandra#2011-06-03-06-03-47#cassandra-0.8.0#b44fa70/src/java/org/apache/cassandra/tools/SSTableImport.java,0,0,0,0,0,2,0,0,0,0,0,0,0,YES,0,0,0,0,13,8,5,0,2,0,0,3,0,0,0,1,0,1,0,2,0,0,0,0,0,0,2,0,0,0,0,0,0,0,1,2,0,0,0,0,0,0,42,18,0,2,5,0,335,256
cassandra,cassandra-0.7.0,cassandra-0.8.0,F:/corpus/cassandra/cassandra#2011-01-10-08-38-51#cassandra-0.7.0#7b7e357/src/java/org/apache/cassandra/utils/BloomCalculations.java,F:/corpus/cassandra/cassandra#2011-06-03-06-03-47#cassandra-0.8.0#b44fa70/src/java/org/apache/cassandra/utils/BloomCalculations.java,0,0,0,0,0,0,0,0,0,0,0,0,0,YES,0,0,0,0,1,1,0,0,0,0,0,0,0,0,0,0,0,0,0,0,0,0,0,0,0,0,0,0,0,0,0,0,0,0,0,0,0,0,0,0,0,0,0,0,0,0,0,0,18,161
cassandra,cassandra-0.7.0,cassandra-0.8.0,F:/corpus/cassandra/cassandra#2011-01-10-08-38-51#cassandra-0.7.0#7b7e357/src/java/org/apache/cassandra/utils/BloomFilter.java,F:/corpus/cassandra/cassandra#2011-06-03-06-03-47#cassandra-0.8.0#b44fa70/src/java/org/apache/cassandra/utils/BloomFilter.java,0,0,0,0,0,0,0,0,0,0,0,0,0,YES,0,0,0,0,2,1,0,0,0,1,0,0,0,0,0,3,1,0,0,0,0,0,1,1,0,0,0,0,0,0,0,0,0,0,6,1,0,0,0,3,0,0,5,4,0,0,3,0,120,192
cassandra,cassandra-0.7.0,cassandra-0.8.0,F:/corpus/cassandra/cassandra#2011-01-10-08-38-51#cassandra-0.7.0#7b7e357/src/java/org/apache/cassandra/utils/ByteBufferUtil.java,F:/corpus/cassandra/cassandra#2011-06-03-06-03-47#cassandra-0.8.0#b44fa70/src/java/org/apache/cassandra/utils/ByteBufferUtil.java,0,0,0,0,0,0,0,0,0,0,0,3,0,YES,0,0,0,0,27,1,1,1,0,0,0,0,1,0,0,1,0,0,4,0,0,0,0,0,0,3,0,0,0,0,0,0,0,0,0,0,0,0,0,0,0,0,13,20,0,3,5,0,313,126
cassandra,cassandra-0.7.0,cassandra-0.8.0,F:/corpus/cassandra/cassandra#2011-01-10-08-38-51#cassandra-0.7.0#7b7e357/src/java/org/apache/cassandra/utils/CLibrary.java,F:/corpus/cassandra/cassandra#2011-06-03-06-03-47#cassandra-0.8.0#b44fa70/src/java/org/apache/cassandra/utils/CLibrary.java,0,0,0,0,0,0,0,0,0,0,0,0,0,YES,0,0,0,0,5,10,0,0,0,0,0,0,0,0,0,0,0,0,0,0,1,0,0,0,0,0,0,0,0,0,0,0,0,0,0,0,0,0,0,0,0,0,0,0,0,0,0,0,89,171
cassandra,cassandra-0.7.0,cassandra-0.8.0,F:/corpus/cassandra/cassandra#2011-01-10-08-38-51#cassandra-0.7.0#7b7e357/src/java/org/apache/cassandra/utils/EstimatedHistogram.java,F:/corpus/cassandra/cassandra#2011-06-03-06-03-47#cassandra-0.8.0#b44fa70/src/java/org/apache/cassandra/utils/EstimatedHistogram.java,0,0,0,0,0,0,0,0,0,0,0,0,0,YES,0,0,0,0,2,0,1,0,0,0,0,2,2,0,0,4,0,0,6,0,0,2,0,0,0,0,2,0,0,0,1,0,0,0,1,1,0,0,0,0,0,0,10,8,0,1,7,0,61,190
cassandra,cassandra-0.7.0,cassandra-0.8.0,F:/corpus/cassandra/cassandra#2011-01-10-08-38-51#cassandra-0.7.0#7b7e357/src/java/org/apache/cassandra/utils/ExpiringMap.java,F:/corpus/cassandra/cassandra#2011-06-03-06-03-47#cassandra-0.8.0#b44fa70/src/java/org/apache/cassandra/utils/ExpiringMap.java,0,0,0,0,0,0,0,0,0,0,0,0,0,YES,0,0,0,0,0,0,0,0,0,2,0,0,0,0,0,0,0,0,0,0,0,0,0,0,0,0,1,0,0,0,0,0,0,0,0,1,0,0,0,0,0,1,20,10,0,1,1,0,43,176
cassandra,cassandra-0.7.0,cassandra-0.8.0,F:/corpus/cassandra/cassandra#2011-01-10-08-38-51#cassandra-0.7.0#7b7e357/src/java/org/apache/cassandra/utils/FBUtilities.java,F:/corpus/cassandra/cassandra#2011-06-03-06-03-47#cassandra-0.8.0#b44fa70/src/java/org/apache/cassandra/utils/FBUtilities.java,0,0,0,0,0,1,0,0,0,0,0,7,0,YES,0,0,0,0,7,1,0,0,0,0,0,1,0,0,0,0,0,0,1,1,0,1,0,0,0,1,0,0,0,0,0,0,0,0,11,2,0,0,0,0,0,0,18,9,0,1,5,0,189,679
cassandra,cassandra-0.7.0,cassandra-0.8.0,F:/corpus/cassandra/cassandra#2011-01-10-08-38-51#cassandra-0.7.0#7b7e357/src/java/org/apache/cassandra/utils/Filter.java,F:/corpus/cassandra/cassandra#2011-06-03-06-03-47#cassandra-0.8.0#b44fa70/src/java/org/apache/cassandra/utils/Filter.java,0,0,0,0,1,1,0,0,0,0,0,0,0,YES,0,0,0,0,0,0,0,0,0,0,0,0,0,0,0,0,0,0,0,0,0,0,0,0,0,0,0,0,0,0,0,0,0,0,5,1,0,0,0,0,0,0,0,0,0,0,0,0,46,81
cassandra,cassandra-0.7.0,cassandra-0.8.0,F:/corpus/cassandra/cassandra#2011-01-10-08-38-51#cassandra-0.7.0#7b7e357/src/java/org/apache/cassandra/utils/GuidGenerator.java,F:/corpus/cassandra/cassandra#2011-06-03-06-03-47#cassandra-0.8.0#b44fa70/src/java/org/apache/cassandra/utils/GuidGenerator.java,0,0,0,0,0,0,0,0,0,0,0,0,0,YES,0,0,0,0,0,0,0,0,0,0,0,0,0,0,0,1,0,0,0,0,0,0,0,0,0,0,0,0,0,0,0,0,0,0,0,2,0,0,0,0,0,0,0,0,0,0,3,0,19,129
cassandra,cassandra-0.7.0,cassandra-0.8.0,F:/corpus/cassandra/cassandra#2011-01-10-08-38-51#cassandra-0.7.0#7b7e357/src/java/org/apache/cassandra/utils/LatencyTracker.java,F:/corpus/cassandra/cassandra#2011-06-03-06-03-47#cassandra-0.8.0#b44fa70/src/java/org/apache/cassandra/utils/LatencyTracker.java,0,0,0,0,0,0,0,0,0,0,0,0,0,YES,0,0,0,0,0,0,0,0,0,0,0,0,0,0,0,0,0,0,0,0,0,0,0,0,0,0,0,0,0,0,0,0,0,0,0,0,0,0,0,0,0,0,0,0,0,0,2,0,2,86
cassandra,cassandra-0.7.0,cassandra-0.8.0,F:/corpus/cassandra/cassandra#2011-01-10-08-38-51#cassandra-0.7.0#7b7e357/src/java/org/apache/cassandra/utils/MerkleTree.java,F:/corpus/cassandra/cassandra#2011-06-03-06-03-47#cassandra-0.8.0#b44fa70/src/java/org/apache/cassandra/utils/MerkleTree.java,1,0,0,0,1,0,0,0,0,0,0,0,0,YES,0,0,0,4,0,7,0,1,0,0,0,2,4,0,0,0,0,0,0,3,1,0,2,1,0,0,0,0,0,0,0,0,0,0,2,1,0,0,0,0,0,0,12,11,1,2,11,0,256,810
cassandra,cassandra-0.7.0,cassandra-0.8.0,F:/corpus/cassandra/cassandra#2011-01-10-08-38-51#cassandra-0.7.0#7b7e357/src/java/org/apache/cassandra/utils/MurmurHash.java,F:/corpus/cassandra/cassandra#2011-06-03-06-03-47#cassandra-0.8.0#b44fa70/src/java/org/apache/cassandra/utils/MurmurHash.java,0,0,0,0,0,0,0,0,0,0,0,0,0,YES,0,0,0,0,2,0,0,0,0,0,0,0,0,0,0,0,0,0,0,1,0,0,0,0,0,0,0,0,0,0,0,0,0,0,1,0,0,0,0,0,0,0,0,0,0,0,0,0,46,77
cassandra,cassandra-0.7.0,cassandra-0.8.0,F:/corpus/cassandra/cassandra#2011-01-10-08-38-51#cassandra-0.7.0#7b7e357/src/java/org/apache/cassandra/utils/ReducingIterator.java,F:/corpus/cassandra/cassandra#2011-06-03-06-03-47#cassandra-0.8.0#b44fa70/src/java/org/apache/cassandra/utils/ReducingIterator.java,0,0,0,0,1,0,0,0,0,0,0,0,0,YES,0,0,0,0,1,0,0,0,0,0,0,0,0,0,0,0,0,0,0,0,0,0,0,0,0,0,0,0,0,0,0,0,0,0,0,0,0,0,0,0,0,0,0,1,0,0,0,0,7,80
cassandra,cassandra-0.7.0,cassandra-0.8.0,F:/corpus/cassandra/cassandra#2011-01-10-08-38-51#cassandra-0.7.0#7b7e357/src/java/org/apache/cassandra/utils/UUIDGen.java,F:/corpus/cassandra/cassandra#2011-06-03-06-03-47#cassandra-0.8.0#b44fa70/src/java/org/apache/cassandra/utils/UUIDGen.java,0,0,0,0,0,0,0,0,0,0,0,3,0,YES,0,0,0,0,10,5,0,0,0,0,0,0,1,0,0,0,1,0,0,2,0,0,0,0,0,0,0,0,0,0,0,0,0,0,0,0,0,0,0,0,0,0,9,3,0,0,0,1,157,75
cassandra,cassandra-0.7.0,cassandra-0.8.0,F:/corpus/cassandra/cassandra#2011-01-10-08-38-51#cassandra-0.7.0#7b7e357/src/java/org/apache/cassandra/auth/AuthenticatedUser.java,F:/corpus/cassandra/cassandra#2011-01-10-08-38-51#cassandra-0.7.0#7b7e357/src/java/org/apache/cassandra/auth/AuthenticatedUser.java,0,0,0,0,0,0,0,0,0,0,0,0,0,NO,0,0,0,0,0,0,0,0,0,0,0,0,0,0,0,0,0,0,0,0,0,0,0,0,0,0,0,0,0,0,0,0,0,0,0,0,0,0,0,0,0,0,0,0,0,0,0,0,0,52
cassandra,cassandra-0.7.0,cassandra-0.8.0,F:/corpus/cassandra/cassandra#2011-01-10-08-38-51#cassandra-0.7.0#7b7e357/src/java/org/apache/cassandra/auth/IAuthenticator.java,F:/corpus/cassandra/cassandra#2011-01-10-08-38-51#cassandra-0.7.0#7b7e357/src/java/org/apache/cassandra/auth/IAuthenticator.java,0,0,0,0,0,0,0,0,0,0,0,0,0,NO,0,0,0,0,0,0,0,0,0,0,0,0,0,0,0,0,0,0,0,0,0,0,0,0,0,0,0,0,0,0,0,0,0,0,0,0,0,0,0,0,0,0,0,0,0,0,0,0,0,42
cassandra,cassandra-0.7.0,cassandra-0.8.0,F:/corpus/cassandra/cassandra#2011-01-10-08-38-51#cassandra-0.7.0#7b7e357/src/java/org/apache/cassandra/auth/IAuthority.java,F:/corpus/cassandra/cassandra#2011-01-10-08-38-51#cassandra-0.7.0#7b7e357/src/java/org/apache/cassandra/auth/IAuthority.java,0,0,0,0,0,0,0,0,0,0,0,0,0,NO,0,0,0,0,0,0,0,0,0,0,0,0,0,0,0,0,0,0,0,0,0,0,0,0,0,0,0,0,0,0,0,0,0,0,0,0,0,0,0,0,0,0,0,0,0,0,0,0,0,66
cassandra,cassandra-0.7.0,cassandra-0.8.0,F:/corpus/cassandra/cassandra#2011-01-10-08-38-51#cassandra-0.7.0#7b7e357/src/java/org/apache/cassandra/auth/Permission.java,F:/corpus/cassandra/cassandra#2011-01-10-08-38-51#cassandra-0.7.0#7b7e357/src/java/org/apache/cassandra/auth/Permission.java,0,0,0,0,0,0,0,0,0,0,0,0,0,NO,0,0,0,0,0,0,0,0,0,0,0,0,0,0,0,0,0,0,0,0,0,0,0,0,0,0,0,0,0,0,0,0,0,0,0,0,0,0,0,0,0,0,0,0,0,0,0,0,0,38
cassandra,cassandra-0.7.0,cassandra-0.8.0,F:/corpus/cassandra/cassandra#2011-01-10-08-38-51#cassandra-0.7.0#7b7e357/src/java/org/apache/cassandra/auth/Resources.java,F:/corpus/cassandra/cassandra#2011-01-10-08-38-51#cassandra-0.7.0#7b7e357/src/java/org/apache/cassandra/auth/Resources.java,0,0,0,0,0,0,0,0,0,0,0,0,0,NO,0,0,0,0,0,0,0,0,0,0,0,0,0,0,0,0,0,0,0,0,0,0,0,0,0,0,0,0,0,0,0,0,0,0,0,0,0,0,0,0,0,0,0,0,0,0,0,0,0,51
cassandra,cassandra-0.7.0,cassandra-0.8.0,F:/corpus/cassandra/cassandra#2011-01-10-08-38-51#cassandra-0.7.0#7b7e357/src/java/org/apache/cassandra/cli/CliCompiler.java,F:/corpus/cassandra/cassandra#2011-01-10-08-38-51#cassandra-0.7.0#7b7e357/src/java/org/apache/cassandra/cli/CliCompiler.java,0,0,0,0,0,0,0,0,0,0,0,0,0,NO,0,0,0,0,0,0,0,0,0,0,0,0,0,0,0,0,0,0,0,0,0,0,0,0,0,0,0,0,0,0,0,0,0,0,0,0,0,0,0,0,0,0,0,0,0,0,0,0,0,173
cassandra,cassandra-0.7.0,cassandra-0.8.0,F:/corpus/cassandra/cassandra#2011-01-10-08-38-51#cassandra-0.7.0#7b7e357/src/java/org/apache/cassandra/concurrent/AIOExecutorService.java,F:/corpus/cassandra/cassandra#2011-01-10-08-38-51#cassandra-0.7.0#7b7e357/src/java/org/apache/cassandra/concurrent/AIOExecutorService.java,0,0,0,0,0,0,0,0,0,0,0,0,0,NO,0,0,0,0,0,0,0,0,0,0,0,0,0,0,0,0,0,0,0,0,0,0,0,0,0,0,0,0,0,0,0,0,0,0,0,0,0,0,0,0,0,0,0,0,0,0,0,0,0,309
cassandra,cassandra-0.7.0,cassandra-0.8.0,F:/corpus/cassandra/cassandra#2011-01-10-08-38-51#cassandra-0.7.0#7b7e357/src/java/org/apache/cassandra/concurrent/Context.java,F:/corpus/cassandra/cassandra#2011-01-10-08-38-51#cassandra-0.7.0#7b7e357/src/java/org/apache/cassandra/concurrent/Context.java,0,0,0,0,0,0,0,0,0,0,0,0,0,NO,0,0,0,0,0,0,0,0,0,0,0,0,0,0,0,0,0,0,0,0,0,0,0,0,0,0,0,0,0,0,0,0,0,0,0,0,0,0,0,0,0,0,0,0,0,0,0,0,0,51
cassandra,cassandra-0.7.0,cassandra-0.8.0,F:/corpus/cassandra/cassandra#2011-01-10-08-38-51#cassandra-0.7.0#7b7e357/src/java/org/apache/cassandra/concurrent/IExecutorMBean.java,F:/corpus/cassandra/cassandra#2011-01-10-08-38-51#cassandra-0.7.0#7b7e357/src/java/org/apache/cassandra/concurrent/IExecutorMBean.java,0,0,0,0,0,0,0,0,0,0,0,0,0,NO,0,0,0,0,0,0,0,0,0,0,0,0,0,0,0,0,0,0,0,0,0,0,0,0,0,0,0,0,0,0,0,0,0,0,0,0,0,0,0,0,0,0,0,0,0,0,0,0,0,38
cassandra,cassandra-0.7.0,cassandra-0.8.0,F:/corpus/cassandra/cassandra#2011-01-10-08-38-51#cassandra-0.7.0#7b7e357/src/java/org/apache/cassandra/concurrent/JMXEnabledThreadPoolExecutorMBean.java,F:/corpus/cassandra/cassandra#2011-01-10-08-38-51#cassandra-0.7.0#7b7e357/src/java/org/apache/cassandra/concurrent/JMXEnabledThreadPoolExecutorMBean.java,0,0,0,0,0,0,0,0,0,0,0,0,0,NO,0,0,0,0,0,0,0,0,0,0,0,0,0,0,0,0,0,0,0,0,0,0,0,0,0,0,0,0,0,0,0,0,0,0,0,0,0,0,0,0,0,0,0,0,0,0,0,0,0,23
cassandra,cassandra-0.7.0,cassandra-0.8.0,F:/corpus/cassandra/cassandra#2011-01-10-08-38-51#cassandra-0.7.0#7b7e357/src/java/org/apache/cassandra/concurrent/NamedThreadFactory.java,F:/corpus/cassandra/cassandra#2011-01-10-08-38-51#cassandra-0.7.0#7b7e357/src/java/org/apache/cassandra/concurrent/NamedThreadFactory.java,0,0,0,0,0,0,0,0,0,0,0,0,0,NO,0,0,0,0,0,0,0,0,0,0,0,0,0,0,0,0,0,0,0,0,0,0,0,0,0,0,0,0,0,0,0,0,0,0,0,0,0,0,0,0,0,0,0,0,0,0,0,0,0,55
cassandra,cassandra-0.7.0,cassandra-0.8.0,F:/corpus/cassandra/cassandra#2011-01-10-08-38-51#cassandra-0.7.0#7b7e357/src/java/org/apache/cassandra/config/ConfigurationException.java,F:/corpus/cassandra/cassandra#2011-01-10-08-38-51#cassandra-0.7.0#7b7e357/src/java/org/apache/cassandra/config/ConfigurationException.java,0,0,0,0,0,0,0,0,0,0,0,0,0,NO,0,0,0,0,0,0,0,0,0,0,0,0,0,0,0,0,0,0,0,0,0,0,0,0,0,0,0,0,0,0,0,0,0,0,0,0,0,0,0,0,0,0,0,0,0,0,0,0,0,32
cassandra,cassandra-0.7.0,cassandra-0.8.0,F:/corpus/cassandra/cassandra#2011-01-10-08-38-51#cassandra-0.7.0#7b7e357/src/java/org/apache/cassandra/config/ReplicationStrategy.java,F:/corpus/cassandra/cassandra#2011-01-10-08-38-51#cassandra-0.7.0#7b7e357/src/java/org/apache/cassandra/config/ReplicationStrategy.java,0,0,0,0,0,0,0,0,0,0,0,0,0,NO,0,0,0,0,0,0,0,0,0,0,0,0,0,0,0,0,0,0,0,0,0,0,0,0,0,0,0,0,0,0,0,0,0,0,0,0,0,0,0,0,0,0,0,0,0,0,0,0,0,30
cassandra,cassandra-0.7.0,cassandra-0.8.0,F:/corpus/cassandra/cassandra#2011-01-10-08-38-51#cassandra-0.7.0#7b7e357/src/java/org/apache/cassandra/config/RequestSchedulerOptions.java,F:/corpus/cassandra/cassandra#2011-01-10-08-38-51#cassandra-0.7.0#7b7e357/src/java/org/apache/cassandra/config/RequestSchedulerOptions.java,1,0,0,0,0,0,0,0,0,0,0,0,0,NO,0,0,0,0,0,0,0,0,0,0,0,0,0,0,0,0,0,0,0,0,0,0,0,0,0,0,0,0,0,0,0,0,0,0,0,0,0,0,0,0,0,0,0,0,0,0,0,0,0,36
cassandra,cassandra-0.7.0,cassandra-0.8.0,F:/corpus/cassandra/cassandra#2011-01-10-08-38-51#cassandra-0.7.0#7b7e357/src/java/org/apache/cassandra/db/ColumnFamilyNotDefinedException.java,F:/corpus/cassandra/cassandra#2011-01-10-08-38-51#cassandra-0.7.0#7b7e357/src/java/org/apache/cassandra/db/ColumnFamilyNotDefinedException.java,0,0,0,0,0,0,0,0,0,0,0,0,0,NO,0,0,0,0,0,0,0,0,0,0,0,0,0,0,0,0,0,0,0,0,0,0,0,0,0,0,0,0,0,0,0,0,0,0,0,0,0,0,0,0,0,0,0,0,0,0,0,0,0,29
cassandra,cassandra-0.7.0,cassandra-0.8.0,F:/corpus/cassandra/cassandra#2011-01-10-08-38-51#cassandra-0.7.0#7b7e357/src/java/org/apache/cassandra/db/ColumnFamilyType.java,F:/corpus/cassandra/cassandra#2011-01-10-08-38-51#cassandra-0.7.0#7b7e357/src/java/org/apache/cassandra/db/ColumnFamilyType.java,0,0,0,0,0,0,0,0,0,0,0,0,0,NO,0,0,0,0,0,0,0,0,0,0,0,0,0,0,0,0,0,0,0,0,0,0,0,0,0,0,0,0,0,0,0,0,0,0,0,0,0,0,0,0,0,0,0,0,0,0,0,0,0,40
cassandra,cassandra-0.7.0,cassandra-0.8.0,F:/corpus/cassandra/cassandra#2011-01-10-08-38-51#cassandra-0.7.0#7b7e357/src/java/org/apache/cassandra/db/columniterator/SimpleAbstractColumnIterator.java,F:/corpus/cassandra/cassandra#2011-01-10-08-38-51#cassandra-0.7.0#7b7e357/src/java/org/apache/cassandra/db/columniterator/SimpleAbstractColumnIterator.java,0,0,0,0,1,0,0,0,0,0,0,0,0,NO,0,0,0,0,0,0,0,0,0,0,0,0,0,0,0,0,0,0,0,0,0,0,0,0,0,0,0,0,0,0,0,0,0,0,0,0,0,0,0,0,0,0,0,0,0,0,0,0,0,33
cassandra,cassandra-0.7.0,cassandra-0.8.0,F:/corpus/cassandra/cassandra#2011-01-10-08-38-51#cassandra-0.7.0#7b7e357/src/java/org/apache/cassandra/db/commitlog/BatchCommitLogExecutorServiceMBean.java,F:/corpus/cassandra/cassandra#2011-01-10-08-38-51#cassandra-0.7.0#7b7e357/src/java/org/apache/cassandra/db/commitlog/BatchCommitLogExecutorServiceMBean.java,0,0,0,0,1,0,0,0,0,0,0,0,0,NO,0,0,0,0,0,0,0,0,0,0,0,0,0,0,0,0,0,0,0,0,0,0,0,0,0,0,0,0,0,0,0,0,0,0,0,0,0,0,0,0,0,0,0,0,0,0,0,0,0,25
cassandra,cassandra-0.7.0,cassandra-0.8.0,F:/corpus/cassandra/cassandra#2011-01-10-08-38-51#cassandra-0.7.0#7b7e357/src/java/org/apache/cassandra/db/commitlog/PeriodicCommitLogExecutorServiceMBean.java,F:/corpus/cassandra/cassandra#2011-01-10-08-38-51#cassandra-0.7.0#7b7e357/src/java/org/apache/cassandra/db/commitlog/PeriodicCommitLogExecutorServiceMBean.java,0,0,0,0,1,0,0,0,0,0,0,0,0,NO,0,0,0,0,0,0,0,0,0,0,0,0,0,0,0,0,0,0,0,0,0,0,0,0,0,0,0,0,0,0,0,0,0,0,0,0,0,0,0,0,0,0,0,0,0,0,0,0,0,25
cassandra,cassandra-0.7.0,cassandra-0.8.0,F:/corpus/cassandra/cassandra#2011-01-10-08-38-51#cassandra-0.7.0#7b7e357/src/java/org/apache/cassandra/db/DBConstants.java,F:/corpus/cassandra/cassandra#2011-01-10-08-38-51#cassandra-0.7.0#7b7e357/src/java/org/apache/cassandra/db/DBConstants.java,1,0,0,0,0,0,0,0,0,0,0,0,0,NO,0,0,0,0,0,0,0,0,0,0,0,0,0,0,0,0,0,0,0,0,0,0,0,0,0,0,0,0,0,0,0,0,0,0,0,0,0,0,0,0,0,0,0,0,0,0,0,0,0,28
cassandra,cassandra-0.7.0,cassandra-0.8.0,F:/corpus/cassandra/cassandra#2011-01-10-08-38-51#cassandra-0.7.0#7b7e357/src/java/org/apache/cassandra/db/filter/AbstractColumnIterator.java,F:/corpus/cassandra/cassandra#2011-01-10-08-38-51#cassandra-0.7.0#7b7e357/src/java/org/apache/cassandra/db/filter/AbstractColumnIterator.java,0,0,0,0,1,0,0,0,0,0,0,0,0,NO,0,0,0,0,0,0,0,0,0,0,0,0,0,0,0,0,0,0,0,0,0,0,0,0,0,0,0,0,0,0,0,0,0,0,0,0,0,0,0,0,0,0,0,0,0,0,0,0,0,37
cassandra,cassandra-0.7.0,cassandra-0.8.0,F:/corpus/cassandra/cassandra#2011-01-10-08-38-51#cassandra-0.7.0#7b7e357/src/java/org/apache/cassandra/db/KeyspaceNotDefinedException.java,F:/corpus/cassandra/cassandra#2011-01-10-08-38-51#cassandra-0.7.0#7b7e357/src/java/org/apache/cassandra/db/KeyspaceNotDefinedException.java,0,0,0,0,0,0,0,0,0,0,0,0,0,NO,0,0,0,0,0,0,0,0,0,0,0,0,0,0,0,0,0,0,0,0,0,0,0,0,0,0,0,0,0,0,0,0,0,0,0,0,0,0,0,0,0,0,0,0,0,0,0,0,0,29
cassandra,cassandra-0.7.0,cassandra-0.8.0,F:/corpus/cassandra/cassandra#2011-01-10-08-38-51#cassandra-0.7.0#7b7e357/src/java/org/apache/cassandra/db/marshal/MarshalException.java,F:/corpus/cassandra/cassandra#2011-01-10-08-38-51#cassandra-0.7.0#7b7e357/src/java/org/apache/cassandra/db/marshal/MarshalException.java,0,0,0,0,0,0,0,0,0,0,0,0,0,NO,0,0,0,0,0,0,0,0,0,0,0,0,0,0,0,0,0,0,0,0,0,0,0,0,0,0,0,0,0,0,0,0,0,0,0,0,0,0,0,0,0,0,0,0,0,0,0,0,0,35
cassandra,cassandra-0.7.0,cassandra-0.8.0,F:/corpus/cassandra/cassandra#2011-01-10-08-38-51#cassandra-0.7.0#7b7e357/src/java/org/apache/cassandra/db/UnserializableColumnFamilyException.java,F:/corpus/cassandra/cassandra#2011-01-10-08-38-51#cassandra-0.7.0#7b7e357/src/java/org/apache/cassandra/db/UnserializableColumnFamilyException.java,0,0,0,0,0,0,0,0,0,0,0,0,0,NO,0,0,0,0,0,0,0,0,0,0,0,0,0,0,0,0,0,0,0,0,0,0,0,0,0,0,0,0,0,0,0,0,0,0,0,0,0,0,0,0,0,0,0,0,0,0,0,0,0,33
cassandra,cassandra-0.7.0,cassandra-0.8.0,F:/corpus/cassandra/cassandra#2011-01-10-08-38-51#cassandra-0.7.0#7b7e357/src/java/org/apache/cassandra/dht/IPartitioner.java,F:/corpus/cassandra/cassandra#2011-01-10-08-38-51#cassandra-0.7.0#7b7e357/src/java/org/apache/cassandra/dht/IPartitioner.java,0,0,0,0,1,0,0,0,0,0,0,0,0,NO,0,0,0,0,0,0,0,0,0,0,0,0,0,0,0,0,0,0,0,0,0,0,0,0,0,0,0,0,0,0,0,0,0,0,0,0,0,0,0,0,0,0,0,0,0,0,0,0,0,87
cassandra,cassandra-0.7.0,cassandra-0.8.0,F:/corpus/cassandra/cassandra#2011-01-10-08-38-51#cassandra-0.7.0#7b7e357/src/java/org/apache/cassandra/gms/FailureDetectorMBean.java,F:/corpus/cassandra/cassandra#2011-01-10-08-38-51#cassandra-0.7.0#7b7e357/src/java/org/apache/cassandra/gms/FailureDetectorMBean.java,0,0,0,0,1,0,0,0,0,0,0,0,0,NO,0,0,0,0,0,0,0,0,0,0,0,0,0,0,0,0,0,0,0,0,0,0,0,0,0,0,0,0,0,0,0,0,0,0,0,0,0,0,0,0,0,0,0,0,0,0,0,0,0,30
cassandra,cassandra-0.7.0,cassandra-0.8.0,F:/corpus/cassandra/cassandra#2011-01-10-08-38-51#cassandra-0.7.0#7b7e357/src/java/org/apache/cassandra/gms/IEndpointStateChangeSubscriber.java,F:/corpus/cassandra/cassandra#2011-01-10-08-38-51#cassandra-0.7.0#7b7e357/src/java/org/apache/cassandra/gms/IEndpointStateChangeSubscriber.java,0,0,0,0,0,0,0,0,0,0,0,0,0,NO,0,0,0,0,0,0,0,0,0,0,0,0,0,0,0,0,0,0,0,0,0,0,0,0,0,0,0,0,0,0,0,0,0,0,0,0,0,0,0,0,0,0,0,0,0,0,0,0,0,50
cassandra,cassandra-0.7.0,cassandra-0.8.0,F:/corpus/cassandra/cassandra#2011-01-10-08-38-51#cassandra-0.7.0#7b7e357/src/java/org/apache/cassandra/gms/IFailureDetectionEventListener.java,F:/corpus/cassandra/cassandra#2011-01-10-08-38-51#cassandra-0.7.0#7b7e357/src/java/org/apache/cassandra/gms/IFailureDetectionEventListener.java,0,0,0,0,1,0,0,0,0,0,0,0,0,NO,0,0,0,0,0,0,0,0,0,0,0,0,0,0,0,0,0,0,0,0,0,0,0,0,0,0,0,0,0,0,0,0,0,0,0,0,0,0,0,0,0,0,0,0,0,0,0,0,0,37
cassandra,cassandra-0.7.0,cassandra-0.8.0,F:/corpus/cassandra/cassandra#2011-01-10-08-38-51#cassandra-0.7.0#7b7e357/src/java/org/apache/cassandra/gms/IFailureDetector.java,F:/corpus/cassandra/cassandra#2011-01-10-08-38-51#cassandra-0.7.0#7b7e357/src/java/org/apache/cassandra/gms/IFailureDetector.java,0,0,0,0,1,0,0,0,0,0,0,0,0,NO,0,0,0,0,0,0,0,0,0,0,0,0,0,0,0,0,0,0,0,0,0,0,0,0,0,0,0,0,0,0,0,0,0,0,0,0,0,0,0,0,0,0,0,0,0,0,0,0,0,75
cassandra,cassandra-0.7.0,cassandra-0.8.0,F:/corpus/cassandra/cassandra#2011-01-10-08-38-51#cassandra-0.7.0#7b7e357/src/java/org/apache/cassandra/gms/IFailureNotification.java,F:/corpus/cassandra/cassandra#2011-01-10-08-38-51#cassandra-0.7.0#7b7e357/src/java/org/apache/cassandra/gms/IFailureNotification.java,0,0,0,0,1,0,0,0,0,0,0,0,0,NO,0,0,0,0,0,0,0,0,0,0,0,0,0,0,0,0,0,0,0,0,0,0,0,0,0,0,0,0,0,0,0,0,0,0,0,0,0,0,0,0,0,0,0,0,0,0,0,0,0,27
cassandra,cassandra-0.7.0,cassandra-0.8.0,F:/corpus/cassandra/cassandra#2011-01-10-08-38-51#cassandra-0.7.0#7b7e357/src/java/org/apache/cassandra/gms/PureRandom.java,F:/corpus/cassandra/cassandra#2011-01-10-08-38-51#cassandra-0.7.0#7b7e357/src/java/org/apache/cassandra/gms/PureRandom.java,0,0,0,0,1,0,0,0,0,0,0,0,0,NO,0,0,0,0,0,0,0,0,0,0,0,0,0,0,0,0,0,0,0,0,0,0,0,0,0,0,0,0,0,0,0,0,0,0,0,0,0,0,0,0,0,0,0,0,0,0,0,0,0,81
cassandra,cassandra-0.7.0,cassandra-0.8.0,F:/corpus/cassandra/cassandra#2011-01-10-08-38-51#cassandra-0.7.0#7b7e357/src/java/org/apache/cassandra/gms/VersionGenerator.java,F:/corpus/cassandra/cassandra#2011-01-10-08-38-51#cassandra-0.7.0#7b7e357/src/java/org/apache/cassandra/gms/VersionGenerator.java,0,0,0,0,0,0,0,0,0,0,0,0,0,NO,0,0,0,0,0,0,0,0,0,0,0,0,0,0,0,0,0,0,0,0,0,0,0,0,0,0,0,0,0,0,0,0,0,0,0,0,0,0,0,0,0,0,0,0,0,0,0,0,0,36
cassandra,cassandra-0.7.0,cassandra-0.8.0,F:/corpus/cassandra/cassandra#2011-01-10-08-38-51#cassandra-0.7.0#7b7e357/src/java/org/apache/cassandra/io/AbstractCompactedRow.java,F:/corpus/cassandra/cassandra#2011-01-10-08-38-51#cassandra-0.7.0#7b7e357/src/java/org/apache/cassandra/io/AbstractCompactedRow.java,0,0,0,0,0,0,0,0,0,0,0,0,0,NO,0,0,0,0,0,0,0,0,0,0,0,0,0,0,0,0,0,0,0,0,0,0,0,0,0,0,0,0,0,0,0,0,0,0,0,0,0,0,0,0,0,0,0,0,0,0,0,0,0,63
cassandra,cassandra-0.7.0,cassandra-0.8.0,F:/corpus/cassandra/cassandra#2011-01-10-08-38-51#cassandra-0.7.0#7b7e357/src/java/org/apache/cassandra/io/ICompactSerializer2.java,F:/corpus/cassandra/cassandra#2011-01-10-08-38-51#cassandra-0.7.0#7b7e357/src/java/org/apache/cassandra/io/ICompactSerializer2.java,0,0,0,0,1,0,0,0,0,0,0,0,0,NO,0,0,0,0,0,0,0,0,0,0,0,0,0,0,0,0,0,0,0,0,0,0,0,0,0,0,0,0,0,0,0,0,0,0,0,0,0,0,0,0,0,0,0,0,0,0,0,0,0,42
cassandra,cassandra-0.7.0,cassandra-0.8.0,F:/corpus/cassandra/cassandra#2011-01-10-08-38-51#cassandra-0.7.0#7b7e357/src/java/org/apache/cassandra/io/sstable/BloomFilterTracker.java,F:/corpus/cassandra/cassandra#2011-01-10-08-38-51#cassandra-0.7.0#7b7e357/src/java/org/apache/cassandra/io/sstable/BloomFilterTracker.java,0,0,0,0,0,0,0,0,0,0,0,0,0,NO,0,0,0,0,0,0,0,0,0,0,0,0,0,0,0,0,0,0,0,0,0,0,0,0,0,0,0,0,0,0,0,0,0,0,0,0,0,0,0,0,0,0,0,0,0,0,0,0,0,78
cassandra,cassandra-0.7.0,cassandra-0.8.0,F:/corpus/cassandra/cassandra#2011-01-10-08-38-51#cassandra-0.7.0#7b7e357/src/java/org/apache/cassandra/io/sstable/Component.java,F:/corpus/cassandra/cassandra#2011-01-10-08-38-51#cassandra-0.7.0#7b7e357/src/java/org/apache/cassandra/io/sstable/Component.java,1,0,0,0,0,0,0,0,0,0,0,0,0,NO,0,0,0,0,0,0,0,0,0,0,0,0,0,0,0,0,0,0,0,0,0,0,0,0,0,0,0,0,0,0,0,0,0,0,0,0,0,0,0,0,0,0,0,0,0,0,0,0,0,173
cassandra,cassandra-0.7.0,cassandra-0.8.0,F:/corpus/cassandra/cassandra#2011-01-10-08-38-51#cassandra-0.7.0#7b7e357/src/java/org/apache/cassandra/io/sstable/IndexSummary.java,F:/corpus/cassandra/cassandra#2011-01-10-08-38-51#cassandra-0.7.0#7b7e357/src/java/org/apache/cassandra/io/sstable/IndexSummary.java,0,0,0,0,0,0,0,0,0,0,0,0,0,NO,0,0,0,0,0,0,0,0,0,0,0,0,0,0,0,0,0,0,0,0,0,0,0,0,0,0,0,0,0,0,0,0,0,0,0,0,0,0,0,0,0,0,0,0,0,0,0,0,0,108
cassandra,cassandra-0.7.0,cassandra-0.8.0,F:/corpus/cassandra/cassandra#2011-01-10-08-38-51#cassandra-0.7.0#7b7e357/src/java/org/apache/cassandra/io/sstable/ReducingKeyIterator.java,F:/corpus/cassandra/cassandra#2011-01-10-08-38-51#cassandra-0.7.0#7b7e357/src/java/org/apache/cassandra/io/sstable/ReducingKeyIterator.java,0,0,0,0,0,0,0,0,0,0,0,0,0,NO,0,0,0,0,0,0,0,0,0,0,0,0,0,0,0,0,0,0,0,0,0,0,0,0,0,0,0,0,0,0,0,0,0,0,0,0,0,0,0,0,0,0,0,0,0,0,0,0,0,111
cassandra,cassandra-0.7.0,cassandra-0.8.0,F:/corpus/cassandra/cassandra#2011-01-10-08-38-51#cassandra-0.7.0#7b7e357/src/java/org/apache/cassandra/io/util/BufferedSegmentedFile.java,F:/corpus/cassandra/cassandra#2011-01-10-08-38-51#cassandra-0.7.0#7b7e357/src/java/org/apache/cassandra/io/util/BufferedSegmentedFile.java,0,0,0,0,0,0,0,0,0,0,0,0,0,NO,0,0,0,0,0,0,0,0,0,0,0,0,0,0,0,0,0,0,0,0,0,0,0,0,0,0,0,0,0,0,0,0,0,0,0,0,0,0,0,0,0,0,0,0,0,0,0,0,0,71
cassandra,cassandra-0.7.0,cassandra-0.8.0,F:/corpus/cassandra/cassandra#2011-01-10-08-38-51#cassandra-0.7.0#7b7e357/src/java/org/apache/cassandra/io/util/DataOutputBuffer.java,F:/corpus/cassandra/cassandra#2011-01-10-08-38-51#cassandra-0.7.0#7b7e357/src/java/org/apache/cassandra/io/util/DataOutputBuffer.java,0,0,0,0,0,0,0,0,0,0,0,2,0,NO,0,0,0,0,0,0,0,0,0,0,0,0,0,0,0,0,0,0,0,0,0,0,0,0,0,0,0,0,0,0,0,0,0,0,0,0,0,0,0,0,0,0,0,0,0,0,0,0,0,75
cassandra,cassandra-0.7.0,cassandra-0.8.0,F:/corpus/cassandra/cassandra#2011-01-10-08-38-51#cassandra-0.7.0#7b7e357/src/java/org/apache/cassandra/io/util/FileMark.java,F:/corpus/cassandra/cassandra#2011-01-10-08-38-51#cassandra-0.7.0#7b7e357/src/java/org/apache/cassandra/io/util/FileMark.java,0,0,0,0,0,0,0,0,0,0,0,0,0,NO,0,0,0,0,0,0,0,0,0,0,0,0,0,0,0,0,0,0,0,0,0,0,0,0,0,0,0,0,0,0,0,0,0,0,0,0,0,0,0,0,0,0,0,0,0,0,0,0,0,23
cassandra,cassandra-0.7.0,cassandra-0.8.0,F:/corpus/cassandra/cassandra#2011-01-10-08-38-51#cassandra-0.7.0#7b7e357/src/java/org/apache/cassandra/io/util/IIterableColumns.java,F:/corpus/cassandra/cassandra#2011-01-10-08-38-51#cassandra-0.7.0#7b7e357/src/java/org/apache/cassandra/io/util/IIterableColumns.java,0,0,0,0,0,0,0,0,0,0,0,0,0,NO,0,0,0,0,0,0,0,0,0,0,0,0,0,0,0,0,0,0,0,0,0,0,0,0,0,0,0,0,0,0,0,0,0,0,0,0,0,0,0,0,0,0,0,0,0,0,0,0,0,32
cassandra,cassandra-0.7.0,cassandra-0.8.0,F:/corpus/cassandra/cassandra#2011-01-10-08-38-51#cassandra-0.7.0#7b7e357/src/java/org/apache/cassandra/io/util/OutputBuffer.java,F:/corpus/cassandra/cassandra#2011-01-10-08-38-51#cassandra-0.7.0#7b7e357/src/java/org/apache/cassandra/io/util/OutputBuffer.java,0,0,0,0,0,0,0,0,0,0,0,0,0,NO,0,0,0,0,0,0,0,0,0,0,0,0,0,0,0,0,0,0,0,0,0,0,0,0,0,0,0,0,0,0,0,0,0,0,0,0,0,0,0,0,0,0,0,0,0,0,0,0,0,74
cassandra,cassandra-0.7.0,cassandra-0.8.0,F:/corpus/cassandra/cassandra#2011-01-10-08-38-51#cassandra-0.7.0#7b7e357/src/java/org/apache/cassandra/locator/AbstractNetworkTopologySnitch.java,F:/corpus/cassandra/cassandra#2011-01-10-08-38-51#cassandra-0.7.0#7b7e357/src/java/org/apache/cassandra/locator/AbstractNetworkTopologySnitch.java,0,0,0,0,0,0,0,0,0,0,0,0,0,NO,0,0,0,0,0,0,0,0,0,0,0,0,0,0,0,0,0,0,0,0,0,0,0,0,0,0,0,0,0,0,0,0,0,0,0,0,0,0,0,0,0,0,0,0,0,0,0,0,0,105
cassandra,cassandra-0.7.0,cassandra-0.8.0,F:/corpus/cassandra/cassandra#2011-01-10-08-38-51#cassandra-0.7.0#7b7e357/src/java/org/apache/cassandra/locator/EndpointSnitchInfo.java,F:/corpus/cassandra/cassandra#2011-01-10-08-38-51#cassandra-0.7.0#7b7e357/src/java/org/apache/cassandra/locator/EndpointSnitchInfo.java,0,0,0,0,0,2,0,0,0,0,0,0,0,NO,0,0,0,0,0,0,0,0,0,0,0,0,0,0,0,0,0,0,0,0,0,0,0,0,0,0,0,0,0,0,0,0,0,0,0,0,0,0,0,0,0,0,0,0,0,0,0,0,0,56
cassandra,cassandra-0.7.0,cassandra-0.8.0,F:/corpus/cassandra/cassandra#2011-01-10-08-38-51#cassandra-0.7.0#7b7e357/src/java/org/apache/cassandra/locator/EndpointSnitchInfoMBean.java,F:/corpus/cassandra/cassandra#2011-01-10-08-38-51#cassandra-0.7.0#7b7e357/src/java/org/apache/cassandra/locator/EndpointSnitchInfoMBean.java,0,0,0,0,1,0,0,0,0,0,0,0,0,NO,0,0,0,0,0,0,0,0,0,0,0,0,0,0,0,0,0,0,0,0,0,0,0,0,0,0,0,0,0,0,0,0,0,0,0,0,0,0,0,0,0,0,0,0,0,0,0,0,0,42
cassandra,cassandra-0.7.0,cassandra-0.8.0,F:/corpus/cassandra/cassandra#2011-01-10-08-38-51#cassandra-0.7.0#7b7e357/src/java/org/apache/cassandra/locator/ILatencySubscriber.java,F:/corpus/cassandra/cassandra#2011-01-10-08-38-51#cassandra-0.7.0#7b7e357/src/java/org/apache/cassandra/locator/ILatencySubscriber.java,0,0,0,0,1,0,0,0,0,0,0,0,0,NO,0,0,0,0,0,0,0,0,0,0,0,0,0,0,0,0,0,0,0,0,0,0,0,0,0,0,0,0,0,0,0,0,0,0,0,0,0,0,0,0,0,0,0,0,0,0,0,0,0,26
cassandra,cassandra-0.7.0,cassandra-0.8.0,F:/corpus/cassandra/cassandra#2011-01-10-08-38-51#cassandra-0.7.0#7b7e357/src/java/org/apache/cassandra/locator/RackInferringSnitch.java,F:/corpus/cassandra/cassandra#2011-01-10-08-38-51#cassandra-0.7.0#7b7e357/src/java/org/apache/cassandra/locator/RackInferringSnitch.java,0,0,0,0,0,0,0,0,0,0,0,0,0,NO,0,0,0,0,0,0,0,0,0,0,0,0,0,0,0,0,0,0,0,0,0,0,0,0,0,0,0,0,0,0,0,0,0,0,0,0,0,0,0,0,0,0,0,0,0,0,0,0,0,38
cassandra,cassandra-0.7.0,cassandra-0.8.0,F:/corpus/cassandra/cassandra#2011-01-10-08-38-51#cassandra-0.7.0#7b7e357/src/java/org/apache/cassandra/net/CompactEndpointSerializationHelper.java,F:/corpus/cassandra/cassandra#2011-01-10-08-38-51#cassandra-0.7.0#7b7e357/src/java/org/apache/cassandra/net/CompactEndpointSerializationHelper.java,0,0,0,0,0,0,0,0,0,0,0,2,0,NO,0,0,0,0,0,0,0,0,0,0,0,0,0,0,0,0,0,0,0,0,0,0,0,0,0,0,0,0,0,0,0,0,0,0,0,0,0,0,0,0,0,0,0,0,0,0,0,0,0,41
cassandra,cassandra-0.7.0,cassandra-0.8.0,F:/corpus/cassandra/cassandra#2011-01-10-08-38-51#cassandra-0.7.0#7b7e357/src/java/org/apache/cassandra/net/HeaderTypes.java,F:/corpus/cassandra/cassandra#2011-01-10-08-38-51#cassandra-0.7.0#7b7e357/src/java/org/apache/cassandra/net/HeaderTypes.java,0,0,0,0,0,0,0,0,0,0,0,0,0,NO,0,0,0,0,0,0,0,0,0,0,0,0,0,0,0,0,0,0,0,0,0,0,0,0,0,0,0,0,0,0,0,0,0,0,0,0,0,0,0,0,0,0,0,0,0,0,0,0,0,25
cassandra,cassandra-0.7.0,cassandra-0.8.0,F:/corpus/cassandra/cassandra#2011-01-10-08-38-51#cassandra-0.7.0#7b7e357/src/java/org/apache/cassandra/net/IAsyncCallback.java,F:/corpus/cassandra/cassandra#2011-01-10-08-38-51#cassandra-0.7.0#7b7e357/src/java/org/apache/cassandra/net/IAsyncCallback.java,0,0,0,0,0,0,0,0,0,0,0,0,0,NO,0,0,0,0,0,0,0,0,0,0,0,0,0,0,0,0,0,0,0,0,0,0,0,0,0,0,0,0,0,0,0,0,0,0,0,0,0,0,0,0,0,0,0,0,0,0,0,0,0,33
cassandra,cassandra-0.7.0,cassandra-0.8.0,F:/corpus/cassandra/cassandra#2011-01-10-08-38-51#cassandra-0.7.0#7b7e357/src/java/org/apache/cassandra/net/IAsyncResult.java,F:/corpus/cassandra/cassandra#2011-01-10-08-38-51#cassandra-0.7.0#7b7e357/src/java/org/apache/cassandra/net/IAsyncResult.java,0,0,0,0,1,0,0,0,0,0,0,0,0,NO,0,0,0,0,0,0,0,0,0,0,0,0,0,0,0,0,0,0,0,0,0,0,0,0,0,0,0,0,0,0,0,0,0,0,0,0,0,0,0,0,0,0,0,0,0,0,0,0,0,43
cassandra,cassandra-0.7.0,cassandra-0.8.0,F:/corpus/cassandra/cassandra#2011-01-10-08-38-51#cassandra-0.7.0#7b7e357/src/java/org/apache/cassandra/net/io/SerializerType.java,F:/corpus/cassandra/cassandra#2011-01-10-08-38-51#cassandra-0.7.0#7b7e357/src/java/org/apache/cassandra/net/io/SerializerType.java,0,0,0,0,0,0,0,0,0,0,0,0,0,NO,0,0,0,0,0,0,0,0,0,0,0,0,0,0,0,0,0,0,0,0,0,0,0,0,0,0,0,0,0,0,0,0,0,0,0,0,0,0,0,0,0,0,0,0,0,0,0,0,0,27
cassandra,cassandra-0.7.0,cassandra-0.8.0,F:/corpus/cassandra/cassandra#2011-01-10-08-38-51#cassandra-0.7.0#7b7e357/src/java/org/apache/cassandra/net/MessagingServiceMBean.java,F:/corpus/cassandra/cassandra#2011-01-10-08-38-51#cassandra-0.7.0#7b7e357/src/java/org/apache/cassandra/net/MessagingServiceMBean.java,0,0,0,0,1,0,0,0,0,0,0,0,0,NO,0,0,0,0,0,0,0,0,0,0,0,0,0,0,0,0,0,0,0,0,0,0,0,0,0,0,0,0,0,0,0,0,0,0,0,0,0,0,0,0,0,0,0,0,0,0,0,0,0,52
cassandra,cassandra-0.7.0,cassandra-0.8.0,F:/corpus/cassandra/cassandra#2011-01-10-08-38-51#cassandra-0.7.0#7b7e357/src/java/org/apache/cassandra/net/OutboundTcpConnectionPool.java,F:/corpus/cassandra/cassandra#2011-01-10-08-38-51#cassandra-0.7.0#7b7e357/src/java/org/apache/cassandra/net/OutboundTcpConnectionPool.java,0,0,0,0,0,0,0,0,0,0,0,0,0,NO,0,0,0,0,0,0,0,0,0,0,0,0,0,0,0,0,0,0,0,0,0,0,0,0,0,0,0,0,0,0,0,0,0,0,0,0,0,0,0,0,0,0,0,0,0,0,0,0,0,55
cassandra,cassandra-0.7.0,cassandra-0.8.0,F:/corpus/cassandra/cassandra#2011-01-10-08-38-51#cassandra-0.7.0#7b7e357/src/java/org/apache/cassandra/net/ProtocolHeader.java,F:/corpus/cassandra/cassandra#2011-01-10-08-38-51#cassandra-0.7.0#7b7e357/src/java/org/apache/cassandra/net/ProtocolHeader.java,1,0,0,0,0,0,0,0,0,0,0,0,0,NO,0,0,0,0,0,0,0,0,0,0,0,0,0,0,0,0,0,0,0,0,0,0,0,0,0,0,0,0,0,0,0,0,0,0,0,0,0,0,0,0,0,0,0,0,0,0,0,0,0,31
cassandra,cassandra-0.7.0,cassandra-0.8.0,F:/corpus/cassandra/cassandra#2011-01-10-08-38-51#cassandra-0.7.0#7b7e357/src/java/org/apache/cassandra/scheduler/IRequestScheduler.java,F:/corpus/cassandra/cassandra#2011-01-10-08-38-51#cassandra-0.7.0#7b7e357/src/java/org/apache/cassandra/scheduler/IRequestScheduler.java,0,0,0,0,0,0,0,0,0,0,0,0,0,NO,0,0,0,0,0,0,0,0,0,0,0,0,0,0,0,0,0,0,0,0,0,0,0,0,0,0,0,0,0,0,0,0,0,0,0,0,0,0,0,0,0,0,0,0,0,0,0,0,0,41
cassandra,cassandra-0.7.0,cassandra-0.8.0,F:/corpus/cassandra/cassandra#2011-01-10-08-38-51#cassandra-0.7.0#7b7e357/src/java/org/apache/cassandra/scheduler/NoScheduler.java,F:/corpus/cassandra/cassandra#2011-01-10-08-38-51#cassandra-0.7.0#7b7e357/src/java/org/apache/cassandra/scheduler/NoScheduler.java,0,0,0,0,0,0,0,0,0,0,0,0,0,NO,0,0,0,0,0,0,0,0,0,0,0,0,0,0,0,0,0,0,0,0,0,0,0,0,0,0,0,0,0,0,0,0,0,0,0,0,0,0,0,0,0,0,0,0,0,0,0,0,0,40
cassandra,cassandra-0.7.0,cassandra-0.8.0,F:/corpus/cassandra/cassandra#2011-01-10-08-38-51#cassandra-0.7.0#7b7e357/src/java/org/apache/cassandra/scheduler/RoundRobinScheduler.java,F:/corpus/cassandra/cassandra#2011-01-10-08-38-51#cassandra-0.7.0#7b7e357/src/java/org/apache/cassandra/scheduler/RoundRobinScheduler.java,0,0,0,0,0,0,0,0,0,0,0,0,0,NO,0,0,0,0,0,0,0,0,0,0,0,0,0,0,0,0,0,0,0,0,0,0,0,0,0,0,0,0,0,0,0,0,0,0,0,0,0,0,0,0,0,0,0,0,0,0,0,0,0,161
cassandra,cassandra-0.7.0,cassandra-0.8.0,F:/corpus/cassandra/cassandra#2011-01-10-08-38-51#cassandra-0.7.0#7b7e357/src/java/org/apache/cassandra/streaming/StreamingServiceMBean.java,F:/corpus/cassandra/cassandra#2011-01-10-08-38-51#cassandra-0.7.0#7b7e357/src/java/org/apache/cassandra/streaming/StreamingServiceMBean.java,0,0,0,0,1,0,0,0,0,0,0,0,0,NO,0,0,0,0,0,0,0,0,0,0,0,0,0,0,0,0,0,0,0,0,0,0,0,0,0,0,0,0,0,0,0,0,0,0,0,0,0,0,0,0,0,0,0,0,0,0,0,0,0,42
cassandra,cassandra-0.7.0,cassandra-0.8.0,F:/corpus/cassandra/cassandra#2011-01-10-08-38-51#cassandra-0.7.0#7b7e357/src/java/org/apache/cassandra/thrift/TCustomServerSocket.java,F:/corpus/cassandra/cassandra#2011-01-10-08-38-51#cassandra-0.7.0#7b7e357/src/java/org/apache/cassandra/thrift/TCustomServerSocket.java,0,0,0,0,0,0,0,0,0,0,0,0,0,NO,0,0,0,0,0,0,0,0,0,0,0,0,0,0,0,0,0,0,0,0,0,0,0,0,0,0,0,0,0,0,0,0,0,0,0,0,0,0,0,0,0,0,0,0,0,0,0,0,0,106
cassandra,cassandra-0.7.0,cassandra-0.8.0,F:/corpus/cassandra/cassandra#2011-01-10-08-38-51#cassandra-0.7.0#7b7e357/src/java/org/apache/cassandra/utils/AbstractStatsDeque.java,F:/corpus/cassandra/cassandra#2011-01-10-08-38-51#cassandra-0.7.0#7b7e357/src/java/org/apache/cassandra/utils/AbstractStatsDeque.java,0,0,0,0,0,0,0,0,0,0,0,0,0,NO,0,0,0,0,0,0,0,0,0,0,0,0,0,0,0,0,0,0,0,0,0,0,0,0,0,0,0,0,0,0,0,0,0,0,0,0,0,0,0,0,0,0,0,0,0,0,0,0,0,72
cassandra,cassandra-0.7.0,cassandra-0.8.0,F:/corpus/cassandra/cassandra#2011-01-10-08-38-51#cassandra-0.7.0#7b7e357/src/java/org/apache/cassandra/utils/BoundedStatsDeque.java,F:/corpus/cassandra/cassandra#2011-01-10-08-38-51#cassandra-0.7.0#7b7e357/src/java/org/apache/cassandra/utils/BoundedStatsDeque.java,0,0,0,0,0,0,0,0,0,0,0,0,0,NO,0,0,0,0,0,0,0,0,0,0,0,0,0,0,0,0,0,0,0,0,0,0,0,0,0,0,0,0,0,0,0,0,0,0,0,0,0,0,0,0,0,0,0,0,0,0,0,0,0,61
cassandra,cassandra-0.7.0,cassandra-0.8.0,F:/corpus/cassandra/cassandra#2011-01-10-08-38-51#cassandra-0.7.0#7b7e357/src/java/org/apache/cassandra/utils/CloseableIterator.java,F:/corpus/cassandra/cassandra#2011-01-10-08-38-51#cassandra-0.7.0#7b7e357/src/java/org/apache/cassandra/utils/CloseableIterator.java,0,0,0,0,1,0,0,0,0,0,0,0,0,NO,0,0,0,0,0,0,0,0,0,0,0,0,0,0,0,0,0,0,0,0,0,0,0,0,0,0,0,0,0,0,0,0,0,0,0,0,0,0,0,0,0,0,0,0,0,0,0,0,0,30
cassandra,cassandra-0.7.0,cassandra-0.8.0,F:/corpus/cassandra/cassandra#2011-01-10-08-38-51#cassandra-0.7.0#7b7e357/src/java/org/apache/cassandra/utils/DefaultDouble.java,F:/corpus/cassandra/cassandra#2011-01-10-08-38-51#cassandra-0.7.0#7b7e357/src/java/org/apache/cassandra/utils/DefaultDouble.java,0,0,0,0,0,0,0,0,0,0,0,0,0,NO,0,0,0,0,0,0,0,0,0,0,0,0,0,0,0,0,0,0,0,0,0,0,0,0,0,0,0,0,0,0,0,0,0,0,0,0,0,0,0,0,0,0,0,0,0,0,0,0,0,47
cassandra,cassandra-0.7.0,cassandra-0.8.0,F:/corpus/cassandra/cassandra#2011-01-10-08-38-51#cassandra-0.7.0#7b7e357/src/java/org/apache/cassandra/utils/DefaultInteger.java,F:/corpus/cassandra/cassandra#2011-01-10-08-38-51#cassandra-0.7.0#7b7e357/src/java/org/apache/cassandra/utils/DefaultInteger.java,0,0,0,0,0,0,0,0,0,0,0,0,0,NO,0,0,0,0,0,0,0,0,0,0,0,0,0,0,0,0,0,0,0,0,0,0,0,0,0,0,0,0,0,0,0,0,0,0,0,0,0,0,0,0,0,0,0,0,0,0,0,0,0,47
cassandra,cassandra-0.7.0,cassandra-0.8.0,F:/corpus/cassandra/cassandra#2011-01-10-08-38-51#cassandra-0.7.0#7b7e357/src/java/org/apache/cassandra/utils/DestructivePQIterator.java,F:/corpus/cassandra/cassandra#2011-01-10-08-38-51#cassandra-0.7.0#7b7e357/src/java/org/apache/cassandra/utils/DestructivePQIterator.java,0,0,0,0,0,0,0,0,0,0,0,0,0,NO,0,0,0,0,0,0,0,0,0,0,0,0,0,0,0,0,0,0,0,0,0,0,0,0,0,0,0,0,0,0,0,0,0,0,0,0,0,0,0,0,0,0,0,0,0,0,0,0,0,43
cassandra,cassandra-0.7.0,cassandra-0.8.0,F:/corpus/cassandra/cassandra#2011-01-10-08-38-51#cassandra-0.7.0#7b7e357/src/java/org/apache/cassandra/utils/Mx4jTool.java,F:/corpus/cassandra/cassandra#2011-01-10-08-38-51#cassandra-0.7.0#7b7e357/src/java/org/apache/cassandra/utils/Mx4jTool.java,0,0,0,0,0,0,0,0,0,0,0,0,0,NO,0,0,0,0,0,0,0,0,0,0,0,0,0,0,0,0,0,0,0,0,0,0,0,0,0,0,0,0,0,0,0,0,0,0,0,0,0,0,0,0,0,0,0,0,0,0,0,0,0,96
cassandra,cassandra-0.7.0,cassandra-0.8.0,F:/corpus/cassandra/cassandra#2011-01-10-08-38-51#cassandra-0.7.0#7b7e357/src/java/org/apache/cassandra/utils/Pair.java,F:/corpus/cassandra/cassandra#2011-01-10-08-38-51#cassandra-0.7.0#7b7e357/src/java/org/apache/cassandra/utils/Pair.java,0,0,0,0,0,0,0,0,0,0,0,0,0,NO,0,0,0,0,0,0,0,0,0,0,0,0,0,0,0,0,0,0,0,0,0,0,0,0,0,0,0,0,0,0,0,0,0,0,0,0,0,0,0,0,0,0,0,0,0,0,0,0,0,61
cassandra,cassandra-0.7.0,cassandra-0.8.0,F:/corpus/cassandra/cassandra#2011-01-10-08-38-51#cassandra-0.7.0#7b7e357/src/java/org/apache/cassandra/utils/ResourceWatcher.java,F:/corpus/cassandra/cassandra#2011-01-10-08-38-51#cassandra-0.7.0#7b7e357/src/java/org/apache/cassandra/utils/ResourceWatcher.java,0,0,0,0,0,0,0,0,0,0,0,0,0,NO,0,0,0,0,0,0,0,0,0,0,0,0,0,0,0,0,0,0,0,0,0,0,0,0,0,0,0,0,0,0,0,0,0,0,0,0,0,0,0,0,0,0,0,0,0,0,0,0,0,71
cassandra,cassandra-0.7.0,cassandra-0.8.0,F:/corpus/cassandra/cassandra#2011-01-10-08-38-51#cassandra-0.7.0#7b7e357/src/java/org/apache/cassandra/utils/SimpleCondition.java,F:/corpus/cassandra/cassandra#2011-01-10-08-38-51#cassandra-0.7.0#7b7e357/src/java/org/apache/cassandra/utils/SimpleCondition.java,0,0,0,0,2,0,0,0,0,0,0,1,0,NO,0,0,0,0,0,0,0,0,0,0,0,0,0,0,0,0,0,0,0,0,0,0,0,0,0,0,0,0,0,0,0,0,0,0,0,0,0,0,0,0,0,0,0,0,0,0,0,0,0,90
cassandra,cassandra-0.7.0,cassandra-0.8.0,F:/corpus/cassandra/cassandra#2011-01-10-08-38-51#cassandra-0.7.0#7b7e357/src/java/org/apache/cassandra/utils/SkipNullRepresenter.java,F:/corpus/cassandra/cassandra#2011-01-10-08-38-51#cassandra-0.7.0#7b7e357/src/java/org/apache/cassandra/utils/SkipNullRepresenter.java,0,0,0,0,0,0,0,0,0,0,0,0,0,NO,0,0,0,0,0,0,0,0,0,0,0,0,0,0,0,0,0,0,0,0,0,0,0,0,0,0,0,0,0,0,0,0,0,0,0,0,0,0,0,0,0,0,0,0,0,0,0,0,0,41
cassandra,cassandra-0.7.0,cassandra-0.8.0,F:/corpus/cassandra/cassandra#2011-01-10-08-38-51#cassandra-0.7.0#7b7e357/src/java/org/apache/cassandra/utils/WrappedRunnable.java,F:/corpus/cassandra/cassandra#2011-01-10-08-38-51#cassandra-0.7.0#7b7e357/src/java/org/apache/cassandra/utils/WrappedRunnable.java,0,0,0,0,0,0,0,0,0,0,0,0,0,NO,0,0,0,0,0,0,0,0,0,0,0,0,0,0,0,0,0,0,0,0,0,0,0,0,0,0,0,0,0,0,0,0,0,0,0,0,0,0,0,0,0,0,0,0,0,0,0,0,0,39
cassandra,cassandra-0.7.0,cassandra-0.8.0,F:/corpus/cassandra/cassandra#2011-01-10-08-38-51#cassandra-0.7.0#7b7e357/src/java/org/apache/cassandra/utils/XMLUtils.java,F:/corpus/cassandra/cassandra#2011-01-10-08-38-51#cassandra-0.7.0#7b7e357/src/java/org/apache/cassandra/utils/XMLUtils.java,0,0,0,0,0,1,0,0,0,0,0,0,0,NO,0,0,0,0,0,0,0,0,0,0,0,0,0,0,0,0,0,0,0,0,0,0,0,0,0,0,0,0,0,0,0,0,0,0,0,0,0,0,0,0,0,0,0,0,0,0,0,0,0,90
